{
"type": "FeatureCollection",
"name": "dep03.geojson",
"crs": { "type": "name", "properties": { "name": "urn:ogc:def:crs:OGC:1.3:CRS84" } },
"xy_coordinate_resolution": 1e-05,
"features": [
{ "type": "Feature", "properties": { "name": "Lac des Moines", "category": "Reservoir", "area_ha": 5.4, "altitude_m": null }, "geometry": { "type": "Point", "coordinates": [ 3.67061, 46.06145 ] } },
{ "type": "Feature", "properties": { "name": "Étang de Goule", "category": "Reservoir", "area_ha": 77.4, "altitude_m": null }, "geometry": { "type": "Point", "coordinates": [ 2.80188, 46.7273 ] } },
{ "type": "Feature", "properties": { "name": "Épinoux", "category": "Reservoir", "area_ha": 8.2, "altitude_m": null }, "geometry": { "type": "Point", "coordinates": [ 2.89459, 46.57459 ] } },
{ "type": "Feature", "properties": { "name": "Unnamed", "category": "Reservoir", "area_ha": 5.3, "altitude_m": null }, "geometry": { "type": "Point", "coordinates": [ 3.39506, 46.51807 ] } },
{ "type": "Feature", "properties": { "name": "Unnamed", "category": "Reservoir", "area_ha": 6.3, "altitude_m": null }, "geometry": { "type": "Point", "coordinates": [ 3.18139, 46.59514 ] } },
{ "type": "Feature", "properties": { "name": "Unnamed", "category": "Reservoir", "area_ha": 7.8, "altitude_m": null }, "geometry": { "type": "Point", "coordinates": [ 2.60821, 46.47807 ] } },
{ "type": "Feature", "properties": { "name": "Unnamed", "category": "Reservoir", "area_ha": 5.7, "altitude_m": null }, "geometry": { "type": "Point", "coordinates": [ 2.71723, 46.70674 ] } },
{ "type": "Feature", "properties": { "name": "Unnamed", "category": "Reservoir", "area_ha": 6.0, "altitude_m": null }, "geometry": { "type": "Point", "coordinates": [ 3.52716, 46.52662 ] } },
{ "type": "Feature", "properties": { "name": "Étang de Saint-Bonnet", "category": "Reservoir", "area_ha": 34.8, "altitude_m": null }, "geometry": { "type": "Point", "coordinates": [ 2.6915, 46.65012 ] } },
{ "type": "Feature", "properties": { "name": "Plan d'Eau Jalicot", "category": "Reservoir", "area_ha": 8.7, "altitude_m": null }, "geometry": { "type": "Point", "coordinates": [ 3.41943, 46.20991 ] } },
{ "type": "Feature", "properties": { "name": "Unnamed", "category": "Reservoir", "area_ha": 5.5, "altitude_m": null }, "geometry": { "type": "Point", "coordinates": [ 3.41262, 46.18683 ] } },
{ "type": "Feature", "properties": { "name": "Unnamed", "category": "Reservoir", "area_ha": 5.4, "altitude_m": null }, "geometry": { "type": "Point", "coordinates": [ 2.66316, 46.65988 ] } },
{ "type": "Feature", "properties": { "name": "Unnamed", "category": "Reservoir", "area_ha": 6.8, "altitude_m": null }, "geometry": { "type": "Point", "coordinates": [ 2.60352, 46.4449 ] } },
{ "type": "Feature", "properties": { "name": "Étang de Rivalais", "category": "Reservoir", "area_ha": 16.3, "altitude_m": null }, "geometry": { "type": "Point", "coordinates": [ 2.92643, 46.25434 ] } },
{ "type": "Feature", "properties": { "name": "Étang de Billot", "category": "Dam", "area_ha": 25.0, "altitude_m": null }, "geometry": { "type": "Point", "coordinates": [ 2.94873, 46.69889 ] } },
{ "type": "Feature", "properties": { "name": "Unnamed", "category": "Reservoir", "area_ha": 5.5, "altitude_m": null }, "geometry": { "type": "Point", "coordinates": [ 2.59412, 46.38713 ] } },
{ "type": "Feature", "properties": { "name": "Unnamed", "category": "Reservoir", "area_ha": 6.0, "altitude_m": null }, "geometry": { "type": "Point", "coordinates": [ 2.76192, 46.2771 ] } },
{ "type": "Feature", "properties": { "name": "Unnamed", "category": "Reservoir", "area_ha": 6.1, "altitude_m": null }, "geometry": { "type": "Point", "coordinates": [ 3.2548, 46.57282 ] } },
{ "type": "Feature", "properties": { "name": "Étang du Pont Rouge", "category": "Reservoir", "area_ha": 5.2, "altitude_m": null }, "geometry": { "type": "Point", "coordinates": [ 3.45438, 46.3673 ] } },
{ "type": "Feature", "properties": { "name": "Unnamed", "category": "Reservoir", "area_ha": 5.2, "altitude_m": null }, "geometry": { "type": "Point", "coordinates": [ 3.15382, 46.50703 ] } },
{ "type": "Feature", "properties": { "name": "Unnamed", "category": "Reservoir", "area_ha": 8.2, "altitude_m": null }, "geometry": { "type": "Point", "coordinates": [ 2.95429, 46.20391 ] } },
{ "type": "Feature", "properties": { "name": "Étang de Pirot", "category": "Dam", "area_ha": 55.3, "altitude_m": null }, "geometry": { "type": "Point", "coordinates": [ 2.79391, 46.67251 ] } },
{ "type": "Feature", "properties": { "name": "Unnamed", "category": "Reservoir", "area_ha": 6.5, "altitude_m": null }, "geometry": { "type": "Point", "coordinates": [ 2.76138, 46.28116 ] } },
{ "type": "Feature", "properties": { "name": "Unnamed", "category": "Reservoir", "area_ha": 5.2, "altitude_m": null }, "geometry": { "type": "Point", "coordinates": [ 2.60551, 46.42104 ] } },
{ "type": "Feature", "properties": { "name": "Étang de Gouzolles", "category": "Reservoir", "area_ha": 8.3, "altitude_m": null }, "geometry": { "type": "Point", "coordinates": [ 3.28278, 46.28501 ] } },
{ "type": "Feature", "properties": { "name": "Unnamed", "category": "Reservoir", "area_ha": 29.6, "altitude_m": null }, "geometry": { "type": "Point", "coordinates": [ 2.91086, 46.50283 ] } },
{ "type": "Feature", "properties": { "name": "Unnamed", "category": "Reservoir", "area_ha": 5.6, "altitude_m": null }, "geometry": { "type": "Point", "coordinates": [ 3.5805, 46.41595 ] } },
{ "type": "Feature", "properties": { "name": "Unnamed", "category": "Reservoir", "area_ha": 9.1, "altitude_m": null }, "geometry": { "type": "Point", "coordinates": [ 2.6047, 46.4583 ] } },
{ "type": "Feature", "properties": { "name": "Grand Étang", "category": "Reservoir", "area_ha": 17.1, "altitude_m": null }, "geometry": { "type": "Point", "coordinates": [ 2.36557, 46.35666 ] } },
{ "type": "Feature", "properties": { "name": "Étang de Beausson", "category": "Reservoir", "area_ha": 11.8, "altitude_m": null }, "geometry": { "type": "Point", "coordinates": [ 2.59541, 46.20917 ] } },
{ "type": "Feature", "properties": { "name": "Étang Communal du Moulin", "category": "Reservoir", "area_ha": 7.9, "altitude_m": null }, "geometry": { "type": "Point", "coordinates": [ 3.39757, 46.3829 ] } },
{ "type": "Feature", "properties": { "name": "Étang de Tronçais", "category": "Reservoir", "area_ha": 11.7, "altitude_m": null }, "geometry": { "type": "Point", "coordinates": [ 2.71905, 46.63782 ] } },
{ "type": "Feature", "properties": { "name": "Étang de la Piste", "category": "Reservoir", "area_ha": 8.2, "altitude_m": null }, "geometry": { "type": "Point", "coordinates": [ 3.61492, 46.66495 ] } },
{ "type": "Feature", "properties": { "name": "Unnamed", "category": "Reservoir", "area_ha": 6.2, "altitude_m": null }, "geometry": { "type": "Point", "coordinates": [ 3.82813, 46.35621 ] } },
{ "type": "Feature", "properties": { "name": "Unnamed", "category": "Reservoir", "area_ha": 9.1, "altitude_m": null }, "geometry": { "type": "Point", "coordinates": [ 3.32847, 46.54807 ] } },
{ "type": "Feature", "properties": { "name": "Unnamed", "category": "Reservoir", "area_ha": 8.2, "altitude_m": null }, "geometry": { "type": "Point", "coordinates": [ 2.60047, 46.44559 ] } },
{ "type": "Feature", "properties": { "name": "Puy Guillon", "category": "Reservoir", "area_ha": 6.1, "altitude_m": null }, "geometry": { "type": "Point", "coordinates": [ 2.96639, 46.26579 ] } },
{ "type": "Feature", "properties": { "name": "Bernardins", "category": "Reservoir", "area_ha": 6.7, "altitude_m": null }, "geometry": { "type": "Point", "coordinates": [ 3.08334, 46.5555 ] } },
{ "type": "Feature", "properties": { "name": "Étang des Bizets", "category": "Reservoir", "area_ha": 5.7, "altitude_m": null }, "geometry": { "type": "Point", "coordinates": [ 3.55489, 46.53964 ] } },
{ "type": "Feature", "properties": { "name": "Étang de Chalonnière", "category": "Reservoir", "area_ha": 8.8, "altitude_m": null }, "geometry": { "type": "Point", "coordinates": [ 2.98321, 46.50843 ] } },
{ "type": "Feature", "properties": { "name": "Étang de Renière", "category": "Reservoir", "area_ha": 5.8, "altitude_m": null }, "geometry": { "type": "Point", "coordinates": [ 2.95652, 46.4964 ] } },
{ "type": "Feature", "properties": { "name": "Étang du Charnay", "category": "Reservoir", "area_ha": 6.2, "altitude_m": null }, "geometry": { "type": "Point", "coordinates": [ 3.59129, 46.42723 ] } },
{ "type": "Feature", "properties": { "name": "Unnamed", "category": "Reservoir", "area_ha": 10.8, "altitude_m": null }, "geometry": { "type": "Point", "coordinates": [ 3.41831, 46.25444 ] } },
{ "type": "Feature", "properties": { "name": "Étang du Pont Rouge", "category": "Reservoir", "area_ha": 8.3, "altitude_m": null }, "geometry": { "type": "Point", "coordinates": [ 3.44864, 46.36496 ] } },
{ "type": "Feature", "properties": { "name": "Unnamed", "category": "Reservoir", "area_ha": 5.1, "altitude_m": null }, "geometry": { "type": "Point", "coordinates": [ 3.45361, 46.57726 ] } },
{ "type": "Feature", "properties": { "name": "l'Épine", "category": "Reservoir", "area_ha": 5.4, "altitude_m": null }, "geometry": { "type": "Point", "coordinates": [ 3.15973, 46.64621 ] } },
{ "type": "Feature", "properties": { "name": "Unnamed", "category": "Reservoir", "area_ha": 7.2, "altitude_m": null }, "geometry": { "type": "Point", "coordinates": [ 3.43384, 46.57384 ] } },
{ "type": "Feature", "properties": { "name": "Unnamed", "category": "Reservoir", "area_ha": 7.1, "altitude_m": null }, "geometry": { "type": "Point", "coordinates": [ 3.36969, 46.39297 ] } },
{ "type": "Feature", "properties": { "name": "Étangs de Bord", "category": "Reservoir", "area_ha": 26.7, "altitude_m": null }, "geometry": { "type": "Point", "coordinates": [ 2.96257, 46.78587 ] } },
{ "type": "Feature", "properties": { "name": "Unnamed", "category": "Reservoir", "area_ha": 5.2, "altitude_m": null }, "geometry": { "type": "Point", "coordinates": [ 2.60161, 46.47635 ] } },
{ "type": "Feature", "properties": { "name": "Unnamed", "category": "Reservoir", "area_ha": 8.0, "altitude_m": null }, "geometry": { "type": "Point", "coordinates": [ 3.6438, 46.55823 ] } },
{ "type": "Feature", "properties": { "name": "Unnamed", "category": "Reservoir", "area_ha": 14.5, "altitude_m": null }, "geometry": { "type": "Point", "coordinates": [ 2.62158, 46.51275 ] } },
{ "type": "Feature", "properties": { "name": "Étang de Bartillat", "category": "Reservoir", "area_ha": 6.8, "altitude_m": null }, "geometry": { "type": "Point", "coordinates": [ 2.44415, 46.32136 ] } },
{ "type": "Feature", "properties": { "name": "Unnamed", "category": "Reservoir", "area_ha": 5.5, "altitude_m": null }, "geometry": { "type": "Point", "coordinates": [ 2.60002, 46.45166 ] } },
{ "type": "Feature", "properties": { "name": "Unnamed", "category": "Reservoir", "area_ha": 5.2, "altitude_m": null }, "geometry": { "type": "Point", "coordinates": [ 3.61632, 46.67782 ] } },
{ "type": "Feature", "properties": { "name": "Unnamed", "category": "Reservoir", "area_ha": 5.4, "altitude_m": null }, "geometry": { "type": "Point", "coordinates": [ 3.85917, 46.464 ] } },
{ "type": "Feature", "properties": { "name": "Unnamed", "category": "Reservoir", "area_ha": 14.8, "altitude_m": null }, "geometry": { "type": "Point", "coordinates": [ 3.35509, 46.32586 ] } },
{ "type": "Feature", "properties": { "name": "Unnamed", "category": "Reservoir", "area_ha": 5.7, "altitude_m": null }, "geometry": { "type": "Point", "coordinates": [ 2.90867, 46.77829 ] } },
{ "type": "Feature", "properties": { "name": "Unnamed", "category": "Reservoir", "area_ha": 21.8, "altitude_m": null }, "geometry": { "type": "Point", "coordinates": [ 3.61744, 46.59521 ] } },
{ "type": "Feature", "properties": { "name": "Étang des Joncs", "category": "Reservoir", "area_ha": 16.8, "altitude_m": null }, "geometry": { "type": "Point", "coordinates": [ 3.08676, 46.72241 ] } },
{ "type": "Feature", "properties": { "name": "Moulin de Verne", "category": "Reservoir", "area_ha": 10.4, "altitude_m": null }, "geometry": { "type": "Point", "coordinates": [ 2.98181, 46.51588 ] } },
{ "type": "Feature", "properties": { "name": "Unnamed", "category": "Reservoir", "area_ha": 9.0, "altitude_m": null }, "geometry": { "type": "Point", "coordinates": [ 3.49644, 46.60974 ] } },
{ "type": "Feature", "properties": { "name": "Étang de Saloup", "category": "Reservoir", "area_ha": 9.9, "altitude_m": null }, "geometry": { "type": "Point", "coordinates": [ 2.72322, 46.61604 ] } },
{ "type": "Feature", "properties": { "name": "Étang des Vesvres", "category": "Reservoir", "area_ha": 8.7, "altitude_m": null }, "geometry": { "type": "Point", "coordinates": [ 3.08241, 46.58433 ] } },
{ "type": "Feature", "properties": { "name": "Unnamed", "category": "Reservoir", "area_ha": 5.1, "altitude_m": null }, "geometry": { "type": "Point", "coordinates": [ 3.5377, 46.55515 ] } },
{ "type": "Feature", "properties": { "name": "Unnamed", "category": "Reservoir", "area_ha": 5.4, "altitude_m": null }, "geometry": { "type": "Point", "coordinates": [ 3.63936, 46.40085 ] } },
{ "type": "Feature", "properties": { "name": "Étang de la Robelle", "category": "Reservoir", "area_ha": 5.7, "altitude_m": null }, "geometry": { "type": "Point", "coordinates": [ 3.50608, 46.66236 ] } },
{ "type": "Feature", "properties": { "name": "Étang de Morat", "category": "Reservoir", "area_ha": 9.4, "altitude_m": null }, "geometry": { "type": "Point", "coordinates": [ 2.70323, 46.65629 ] } },
{ "type": "Feature", "properties": { "name": "Étang de la Fin", "category": "Reservoir", "area_ha": 5.1, "altitude_m": null }, "geometry": { "type": "Point", "coordinates": [ 3.58429, 46.57041 ] } },
{ "type": "Feature", "properties": { "name": "Étang de Mont", "category": "Reservoir", "area_ha": 18.2, "altitude_m": null }, "geometry": { "type": "Point", "coordinates": [ 3.64908, 46.59234 ] } },
{ "type": "Feature", "properties": { "name": "le Grand Étang", "category": "Reservoir", "area_ha": 5.8, "altitude_m": null }, "geometry": { "type": "Point", "coordinates": [ 2.73843, 46.48501 ] } },
{ "type": "Feature", "properties": { "name": "Étang du Soleil", "category": "Reservoir", "area_ha": 8.2, "altitude_m": null }, "geometry": { "type": "Point", "coordinates": [ 2.52297, 46.44612 ] } },
{ "type": "Feature", "properties": { "name": "Étang de Lombost", "category": "Reservoir", "area_ha": 5.4, "altitude_m": null }, "geometry": { "type": "Point", "coordinates": [ 2.39451, 46.38391 ] } },
{ "type": "Feature", "properties": { "name": "Étang de la Racherie", "category": "Reservoir", "area_ha": 11.2, "altitude_m": null }, "geometry": { "type": "Point", "coordinates": [ 3.43889, 46.36184 ] } },
{ "type": "Feature", "properties": { "name": "Étang de Sault", "category": "Reservoir", "area_ha": 21.6, "altitude_m": null }, "geometry": { "type": "Point", "coordinates": [ 2.55874, 46.33097 ] } },
{ "type": "Feature", "properties": { "name": "Étang de la Brosse", "category": "Reservoir", "area_ha": 9.0, "altitude_m": null }, "geometry": { "type": "Point", "coordinates": [ 2.89879, 46.31591 ] } },
{ "type": "Feature", "properties": { "name": "Unnamed", "category": "Reservoir", "area_ha": 6.1, "altitude_m": null }, "geometry": { "type": "Point", "coordinates": [ 3.6444, 46.49534 ] } },
{ "type": "Feature", "properties": { "name": "Étang Notre-Dame", "category": "Reservoir", "area_ha": 7.2, "altitude_m": null }, "geometry": { "type": "Point", "coordinates": [ 3.59957, 46.64224 ] } },
{ "type": "Feature", "properties": { "name": "Unnamed", "category": "Reservoir", "area_ha": 5.0, "altitude_m": null }, "geometry": { "type": "Point", "coordinates": [ 3.64969, 46.51075 ] } },
{ "type": "Feature", "properties": { "name": "Unnamed", "category": "Reservoir", "area_ha": 5.8, "altitude_m": null }, "geometry": { "type": "Point", "coordinates": [ 3.54077, 46.52498 ] } },
{ "type": "Feature", "properties": { "name": "Unnamed", "category": "Reservoir", "area_ha": 5.8, "altitude_m": null }, "geometry": { "type": "Point", "coordinates": [ 3.26805, 46.63532 ] } },
{ "type": "Feature", "properties": { "name": "Étang de Bourbon-l'Archambault", "category": "Reservoir", "area_ha": 22.6, "altitude_m": null }, "geometry": { "type": "Point", "coordinates": [ 3.05303, 46.59399 ] } },
{ "type": "Feature", "properties": { "name": "Unnamed", "category": "Reservoir", "area_ha": 10.1, "altitude_m": null }, "geometry": { "type": "Point", "coordinates": [ 3.08194, 46.50835 ] } },
{ "type": "Feature", "properties": { "name": "Unnamed", "category": "Reservoir", "area_ha": 10.3, "altitude_m": null }, "geometry": { "type": "Point", "coordinates": [ 3.43404, 46.10431 ] } },
{ "type": "Feature", "properties": { "name": "Unnamed", "category": "Reservoir", "area_ha": 13.5, "altitude_m": null }, "geometry": { "type": "Point", "coordinates": [ 3.47179, 46.03118 ] } },
{ "type": "Feature", "properties": { "name": "Lac d'Allier", "category": "Reservoir", "area_ha": 72.0, "altitude_m": null }, "geometry": { "type": "Point", "coordinates": [ 3.41375, 46.12919 ] } },
{ "type": "Feature", "properties": { "name": "Étang de Montmurier", "category": "Dam", "area_ha": 4.1, "altitude_m": null }, "geometry": { "type": "Point", "coordinates": [ 2.64984, 46.28904 ] } },
{ "type": "Feature", "properties": { "name": "Barrage de Prat", "category": "Dam", "area_ha": 12.1, "altitude_m": null }, "geometry": { "type": "Point", "coordinates": [ 2.54719, 46.25267 ] } },
{ "type": "Feature", "properties": { "name": "Étang de la Ganne", "category": "Dam", "area_ha": 14.1, "altitude_m": null }, "geometry": { "type": "Point", "coordinates": [ 2.71755, 46.24344 ] } },
{ "type": "Feature", "properties": { "name": "Étang de Bazergues", "category": "Dam", "area_ha": 12.6, "altitude_m": null }, "geometry": { "type": "Point", "coordinates": [ 2.75425, 46.25368 ] } },
{ "type": "Feature", "properties": { "name": "Unnamed", "category": "Dam", "area_ha": 7.4, "altitude_m": null }, "geometry": { "type": "Point", "coordinates": [ 2.9554, 46.77611 ] } },
{ "type": "Feature", "properties": { "name": "Étang Billard", "category": "Dam", "area_ha": 6.6, "altitude_m": null }, "geometry": { "type": "Point", "coordinates": [ 3.60794, 46.52773 ] } },
{ "type": "Feature", "properties": { "name": "Étang de Beauregard", "category": "Dam", "area_ha": 9.2, "altitude_m": null }, "geometry": { "type": "Point", "coordinates": [ 3.07455, 46.73154 ] } },
{ "type": "Feature", "properties": { "name": "Étang Neuf", "category": "Dam", "area_ha": 6.9, "altitude_m": null }, "geometry": { "type": "Point", "coordinates": [ 2.97747, 46.77285 ] } },
{ "type": "Feature", "properties": { "name": "Étang des Bruyères", "category": "Dam", "area_ha": 9.5, "altitude_m": null }, "geometry": { "type": "Point", "coordinates": [ 2.94696, 46.68977 ] } },
{ "type": "Feature", "properties": { "name": "Petit Barrage", "category": "Dam", "area_ha": 1.8, "altitude_m": null }, "geometry": { "type": "Point", "coordinates": [ 3.6798, 46.12929 ] } },
{ "type": "Feature", "properties": { "name": "Unnamed", "category": "Dam", "area_ha": 1.3, "altitude_m": null }, "geometry": { "type": "Point", "coordinates": [ 3.1326, 46.47134 ] } },
{ "type": "Feature", "properties": { "name": "Unnamed", "category": "Dam", "area_ha": 19.1, "altitude_m": null }, "geometry": { "type": "Point", "coordinates": [ 3.69432, 46.08121 ] } }
]
}
