{
"type": "FeatureCollection",
"name": "dep02.geojson",
"crs": { "type": "name", "properties": { "name": "urn:ogc:def:crs:OGC:1.3:CRS84" } },
"xy_coordinate_resolution": 1e-05,
"features": [
{ "type": "Feature", "properties": { "name": "Plan d'Eau 1 de la Commune de Macquigny", "category": "Reservoir", "area_ha": 5.0, "altitude_m": null }, "geometry": { "type": "Point", "coordinates": [ 3.54972, 49.8918 ] } },
{ "type": "Feature", "properties": { "name": "les Étangs du Fond Planet", "category": "Reservoir", "area_ha": 5.9, "altitude_m": null }, "geometry": { "type": "Point", "coordinates": [ 3.94281, 49.76975 ] } },
{ "type": "Feature", "properties": { "name": "Étang de Neuve Forge", "category": "Reservoir", "area_ha": 8.9, "altitude_m": null }, "geometry": { "type": "Point", "coordinates": [ 4.12422, 49.97488 ] } },
{ "type": "Feature", "properties": { "name": "Bassins de Décantation 5 de la Fontaine Bouillante", "category": "Reservoir", "area_ha": 19.7, "altitude_m": null }, "geometry": { "type": "Point", "coordinates": [ 3.22209, 49.39601 ] } },
{ "type": "Feature", "properties": { "name": "Bassins de Décantation 1 de la Fontaine Bouillante", "category": "Reservoir", "area_ha": 15.9, "altitude_m": null }, "geometry": { "type": "Point", "coordinates": [ 3.23163, 49.39187 ] } },
{ "type": "Feature", "properties": { "name": "Plan d'Eau de la Hayette", "category": "Reservoir", "area_ha": 13.3, "altitude_m": null }, "geometry": { "type": "Point", "coordinates": [ 3.25505, 49.38967 ] } },
{ "type": "Feature", "properties": { "name": "Plan d'Eau du Domaine de la Salamandre", "category": "Reservoir", "area_ha": 10.0, "altitude_m": null }, "geometry": { "type": "Point", "coordinates": [ 3.30165, 49.16276 ] } },
{ "type": "Feature", "properties": { "name": "Sablière 2 du Vieux Tordoir", "category": "Reservoir", "area_ha": 5.4, "altitude_m": null }, "geometry": { "type": "Point", "coordinates": [ 3.86715, 49.40858 ] } },
{ "type": "Feature", "properties": { "name": "Gravière des Bois Barris", "category": "Reservoir", "area_ha": 7.7, "altitude_m": null }, "geometry": { "type": "Point", "coordinates": [ 3.66215, 49.38909 ] } },
{ "type": "Feature", "properties": { "name": "Plan d'Eau 4 de la Charbonnière", "category": "Reservoir", "area_ha": 7.1, "altitude_m": null }, "geometry": { "type": "Point", "coordinates": [ 3.59299, 49.32216 ] } },
{ "type": "Feature", "properties": { "name": "Unnamed", "category": "Reservoir", "area_ha": 11.1, "altitude_m": null }, "geometry": { "type": "Point", "coordinates": [ 3.36015, 49.66733 ] } },
{ "type": "Feature", "properties": { "name": "Plan d'Eau 3 de la Commune de Pouilly-sur-Serre", "category": "Reservoir", "area_ha": 5.8, "altitude_m": null }, "geometry": { "type": "Point", "coordinates": [ 3.60768, 49.6879 ] } },
{ "type": "Feature", "properties": { "name": "Varennes", "category": "Reservoir", "area_ha": 7.4, "altitude_m": null }, "geometry": { "type": "Point", "coordinates": [ 3.53346, 49.07928 ] } },
{ "type": "Feature", "properties": { "name": "Gravière de la Cère", "category": "Reservoir", "area_ha": 16.9, "altitude_m": null }, "geometry": { "type": "Point", "coordinates": [ 3.67147, 49.38312 ] } },
{ "type": "Feature", "properties": { "name": "Unnamed", "category": "Reservoir", "area_ha": 6.6, "altitude_m": null }, "geometry": { "type": "Point", "coordinates": [ 3.10568, 49.86094 ] } },
{ "type": "Feature", "properties": { "name": "Étang d'Isle", "category": "Reservoir", "area_ha": 14.8, "altitude_m": null }, "geometry": { "type": "Point", "coordinates": [ 3.3103, 49.84679 ] } },
{ "type": "Feature", "properties": { "name": "Étang de Bihécourt", "category": "Reservoir", "area_ha": 17.0, "altitude_m": null }, "geometry": { "type": "Point", "coordinates": [ 3.17514, 49.89275 ] } },
{ "type": "Feature", "properties": { "name": "Lac de l'Ailette", "category": "Dam", "area_ha": 153.8, "altitude_m": null }, "geometry": { "type": "Point", "coordinates": [ 3.67036, 49.46935 ] } },
{ "type": "Feature", "properties": { "name": "Bassin d'Épuration 7 de la Commune de Bucy-le-Long", "category": "Reservoir", "area_ha": 23.3, "altitude_m": null }, "geometry": { "type": "Point", "coordinates": [ 3.37001, 49.38672 ] } },
{ "type": "Feature", "properties": { "name": "Bassin de Décantation 1 de la Commune de Pommiers", "category": "Reservoir", "area_ha": 10.8, "altitude_m": null }, "geometry": { "type": "Point", "coordinates": [ 3.27619, 49.38284 ] } },
{ "type": "Feature", "properties": { "name": "Bassin de Décantation", "category": "Reservoir", "area_ha": 6.0, "altitude_m": null }, "geometry": { "type": "Point", "coordinates": [ 4.00222, 49.6797 ] } },
{ "type": "Feature", "properties": { "name": "Unnamed", "category": "Reservoir", "area_ha": 11.2, "altitude_m": null }, "geometry": { "type": "Point", "coordinates": [ 3.26975, 49.61706 ] } },
{ "type": "Feature", "properties": { "name": "Gravière 3 des Gros Prés", "category": "Reservoir", "area_ha": 12.1, "altitude_m": null }, "geometry": { "type": "Point", "coordinates": [ 3.64886, 49.38455 ] } },
{ "type": "Feature", "properties": { "name": "Étang Monplaisir", "category": "Reservoir", "area_ha": 13.9, "altitude_m": null }, "geometry": { "type": "Point", "coordinates": [ 3.24534, 49.60613 ] } },
{ "type": "Feature", "properties": { "name": "Ancienne Ballastière", "category": "Reservoir", "area_ha": 10.2, "altitude_m": null }, "geometry": { "type": "Point", "coordinates": [ 3.36611, 49.74339 ] } },
{ "type": "Feature", "properties": { "name": "Plan d'Eau 3 de la Commune de Pommiers", "category": "Reservoir", "area_ha": 27.7, "altitude_m": null }, "geometry": { "type": "Point", "coordinates": [ 3.28059, 49.38538 ] } },
{ "type": "Feature", "properties": { "name": "Gravière 1 des Gros Prés", "category": "Reservoir", "area_ha": 7.0, "altitude_m": null }, "geometry": { "type": "Point", "coordinates": [ 3.64857, 49.38238 ] } },
{ "type": "Feature", "properties": { "name": "Plan d'Eau 2 de la Varane", "category": "Reservoir", "area_ha": 16.6, "altitude_m": null }, "geometry": { "type": "Point", "coordinates": [ 3.60574, 49.31043 ] } },
{ "type": "Feature", "properties": { "name": "les Lèches", "category": "Reservoir", "area_ha": 8.3, "altitude_m": null }, "geometry": { "type": "Point", "coordinates": [ 3.42974, 49.78343 ] } },
{ "type": "Feature", "properties": { "name": "Étang de Bihécourt", "category": "Reservoir", "area_ha": 11.0, "altitude_m": null }, "geometry": { "type": "Point", "coordinates": [ 3.17202, 49.88869 ] } },
{ "type": "Feature", "properties": { "name": "Canal de la Sambre à l'Oise", "category": "Reservoir", "area_ha": 6.3, "altitude_m": null }, "geometry": { "type": "Point", "coordinates": [ 3.3695, 49.74008 ] } },
{ "type": "Feature", "properties": { "name": "Bassin de Monampteuil", "category": "Reservoir", "area_ha": 31.7, "altitude_m": null }, "geometry": { "type": "Point", "coordinates": [ 3.56222, 49.46674 ] } },
{ "type": "Feature", "properties": { "name": "Gravière du Ponceau", "category": "Reservoir", "area_ha": 10.5, "altitude_m": null }, "geometry": { "type": "Point", "coordinates": [ 3.65525, 49.38608 ] } },
{ "type": "Feature", "properties": { "name": "Plan d'Eau 1 de la Commune de Séry-les-Mézières", "category": "Reservoir", "area_ha": 11.7, "altitude_m": null }, "geometry": { "type": "Point", "coordinates": [ 3.41509, 49.78136 ] } },
{ "type": "Feature", "properties": { "name": "Plan d'Eau du Marais aux Juifs", "category": "Reservoir", "area_ha": 6.1, "altitude_m": null }, "geometry": { "type": "Point", "coordinates": [ 3.60122, 49.30589 ] } },
{ "type": "Feature", "properties": { "name": "l'Ile Saint Pierre", "category": "Reservoir", "area_ha": 15.9, "altitude_m": null }, "geometry": { "type": "Point", "coordinates": [ 3.48737, 49.06778 ] } },
{ "type": "Feature", "properties": { "name": "Plan d'Eau 3 de la Charbonnière", "category": "Reservoir", "area_ha": 8.7, "altitude_m": null }, "geometry": { "type": "Point", "coordinates": [ 3.59009, 49.3221 ] } },
{ "type": "Feature", "properties": { "name": "Plan d'Eau de la Ferme de la Grange", "category": "Reservoir", "area_ha": 7.2, "altitude_m": null }, "geometry": { "type": "Point", "coordinates": [ 3.50679, 49.35307 ] } },
{ "type": "Feature", "properties": { "name": "Unnamed", "category": "Reservoir", "area_ha": 9.7, "altitude_m": null }, "geometry": { "type": "Point", "coordinates": [ 3.51555, 49.21602 ] } },
{ "type": "Feature", "properties": { "name": "Plan d'Eau 2 de la Commune de Trosly-Loire", "category": "Reservoir", "area_ha": 7.6, "altitude_m": null }, "geometry": { "type": "Point", "coordinates": [ 3.21143, 49.51971 ] } },
{ "type": "Feature", "properties": { "name": "Étang de la Papilloterie", "category": "Reservoir", "area_ha": 8.0, "altitude_m": null }, "geometry": { "type": "Point", "coordinates": [ 3.43959, 49.61077 ] } },
{ "type": "Feature", "properties": { "name": "Étang des Houssois", "category": "Reservoir", "area_ha": 7.8, "altitude_m": null }, "geometry": { "type": "Point", "coordinates": [ 3.37536, 48.9332 ] } },
{ "type": "Feature", "properties": { "name": "Sablière de la Croix Rouge", "category": "Reservoir", "area_ha": 6.0, "altitude_m": null }, "geometry": { "type": "Point", "coordinates": [ 3.63382, 49.39992 ] } },
{ "type": "Feature", "properties": { "name": "Gravière des Prés de l'Aventure", "category": "Reservoir", "area_ha": 8.2, "altitude_m": null }, "geometry": { "type": "Point", "coordinates": [ 3.69405, 49.3842 ] } },
{ "type": "Feature", "properties": { "name": "Gravière 2 de dessous le Bois Lambert", "category": "Reservoir", "area_ha": 6.2, "altitude_m": null }, "geometry": { "type": "Point", "coordinates": [ 3.63588, 49.38436 ] } },
{ "type": "Feature", "properties": { "name": "les Bas Lieux", "category": "Reservoir", "area_ha": 6.7, "altitude_m": null }, "geometry": { "type": "Point", "coordinates": [ 3.92146, 49.41001 ] } },
{ "type": "Feature", "properties": { "name": "Unnamed", "category": "Reservoir", "area_ha": 16.4, "altitude_m": null }, "geometry": { "type": "Point", "coordinates": [ 3.1139, 49.86095 ] } },
{ "type": "Feature", "properties": { "name": "la Fosse à Coulons", "category": "Reservoir", "area_ha": 15.8, "altitude_m": null }, "geometry": { "type": "Point", "coordinates": [ 3.25988, 49.61909 ] } },
{ "type": "Feature", "properties": { "name": "Unnamed", "category": "Reservoir", "area_ha": 10.5, "altitude_m": null }, "geometry": { "type": "Point", "coordinates": [ 3.26501, 49.61574 ] } },
{ "type": "Feature", "properties": { "name": "Unnamed", "category": "Reservoir", "area_ha": 22.5, "altitude_m": null }, "geometry": { "type": "Point", "coordinates": [ 3.25847, 49.61541 ] } },
{ "type": "Feature", "properties": { "name": "Unnamed", "category": "Reservoir", "area_ha": 5.8, "altitude_m": null }, "geometry": { "type": "Point", "coordinates": [ 3.25523, 49.61973 ] } },
{ "type": "Feature", "properties": { "name": "Unnamed", "category": "Reservoir", "area_ha": 11.2, "altitude_m": null }, "geometry": { "type": "Point", "coordinates": [ 3.26107, 49.62232 ] } },
{ "type": "Feature", "properties": { "name": "Unnamed", "category": "Reservoir", "area_ha": 6.3, "altitude_m": null }, "geometry": { "type": "Point", "coordinates": [ 3.26723, 49.62008 ] } },
{ "type": "Feature", "properties": { "name": "Bassin de Décantation 13 de la Commune de Pommiers", "category": "Reservoir", "area_ha": 5.2, "altitude_m": null }, "geometry": { "type": "Point", "coordinates": [ 3.26138, 49.38508 ] } },
{ "type": "Feature", "properties": { "name": "Unnamed", "category": "Reservoir", "area_ha": 9.0, "altitude_m": null }, "geometry": { "type": "Point", "coordinates": [ 3.6741, 50.03299 ] } },
{ "type": "Feature", "properties": { "name": "Plan d'Eau 1 de la Commune de Courbes", "category": "Reservoir", "area_ha": 5.4, "altitude_m": null }, "geometry": { "type": "Point", "coordinates": [ 3.4458, 49.68367 ] } },
{ "type": "Feature", "properties": { "name": "Unnamed", "category": "Reservoir", "area_ha": 5.3, "altitude_m": null }, "geometry": { "type": "Point", "coordinates": [ 3.93674, 49.42209 ] } },
{ "type": "Feature", "properties": { "name": "Gravière 1 des Ligneux", "category": "Reservoir", "area_ha": 7.9, "altitude_m": null }, "geometry": { "type": "Point", "coordinates": [ 3.63451, 49.38742 ] } },
{ "type": "Feature", "properties": { "name": "Unnamed", "category": "Reservoir", "area_ha": 5.5, "altitude_m": null }, "geometry": { "type": "Point", "coordinates": [ 3.25307, 49.61356 ] } },
{ "type": "Feature", "properties": { "name": "Plan d'Eau 4 de la Commune de Soissons", "category": "Reservoir", "area_ha": 28.2, "altitude_m": null }, "geometry": { "type": "Point", "coordinates": [ 3.29977, 49.38604 ] } },
{ "type": "Feature", "properties": { "name": "Gravière 1 de la Garenne", "category": "Reservoir", "area_ha": 6.2, "altitude_m": null }, "geometry": { "type": "Point", "coordinates": [ 3.62533, 49.39362 ] } },
{ "type": "Feature", "properties": { "name": "Gravière des Grévettes", "category": "Reservoir", "area_ha": 15.8, "altitude_m": null }, "geometry": { "type": "Point", "coordinates": [ 3.66369, 49.38554 ] } },
{ "type": "Feature", "properties": { "name": "Étang de la Lobiette", "category": "Reservoir", "area_ha": 11.8, "altitude_m": null }, "geometry": { "type": "Point", "coordinates": [ 4.14236, 49.97748 ] } },
{ "type": "Feature", "properties": { "name": "la Fosse au Puits", "category": "Reservoir", "area_ha": 5.8, "altitude_m": null }, "geometry": { "type": "Point", "coordinates": [ 3.91677, 49.40892 ] } },
{ "type": "Feature", "properties": { "name": "Étang du Grand Hubert Pont", "category": "Reservoir", "area_ha": 7.5, "altitude_m": null }, "geometry": { "type": "Point", "coordinates": [ 3.42378, 49.54093 ] } },
{ "type": "Feature", "properties": { "name": "Unnamed", "category": "Reservoir", "area_ha": 7.2, "altitude_m": null }, "geometry": { "type": "Point", "coordinates": [ 3.36476, 49.67063 ] } },
{ "type": "Feature", "properties": { "name": "Gravière du Bois de Villers", "category": "Reservoir", "area_ha": 6.5, "altitude_m": null }, "geometry": { "type": "Point", "coordinates": [ 3.65121, 49.38201 ] } },
{ "type": "Feature", "properties": { "name": "Plan d'Eau 1 de la Charbonnière", "category": "Reservoir", "area_ha": 11.8, "altitude_m": null }, "geometry": { "type": "Point", "coordinates": [ 3.59795, 49.31837 ] } },
{ "type": "Feature", "properties": { "name": "Réservoir du Canal", "category": "Reservoir", "area_ha": 14.6, "altitude_m": null }, "geometry": { "type": "Point", "coordinates": [ 3.71193, 50.0084 ] } },
{ "type": "Feature", "properties": { "name": "Étang de la Logette", "category": "Reservoir", "area_ha": 10.1, "altitude_m": null }, "geometry": { "type": "Point", "coordinates": [ 3.49656, 49.11655 ] } },
{ "type": "Feature", "properties": { "name": "Étang de Bihécourt", "category": "Reservoir", "area_ha": 14.5, "altitude_m": null }, "geometry": { "type": "Point", "coordinates": [ 3.16524, 49.8872 ] } },
{ "type": "Feature", "properties": { "name": "Étang du Pas Bayard", "category": "Dam", "area_ha": 6.9, "altitude_m": null }, "geometry": { "type": "Point", "coordinates": [ 4.1009, 49.95942 ] } }
]
}
