{
"type": "FeatureCollection",
"name": "dep09.geojson",
"crs": { "type": "name", "properties": { "name": "urn:ogc:def:crs:OGC:1.3:CRS84" } },
"xy_coordinate_resolution": 1e-05,
"features": [
{ "type": "Feature", "properties": { "name": "Étangs de Turguilla", "category": "Lake", "area_ha": 7.1, "altitude_m": null }, "geometry": { "type": "Point", "coordinates": [ 1.32818, 42.72966 ] } },
{ "type": "Feature", "properties": { "name": "Étangs de Bassiès", "category": "Lake", "area_ha": 33.7, "altitude_m": null }, "geometry": { "type": "Point", "coordinates": [ 1.42338, 42.76151 ] } },
{ "type": "Feature", "properties": { "name": "Étang de la Hillette", "category": "Reservoir", "area_ha": 5.2, "altitude_m": null }, "geometry": { "type": "Point", "coordinates": [ 1.30359, 42.732 ] } },
{ "type": "Feature", "properties": { "name": "Étang Déroun", "category": "Lake", "area_ha": 5.8, "altitude_m": null }, "geometry": { "type": "Point", "coordinates": [ 1.90623, 42.64545 ] } },
{ "type": "Feature", "properties": { "name": "Étang de Quérigut", "category": "Lake", "area_ha": 7.2, "altitude_m": null }, "geometry": { "type": "Point", "coordinates": [ 2.06825, 42.67436 ] } },
{ "type": "Feature", "properties": { "name": "Étang de Mille Roques", "category": "Lake", "area_ha": 5.7, "altitude_m": null }, "geometry": { "type": "Point", "coordinates": [ 1.59491, 42.67952 ] } },
{ "type": "Feature", "properties": { "name": "Unnamed", "category": "Reservoir", "area_ha": 6.4, "altitude_m": null }, "geometry": { "type": "Point", "coordinates": [ 1.66459, 43.26165 ] } },
{ "type": "Feature", "properties": { "name": "Étang de Laurenti", "category": "Lake", "area_ha": 7.4, "altitude_m": null }, "geometry": { "type": "Point", "coordinates": [ 2.02464, 42.67401 ] } },
{ "type": "Feature", "properties": { "name": "Étangs du Picot", "category": "Lake", "area_ha": 6.0, "altitude_m": null }, "geometry": { "type": "Point", "coordinates": [ 1.47374, 42.67689 ] } },
{ "type": "Feature", "properties": { "name": "Unnamed", "category": "Reservoir", "area_ha": 13.8, "altitude_m": null }, "geometry": { "type": "Point", "coordinates": [ 1.612, 43.22766 ] } },
{ "type": "Feature", "properties": { "name": "Étang de Soulanet", "category": "Lake", "area_ha": 6.7, "altitude_m": null }, "geometry": { "type": "Point", "coordinates": [ 1.5854, 42.64558 ] } },
{ "type": "Feature", "properties": { "name": "Unnamed", "category": "Reservoir", "area_ha": 11.7, "altitude_m": null }, "geometry": { "type": "Point", "coordinates": [ 1.65954, 43.2639 ] } },
{ "type": "Feature", "properties": { "name": "Étang de Couart", "category": "Lake", "area_ha": 8.3, "altitude_m": null }, "geometry": { "type": "Point", "coordinates": [ 1.75449, 42.62279 ] } },
{ "type": "Feature", "properties": { "name": "Étang de Joclar", "category": "Lake", "area_ha": 6.6, "altitude_m": null }, "geometry": { "type": "Point", "coordinates": [ 1.72727, 42.61974 ] } },
{ "type": "Feature", "properties": { "name": "Étang de Naguille", "category": "Dam", "area_ha": 89.2, "altitude_m": null }, "geometry": { "type": "Point", "coordinates": [ 1.91585, 42.65337 ] } },
{ "type": "Feature", "properties": { "name": "Lac de Montbel", "category": "Dam", "area_ha": 471.4, "altitude_m": null }, "geometry": { "type": "Point", "coordinates": [ 1.94737, 42.98134 ] } },
{ "type": "Feature", "properties": { "name": "Lac de Mondely", "category": "Dam", "area_ha": 49.4, "altitude_m": null }, "geometry": { "type": "Point", "coordinates": [ 1.43797, 43.05195 ] } },
{ "type": "Feature", "properties": { "name": "Unnamed", "category": "Dam", "area_ha": 0.9, "altitude_m": null }, "geometry": { "type": "Point", "coordinates": [ 1.78152, 42.60081 ] } },
{ "type": "Feature", "properties": { "name": "Étang de Peyregrand", "category": "Lake", "area_ha": 5.5, "altitude_m": null }, "geometry": { "type": "Point", "coordinates": [ 1.56413, 42.68323 ] } },
{ "type": "Feature", "properties": { "name": "Étangs de l'Albe", "category": "Lake", "area_ha": 7.0, "altitude_m": null }, "geometry": { "type": "Point", "coordinates": [ 1.74361, 42.61711 ] } },
{ "type": "Feature", "properties": { "name": "Étangs de Fontargente", "category": "Lake", "area_ha": 6.3, "altitude_m": null }, "geometry": { "type": "Point", "coordinates": [ 1.70547, 42.62788 ] } },
{ "type": "Feature", "properties": { "name": "Unnamed", "category": "Reservoir", "area_ha": 11.9, "altitude_m": null }, "geometry": { "type": "Point", "coordinates": [ 1.62242, 43.19186 ] } },
{ "type": "Feature", "properties": { "name": "Unnamed", "category": "Reservoir", "area_ha": 13.0, "altitude_m": null }, "geometry": { "type": "Point", "coordinates": [ 1.59737, 43.2421 ] } },
{ "type": "Feature", "properties": { "name": "Étang Blaou", "category": "Lake", "area_ha": 16.8, "altitude_m": null }, "geometry": { "type": "Point", "coordinates": [ 1.57234, 42.65472 ] } },
{ "type": "Feature", "properties": { "name": "Unnamed", "category": "Reservoir", "area_ha": 5.4, "altitude_m": null }, "geometry": { "type": "Point", "coordinates": [ 1.92426, 43.11294 ] } },
{ "type": "Feature", "properties": { "name": "Lac de Filleit", "category": "Dam", "area_ha": 52.5, "altitude_m": null }, "geometry": { "type": "Point", "coordinates": [ 1.39344, 43.06658 ] } },
{ "type": "Feature", "properties": { "name": "Étang d'Alet", "category": "Reservoir", "area_ha": 12.9, "altitude_m": null }, "geometry": { "type": "Point", "coordinates": [ 1.28155, 42.73561 ] } },
{ "type": "Feature", "properties": { "name": "Étangs des Peyrisses", "category": "Lake", "area_ha": 7.8, "altitude_m": null }, "geometry": { "type": "Point", "coordinates": [ 1.91115, 42.62954 ] } },
{ "type": "Feature", "properties": { "name": "Étangs des Peyrisses", "category": "Lake", "area_ha": 8.3, "altitude_m": null }, "geometry": { "type": "Point", "coordinates": [ 1.92207, 42.62856 ] } },
{ "type": "Feature", "properties": { "name": "Étangs de Fontargente", "category": "Lake", "area_ha": 17.7, "altitude_m": null }, "geometry": { "type": "Point", "coordinates": [ 1.7108, 42.62714 ] } },
{ "type": "Feature", "properties": { "name": "Étang Fourcat", "category": "Lake", "area_ha": 23.8, "altitude_m": null }, "geometry": { "type": "Point", "coordinates": [ 1.48937, 42.66089 ] } },
{ "type": "Feature", "properties": { "name": "Étangs d'en Beys", "category": "Lake", "area_ha": 13.8, "altitude_m": null }, "geometry": { "type": "Point", "coordinates": [ 1.94236, 42.62508 ] } },
{ "type": "Feature", "properties": { "name": "Unnamed", "category": "Reservoir", "area_ha": 9.6, "altitude_m": null }, "geometry": { "type": "Point", "coordinates": [ 1.66069, 43.26807 ] } },
{ "type": "Feature", "properties": { "name": "Étangs de la Gardelle", "category": "Reservoir", "area_ha": 6.1, "altitude_m": null }, "geometry": { "type": "Point", "coordinates": [ 1.42379, 42.64278 ] } },
{ "type": "Feature", "properties": { "name": "Étang d'Artax", "category": "Reservoir", "area_ha": 7.1, "altitude_m": null }, "geometry": { "type": "Point", "coordinates": [ 1.50554, 42.81568 ] } },
{ "type": "Feature", "properties": { "name": "Unnamed", "category": "Reservoir", "area_ha": 11.9, "altitude_m": null }, "geometry": { "type": "Point", "coordinates": [ 1.61292, 43.22104 ] } },
{ "type": "Feature", "properties": { "name": "Unnamed", "category": "Reservoir", "area_ha": 10.3, "altitude_m": null }, "geometry": { "type": "Point", "coordinates": [ 1.92147, 43.09081 ] } },
{ "type": "Feature", "properties": { "name": "Étang de Lers", "category": "Reservoir", "area_ha": 7.4, "altitude_m": null }, "geometry": { "type": "Point", "coordinates": [ 1.37771, 42.80745 ] } },
{ "type": "Feature", "properties": { "name": "Unnamed", "category": "Reservoir", "area_ha": 18.6, "altitude_m": null }, "geometry": { "type": "Point", "coordinates": [ 1.93586, 43.08412 ] } },
{ "type": "Feature", "properties": { "name": "Unnamed", "category": "Reservoir", "area_ha": 7.0, "altitude_m": null }, "geometry": { "type": "Point", "coordinates": [ 1.62561, 43.19599 ] } },
{ "type": "Feature", "properties": { "name": "Étang Long", "category": "Reservoir", "area_ha": 8.0, "altitude_m": null }, "geometry": { "type": "Point", "coordinates": [ 1.06078, 42.78864 ] } },
{ "type": "Feature", "properties": { "name": "Étang Rond", "category": "Reservoir", "area_ha": 7.5, "altitude_m": null }, "geometry": { "type": "Point", "coordinates": [ 1.06326, 42.79314 ] } },
{ "type": "Feature", "properties": { "name": "Étang du Garbet", "category": "Reservoir", "area_ha": 15.5, "altitude_m": null }, "geometry": { "type": "Point", "coordinates": [ 1.38173, 42.75123 ] } },
{ "type": "Feature", "properties": { "name": "Étang d'Aubé", "category": "Reservoir", "area_ha": 8.4, "altitude_m": null }, "geometry": { "type": "Point", "coordinates": [ 1.33705, 42.7441 ] } },
{ "type": "Feature", "properties": { "name": "Étang de Gnioure", "category": "Dam", "area_ha": 82.0, "altitude_m": null }, "geometry": { "type": "Point", "coordinates": [ 1.52987, 42.69238 ] } },
{ "type": "Feature", "properties": { "name": "Lac du Barrage de Riète", "category": "Dam", "area_ha": 4.8, "altitude_m": null }, "geometry": { "type": "Point", "coordinates": [ 1.66441, 42.70819 ] } },
{ "type": "Feature", "properties": { "name": "Étang d'Araing", "category": "Dam", "area_ha": 32.3, "altitude_m": null }, "geometry": { "type": "Point", "coordinates": [ 0.87318, 42.83087 ] } },
{ "type": "Feature", "properties": { "name": "Unnamed", "category": "Dam", "area_ha": 6.5, "altitude_m": null }, "geometry": { "type": "Point", "coordinates": [ 1.36676, 43.18968 ] } },
{ "type": "Feature", "properties": { "name": "Unnamed", "category": "Dam", "area_ha": 1.7, "altitude_m": null }, "geometry": { "type": "Point", "coordinates": [ 1.76865, 42.58666 ] } },
{ "type": "Feature", "properties": { "name": "Barrage de Garrabet", "category": "Dam", "area_ha": 45.5, "altitude_m": null }, "geometry": { "type": "Point", "coordinates": [ 1.62513, 42.87844 ] } },
{ "type": "Feature", "properties": { "name": "Retenue de la Dourne", "category": "Dam", "area_ha": 12.9, "altitude_m": null }, "geometry": { "type": "Point", "coordinates": [ 1.38299, 43.14893 ] } },
{ "type": "Feature", "properties": { "name": "Estanh de Pedorrés", "category": "Dam", "area_ha": 6.5, "altitude_m": null }, "geometry": { "type": "Point", "coordinates": [ 1.76981, 42.61356 ] } },
{ "type": "Feature", "properties": { "name": "Étang de Laparan", "category": "Dam", "area_ha": 36.7, "altitude_m": null }, "geometry": { "type": "Point", "coordinates": [ 1.70583, 42.67171 ] } },
{ "type": "Feature", "properties": { "name": "Étang d'Izourt", "category": "Dam", "area_ha": 30.8, "altitude_m": null }, "geometry": { "type": "Point", "coordinates": [ 1.4978, 42.68869 ] } },
{ "type": "Feature", "properties": { "name": "Étang de Chichoué", "category": "Dam", "area_ha": 0.3, "altitude_m": null }, "geometry": { "type": "Point", "coordinates": [ 0.89471, 42.82272 ] } },
{ "type": "Feature", "properties": { "name": "Lac de Campauleil", "category": "Dam", "area_ha": 4.5, "altitude_m": null }, "geometry": { "type": "Point", "coordinates": [ 1.85453, 42.71033 ] } },
{ "type": "Feature", "properties": { "name": "Étang de Soulcem", "category": "Dam", "area_ha": 86.7, "altitude_m": null }, "geometry": { "type": "Point", "coordinates": [ 1.44679, 42.66807 ] } },
{ "type": "Feature", "properties": { "name": "Unnamed", "category": "Dam", "area_ha": 5.1, "altitude_m": null }, "geometry": { "type": "Point", "coordinates": [ 1.88809, 42.72373 ] } },
{ "type": "Feature", "properties": { "name": "Étang des Grandes Patures", "category": "Dam", "area_ha": 14.8, "altitude_m": null }, "geometry": { "type": "Point", "coordinates": [ 2.05712, 42.7208 ] } },
{ "type": "Feature", "properties": { "name": "Unnamed", "category": "Dam", "area_ha": 1.4, "altitude_m": null }, "geometry": { "type": "Point", "coordinates": [ 1.5088, 43.03783 ] } },
{ "type": "Feature", "properties": { "name": "Étang des Bésines", "category": "Dam", "area_ha": 7.2, "altitude_m": null }, "geometry": { "type": "Point", "coordinates": [ 1.85729, 42.60116 ] } }
]
}
