{
"type": "FeatureCollection",
"name": "dep08.geojson",
"crs": { "type": "name", "properties": { "name": "urn:ogc:def:crs:OGC:1.3:CRS84" } },
"xy_coordinate_resolution": 1e-05,
"features": [
{ "type": "Feature", "properties": { "name": "Étangs des Bièvres", "category": "Reservoir", "area_ha": 28.3, "altitude_m": null }, "geometry": { "type": "Point", "coordinates": [ 4.86786, 49.26332 ] } },
{ "type": "Feature", "properties": { "name": "Lac des Vieilles Forges", "category": "Dam", "area_ha": 141.1, "altitude_m": null }, "geometry": { "type": "Point", "coordinates": [ 4.61086, 49.86791 ] } },
{ "type": "Feature", "properties": { "name": "Grand Étang", "category": "Reservoir", "area_ha": 16.6, "altitude_m": null }, "geometry": { "type": "Point", "coordinates": [ 5.04854, 49.49037 ] } },
{ "type": "Feature", "properties": { "name": "Étang de la Motte", "category": "Reservoir", "area_ha": 5.4, "altitude_m": null }, "geometry": { "type": "Point", "coordinates": [ 4.29899, 49.91651 ] } },
{ "type": "Feature", "properties": { "name": "Plan d'Eau de la Warenne", "category": "Reservoir", "area_ha": 9.6, "altitude_m": null }, "geometry": { "type": "Point", "coordinates": [ 4.68004, 49.75873 ] } },
{ "type": "Feature", "properties": { "name": "Lac de Bairon", "category": "Dam", "area_ha": 122.0, "altitude_m": null }, "geometry": { "type": "Point", "coordinates": [ 4.7665, 49.53333 ] } },
{ "type": "Feature", "properties": { "name": "Bassin des Marquisades", "category": "Reservoir", "area_ha": 61.5, "altitude_m": null }, "geometry": { "type": "Point", "coordinates": [ 4.62841, 49.9141 ] } },
{ "type": "Feature", "properties": { "name": "Étang de la Fermière", "category": "Reservoir", "area_ha": 5.3, "altitude_m": null }, "geometry": { "type": "Point", "coordinates": [ 4.33666, 49.92679 ] } },
{ "type": "Feature", "properties": { "name": "Étang de Gland", "category": "Reservoir", "area_ha": 5.4, "altitude_m": null }, "geometry": { "type": "Point", "coordinates": [ 4.3246, 49.92425 ] } },
{ "type": "Feature", "properties": { "name": "Étang Brochet", "category": "Reservoir", "area_ha": 8.7, "altitude_m": null }, "geometry": { "type": "Point", "coordinates": [ 5.05807, 49.49403 ] } },
{ "type": "Feature", "properties": { "name": "Étang de la Vieille Forge", "category": "Reservoir", "area_ha": 5.5, "altitude_m": null }, "geometry": { "type": "Point", "coordinates": [ 4.28375, 49.91796 ] } },
{ "type": "Feature", "properties": { "name": "Étang de la Motte", "category": "Reservoir", "area_ha": 11.7, "altitude_m": null }, "geometry": { "type": "Point", "coordinates": [ 4.77645, 49.48406 ] } },
{ "type": "Feature", "properties": { "name": "Étang de la Roche", "category": "Dam", "area_ha": 5.7, "altitude_m": null }, "geometry": { "type": "Point", "coordinates": [ 4.50437, 49.83109 ] } },
{ "type": "Feature", "properties": { "name": "Bassin de Whitaker", "category": "Dam", "area_ha": 50.3, "altitude_m": null }, "geometry": { "type": "Point", "coordinates": [ 4.6035, 49.92051 ] } }
]
}
