{
"type": "FeatureCollection",
"name": "dep13.geojson",
"crs": { "type": "name", "properties": { "name": "urn:ogc:def:crs:OGC:1.3:CRS84" } },
"xy_coordinate_resolution": 1e-05,
"features": [
{ "type": "Feature", "properties": { "name": "Plan d'Eau de Plantin", "category": "Reservoir", "area_ha": 51.0, "altitude_m": null }, "geometry": { "type": "Point", "coordinates": [ 5.59074, 43.65487 ] } },
{ "type": "Feature", "properties": { "name": "Ancien Salin de la Vignolle", "category": "Reservoir", "area_ha": 18.5, "altitude_m": null }, "geometry": { "type": "Point", "coordinates": [ 4.64227, 43.42561 ] } },
{ "type": "Feature", "properties": { "name": "Étang de l'Estomac", "category": "Reservoir", "area_ha": 73.0, "altitude_m": null }, "geometry": { "type": "Point", "coordinates": [ 4.94734, 43.44843 ] } },
{ "type": "Feature", "properties": { "name": "Marais de Faraman", "category": "Reservoir", "area_ha": 288.1, "altitude_m": null }, "geometry": { "type": "Point", "coordinates": [ 4.68639, 43.38746 ] } },
{ "type": "Feature", "properties": { "name": "les Pointes", "category": "Reservoir", "area_ha": 102.4, "altitude_m": null }, "geometry": { "type": "Point", "coordinates": [ 4.74433, 43.3653 ] } },
{ "type": "Feature", "properties": { "name": "Gravière de Istres-la Massuguiere", "category": "Reservoir", "area_ha": 15.6, "altitude_m": null }, "geometry": { "type": "Point", "coordinates": [ 4.94859, 43.48938 ] } },
{ "type": "Feature", "properties": { "name": "Étang de Lavalduc", "category": "Reservoir", "area_ha": 344.8, "altitude_m": null }, "geometry": { "type": "Point", "coordinates": [ 4.96806, 43.46461 ] } },
{ "type": "Feature", "properties": { "name": "Étang de la Gravière", "category": "Reservoir", "area_ha": 54.3, "altitude_m": null }, "geometry": { "type": "Point", "coordinates": [ 4.68639, 43.68658 ] } },
{ "type": "Feature", "properties": { "name": "Étang d'Entressen", "category": "Reservoir", "area_ha": 110.4, "altitude_m": null }, "geometry": { "type": "Point", "coordinates": [ 4.91524, 43.60432 ] } },
{ "type": "Feature", "properties": { "name": "Étang de Faraman", "category": "Reservoir", "area_ha": 159.3, "altitude_m": null }, "geometry": { "type": "Point", "coordinates": [ 4.69445, 43.38068 ] } },
{ "type": "Feature", "properties": { "name": "Lac Zola", "category": "Dam", "area_ha": 3.2, "altitude_m": null }, "geometry": { "type": "Point", "coordinates": [ 5.51354, 43.53198 ] } },
{ "type": "Feature", "properties": { "name": "le Grand Réservoir", "category": "Reservoir", "area_ha": 45.1, "altitude_m": null }, "geometry": { "type": "Point", "coordinates": [ 4.71757, 43.37287 ] } },
{ "type": "Feature", "properties": { "name": "Étang de Citis", "category": "Reservoir", "area_ha": 66.8, "altitude_m": null }, "geometry": { "type": "Point", "coordinates": [ 4.98574, 43.4691 ] } },
{ "type": "Feature", "properties": { "name": "Étang du Luquier", "category": "Reservoir", "area_ha": 13.6, "altitude_m": null }, "geometry": { "type": "Point", "coordinates": [ 4.94552, 43.62108 ] } },
{ "type": "Feature", "properties": { "name": "Étang de l'Olivier", "category": "Reservoir", "area_ha": 205.8, "altitude_m": null }, "geometry": { "type": "Point", "coordinates": [ 4.98977, 43.52496 ] } },
{ "type": "Feature", "properties": { "name": "Lac du Bimont", "category": "Dam", "area_ha": 60.2, "altitude_m": null }, "geometry": { "type": "Point", "coordinates": [ 5.54673, 43.54616 ] } },
{ "type": "Feature", "properties": { "name": "les Cuvettes", "category": "Reservoir", "area_ha": 389.0, "altitude_m": null }, "geometry": { "type": "Point", "coordinates": [ 4.72847, 43.37825 ] } },
{ "type": "Feature", "properties": { "name": "Étang d'Engrenier", "category": "Reservoir", "area_ha": 103.7, "altitude_m": null }, "geometry": { "type": "Point", "coordinates": [ 4.97362, 43.44241 ] } },
{ "type": "Feature", "properties": { "name": "Étang des Aulnes", "category": "Reservoir", "area_ha": 101.0, "altitude_m": null }, "geometry": { "type": "Point", "coordinates": [ 4.79202, 43.59158 ] } },
{ "type": "Feature", "properties": { "name": "Étang du Pourra", "category": "Reservoir", "area_ha": 136.0, "altitude_m": null }, "geometry": { "type": "Point", "coordinates": [ 4.9973, 43.44599 ] } },
{ "type": "Feature", "properties": { "name": "Étang de Faraman", "category": "Reservoir", "area_ha": 150.1, "altitude_m": null }, "geometry": { "type": "Point", "coordinates": [ 4.69495, 43.37215 ] } },
{ "type": "Feature", "properties": { "name": "Bassin d'Éclusées de Cadarache", "category": "Dam", "area_ha": 115.3, "altitude_m": null }, "geometry": { "type": "Point", "coordinates": [ 5.73993, 43.70892 ] } },
{ "type": "Feature", "properties": { "name": "Bassin de Saint-Christophe", "category": "Dam", "area_ha": 21.0, "altitude_m": null }, "geometry": { "type": "Point", "coordinates": [ 5.3551, 43.70576 ] } },
{ "type": "Feature", "properties": { "name": "Bassin du Vallon Dol", "category": "Dam", "area_ha": 16.7, "altitude_m": null }, "geometry": { "type": "Point", "coordinates": [ 5.40102, 43.36275 ] } },
{ "type": "Feature", "properties": { "name": "Lac de Barreau", "category": "Dam", "area_ha": 10.1, "altitude_m": null }, "geometry": { "type": "Point", "coordinates": [ 4.80518, 43.81021 ] } },
{ "type": "Feature", "properties": { "name": "Bassin du Réaltor", "category": "Dam", "area_ha": 61.7, "altitude_m": null }, "geometry": { "type": "Point", "coordinates": [ 5.33031, 43.46383 ] } }
]
}
