{
"type": "FeatureCollection",
"name": "dep17.geojson",
"crs": { "type": "name", "properties": { "name": "urn:ogc:def:crs:OGC:1.3:CRS84" } },
"xy_coordinate_resolution": 1e-05,
"features": [
{ "type": "Feature", "properties": { "name": "Unnamed", "category": "Reservoir", "area_ha": 14.7, "altitude_m": null }, "geometry": { "type": "Point", "coordinates": [ -0.71627, 45.33424 ] } },
{ "type": "Feature", "properties": { "name": "Unnamed", "category": "Reservoir", "area_ha": 5.5, "altitude_m": null }, "geometry": { "type": "Point", "coordinates": [ -0.98549, 45.9207 ] } },
{ "type": "Feature", "properties": { "name": "Unnamed", "category": "Reservoir", "area_ha": 6.6, "altitude_m": null }, "geometry": { "type": "Point", "coordinates": [ -0.91385, 46.12118 ] } },
{ "type": "Feature", "properties": { "name": "Unnamed", "category": "Reservoir", "area_ha": 12.2, "altitude_m": null }, "geometry": { "type": "Point", "coordinates": [ -1.21423, 46.15756 ] } },
{ "type": "Feature", "properties": { "name": "Unnamed", "category": "Reservoir", "area_ha": 5.1, "altitude_m": null }, "geometry": { "type": "Point", "coordinates": [ -0.97924, 45.91776 ] } },
{ "type": "Feature", "properties": { "name": "Unnamed", "category": "Reservoir", "area_ha": 9.4, "altitude_m": null }, "geometry": { "type": "Point", "coordinates": [ -0.97704, 45.91938 ] } },
{ "type": "Feature", "properties": { "name": "Unnamed", "category": "Reservoir", "area_ha": 8.2, "altitude_m": null }, "geometry": { "type": "Point", "coordinates": [ -1.05704, 46.04522 ] } },
{ "type": "Feature", "properties": { "name": "Unnamed", "category": "Reservoir", "area_ha": 5.1, "altitude_m": null }, "geometry": { "type": "Point", "coordinates": [ -0.98292, 46.32736 ] } },
{ "type": "Feature", "properties": { "name": "Grand Vasais", "category": "Reservoir", "area_ha": 44.9, "altitude_m": null }, "geometry": { "type": "Point", "coordinates": [ -1.51902, 46.23529 ] } },
{ "type": "Feature", "properties": { "name": "Grand Vasais", "category": "Reservoir", "area_ha": 1090.1, "altitude_m": null }, "geometry": { "type": "Point", "coordinates": [ -1.44619, 46.21255 ] } },
{ "type": "Feature", "properties": { "name": "Unnamed", "category": "Reservoir", "area_ha": 35.7, "altitude_m": null }, "geometry": { "type": "Point", "coordinates": [ -1.12701, 46.10688 ] } },
{ "type": "Feature", "properties": { "name": "Unnamed", "category": "Reservoir", "area_ha": 29.8, "altitude_m": null }, "geometry": { "type": "Point", "coordinates": [ -0.99457, 46.0142 ] } },
{ "type": "Feature", "properties": { "name": "Unnamed", "category": "Reservoir", "area_ha": 9.6, "altitude_m": null }, "geometry": { "type": "Point", "coordinates": [ -0.97499, 45.92155 ] } },
{ "type": "Feature", "properties": { "name": "Unnamed", "category": "Reservoir", "area_ha": 5.1, "altitude_m": null }, "geometry": { "type": "Point", "coordinates": [ -0.97386, 45.91811 ] } },
{ "type": "Feature", "properties": { "name": "Unnamed", "category": "Reservoir", "area_ha": 5.5, "altitude_m": null }, "geometry": { "type": "Point", "coordinates": [ -1.18366, 46.21235 ] } },
{ "type": "Feature", "properties": { "name": "Lac Baron Desqueyroux", "category": "Reservoir", "area_ha": 6.2, "altitude_m": null }, "geometry": { "type": "Point", "coordinates": [ -0.39515, 45.27063 ] } },
{ "type": "Feature", "properties": { "name": "Unnamed", "category": "Reservoir", "area_ha": 41.3, "altitude_m": null }, "geometry": { "type": "Point", "coordinates": [ -0.92781, 45.92204 ] } },
{ "type": "Feature", "properties": { "name": "Unnamed", "category": "Reservoir", "area_ha": 8.1, "altitude_m": null }, "geometry": { "type": "Point", "coordinates": [ -1.20938, 45.82266 ] } },
{ "type": "Feature", "properties": { "name": "Unnamed", "category": "Reservoir", "area_ha": 5.4, "altitude_m": null }, "geometry": { "type": "Point", "coordinates": [ -0.94261, 45.75629 ] } },
{ "type": "Feature", "properties": { "name": "Étang d'Allas", "category": "Reservoir", "area_ha": 9.1, "altitude_m": null }, "geometry": { "type": "Point", "coordinates": [ -0.47649, 45.40031 ] } },
{ "type": "Feature", "properties": { "name": "Unnamed", "category": "Reservoir", "area_ha": 29.7, "altitude_m": null }, "geometry": { "type": "Point", "coordinates": [ -1.05292, 46.03836 ] } },
{ "type": "Feature", "properties": { "name": "Fosses de la Gardette", "category": "Reservoir", "area_ha": 14.6, "altitude_m": null }, "geometry": { "type": "Point", "coordinates": [ -0.94052, 45.925 ] } },
{ "type": "Feature", "properties": { "name": "Unnamed", "category": "Reservoir", "area_ha": 6.9, "altitude_m": null }, "geometry": { "type": "Point", "coordinates": [ -1.12275, 46.14884 ] } },
{ "type": "Feature", "properties": { "name": "Étang de Saint-Maigrin", "category": "Dam", "area_ha": 36.0, "altitude_m": null }, "geometry": { "type": "Point", "coordinates": [ -0.254, 45.41171 ] } }
]
}
