{
"type": "FeatureCollection",
"name": "dep10.geojson",
"crs": { "type": "name", "properties": { "name": "urn:ogc:def:crs:OGC:1.3:CRS84" } },
"xy_coordinate_resolution": 1e-05,
"features": [
{ "type": "Feature", "properties": { "name": "l'Étang des Lavards", "category": "Reservoir", "area_ha": 11.2, "altitude_m": null }, "geometry": { "type": "Point", "coordinates": [ 4.28141, 48.29441 ] } },
{ "type": "Feature", "properties": { "name": "Étang de Baudet", "category": "Reservoir", "area_ha": 5.3, "altitude_m": null }, "geometry": { "type": "Point", "coordinates": [ 4.2934, 48.27729 ] } },
{ "type": "Feature", "properties": { "name": "Étang de la Motte", "category": "Reservoir", "area_ha": 5.3, "altitude_m": null }, "geometry": { "type": "Point", "coordinates": [ 4.65302, 48.4064 ] } },
{ "type": "Feature", "properties": { "name": "Grand Étang", "category": "Reservoir", "area_ha": 5.7, "altitude_m": null }, "geometry": { "type": "Point", "coordinates": [ 4.3049, 48.19862 ] } },
{ "type": "Feature", "properties": { "name": "Étang de la Renouillère", "category": "Reservoir", "area_ha": 6.1, "altitude_m": null }, "geometry": { "type": "Point", "coordinates": [ 4.40252, 48.2591 ] } },
{ "type": "Feature", "properties": { "name": "Étang du Patis", "category": "Reservoir", "area_ha": 17.4, "altitude_m": null }, "geometry": { "type": "Point", "coordinates": [ 4.62247, 48.16557 ] } },
{ "type": "Feature", "properties": { "name": "Plan d'Eau de la Commune de Brienne-le-Château", "category": "Reservoir", "area_ha": 10.4, "altitude_m": null }, "geometry": { "type": "Point", "coordinates": [ 4.56213, 48.40068 ] } },
{ "type": "Feature", "properties": { "name": "la Chapelle Godefroy", "category": "Reservoir", "area_ha": 6.0, "altitude_m": null }, "geometry": { "type": "Point", "coordinates": [ 3.53219, 48.49383 ] } },
{ "type": "Feature", "properties": { "name": "Étang de la Ville", "category": "Reservoir", "area_ha": 5.6, "altitude_m": null }, "geometry": { "type": "Point", "coordinates": [ 4.40208, 48.23862 ] } },
{ "type": "Feature", "properties": { "name": "Étang de la Horre", "category": "Reservoir", "area_ha": 237.1, "altitude_m": null }, "geometry": { "type": "Point", "coordinates": [ 4.65812, 48.49491 ] } },
{ "type": "Feature", "properties": { "name": "l'Étang de Villemaheu", "category": "Reservoir", "area_ha": 11.4, "altitude_m": null }, "geometry": { "type": "Point", "coordinates": [ 4.67534, 48.38965 ] } },
{ "type": "Feature", "properties": { "name": "Lac d'Amance (Réservoir Aube)", "category": "Dam", "area_ha": 460.4, "altitude_m": null }, "geometry": { "type": "Point", "coordinates": [ 4.50921, 48.3371 ] } },
{ "type": "Feature", "properties": { "name": "Lac d'Orient (Réservoir Seine)", "category": "Dam", "area_ha": 2271.3, "altitude_m": null }, "geometry": { "type": "Point", "coordinates": [ 4.33838, 48.27392 ] } },
{ "type": "Feature", "properties": { "name": "Étang de Jonchery", "category": "Reservoir", "area_ha": 8.7, "altitude_m": null }, "geometry": { "type": "Point", "coordinates": [ 4.42697, 48.34991 ] } },
{ "type": "Feature", "properties": { "name": "Étang de Blumerais", "category": "Reservoir", "area_ha": 5.2, "altitude_m": null }, "geometry": { "type": "Point", "coordinates": [ 4.65139, 48.41848 ] } },
{ "type": "Feature", "properties": { "name": "Canal de Dérivation 1 de la Commune de Courceroy", "category": "Reservoir", "area_ha": 12.3, "altitude_m": null }, "geometry": { "type": "Point", "coordinates": [ 3.4077, 48.48401 ] } },
{ "type": "Feature", "properties": { "name": "la Prise d'Eau", "category": "Reservoir", "area_ha": 6.2, "altitude_m": null }, "geometry": { "type": "Point", "coordinates": [ 4.29354, 48.33729 ] } },
{ "type": "Feature", "properties": { "name": "Étang de Bailly", "category": "Reservoir", "area_ha": 5.3, "altitude_m": null }, "geometry": { "type": "Point", "coordinates": [ 4.64568, 48.52822 ] } },
{ "type": "Feature", "properties": { "name": "Lac d'Auzon-Temple (Réservoir Aube)", "category": "Dam", "area_ha": 1830.5, "altitude_m": null }, "geometry": { "type": "Point", "coordinates": [ 4.39517, 48.32344 ] } },
{ "type": "Feature", "properties": { "name": "Unnamed", "category": "Reservoir", "area_ha": 9.5, "altitude_m": null }, "geometry": { "type": "Point", "coordinates": [ 3.66739, 48.52807 ] } },
{ "type": "Feature", "properties": { "name": "Queue de Retenue de Frouasse", "category": "Dam", "area_ha": 8.8, "altitude_m": null }, "geometry": { "type": "Point", "coordinates": [ 4.45044, 48.31601 ] } },
{ "type": "Feature", "properties": { "name": "Étang de la Barrière", "category": "Reservoir", "area_ha": 7.3, "altitude_m": null }, "geometry": { "type": "Point", "coordinates": [ 4.65629, 48.43441 ] } },
{ "type": "Feature", "properties": { "name": "Étang du Parc aux Pourceaux", "category": "Reservoir", "area_ha": 32.3, "altitude_m": null }, "geometry": { "type": "Point", "coordinates": [ 4.40945, 48.25746 ] } },
{ "type": "Feature", "properties": { "name": "Étang de Ramerupt", "category": "Reservoir", "area_ha": 27.0, "altitude_m": null }, "geometry": { "type": "Point", "coordinates": [ 4.63521, 48.33985 ] } },
{ "type": "Feature", "properties": { "name": "Étang du Grand Orient", "category": "Reservoir", "area_ha": 11.9, "altitude_m": null }, "geometry": { "type": "Point", "coordinates": [ 4.4048, 48.31072 ] } },
{ "type": "Feature", "properties": { "name": "Unnamed", "category": "Reservoir", "area_ha": 8.3, "altitude_m": null }, "geometry": { "type": "Point", "coordinates": [ 3.67835, 48.53171 ] } },
{ "type": "Feature", "properties": { "name": "Étang de Saint-Nicolas", "category": "Reservoir", "area_ha": 5.5, "altitude_m": null }, "geometry": { "type": "Point", "coordinates": [ 4.28115, 48.2597 ] } },
{ "type": "Feature", "properties": { "name": "Étang Prévot", "category": "Reservoir", "area_ha": 7.6, "altitude_m": null }, "geometry": { "type": "Point", "coordinates": [ 4.42544, 48.26893 ] } },
{ "type": "Feature", "properties": { "name": "Grand Étang", "category": "Reservoir", "area_ha": 15.9, "altitude_m": null }, "geometry": { "type": "Point", "coordinates": [ 4.66664, 48.4395 ] } },
{ "type": "Feature", "properties": { "name": "Étang du Larry", "category": "Reservoir", "area_ha": 9.7, "altitude_m": null }, "geometry": { "type": "Point", "coordinates": [ 4.02464, 48.07866 ] } },
{ "type": "Feature", "properties": { "name": "Unnamed", "category": "Reservoir", "area_ha": 8.5, "altitude_m": null }, "geometry": { "type": "Point", "coordinates": [ 3.69866, 48.23613 ] } },
{ "type": "Feature", "properties": { "name": "Unnamed", "category": "Reservoir", "area_ha": 13.4, "altitude_m": null }, "geometry": { "type": "Point", "coordinates": [ 3.72744, 48.24787 ] } },
{ "type": "Feature", "properties": { "name": "Unnamed", "category": "Reservoir", "area_ha": 5.3, "altitude_m": null }, "geometry": { "type": "Point", "coordinates": [ 3.68212, 48.53038 ] } },
{ "type": "Feature", "properties": { "name": "Étang de Vanlay", "category": "Reservoir", "area_ha": 14.6, "altitude_m": null }, "geometry": { "type": "Point", "coordinates": [ 3.98196, 48.021 ] } },
{ "type": "Feature", "properties": { "name": "Étang de Laborde", "category": "Reservoir", "area_ha": 9.2, "altitude_m": null }, "geometry": { "type": "Point", "coordinates": [ 4.63049, 48.33144 ] } },
{ "type": "Feature", "properties": { "name": "Étang de Fort en Paille", "category": "Reservoir", "area_ha": 16.9, "altitude_m": null }, "geometry": { "type": "Point", "coordinates": [ 4.40652, 48.246 ] } },
{ "type": "Feature", "properties": { "name": "le Grand Étang", "category": "Reservoir", "area_ha": 9.6, "altitude_m": null }, "geometry": { "type": "Point", "coordinates": [ 4.45343, 48.25877 ] } },
{ "type": "Feature", "properties": { "name": "Unnamed", "category": "Reservoir", "area_ha": 11.2, "altitude_m": null }, "geometry": { "type": "Point", "coordinates": [ 4.21505, 48.19676 ] } },
{ "type": "Feature", "properties": { "name": "Étang de la Renarde", "category": "Reservoir", "area_ha": 6.7, "altitude_m": null }, "geometry": { "type": "Point", "coordinates": [ 4.62468, 48.41244 ] } },
{ "type": "Feature", "properties": { "name": "Étang des Cailles", "category": "Reservoir", "area_ha": 5.8, "altitude_m": null }, "geometry": { "type": "Point", "coordinates": [ 4.68455, 48.39053 ] } },
{ "type": "Feature", "properties": { "name": "Étang du Grand Verdat", "category": "Reservoir", "area_ha": 10.5, "altitude_m": null }, "geometry": { "type": "Point", "coordinates": [ 4.645, 48.42082 ] } },
{ "type": "Feature", "properties": { "name": "Étang des Épargnés", "category": "Reservoir", "area_ha": 7.9, "altitude_m": null }, "geometry": { "type": "Point", "coordinates": [ 4.30881, 48.31997 ] } },
{ "type": "Feature", "properties": { "name": "Étang de Maurepaire", "category": "Reservoir", "area_ha": 21.8, "altitude_m": null }, "geometry": { "type": "Point", "coordinates": [ 4.35306, 48.32184 ] } },
{ "type": "Feature", "properties": { "name": "Étang de Gomme", "category": "Reservoir", "area_ha": 5.2, "altitude_m": null }, "geometry": { "type": "Point", "coordinates": [ 4.62121, 48.43417 ] } },
{ "type": "Feature", "properties": { "name": "Chenal d'Évacuation des Crues", "category": "Reservoir", "area_ha": 24.8, "altitude_m": null }, "geometry": { "type": "Point", "coordinates": [ 3.5266, 48.51542 ] } },
{ "type": "Feature", "properties": { "name": "Étang Bazin", "category": "Dam", "area_ha": 6.7, "altitude_m": null }, "geometry": { "type": "Point", "coordinates": [ 4.03096, 48.08232 ] } },
{ "type": "Feature", "properties": { "name": "Étang du Perchois", "category": "Dam", "area_ha": 8.1, "altitude_m": null }, "geometry": { "type": "Point", "coordinates": [ 4.02458, 48.0715 ] } },
{ "type": "Feature", "properties": { "name": "Étang de l'Embranchoir", "category": "Dam", "area_ha": 5.8, "altitude_m": null }, "geometry": { "type": "Point", "coordinates": [ 4.07999, 48.10501 ] } },
{ "type": "Feature", "properties": { "name": "Queue de Retenue de Valois", "category": "Dam", "area_ha": 20.1, "altitude_m": null }, "geometry": { "type": "Point", "coordinates": [ 4.38767, 48.30137 ] } }
]
}
