{
"type": "FeatureCollection",
"name": "dep15.geojson",
"crs": { "type": "name", "properties": { "name": "urn:ogc:def:crs:OGC:1.3:CRS84" } },
"xy_coordinate_resolution": 1e-05,
"features": [
{ "type": "Feature", "properties": { "name": "Étang des Bondes", "category": "Reservoir", "area_ha": 5.6, "altitude_m": null }, "geometry": { "type": "Point", "coordinates": [ 2.68306, 45.27805 ] } },
{ "type": "Feature", "properties": { "name": "Lac du Barrage de Grandval", "category": "Dam", "area_ha": 383.9, "altitude_m": null }, "geometry": { "type": "Point", "coordinates": [ 3.10508, 44.92855 ] } },
{ "type": "Feature", "properties": { "name": "Lac de Marèges", "category": "Dam", "area_ha": 154.5, "altitude_m": null }, "geometry": { "type": "Point", "coordinates": [ 2.39988, 45.39971 ] } },
{ "type": "Feature", "properties": { "name": "Lac de Lastioulles", "category": "Dam", "area_ha": 106.6, "altitude_m": null }, "geometry": { "type": "Point", "coordinates": [ 2.65405, 45.39603 ] } },
{ "type": "Feature", "properties": { "name": "Retenue de Bort les Orgues", "category": "Dam", "area_ha": 969.2, "altitude_m": null }, "geometry": { "type": "Point", "coordinates": [ 2.50966, 45.4778 ] } },
{ "type": "Feature", "properties": { "name": "Lac du Tact", "category": "Dam", "area_ha": 15.9, "altitude_m": null }, "geometry": { "type": "Point", "coordinates": [ 2.67641, 45.42383 ] } },
{ "type": "Feature", "properties": { "name": "Unnamed", "category": "Reservoir", "area_ha": 7.3, "altitude_m": null }, "geometry": { "type": "Point", "coordinates": [ 2.38348, 45.38546 ] } },
{ "type": "Feature", "properties": { "name": "Lac de Madic", "category": "Reservoir", "area_ha": 11.5, "altitude_m": null }, "geometry": { "type": "Point", "coordinates": [ 2.45994, 45.37159 ] } },
{ "type": "Feature", "properties": { "name": "Lac du Barrage de Lanau", "category": "Dam", "area_ha": 164.3, "altitude_m": null }, "geometry": { "type": "Point", "coordinates": [ 3.04209, 44.90715 ] } },
{ "type": "Feature", "properties": { "name": "Lac de Veirières", "category": "Reservoir", "area_ha": 13.6, "altitude_m": null }, "geometry": { "type": "Point", "coordinates": [ 2.56572, 45.21155 ] } },
{ "type": "Feature", "properties": { "name": "Lac du Taurons", "category": "Dam", "area_ha": 16.4, "altitude_m": null }, "geometry": { "type": "Point", "coordinates": [ 2.69034, 45.40065 ] } },
{ "type": "Feature", "properties": { "name": "Lac du Barrage de Grandval", "category": "Dam", "area_ha": 142.8, "altitude_m": null }, "geometry": { "type": "Point", "coordinates": [ 3.11735, 44.95658 ] } },
{ "type": "Feature", "properties": { "name": "Lac du Barrage d'Enchanet", "category": "Dam", "area_ha": 339.6, "altitude_m": null }, "geometry": { "type": "Point", "coordinates": [ 2.22635, 45.0773 ] } },
{ "type": "Feature", "properties": { "name": "Lac du Barrage de Saint-Étienne-Cantalès", "category": "Dam", "area_ha": 530.0, "altitude_m": null }, "geometry": { "type": "Point", "coordinates": [ 2.24699, 44.92305 ] } },
{ "type": "Feature", "properties": { "name": "Unnamed", "category": "Reservoir", "area_ha": 8.9, "altitude_m": null }, "geometry": { "type": "Point", "coordinates": [ 2.3769, 44.92713 ] } },
{ "type": "Feature", "properties": { "name": "Unnamed", "category": "Dam", "area_ha": 1.2, "altitude_m": null }, "geometry": { "type": "Point", "coordinates": [ 2.26652, 45.21537 ] } },
{ "type": "Feature", "properties": { "name": "Lac du Mont de Bélier", "category": "Reservoir", "area_ha": 6.5, "altitude_m": null }, "geometry": { "type": "Point", "coordinates": [ 2.64548, 45.33951 ] } },
{ "type": "Feature", "properties": { "name": "Unnamed", "category": "Reservoir", "area_ha": 14.7, "altitude_m": null }, "geometry": { "type": "Point", "coordinates": [ 2.97992, 45.21784 ] } },
{ "type": "Feature", "properties": { "name": "Étang de Majonenc", "category": "Reservoir", "area_ha": 10.8, "altitude_m": null }, "geometry": { "type": "Point", "coordinates": [ 2.6577, 45.30607 ] } },
{ "type": "Feature", "properties": { "name": "Lac de Menet", "category": "Reservoir", "area_ha": 14.3, "altitude_m": null }, "geometry": { "type": "Point", "coordinates": [ 2.58321, 45.30218 ] } },
{ "type": "Feature", "properties": { "name": "Lac du Pêcher", "category": "Reservoir", "area_ha": 20.1, "altitude_m": null }, "geometry": { "type": "Point", "coordinates": [ 2.88236, 45.1845 ] } },
{ "type": "Feature", "properties": { "name": "Unnamed", "category": "Reservoir", "area_ha": 13.6, "altitude_m": null }, "geometry": { "type": "Point", "coordinates": [ 2.62343, 45.45943 ] } },
{ "type": "Feature", "properties": { "name": "Lac des Moines", "category": "Reservoir", "area_ha": 6.2, "altitude_m": null }, "geometry": { "type": "Point", "coordinates": [ 2.76977, 45.3325 ] } },
{ "type": "Feature", "properties": { "name": "Unnamed", "category": "Reservoir", "area_ha": 7.0, "altitude_m": null }, "geometry": { "type": "Point", "coordinates": [ 2.85887, 45.2196 ] } },
{ "type": "Feature", "properties": { "name": "Lac de Sauvages", "category": "Reservoir", "area_ha": 11.4, "altitude_m": null }, "geometry": { "type": "Point", "coordinates": [ 2.85165, 45.17553 ] } },
{ "type": "Feature", "properties": { "name": "Lac des Graves", "category": "Reservoir", "area_ha": 8.3, "altitude_m": null }, "geometry": { "type": "Point", "coordinates": [ 2.56124, 45.01487 ] } },
{ "type": "Feature", "properties": { "name": "Lac du Jolan", "category": "Reservoir", "area_ha": 58.2, "altitude_m": null }, "geometry": { "type": "Point", "coordinates": [ 2.85395, 45.20295 ] } },
{ "type": "Feature", "properties": { "name": "Lac de Laroche", "category": "Reservoir", "area_ha": 6.4, "altitude_m": null }, "geometry": { "type": "Point", "coordinates": [ 2.6099, 45.38114 ] } },
{ "type": "Feature", "properties": { "name": "Lac de la Crégut", "category": "Dam", "area_ha": 41.7, "altitude_m": null }, "geometry": { "type": "Point", "coordinates": [ 2.67702, 45.40738 ] } },
{ "type": "Feature", "properties": { "name": "Lac du Barrage de Sarrans", "category": "Dam", "area_ha": 718.6, "altitude_m": null }, "geometry": { "type": "Point", "coordinates": [ 2.78503, 44.86404 ] } },
{ "type": "Feature", "properties": { "name": "Unnamed", "category": "Dam", "area_ha": 2.4, "altitude_m": null }, "geometry": { "type": "Point", "coordinates": [ 2.11893, 44.86888 ] } },
{ "type": "Feature", "properties": { "name": "Unnamed", "category": "Dam", "area_ha": 7.2, "altitude_m": null }, "geometry": { "type": "Point", "coordinates": [ 2.98956, 45.29333 ] } },
{ "type": "Feature", "properties": { "name": "Unnamed", "category": "Dam", "area_ha": 6.7, "altitude_m": null }, "geometry": { "type": "Point", "coordinates": [ 2.31475, 45.22001 ] } },
{ "type": "Feature", "properties": { "name": "Retenue du Gour Noir", "category": "Dam", "area_ha": 38.7, "altitude_m": null }, "geometry": { "type": "Point", "coordinates": [ 2.16039, 45.08446 ] } }
]
}
