{
"type": "FeatureCollection",
"name": "dep19.geojson",
"crs": { "type": "name", "properties": { "name": "urn:ogc:def:crs:OGC:1.3:CRS84" } },
"xy_coordinate_resolution": 1e-05,
"features": [
{ "type": "Feature", "properties": { "name": "Barrage des Chaumettes", "category": "Dam", "area_ha": 59.2, "altitude_m": null }, "geometry": { "type": "Point", "coordinates": [ 2.35567, 45.46426 ] } },
{ "type": "Feature", "properties": { "name": "Lac de l'Aigle", "category": "Dam", "area_ha": 635.9, "altitude_m": null }, "geometry": { "type": "Point", "coordinates": [ 2.30245, 45.30444 ] } },
{ "type": "Feature", "properties": { "name": "Étang de Meyrignac", "category": "Reservoir", "area_ha": 17.2, "altitude_m": null }, "geometry": { "type": "Point", "coordinates": [ 1.86389, 45.40261 ] } },
{ "type": "Feature", "properties": { "name": "Unnamed", "category": "Dam", "area_ha": 1.0, "altitude_m": null }, "geometry": { "type": "Point", "coordinates": [ 2.15999, 45.29818 ] } },
{ "type": "Feature", "properties": { "name": "Lac de Feyt", "category": "Reservoir", "area_ha": 51.1, "altitude_m": null }, "geometry": { "type": "Point", "coordinates": [ 2.03946, 45.14668 ] } },
{ "type": "Feature", "properties": { "name": "Unnamed", "category": "Reservoir", "area_ha": 7.6, "altitude_m": null }, "geometry": { "type": "Point", "coordinates": [ 1.72074, 45.0379 ] } },
{ "type": "Feature", "properties": { "name": "Barrage d'Argentat", "category": "Dam", "area_ha": 91.6, "altitude_m": null }, "geometry": { "type": "Point", "coordinates": [ 1.99523, 45.12767 ] } },
{ "type": "Feature", "properties": { "name": "Unnamed", "category": "Reservoir", "area_ha": 7.4, "altitude_m": null }, "geometry": { "type": "Point", "coordinates": [ 1.85345, 44.95889 ] } },
{ "type": "Feature", "properties": { "name": "Étang de Saint-Hilaire", "category": "Reservoir", "area_ha": 29.6, "altitude_m": null }, "geometry": { "type": "Point", "coordinates": [ 1.82206, 45.60158 ] } },
{ "type": "Feature", "properties": { "name": "Étang de la Rechèze", "category": "Reservoir", "area_ha": 5.8, "altitude_m": null }, "geometry": { "type": "Point", "coordinates": [ 1.44554, 45.37726 ] } },
{ "type": "Feature", "properties": { "name": "Étang de Laborde", "category": "Reservoir", "area_ha": 5.9, "altitude_m": null }, "geometry": { "type": "Point", "coordinates": [ 1.95573, 45.20844 ] } },
{ "type": "Feature", "properties": { "name": "Étang de Ruffaud", "category": "Reservoir", "area_ha": 20.7, "altitude_m": null }, "geometry": { "type": "Point", "coordinates": [ 1.86618, 45.31062 ] } },
{ "type": "Feature", "properties": { "name": "Unnamed", "category": "Reservoir", "area_ha": 16.9, "altitude_m": null }, "geometry": { "type": "Point", "coordinates": [ 1.93328, 45.08362 ] } },
{ "type": "Feature", "properties": { "name": "Lac de la Triouzoune", "category": "Dam", "area_ha": 316.1, "altitude_m": null }, "geometry": { "type": "Point", "coordinates": [ 2.29038, 45.39905 ] } },
{ "type": "Feature", "properties": { "name": "Lac de la Valette", "category": "Dam", "area_ha": 201.1, "altitude_m": null }, "geometry": { "type": "Point", "coordinates": [ 2.01336, 45.27636 ] } },
{ "type": "Feature", "properties": { "name": "Lac des Bariousses", "category": "Dam", "area_ha": 93.7, "altitude_m": null }, "geometry": { "type": "Point", "coordinates": [ 1.82189, 45.56482 ] } },
{ "type": "Feature", "properties": { "name": "Barrage du Chastang", "category": "Dam", "area_ha": 365.2, "altitude_m": null }, "geometry": { "type": "Point", "coordinates": [ 2.032, 45.19052 ] } },
{ "type": "Feature", "properties": { "name": "Barrage de Hautefage", "category": "Dam", "area_ha": 130.4, "altitude_m": null }, "geometry": { "type": "Point", "coordinates": [ 2.03831, 45.07503 ] } },
{ "type": "Feature", "properties": { "name": "Retenue de la Luzège", "category": "Dam", "area_ha": 30.0, "altitude_m": null }, "geometry": { "type": "Point", "coordinates": [ 2.16801, 45.31902 ] } },
{ "type": "Feature", "properties": { "name": "Unnamed", "category": "Reservoir", "area_ha": 6.3, "altitude_m": null }, "geometry": { "type": "Point", "coordinates": [ 1.67437, 45.28655 ] } },
{ "type": "Feature", "properties": { "name": "Unnamed", "category": "Reservoir", "area_ha": 5.1, "altitude_m": null }, "geometry": { "type": "Point", "coordinates": [ 2.17735, 45.53188 ] } },
{ "type": "Feature", "properties": { "name": "Étang de l'Egady", "category": "Reservoir", "area_ha": 6.4, "altitude_m": null }, "geometry": { "type": "Point", "coordinates": [ 2.41617, 45.6945 ] } },
{ "type": "Feature", "properties": { "name": "Étang de Cros", "category": "Reservoir", "area_ha": 11.8, "altitude_m": null }, "geometry": { "type": "Point", "coordinates": [ 1.77485, 45.63579 ] } },
{ "type": "Feature", "properties": { "name": "Unnamed", "category": "Reservoir", "area_ha": 5.7, "altitude_m": null }, "geometry": { "type": "Point", "coordinates": [ 2.4341, 45.69508 ] } },
{ "type": "Feature", "properties": { "name": "Étang de Chabannes", "category": "Reservoir", "area_ha": 12.4, "altitude_m": null }, "geometry": { "type": "Point", "coordinates": [ 2.01841, 45.64672 ] } },
{ "type": "Feature", "properties": { "name": "Lac de Bournazel", "category": "Reservoir", "area_ha": 31.8, "altitude_m": null }, "geometry": { "type": "Point", "coordinates": [ 1.69809, 45.38059 ] } },
{ "type": "Feature", "properties": { "name": "Étang Noir", "category": "Reservoir", "area_ha": 8.6, "altitude_m": null }, "geometry": { "type": "Point", "coordinates": [ 2.3906, 45.46674 ] } },
{ "type": "Feature", "properties": { "name": "Lac du Causse", "category": "Reservoir", "area_ha": 74.7, "altitude_m": null }, "geometry": { "type": "Point", "coordinates": [ 1.44883, 45.09576 ] } },
{ "type": "Feature", "properties": { "name": "Unnamed", "category": "Reservoir", "area_ha": 7.9, "altitude_m": null }, "geometry": { "type": "Point", "coordinates": [ 2.00257, 45.35735 ] } },
{ "type": "Feature", "properties": { "name": "Unnamed", "category": "Reservoir", "area_ha": 7.1, "altitude_m": null }, "geometry": { "type": "Point", "coordinates": [ 2.22289, 45.6787 ] } },
{ "type": "Feature", "properties": { "name": "Unnamed", "category": "Reservoir", "area_ha": 8.7, "altitude_m": null }, "geometry": { "type": "Point", "coordinates": [ 1.91397, 45.23304 ] } },
{ "type": "Feature", "properties": { "name": "Unnamed", "category": "Reservoir", "area_ha": 8.5, "altitude_m": null }, "geometry": { "type": "Point", "coordinates": [ 2.00181, 45.6549 ] } },
{ "type": "Feature", "properties": { "name": "Unnamed", "category": "Reservoir", "area_ha": 5.6, "altitude_m": null }, "geometry": { "type": "Point", "coordinates": [ 1.92976, 45.23189 ] } },
{ "type": "Feature", "properties": { "name": "Étang du Diable", "category": "Reservoir", "area_ha": 10.9, "altitude_m": null }, "geometry": { "type": "Point", "coordinates": [ 2.05908, 45.62201 ] } },
{ "type": "Feature", "properties": { "name": "Unnamed", "category": "Reservoir", "area_ha": 6.0, "altitude_m": null }, "geometry": { "type": "Point", "coordinates": [ 2.04564, 45.61249 ] } },
{ "type": "Feature", "properties": { "name": "Étang de la Voûte", "category": "Reservoir", "area_ha": 6.7, "altitude_m": null }, "geometry": { "type": "Point", "coordinates": [ 1.9074, 45.63738 ] } },
{ "type": "Feature", "properties": { "name": "Plan d'Eau de la Ballastière", "category": "Reservoir", "area_ha": 5.5, "altitude_m": null }, "geometry": { "type": "Point", "coordinates": [ 2.48182, 45.38031 ] } },
{ "type": "Feature", "properties": { "name": "le Petit Étang", "category": "Reservoir", "area_ha": 9.2, "altitude_m": null }, "geometry": { "type": "Point", "coordinates": [ 1.82696, 45.6084 ] } },
{ "type": "Feature", "properties": { "name": "Étang des Places", "category": "Reservoir", "area_ha": 5.2, "altitude_m": null }, "geometry": { "type": "Point", "coordinates": [ 1.53776, 45.53702 ] } },
{ "type": "Feature", "properties": { "name": "Étang de Meilhards", "category": "Reservoir", "area_ha": 5.4, "altitude_m": null }, "geometry": { "type": "Point", "coordinates": [ 1.65356, 45.56477 ] } },
{ "type": "Feature", "properties": { "name": "l'Étang Peau", "category": "Reservoir", "area_ha": 5.5, "altitude_m": null }, "geometry": { "type": "Point", "coordinates": [ 2.03696, 45.38333 ] } },
{ "type": "Feature", "properties": { "name": "Étang de la Gâne", "category": "Reservoir", "area_ha": 6.3, "altitude_m": null }, "geometry": { "type": "Point", "coordinates": [ 2.37237, 45.49737 ] } },
{ "type": "Feature", "properties": { "name": "Étang d'Eyrein", "category": "Reservoir", "area_ha": 11.2, "altitude_m": null }, "geometry": { "type": "Point", "coordinates": [ 1.95253, 45.33843 ] } },
{ "type": "Feature", "properties": { "name": "Étang de Ganezande", "category": "Reservoir", "area_ha": 8.4, "altitude_m": null }, "geometry": { "type": "Point", "coordinates": [ 1.83347, 45.44644 ] } },
{ "type": "Feature", "properties": { "name": "Étang de la Bonde", "category": "Reservoir", "area_ha": 11.8, "altitude_m": null }, "geometry": { "type": "Point", "coordinates": [ 1.94379, 45.27112 ] } },
{ "type": "Feature", "properties": { "name": "Étang de Brach", "category": "Reservoir", "area_ha": 21.1, "altitude_m": null }, "geometry": { "type": "Point", "coordinates": [ 1.875, 45.3269 ] } },
{ "type": "Feature", "properties": { "name": "Étang de Taysse", "category": "Reservoir", "area_ha": 31.9, "altitude_m": null }, "geometry": { "type": "Point", "coordinates": [ 1.91512, 45.26415 ] } },
{ "type": "Feature", "properties": { "name": "Étang de Lachamp", "category": "Reservoir", "area_ha": 12.5, "altitude_m": null }, "geometry": { "type": "Point", "coordinates": [ 1.64969, 45.2699 ] } },
{ "type": "Feature", "properties": { "name": "Étang Ferrier", "category": "Reservoir", "area_ha": 31.4, "altitude_m": null }, "geometry": { "type": "Point", "coordinates": [ 1.96906, 45.25994 ] } },
{ "type": "Feature", "properties": { "name": "Unnamed", "category": "Reservoir", "area_ha": 5.8, "altitude_m": null }, "geometry": { "type": "Point", "coordinates": [ 1.93212, 45.08744 ] } },
{ "type": "Feature", "properties": { "name": "Étang des Goursolles", "category": "Reservoir", "area_ha": 13.1, "altitude_m": null }, "geometry": { "type": "Point", "coordinates": [ 1.85218, 45.62865 ] } },
{ "type": "Feature", "properties": { "name": "Étang des Stizaleix", "category": "Reservoir", "area_ha": 7.9, "altitude_m": null }, "geometry": { "type": "Point", "coordinates": [ 1.94924, 45.42925 ] } },
{ "type": "Feature", "properties": { "name": "Étang de Gros", "category": "Reservoir", "area_ha": 11.1, "altitude_m": null }, "geometry": { "type": "Point", "coordinates": [ 2.01763, 45.36156 ] } },
{ "type": "Feature", "properties": { "name": "Étang Neuf", "category": "Reservoir", "area_ha": 13.6, "altitude_m": null }, "geometry": { "type": "Point", "coordinates": [ 1.69398, 45.37102 ] } },
{ "type": "Feature", "properties": { "name": "Lac du Chammet", "category": "Dam", "area_ha": 91.2, "altitude_m": null }, "geometry": { "type": "Point", "coordinates": [ 1.99296, 45.72264 ] } },
{ "type": "Feature", "properties": { "name": "Lac de Viam", "category": "Dam", "area_ha": 144.3, "altitude_m": null }, "geometry": { "type": "Point", "coordinates": [ 1.87927, 45.59259 ] } },
{ "type": "Feature", "properties": { "name": "Unnamed", "category": "Dam", "area_ha": 2.0, "altitude_m": null }, "geometry": { "type": "Point", "coordinates": [ 1.66287, 45.52881 ] } },
{ "type": "Feature", "properties": { "name": "Étang du Lieuteret", "category": "Dam", "area_ha": 3.2, "altitude_m": null }, "geometry": { "type": "Point", "coordinates": [ 2.119, 45.4257 ] } },
{ "type": "Feature", "properties": { "name": "Étang du Pilard", "category": "Dam", "area_ha": 5.0, "altitude_m": null }, "geometry": { "type": "Point", "coordinates": [ 1.93132, 45.27798 ] } },
{ "type": "Feature", "properties": { "name": "Étang de la Prade", "category": "Dam", "area_ha": 9.3, "altitude_m": null }, "geometry": { "type": "Point", "coordinates": [ 1.94975, 45.28901 ] } },
{ "type": "Feature", "properties": { "name": "Unnamed", "category": "Dam", "area_ha": 2.1, "altitude_m": null }, "geometry": { "type": "Point", "coordinates": [ 1.67929, 45.42685 ] } },
{ "type": "Feature", "properties": { "name": "Unnamed", "category": "Dam", "area_ha": 1.4, "altitude_m": null }, "geometry": { "type": "Point", "coordinates": [ 1.67705, 45.35813 ] } },
{ "type": "Feature", "properties": { "name": "Lac de Miel", "category": "Dam", "area_ha": 10.4, "altitude_m": null }, "geometry": { "type": "Point", "coordinates": [ 1.76711, 45.1296 ] } },
{ "type": "Feature", "properties": { "name": "Retenue de Peyrissac", "category": "Dam", "area_ha": 26.3, "altitude_m": null }, "geometry": { "type": "Point", "coordinates": [ 1.72401, 45.51314 ] } },
{ "type": "Feature", "properties": { "name": "Lac du Barrage de la Couze", "category": "Dam", "area_ha": 8.6, "altitude_m": null }, "geometry": { "type": "Point", "coordinates": [ 1.60346, 45.19877 ] } },
{ "type": "Feature", "properties": { "name": "Unnamed", "category": "Dam", "area_ha": 2.3, "altitude_m": null }, "geometry": { "type": "Point", "coordinates": [ 2.18656, 45.43394 ] } },
{ "type": "Feature", "properties": { "name": "Unnamed", "category": "Dam", "area_ha": 3.0, "altitude_m": null }, "geometry": { "type": "Point", "coordinates": [ 2.24795, 45.38492 ] } },
{ "type": "Feature", "properties": { "name": "Unnamed", "category": "Dam", "area_ha": 1.4, "altitude_m": null }, "geometry": { "type": "Point", "coordinates": [ 2.15198, 45.54 ] } },
{ "type": "Feature", "properties": { "name": "Unnamed", "category": "Dam", "area_ha": 4.5, "altitude_m": null }, "geometry": { "type": "Point", "coordinates": [ 2.16747, 45.37958 ] } },
{ "type": "Feature", "properties": { "name": "Unnamed", "category": "Dam", "area_ha": 1.5, "altitude_m": null }, "geometry": { "type": "Point", "coordinates": [ 2.25296, 45.41862 ] } },
{ "type": "Feature", "properties": { "name": "Unnamed", "category": "Dam", "area_ha": 3.5, "altitude_m": null }, "geometry": { "type": "Point", "coordinates": [ 2.19417, 45.42699 ] } },
{ "type": "Feature", "properties": { "name": "Unnamed", "category": "Dam", "area_ha": 7.0, "altitude_m": null }, "geometry": { "type": "Point", "coordinates": [ 2.39401, 45.70162 ] } },
{ "type": "Feature", "properties": { "name": "Unnamed", "category": "Dam", "area_ha": 6.3, "altitude_m": null }, "geometry": { "type": "Point", "coordinates": [ 2.2076, 45.28353 ] } },
{ "type": "Feature", "properties": { "name": "Étang de Poncharal", "category": "Dam", "area_ha": 13.5, "altitude_m": null }, "geometry": { "type": "Point", "coordinates": [ 1.54092, 45.36894 ] } },
{ "type": "Feature", "properties": { "name": "Étang Neuf", "category": "Dam", "area_ha": 4.5, "altitude_m": null }, "geometry": { "type": "Point", "coordinates": [ 1.95699, 45.29073 ] } },
{ "type": "Feature", "properties": { "name": "Étang des Oussines", "category": "Dam", "area_ha": 17.1, "altitude_m": null }, "geometry": { "type": "Point", "coordinates": [ 2.06743, 45.63451 ] } },
{ "type": "Feature", "properties": { "name": "Étang de la Trompe", "category": "Dam", "area_ha": 3.7, "altitude_m": null }, "geometry": { "type": "Point", "coordinates": [ 2.14756, 45.48611 ] } },
{ "type": "Feature", "properties": { "name": "Étang de Ponty", "category": "Dam", "area_ha": 16.2, "altitude_m": null }, "geometry": { "type": "Point", "coordinates": [ 2.28096, 45.54429 ] } },
{ "type": "Feature", "properties": { "name": "Lac de Sèchemaille", "category": "Dam", "area_ha": 42.9, "altitude_m": null }, "geometry": { "type": "Point", "coordinates": [ 2.12227, 45.52375 ] } },
{ "type": "Feature", "properties": { "name": "Étang de Montsour", "category": "Dam", "area_ha": 9.4, "altitude_m": null }, "geometry": { "type": "Point", "coordinates": [ 2.17046, 45.38628 ] } },
{ "type": "Feature", "properties": { "name": "Étang Grand", "category": "Dam", "area_ha": 8.6, "altitude_m": null }, "geometry": { "type": "Point", "coordinates": [ 2.08299, 45.11625 ] } },
{ "type": "Feature", "properties": { "name": "Lac de Servières", "category": "Dam", "area_ha": 8.9, "altitude_m": null }, "geometry": { "type": "Point", "coordinates": [ 1.99724, 45.69959 ] } },
{ "type": "Feature", "properties": { "name": "Étang du Prévot", "category": "Dam", "area_ha": 31.4, "altitude_m": null }, "geometry": { "type": "Point", "coordinates": [ 1.97586, 45.29141 ] } },
{ "type": "Feature", "properties": { "name": "Étang de l'Abeille", "category": "Dam", "area_ha": 12.1, "altitude_m": null }, "geometry": { "type": "Point", "coordinates": [ 2.45841, 45.65346 ] } },
{ "type": "Feature", "properties": { "name": "Unnamed", "category": "Dam", "area_ha": 10.6, "altitude_m": null }, "geometry": { "type": "Point", "coordinates": [ 2.04067, 45.69886 ] } },
{ "type": "Feature", "properties": { "name": "Unnamed", "category": "Dam", "area_ha": 1.5, "altitude_m": null }, "geometry": { "type": "Point", "coordinates": [ 2.29794, 45.41515 ] } },
{ "type": "Feature", "properties": { "name": "Unnamed", "category": "Dam", "area_ha": 4.1, "altitude_m": null }, "geometry": { "type": "Point", "coordinates": [ 1.62679, 45.34041 ] } },
{ "type": "Feature", "properties": { "name": "Lac du Deiro", "category": "Dam", "area_ha": 10.0, "altitude_m": null }, "geometry": { "type": "Point", "coordinates": [ 2.06042, 45.42211 ] } },
{ "type": "Feature", "properties": { "name": "Unnamed", "category": "Dam", "area_ha": 21.7, "altitude_m": null }, "geometry": { "type": "Point", "coordinates": [ 1.71446, 45.18282 ] } }
]
}
