{
"type": "FeatureCollection",
"name": "dep16.geojson",
"crs": { "type": "name", "properties": { "name": "urn:ogc:def:crs:OGC:1.3:CRS84" } },
"xy_coordinate_resolution": 1e-05,
"features": [
{ "type": "Feature", "properties": { "name": "Unnamed", "category": "Reservoir", "area_ha": 19.3, "altitude_m": null }, "geometry": { "type": "Point", "coordinates": [ -0.13876, 45.65649 ] } },
{ "type": "Feature", "properties": { "name": "Lac de Lavaud", "category": "Dam", "area_ha": 141.0, "altitude_m": null }, "geometry": { "type": "Point", "coordinates": [ 0.69255, 45.81316 ] } },
{ "type": "Feature", "properties": { "name": "Étang de chez le Besson", "category": "Reservoir", "area_ha": 7.1, "altitude_m": null }, "geometry": { "type": "Point", "coordinates": [ 0.49852, 46.11764 ] } },
{ "type": "Feature", "properties": { "name": "Unnamed", "category": "Reservoir", "area_ha": 15.0, "altitude_m": null }, "geometry": { "type": "Point", "coordinates": [ 0.80257, 45.87177 ] } },
{ "type": "Feature", "properties": { "name": "Unnamed", "category": "Reservoir", "area_ha": 24.2, "altitude_m": null }, "geometry": { "type": "Point", "coordinates": [ 0.15248, 45.68576 ] } },
{ "type": "Feature", "properties": { "name": "Unnamed", "category": "Reservoir", "area_ha": 6.9, "altitude_m": null }, "geometry": { "type": "Point", "coordinates": [ 0.04759, 45.82496 ] } },
{ "type": "Feature", "properties": { "name": "Unnamed", "category": "Reservoir", "area_ha": 7.1, "altitude_m": null }, "geometry": { "type": "Point", "coordinates": [ 0.54122, 46.083 ] } },
{ "type": "Feature", "properties": { "name": "Unnamed", "category": "Reservoir", "area_ha": 6.6, "altitude_m": null }, "geometry": { "type": "Point", "coordinates": [ -0.18352, 45.31017 ] } },
{ "type": "Feature", "properties": { "name": "Unnamed", "category": "Reservoir", "area_ha": 6.6, "altitude_m": null }, "geometry": { "type": "Point", "coordinates": [ 0.10726, 45.56125 ] } },
{ "type": "Feature", "properties": { "name": "Étang de Pierre Brigueuil", "category": "Reservoir", "area_ha": 5.5, "altitude_m": null }, "geometry": { "type": "Point", "coordinates": [ 0.86512, 45.96246 ] } },
{ "type": "Feature", "properties": { "name": "Barrage de Belle Vue", "category": "Dam", "area_ha": 19.4, "altitude_m": null }, "geometry": { "type": "Point", "coordinates": [ 0.70111, 46.04904 ] } },
{ "type": "Feature", "properties": { "name": "Étang de Roudareix", "category": "Reservoir", "area_ha": 5.6, "altitude_m": null }, "geometry": { "type": "Point", "coordinates": [ 0.88625, 45.96107 ] } },
{ "type": "Feature", "properties": { "name": "Étang de la Grole", "category": "Reservoir", "area_ha": 6.1, "altitude_m": null }, "geometry": { "type": "Point", "coordinates": [ 0.59419, 45.72942 ] } },
{ "type": "Feature", "properties": { "name": "Étang des Sèches", "category": "Reservoir", "area_ha": 6.5, "altitude_m": null }, "geometry": { "type": "Point", "coordinates": [ 0.69684, 46.03212 ] } },
{ "type": "Feature", "properties": { "name": "Unnamed", "category": "Reservoir", "area_ha": 5.0, "altitude_m": null }, "geometry": { "type": "Point", "coordinates": [ -0.30338, 45.75285 ] } },
{ "type": "Feature", "properties": { "name": "les Ganets", "category": "Reservoir", "area_ha": 5.5, "altitude_m": null }, "geometry": { "type": "Point", "coordinates": [ 0.0637, 45.88085 ] } },
{ "type": "Feature", "properties": { "name": "Étang de la Féculerie", "category": "Reservoir", "area_ha": 6.6, "altitude_m": null }, "geometry": { "type": "Point", "coordinates": [ 0.77573, 45.89917 ] } },
{ "type": "Feature", "properties": { "name": "Unnamed", "category": "Reservoir", "area_ha": 7.2, "altitude_m": null }, "geometry": { "type": "Point", "coordinates": [ -0.30006, 45.75525 ] } },
{ "type": "Feature", "properties": { "name": "Unnamed", "category": "Reservoir", "area_ha": 8.5, "altitude_m": null }, "geometry": { "type": "Point", "coordinates": [ 0.64833, 45.77587 ] } },
{ "type": "Feature", "properties": { "name": "Unnamed", "category": "Reservoir", "area_ha": 5.7, "altitude_m": null }, "geometry": { "type": "Point", "coordinates": [ 0.6413, 45.77373 ] } },
{ "type": "Feature", "properties": { "name": "Unnamed", "category": "Reservoir", "area_ha": 10.1, "altitude_m": null }, "geometry": { "type": "Point", "coordinates": [ 0.63549, 45.76763 ] } },
{ "type": "Feature", "properties": { "name": "Unnamed", "category": "Reservoir", "area_ha": 7.9, "altitude_m": null }, "geometry": { "type": "Point", "coordinates": [ -0.13084, 45.65329 ] } },
{ "type": "Feature", "properties": { "name": "Unnamed", "category": "Reservoir", "area_ha": 6.2, "altitude_m": null }, "geometry": { "type": "Point", "coordinates": [ -0.13895, 45.38522 ] } },
{ "type": "Feature", "properties": { "name": "Étang de Brigueuil", "category": "Reservoir", "area_ha": 8.5, "altitude_m": null }, "geometry": { "type": "Point", "coordinates": [ 0.85126, 45.9639 ] } },
{ "type": "Feature", "properties": { "name": "Étang de la Faye", "category": "Reservoir", "area_ha": 7.2, "altitude_m": null }, "geometry": { "type": "Point", "coordinates": [ 0.02089, 45.40826 ] } },
{ "type": "Feature", "properties": { "name": "l'Étang Neuf", "category": "Reservoir", "area_ha": 11.5, "altitude_m": null }, "geometry": { "type": "Point", "coordinates": [ 0.90964, 45.94701 ] } },
{ "type": "Feature", "properties": { "name": "Étang Limot", "category": "Reservoir", "area_ha": 6.0, "altitude_m": null }, "geometry": { "type": "Point", "coordinates": [ 0.04921, 45.39898 ] } },
{ "type": "Feature", "properties": { "name": "Unnamed", "category": "Reservoir", "area_ha": 6.7, "altitude_m": null }, "geometry": { "type": "Point", "coordinates": [ 0.38266, 45.72334 ] } },
{ "type": "Feature", "properties": { "name": "Unnamed", "category": "Reservoir", "area_ha": 8.7, "altitude_m": null }, "geometry": { "type": "Point", "coordinates": [ 0.38576, 45.71516 ] } },
{ "type": "Feature", "properties": { "name": "Unnamed", "category": "Reservoir", "area_ha": 9.8, "altitude_m": null }, "geometry": { "type": "Point", "coordinates": [ 0.23, 45.61893 ] } },
{ "type": "Feature", "properties": { "name": "Étang du Gazon", "category": "Reservoir", "area_ha": 8.0, "altitude_m": null }, "geometry": { "type": "Point", "coordinates": [ 0.54293, 45.81705 ] } },
{ "type": "Feature", "properties": { "name": "Étang Vallier", "category": "Dam", "area_ha": 3.7, "altitude_m": null }, "geometry": { "type": "Point", "coordinates": [ -0.06276, 45.32923 ] } },
{ "type": "Feature", "properties": { "name": "Barrage du Mas Chaban", "category": "Dam", "area_ha": 146.9, "altitude_m": null }, "geometry": { "type": "Point", "coordinates": [ 0.64739, 45.80483 ] } },
{ "type": "Feature", "properties": { "name": "Unnamed", "category": "Dam", "area_ha": 2.7, "altitude_m": null }, "geometry": { "type": "Point", "coordinates": [ -0.11939, 45.29992 ] } },
{ "type": "Feature", "properties": { "name": "Lac du Mas Chaban", "category": "Dam", "area_ha": 15.3, "altitude_m": null }, "geometry": { "type": "Point", "coordinates": [ 0.63983, 45.80645 ] } },
{ "type": "Feature", "properties": { "name": "Unnamed", "category": "Dam", "area_ha": 14.4, "altitude_m": null }, "geometry": { "type": "Point", "coordinates": [ 0.7155, 46.12082 ] } },
{ "type": "Feature", "properties": { "name": "Lac du Mas Chaban", "category": "Dam", "area_ha": 3.3, "altitude_m": null }, "geometry": { "type": "Point", "coordinates": [ 0.64205, 45.79437 ] } }
]
}
