{
"type": "FeatureCollection",
"name": "dep18.geojson",
"crs": { "type": "name", "properties": { "name": "urn:ogc:def:crs:OGC:1.3:CRS84" } },
"xy_coordinate_resolution": 1e-05,
"features": [
{ "type": "Feature", "properties": { "name": "Unnamed", "category": "Reservoir", "area_ha": 8.7, "altitude_m": null }, "geometry": { "type": "Point", "coordinates": [ 2.15502, 47.14134 ] } },
{ "type": "Feature", "properties": { "name": "Étang du Bois", "category": "Reservoir", "area_ha": 9.8, "altitude_m": null }, "geometry": { "type": "Point", "coordinates": [ 2.37264, 47.27887 ] } },
{ "type": "Feature", "properties": { "name": "Unnamed", "category": "Reservoir", "area_ha": 5.1, "altitude_m": null }, "geometry": { "type": "Point", "coordinates": [ 2.82295, 46.97618 ] } },
{ "type": "Feature", "properties": { "name": "Unnamed", "category": "Reservoir", "area_ha": 6.0, "altitude_m": null }, "geometry": { "type": "Point", "coordinates": [ 2.29403, 47.58319 ] } },
{ "type": "Feature", "properties": { "name": "Étang de la Tuilerie", "category": "Reservoir", "area_ha": 6.3, "altitude_m": null }, "geometry": { "type": "Point", "coordinates": [ 2.15269, 46.8542 ] } },
{ "type": "Feature", "properties": { "name": "Unnamed", "category": "Reservoir", "area_ha": 7.9, "altitude_m": null }, "geometry": { "type": "Point", "coordinates": [ 2.35182, 47.57891 ] } },
{ "type": "Feature", "properties": { "name": "Unnamed", "category": "Reservoir", "area_ha": 10.1, "altitude_m": null }, "geometry": { "type": "Point", "coordinates": [ 2.1979, 47.07034 ] } },
{ "type": "Feature", "properties": { "name": "Unnamed", "category": "Reservoir", "area_ha": 6.8, "altitude_m": null }, "geometry": { "type": "Point", "coordinates": [ 2.40242, 47.53463 ] } },
{ "type": "Feature", "properties": { "name": "Unnamed", "category": "Reservoir", "area_ha": 12.2, "altitude_m": null }, "geometry": { "type": "Point", "coordinates": [ 2.11403, 47.19861 ] } },
{ "type": "Feature", "properties": { "name": "Étang Neuf", "category": "Reservoir", "area_ha": 21.4, "altitude_m": null }, "geometry": { "type": "Point", "coordinates": [ 2.40532, 46.61453 ] } },
{ "type": "Feature", "properties": { "name": "Unnamed", "category": "Reservoir", "area_ha": 14.6, "altitude_m": null }, "geometry": { "type": "Point", "coordinates": [ 2.16282, 47.13085 ] } },
{ "type": "Feature", "properties": { "name": "Étang de la Verrerie", "category": "Reservoir", "area_ha": 6.5, "altitude_m": null }, "geometry": { "type": "Point", "coordinates": [ 2.52003, 47.42171 ] } },
{ "type": "Feature", "properties": { "name": "Unnamed", "category": "Reservoir", "area_ha": 5.7, "altitude_m": null }, "geometry": { "type": "Point", "coordinates": [ 2.25534, 47.60994 ] } },
{ "type": "Feature", "properties": { "name": "Étang de Rousson", "category": "Reservoir", "area_ha": 5.7, "altitude_m": null }, "geometry": { "type": "Point", "coordinates": [ 2.35826, 46.82471 ] } },
{ "type": "Feature", "properties": { "name": "Unnamed", "category": "Reservoir", "area_ha": 14.7, "altitude_m": null }, "geometry": { "type": "Point", "coordinates": [ 2.10524, 47.19561 ] } },
{ "type": "Feature", "properties": { "name": "Unnamed", "category": "Reservoir", "area_ha": 5.1, "altitude_m": null }, "geometry": { "type": "Point", "coordinates": [ 2.30874, 47.33663 ] } },
{ "type": "Feature", "properties": { "name": "Étang de Chamort", "category": "Reservoir", "area_ha": 7.2, "altitude_m": null }, "geometry": { "type": "Point", "coordinates": [ 2.2053, 47.33417 ] } },
{ "type": "Feature", "properties": { "name": "Unnamed", "category": "Reservoir", "area_ha": 9.5, "altitude_m": null }, "geometry": { "type": "Point", "coordinates": [ 2.1933, 47.39859 ] } },
{ "type": "Feature", "properties": { "name": "Barrage de Sidiailles", "category": "Dam", "area_ha": 77.8, "altitude_m": null }, "geometry": { "type": "Point", "coordinates": [ 2.32046, 46.49782 ] } },
{ "type": "Feature", "properties": { "name": "Unnamed", "category": "Reservoir", "area_ha": 5.9, "altitude_m": null }, "geometry": { "type": "Point", "coordinates": [ 1.9193, 47.20475 ] } },
{ "type": "Feature", "properties": { "name": "Étang de Morue", "category": "Reservoir", "area_ha": 12.5, "altitude_m": null }, "geometry": { "type": "Point", "coordinates": [ 2.63093, 47.31812 ] } },
{ "type": "Feature", "properties": { "name": "Étang de la Billionnière", "category": "Reservoir", "area_ha": 5.4, "altitude_m": null }, "geometry": { "type": "Point", "coordinates": [ 2.23405, 47.60064 ] } },
{ "type": "Feature", "properties": { "name": "le Grand Étang", "category": "Reservoir", "area_ha": 5.6, "altitude_m": null }, "geometry": { "type": "Point", "coordinates": [ 2.24523, 47.46983 ] } },
{ "type": "Feature", "properties": { "name": "Étang des Tenus", "category": "Reservoir", "area_ha": 6.0, "altitude_m": null }, "geometry": { "type": "Point", "coordinates": [ 2.267, 47.41947 ] } },
{ "type": "Feature", "properties": { "name": "Étang de Bouchard", "category": "Reservoir", "area_ha": 8.9, "altitude_m": null }, "geometry": { "type": "Point", "coordinates": [ 2.98001, 46.83848 ] } },
{ "type": "Feature", "properties": { "name": "Étang des Granges", "category": "Reservoir", "area_ha": 5.6, "altitude_m": null }, "geometry": { "type": "Point", "coordinates": [ 3.04468, 46.89048 ] } },
{ "type": "Feature", "properties": { "name": "Étang de la Chaudière", "category": "Reservoir", "area_ha": 8.8, "altitude_m": null }, "geometry": { "type": "Point", "coordinates": [ 2.4826, 46.76015 ] } },
{ "type": "Feature", "properties": { "name": "Étang de la Barre", "category": "Reservoir", "area_ha": 15.8, "altitude_m": null }, "geometry": { "type": "Point", "coordinates": [ 2.32442, 46.72496 ] } },
{ "type": "Feature", "properties": { "name": "Unnamed", "category": "Reservoir", "area_ha": 5.1, "altitude_m": null }, "geometry": { "type": "Point", "coordinates": [ 2.22357, 47.01029 ] } },
{ "type": "Feature", "properties": { "name": "Unnamed", "category": "Reservoir", "area_ha": 5.4, "altitude_m": null }, "geometry": { "type": "Point", "coordinates": [ 2.955, 47.03661 ] } },
{ "type": "Feature", "properties": { "name": "Étang de la Chelouze", "category": "Reservoir", "area_ha": 83.3, "altitude_m": null }, "geometry": { "type": "Point", "coordinates": [ 2.20295, 46.77651 ] } },
{ "type": "Feature", "properties": { "name": "Unnamed", "category": "Reservoir", "area_ha": 10.5, "altitude_m": null }, "geometry": { "type": "Point", "coordinates": [ 2.39252, 47.22863 ] } },
{ "type": "Feature", "properties": { "name": "Unnamed", "category": "Reservoir", "area_ha": 5.2, "altitude_m": null }, "geometry": { "type": "Point", "coordinates": [ 2.15249, 47.38991 ] } },
{ "type": "Feature", "properties": { "name": "le Grand Étang", "category": "Reservoir", "area_ha": 15.4, "altitude_m": null }, "geometry": { "type": "Point", "coordinates": [ 2.22219, 47.3669 ] } },
{ "type": "Feature", "properties": { "name": "Étang de la Giroux", "category": "Reservoir", "area_ha": 7.4, "altitude_m": null }, "geometry": { "type": "Point", "coordinates": [ 2.24895, 47.20059 ] } },
{ "type": "Feature", "properties": { "name": "Unnamed", "category": "Reservoir", "area_ha": 7.4, "altitude_m": null }, "geometry": { "type": "Point", "coordinates": [ 2.67886, 47.39066 ] } },
{ "type": "Feature", "properties": { "name": "Étang Furet", "category": "Reservoir", "area_ha": 8.4, "altitude_m": null }, "geometry": { "type": "Point", "coordinates": [ 2.6563, 46.8147 ] } },
{ "type": "Feature", "properties": { "name": "Unnamed", "category": "Reservoir", "area_ha": 10.9, "altitude_m": null }, "geometry": { "type": "Point", "coordinates": [ 2.1057, 47.20042 ] } },
{ "type": "Feature", "properties": { "name": "Unnamed", "category": "Reservoir", "area_ha": 6.6, "altitude_m": null }, "geometry": { "type": "Point", "coordinates": [ 2.10105, 47.37555 ] } },
{ "type": "Feature", "properties": { "name": "Unnamed", "category": "Reservoir", "area_ha": 7.7, "altitude_m": null }, "geometry": { "type": "Point", "coordinates": [ 2.6236, 46.84604 ] } },
{ "type": "Feature", "properties": { "name": "Étang des Bois", "category": "Reservoir", "area_ha": 10.8, "altitude_m": null }, "geometry": { "type": "Point", "coordinates": [ 2.19992, 47.56346 ] } },
{ "type": "Feature", "properties": { "name": "Étang de la Penotte", "category": "Reservoir", "area_ha": 7.0, "altitude_m": null }, "geometry": { "type": "Point", "coordinates": [ 2.1786, 47.5654 ] } },
{ "type": "Feature", "properties": { "name": "Unnamed", "category": "Reservoir", "area_ha": 9.3, "altitude_m": null }, "geometry": { "type": "Point", "coordinates": [ 2.19067, 47.38524 ] } },
{ "type": "Feature", "properties": { "name": "Étang de Craon", "category": "Reservoir", "area_ha": 97.1, "altitude_m": null }, "geometry": { "type": "Point", "coordinates": [ 2.69528, 47.00125 ] } },
{ "type": "Feature", "properties": { "name": "Étang de Longues Folies", "category": "Reservoir", "area_ha": 7.3, "altitude_m": null }, "geometry": { "type": "Point", "coordinates": [ 2.33525, 46.63813 ] } },
{ "type": "Feature", "properties": { "name": "Étang de Fay", "category": "Reservoir", "area_ha": 6.9, "altitude_m": null }, "geometry": { "type": "Point", "coordinates": [ 2.04343, 47.24536 ] } },
{ "type": "Feature", "properties": { "name": "Unnamed", "category": "Reservoir", "area_ha": 5.2, "altitude_m": null }, "geometry": { "type": "Point", "coordinates": [ 2.36528, 46.6626 ] } },
{ "type": "Feature", "properties": { "name": "Unnamed", "category": "Reservoir", "area_ha": 5.9, "altitude_m": null }, "geometry": { "type": "Point", "coordinates": [ 2.20925, 47.38736 ] } },
{ "type": "Feature", "properties": { "name": "Lac de Virlay", "category": "Reservoir", "area_ha": 39.5, "altitude_m": null }, "geometry": { "type": "Point", "coordinates": [ 2.48263, 46.73586 ] } },
{ "type": "Feature", "properties": { "name": "Étang de Javoulet", "category": "Reservoir", "area_ha": 92.0, "altitude_m": null }, "geometry": { "type": "Point", "coordinates": [ 2.87317, 46.831 ] } },
{ "type": "Feature", "properties": { "name": "Unnamed", "category": "Reservoir", "area_ha": 11.0, "altitude_m": null }, "geometry": { "type": "Point", "coordinates": [ 2.15658, 47.13794 ] } },
{ "type": "Feature", "properties": { "name": "Unnamed", "category": "Reservoir", "area_ha": 6.1, "altitude_m": null }, "geometry": { "type": "Point", "coordinates": [ 2.24874, 47.59341 ] } },
{ "type": "Feature", "properties": { "name": "Unnamed", "category": "Reservoir", "area_ha": 6.3, "altitude_m": null }, "geometry": { "type": "Point", "coordinates": [ 2.24022, 46.75703 ] } },
{ "type": "Feature", "properties": { "name": "Étang de Bornacq", "category": "Reservoir", "area_ha": 13.7, "altitude_m": null }, "geometry": { "type": "Point", "coordinates": [ 2.4334, 46.62407 ] } },
{ "type": "Feature", "properties": { "name": "Étang Merlin", "category": "Reservoir", "area_ha": 6.8, "altitude_m": null }, "geometry": { "type": "Point", "coordinates": [ 2.18899, 46.56737 ] } },
{ "type": "Feature", "properties": { "name": "Étang de Gigoint", "category": "Reservoir", "area_ha": 6.3, "altitude_m": null }, "geometry": { "type": "Point", "coordinates": [ 2.24365, 47.3768 ] } },
{ "type": "Feature", "properties": { "name": "Étang du Colombier", "category": "Reservoir", "area_ha": 6.4, "altitude_m": null }, "geometry": { "type": "Point", "coordinates": [ 2.18105, 47.06513 ] } },
{ "type": "Feature", "properties": { "name": "Unnamed", "category": "Reservoir", "area_ha": 6.6, "altitude_m": null }, "geometry": { "type": "Point", "coordinates": [ 2.456, 47.48311 ] } },
{ "type": "Feature", "properties": { "name": "l'Abreuvoir aux Biches", "category": "Reservoir", "area_ha": 6.6, "altitude_m": null }, "geometry": { "type": "Point", "coordinates": [ 2.22293, 46.76746 ] } },
{ "type": "Feature", "properties": { "name": "Unnamed", "category": "Reservoir", "area_ha": 33.2, "altitude_m": null }, "geometry": { "type": "Point", "coordinates": [ 2.1578, 46.87786 ] } },
{ "type": "Feature", "properties": { "name": "le Grand Étang", "category": "Reservoir", "area_ha": 7.0, "altitude_m": null }, "geometry": { "type": "Point", "coordinates": [ 2.27219, 47.48718 ] } },
{ "type": "Feature", "properties": { "name": "Étang de la Percherie", "category": "Reservoir", "area_ha": 8.3, "altitude_m": null }, "geometry": { "type": "Point", "coordinates": [ 2.10323, 47.39268 ] } },
{ "type": "Feature", "properties": { "name": "Unnamed", "category": "Reservoir", "area_ha": 8.1, "altitude_m": null }, "geometry": { "type": "Point", "coordinates": [ 2.18827, 47.07671 ] } },
{ "type": "Feature", "properties": { "name": "Étang de Coulanges", "category": "Reservoir", "area_ha": 16.0, "altitude_m": null }, "geometry": { "type": "Point", "coordinates": [ 2.95531, 46.99059 ] } },
{ "type": "Feature", "properties": { "name": "Unnamed", "category": "Reservoir", "area_ha": 13.1, "altitude_m": null }, "geometry": { "type": "Point", "coordinates": [ 2.19764, 47.0754 ] } },
{ "type": "Feature", "properties": { "name": "Plan d'Eau des Genièvres", "category": "Reservoir", "area_ha": 12.6, "altitude_m": null }, "geometry": { "type": "Point", "coordinates": [ 2.86711, 47.50129 ] } },
{ "type": "Feature", "properties": { "name": "Unnamed", "category": "Reservoir", "area_ha": 6.1, "altitude_m": null }, "geometry": { "type": "Point", "coordinates": [ 2.20805, 47.03877 ] } },
{ "type": "Feature", "properties": { "name": "Unnamed", "category": "Reservoir", "area_ha": 6.0, "altitude_m": null }, "geometry": { "type": "Point", "coordinates": [ 2.38981, 46.52334 ] } },
{ "type": "Feature", "properties": { "name": "la Chapelle d'Angillon", "category": "Reservoir", "area_ha": 16.4, "altitude_m": null }, "geometry": { "type": "Point", "coordinates": [ 2.43728, 47.35926 ] } },
{ "type": "Feature", "properties": { "name": "Étangs de Prunet Cinq Cent Trente", "category": "Reservoir", "area_ha": 7.3, "altitude_m": null }, "geometry": { "type": "Point", "coordinates": [ 2.25685, 47.05033 ] } },
{ "type": "Feature", "properties": { "name": "Étang du Bouchot", "category": "Reservoir", "area_ha": 7.6, "altitude_m": null }, "geometry": { "type": "Point", "coordinates": [ 2.51561, 46.76916 ] } },
{ "type": "Feature", "properties": { "name": "Unnamed", "category": "Reservoir", "area_ha": 14.3, "altitude_m": null }, "geometry": { "type": "Point", "coordinates": [ 2.50199, 46.70335 ] } },
{ "type": "Feature", "properties": { "name": "Étang la Font", "category": "Reservoir", "area_ha": 9.9, "altitude_m": null }, "geometry": { "type": "Point", "coordinates": [ 2.15171, 47.40354 ] } },
{ "type": "Feature", "properties": { "name": "Unnamed", "category": "Reservoir", "area_ha": 6.7, "altitude_m": null }, "geometry": { "type": "Point", "coordinates": [ 2.31707, 47.48354 ] } },
{ "type": "Feature", "properties": { "name": "Unnamed", "category": "Reservoir", "area_ha": 6.0, "altitude_m": null }, "geometry": { "type": "Point", "coordinates": [ 2.38671, 47.41846 ] } },
{ "type": "Feature", "properties": { "name": "Unnamed", "category": "Reservoir", "area_ha": 11.2, "altitude_m": null }, "geometry": { "type": "Point", "coordinates": [ 2.40709, 46.79158 ] } },
{ "type": "Feature", "properties": { "name": "Unnamed", "category": "Reservoir", "area_ha": 5.0, "altitude_m": null }, "geometry": { "type": "Point", "coordinates": [ 2.46626, 46.77837 ] } },
{ "type": "Feature", "properties": { "name": "Unnamed", "category": "Reservoir", "area_ha": 11.0, "altitude_m": null }, "geometry": { "type": "Point", "coordinates": [ 2.56438, 46.85531 ] } },
{ "type": "Feature", "properties": { "name": "Unnamed", "category": "Reservoir", "area_ha": 6.5, "altitude_m": null }, "geometry": { "type": "Point", "coordinates": [ 2.48788, 46.78961 ] } },
{ "type": "Feature", "properties": { "name": "Unnamed", "category": "Reservoir", "area_ha": 6.8, "altitude_m": null }, "geometry": { "type": "Point", "coordinates": [ 2.06965, 47.08714 ] } },
{ "type": "Feature", "properties": { "name": "Unnamed", "category": "Reservoir", "area_ha": 19.1, "altitude_m": null }, "geometry": { "type": "Point", "coordinates": [ 2.17281, 47.11912 ] } },
{ "type": "Feature", "properties": { "name": "Unnamed", "category": "Reservoir", "area_ha": 14.2, "altitude_m": null }, "geometry": { "type": "Point", "coordinates": [ 2.12957, 47.34108 ] } },
{ "type": "Feature", "properties": { "name": "Étang de Chaume Blanche", "category": "Reservoir", "area_ha": 22.1, "altitude_m": null }, "geometry": { "type": "Point", "coordinates": [ 2.85122, 47.08386 ] } },
{ "type": "Feature", "properties": { "name": "la Chaillance", "category": "Reservoir", "area_ha": 7.5, "altitude_m": null }, "geometry": { "type": "Point", "coordinates": [ 2.46937, 46.63947 ] } },
{ "type": "Feature", "properties": { "name": "Unnamed", "category": "Reservoir", "area_ha": 7.4, "altitude_m": null }, "geometry": { "type": "Point", "coordinates": [ 2.3899, 47.23295 ] } },
{ "type": "Feature", "properties": { "name": "Unnamed", "category": "Reservoir", "area_ha": 5.1, "altitude_m": null }, "geometry": { "type": "Point", "coordinates": [ 2.33812, 47.2742 ] } },
{ "type": "Feature", "properties": { "name": "Étang de la Touche", "category": "Reservoir", "area_ha": 8.6, "altitude_m": null }, "geometry": { "type": "Point", "coordinates": [ 2.24916, 47.15419 ] } },
{ "type": "Feature", "properties": { "name": "Unnamed", "category": "Reservoir", "area_ha": 5.3, "altitude_m": null }, "geometry": { "type": "Point", "coordinates": [ 2.32795, 47.27566 ] } },
{ "type": "Feature", "properties": { "name": "Unnamed", "category": "Reservoir", "area_ha": 7.7, "altitude_m": null }, "geometry": { "type": "Point", "coordinates": [ 2.97784, 47.01623 ] } },
{ "type": "Feature", "properties": { "name": "Étang du Boucard", "category": "Reservoir", "area_ha": 10.2, "altitude_m": null }, "geometry": { "type": "Point", "coordinates": [ 3.01234, 46.90671 ] } },
{ "type": "Feature", "properties": { "name": "Unnamed", "category": "Reservoir", "area_ha": 21.0, "altitude_m": null }, "geometry": { "type": "Point", "coordinates": [ 2.148, 47.17374 ] } },
{ "type": "Feature", "properties": { "name": "Unnamed", "category": "Reservoir", "area_ha": 13.8, "altitude_m": null }, "geometry": { "type": "Point", "coordinates": [ 2.10184, 47.20485 ] } },
{ "type": "Feature", "properties": { "name": "Étang Neuf", "category": "Reservoir", "area_ha": 11.3, "altitude_m": null }, "geometry": { "type": "Point", "coordinates": [ 2.14288, 46.8492 ] } },
{ "type": "Feature", "properties": { "name": "Unnamed", "category": "Reservoir", "area_ha": 8.4, "altitude_m": null }, "geometry": { "type": "Point", "coordinates": [ 2.34143, 46.55039 ] } },
{ "type": "Feature", "properties": { "name": "Unnamed", "category": "Reservoir", "area_ha": 31.4, "altitude_m": null }, "geometry": { "type": "Point", "coordinates": [ 2.52361, 47.24909 ] } },
{ "type": "Feature", "properties": { "name": "Unnamed", "category": "Reservoir", "area_ha": 13.8, "altitude_m": null }, "geometry": { "type": "Point", "coordinates": [ 2.18118, 47.10462 ] } },
{ "type": "Feature", "properties": { "name": "Unnamed", "category": "Reservoir", "area_ha": 7.5, "altitude_m": null }, "geometry": { "type": "Point", "coordinates": [ 2.24851, 46.82746 ] } },
{ "type": "Feature", "properties": { "name": "Étang des Deux Queues", "category": "Reservoir", "area_ha": 8.4, "altitude_m": null }, "geometry": { "type": "Point", "coordinates": [ 2.15076, 46.83203 ] } },
{ "type": "Feature", "properties": { "name": "Étang des Sceps", "category": "Reservoir", "area_ha": 6.1, "altitude_m": null }, "geometry": { "type": "Point", "coordinates": [ 1.87129, 47.20403 ] } },
{ "type": "Feature", "properties": { "name": "Étang de Bel-Air", "category": "Reservoir", "area_ha": 10.0, "altitude_m": null }, "geometry": { "type": "Point", "coordinates": [ 2.23731, 47.59648 ] } },
{ "type": "Feature", "properties": { "name": "Étang des Rosés", "category": "Reservoir", "area_ha": 5.3, "altitude_m": null }, "geometry": { "type": "Point", "coordinates": [ 2.18149, 47.58463 ] } },
{ "type": "Feature", "properties": { "name": "Étang de l'Aiguillon", "category": "Reservoir", "area_ha": 9.2, "altitude_m": null }, "geometry": { "type": "Point", "coordinates": [ 2.15157, 47.57583 ] } },
{ "type": "Feature", "properties": { "name": "Étang des Colinières", "category": "Reservoir", "area_ha": 6.6, "altitude_m": null }, "geometry": { "type": "Point", "coordinates": [ 2.18472, 47.57294 ] } },
{ "type": "Feature", "properties": { "name": "Étang de l'Île", "category": "Reservoir", "area_ha": 9.6, "altitude_m": null }, "geometry": { "type": "Point", "coordinates": [ 2.19564, 47.41275 ] } },
{ "type": "Feature", "properties": { "name": "l'Étang Neuf", "category": "Reservoir", "area_ha": 15.4, "altitude_m": null }, "geometry": { "type": "Point", "coordinates": [ 2.50959, 47.2521 ] } },
{ "type": "Feature", "properties": { "name": "Étang de la Grande Chabotière", "category": "Reservoir", "area_ha": 5.7, "altitude_m": null }, "geometry": { "type": "Point", "coordinates": [ 2.26834, 47.35024 ] } },
{ "type": "Feature", "properties": { "name": "Étang des Quatre Vents", "category": "Reservoir", "area_ha": 6.1, "altitude_m": null }, "geometry": { "type": "Point", "coordinates": [ 2.24148, 47.32962 ] } },
{ "type": "Feature", "properties": { "name": "Étang de Fontenay", "category": "Reservoir", "area_ha": 17.6, "altitude_m": null }, "geometry": { "type": "Point", "coordinates": [ 2.16914, 47.31155 ] } },
{ "type": "Feature", "properties": { "name": "Étang des Trois Cantons", "category": "Reservoir", "area_ha": 11.6, "altitude_m": null }, "geometry": { "type": "Point", "coordinates": [ 2.51783, 47.26902 ] } },
{ "type": "Feature", "properties": { "name": "Étang de la Salle", "category": "Reservoir", "area_ha": 7.1, "altitude_m": null }, "geometry": { "type": "Point", "coordinates": [ 2.39682, 47.19761 ] } },
{ "type": "Feature", "properties": { "name": "le Dérompis", "category": "Reservoir", "area_ha": 7.2, "altitude_m": null }, "geometry": { "type": "Point", "coordinates": [ 2.14252, 47.10852 ] } },
{ "type": "Feature", "properties": { "name": "Étang de la Coudrière", "category": "Reservoir", "area_ha": 5.7, "altitude_m": null }, "geometry": { "type": "Point", "coordinates": [ 2.14706, 46.83751 ] } },
{ "type": "Feature", "properties": { "name": "Grand Étang de Bois Fermier", "category": "Reservoir", "area_ha": 8.8, "altitude_m": null }, "geometry": { "type": "Point", "coordinates": [ 2.16238, 46.82407 ] } },
{ "type": "Feature", "properties": { "name": "Étang de Bourniziou", "category": "Reservoir", "area_ha": 7.1, "altitude_m": null }, "geometry": { "type": "Point", "coordinates": [ 2.13535, 46.82994 ] } },
{ "type": "Feature", "properties": { "name": "Étang de Coutan", "category": "Reservoir", "area_ha": 5.5, "altitude_m": null }, "geometry": { "type": "Point", "coordinates": [ 2.12934, 46.80567 ] } },
{ "type": "Feature", "properties": { "name": "Étang de Laumoy", "category": "Reservoir", "area_ha": 7.3, "altitude_m": null }, "geometry": { "type": "Point", "coordinates": [ 2.80101, 46.79998 ] } },
{ "type": "Feature", "properties": { "name": "Étang des Trois Biches", "category": "Reservoir", "area_ha": 13.9, "altitude_m": null }, "geometry": { "type": "Point", "coordinates": [ 2.08076, 46.82197 ] } },
{ "type": "Feature", "properties": { "name": "Étang du Pondy", "category": "Reservoir", "area_ha": 24.3, "altitude_m": null }, "geometry": { "type": "Point", "coordinates": [ 2.64244, 46.79188 ] } },
{ "type": "Feature", "properties": { "name": "Étang de Feuilloux", "category": "Reservoir", "area_ha": 5.2, "altitude_m": null }, "geometry": { "type": "Point", "coordinates": [ 2.54135, 46.58244 ] } },
{ "type": "Feature", "properties": { "name": "Étang de la Loubière", "category": "Reservoir", "area_ha": 11.9, "altitude_m": null }, "geometry": { "type": "Point", "coordinates": [ 2.48618, 46.57627 ] } },
{ "type": "Feature", "properties": { "name": "le Grand Étang", "category": "Reservoir", "area_ha": 20.2, "altitude_m": null }, "geometry": { "type": "Point", "coordinates": [ 2.24607, 46.59278 ] } },
{ "type": "Feature", "properties": { "name": "Étang de Robinson", "category": "Reservoir", "area_ha": 5.3, "altitude_m": null }, "geometry": { "type": "Point", "coordinates": [ 2.96167, 46.94034 ] } },
{ "type": "Feature", "properties": { "name": "Étang Neuf", "category": "Reservoir", "area_ha": 6.0, "altitude_m": null }, "geometry": { "type": "Point", "coordinates": [ 2.53753, 46.76728 ] } },
{ "type": "Feature", "properties": { "name": "Étang Finet", "category": "Reservoir", "area_ha": 5.8, "altitude_m": null }, "geometry": { "type": "Point", "coordinates": [ 3.00191, 46.82155 ] } },
{ "type": "Feature", "properties": { "name": "Lac des Thureaux", "category": "Reservoir", "area_ha": 42.6, "altitude_m": null }, "geometry": { "type": "Point", "coordinates": [ 2.1757, 47.1081 ] } },
{ "type": "Feature", "properties": { "name": "Unnamed", "category": "Reservoir", "area_ha": 7.1, "altitude_m": null }, "geometry": { "type": "Point", "coordinates": [ 2.17779, 47.40404 ] } },
{ "type": "Feature", "properties": { "name": "Étang de la Grenouille", "category": "Reservoir", "area_ha": 8.0, "altitude_m": null }, "geometry": { "type": "Point", "coordinates": [ 2.84539, 46.81616 ] } },
{ "type": "Feature", "properties": { "name": "Unnamed", "category": "Reservoir", "area_ha": 26.0, "altitude_m": null }, "geometry": { "type": "Point", "coordinates": [ 2.58836, 46.64664 ] } },
{ "type": "Feature", "properties": { "name": "Unnamed", "category": "Reservoir", "area_ha": 6.0, "altitude_m": null }, "geometry": { "type": "Point", "coordinates": [ 2.9307, 47.09903 ] } },
{ "type": "Feature", "properties": { "name": "Étang de Pin", "category": "Reservoir", "area_ha": 8.6, "altitude_m": null }, "geometry": { "type": "Point", "coordinates": [ 2.94199, 46.97019 ] } },
{ "type": "Feature", "properties": { "name": "l'Étang Neuf", "category": "Reservoir", "area_ha": 15.5, "altitude_m": null }, "geometry": { "type": "Point", "coordinates": [ 2.40837, 47.59753 ] } },
{ "type": "Feature", "properties": { "name": "Étang de la Grille", "category": "Reservoir", "area_ha": 14.5, "altitude_m": null }, "geometry": { "type": "Point", "coordinates": [ 2.50404, 46.76039 ] } },
{ "type": "Feature", "properties": { "name": "Unnamed", "category": "Reservoir", "area_ha": 6.1, "altitude_m": null }, "geometry": { "type": "Point", "coordinates": [ 2.18458, 47.56637 ] } },
{ "type": "Feature", "properties": { "name": "Étang de la Rouanne", "category": "Reservoir", "area_ha": 6.0, "altitude_m": null }, "geometry": { "type": "Point", "coordinates": [ 2.48405, 46.56984 ] } },
{ "type": "Feature", "properties": { "name": "Étang de la Noue", "category": "Reservoir", "area_ha": 5.3, "altitude_m": null }, "geometry": { "type": "Point", "coordinates": [ 2.26173, 47.37688 ] } },
{ "type": "Feature", "properties": { "name": "Étang de Doys", "category": "Reservoir", "area_ha": 24.5, "altitude_m": null }, "geometry": { "type": "Point", "coordinates": [ 2.88725, 47.07043 ] } },
{ "type": "Feature", "properties": { "name": "Unnamed", "category": "Reservoir", "area_ha": 10.6, "altitude_m": null }, "geometry": { "type": "Point", "coordinates": [ 2.51717, 47.09523 ] } },
{ "type": "Feature", "properties": { "name": "Étang des Barres", "category": "Reservoir", "area_ha": 13.1, "altitude_m": null }, "geometry": { "type": "Point", "coordinates": [ 2.74339, 46.73261 ] } },
{ "type": "Feature", "properties": { "name": "Étang de Marelle", "category": "Dam", "area_ha": 7.0, "altitude_m": null }, "geometry": { "type": "Point", "coordinates": [ 2.84319, 47.03698 ] } },
{ "type": "Feature", "properties": { "name": "Unnamed", "category": "Dam", "area_ha": 8.5, "altitude_m": null }, "geometry": { "type": "Point", "coordinates": [ 2.84555, 47.03099 ] } },
{ "type": "Feature", "properties": { "name": "Étang de la Boulée", "category": "Dam", "area_ha": 13.0, "altitude_m": null }, "geometry": { "type": "Point", "coordinates": [ 3.00686, 46.83458 ] } },
{ "type": "Feature", "properties": { "name": "Étang de la Planche Chevrier", "category": "Dam", "area_ha": 16.9, "altitude_m": null }, "geometry": { "type": "Point", "coordinates": [ 3.00462, 46.88839 ] } },
{ "type": "Feature", "properties": { "name": "Étang de l'Oumas", "category": "Dam", "area_ha": 12.7, "altitude_m": null }, "geometry": { "type": "Point", "coordinates": [ 2.93519, 46.99617 ] } },
{ "type": "Feature", "properties": { "name": "Étang de Mauregard", "category": "Dam", "area_ha": 6.9, "altitude_m": null }, "geometry": { "type": "Point", "coordinates": [ 2.93528, 46.98889 ] } },
{ "type": "Feature", "properties": { "name": "Étang Bernot", "category": "Dam", "area_ha": 18.0, "altitude_m": null }, "geometry": { "type": "Point", "coordinates": [ 3.02307, 46.85235 ] } },
{ "type": "Feature", "properties": { "name": "Plan d'Eau du Val d'Auron", "category": "Dam", "area_ha": 72.9, "altitude_m": null }, "geometry": { "type": "Point", "coordinates": [ 2.40115, 47.0523 ] } }
]
}
