{
"type": "FeatureCollection",
"name": "dep14.geojson",
"crs": { "type": "name", "properties": { "name": "urn:ogc:def:crs:OGC:1.3:CRS84" } },
"xy_coordinate_resolution": 1e-05,
"features": [
{ "type": "Feature", "properties": { "name": "Lac de la Dathée", "category": "Dam", "area_ha": 40.6, "altitude_m": null }, "geometry": { "type": "Point", "coordinates": [ -0.95911, 48.80979 ] } },
{ "type": "Feature", "properties": { "name": "Unnamed", "category": "Reservoir", "area_ha": 5.2, "altitude_m": null }, "geometry": { "type": "Point", "coordinates": [ -0.22399, 49.20408 ] } },
{ "type": "Feature", "properties": { "name": "Unnamed", "category": "Reservoir", "area_ha": 7.0, "altitude_m": null }, "geometry": { "type": "Point", "coordinates": [ -0.58776, 48.89152 ] } },
{ "type": "Feature", "properties": { "name": "Étang de Villers", "category": "Reservoir", "area_ha": 6.1, "altitude_m": null }, "geometry": { "type": "Point", "coordinates": [ -0.25942, 48.92658 ] } },
{ "type": "Feature", "properties": { "name": "Lac de Pont-l'Évêque", "category": "Reservoir", "area_ha": 58.0, "altitude_m": null }, "geometry": { "type": "Point", "coordinates": [ 0.1973, 49.27531 ] } },
{ "type": "Feature", "properties": { "name": "Lac du Gast", "category": "Dam", "area_ha": 57.6, "altitude_m": null }, "geometry": { "type": "Point", "coordinates": [ -1.05765, 48.7992 ] } }
]
}
