{
"type": "FeatureCollection",
"name": "dep29.geojson",
"crs": { "type": "name", "properties": { "name": "urn:ogc:def:crs:OGC:1.3:CRS84" } },
"xy_coordinate_resolution": 1e-05,
"features": [
{ "type": "Feature", "properties": { "name": "Unnamed", "category": "Reservoir", "area_ha": 5.7, "altitude_m": null }, "geometry": { "type": "Point", "coordinates": [ -4.28922, 48.318 ] } },
{ "type": "Feature", "properties": { "name": "Lac de Poulinoc", "category": "Reservoir", "area_ha": 9.7, "altitude_m": null }, "geometry": { "type": "Point", "coordinates": [ -4.6498, 48.43979 ] } },
{ "type": "Feature", "properties": { "name": "Étang de Trunvel", "category": "Reservoir", "area_ha": 99.4, "altitude_m": null }, "geometry": { "type": "Point", "coordinates": [ -4.35765, 47.89393 ] } },
{ "type": "Feature", "properties": { "name": "Lac du Drennec", "category": "Dam", "area_ha": 112.6, "altitude_m": null }, "geometry": { "type": "Point", "coordinates": [ -4.00849, 48.39257 ] } },
{ "type": "Feature", "properties": { "name": "Unnamed", "category": "Reservoir", "area_ha": 22.8, "altitude_m": null }, "geometry": { "type": "Point", "coordinates": [ -4.42529, 48.23807 ] } },
{ "type": "Feature", "properties": { "name": "Étang du Pont", "category": "Reservoir", "area_ha": 8.4, "altitude_m": null }, "geometry": { "type": "Point", "coordinates": [ -4.38016, 48.62852 ] } },
{ "type": "Feature", "properties": { "name": "Lac de Lannéon", "category": "Lake", "area_ha": 18.2, "altitude_m": null }, "geometry": { "type": "Point", "coordinates": [ -4.65327, 48.44536 ] } },
{ "type": "Feature", "properties": { "name": "Unnamed", "category": "Reservoir", "area_ha": 5.6, "altitude_m": null }, "geometry": { "type": "Point", "coordinates": [ -4.43608, 48.34277 ] } },
{ "type": "Feature", "properties": { "name": "Étang du Fret", "category": "Reservoir", "area_ha": 16.3, "altitude_m": null }, "geometry": { "type": "Point", "coordinates": [ -4.50866, 48.28151 ] } },
{ "type": "Feature", "properties": { "name": "Loc'h Louargar", "category": "Reservoir", "area_ha": 26.3, "altitude_m": null }, "geometry": { "type": "Point", "coordinates": [ -3.87323, 47.81993 ] } },
{ "type": "Feature", "properties": { "name": "Plan du Moulin Neuf", "category": "Dam", "area_ha": 55.1, "altitude_m": null }, "geometry": { "type": "Point", "coordinates": [ -4.24285, 47.89573 ] } },
{ "type": "Feature", "properties": { "name": "Lac de Ty Colo", "category": "Reservoir", "area_ha": 13.5, "altitude_m": null }, "geometry": { "type": "Point", "coordinates": [ -4.61187, 48.42967 ] } },
{ "type": "Feature", "properties": { "name": "Loc'h Sant Vïo", "category": "Reservoir", "area_ha": 10.4, "altitude_m": null }, "geometry": { "type": "Point", "coordinates": [ -4.3291, 47.86994 ] } },
{ "type": "Feature", "properties": { "name": "Étang de Huelgoat", "category": "Reservoir", "area_ha": 15.0, "altitude_m": null }, "geometry": { "type": "Point", "coordinates": [ -3.74894, 48.36469 ] } },
{ "type": "Feature", "properties": { "name": "Loc'h Coziou", "category": "Reservoir", "area_ha": 17.7, "altitude_m": null }, "geometry": { "type": "Point", "coordinates": [ -3.85591, 47.80752 ] } },
{ "type": "Feature", "properties": { "name": "Étang de Kermor", "category": "Reservoir", "area_ha": 16.3, "altitude_m": null }, "geometry": { "type": "Point", "coordinates": [ -4.15795, 47.86127 ] } },
{ "type": "Feature", "properties": { "name": "Unnamed", "category": "Reservoir", "area_ha": 8.3, "altitude_m": null }, "geometry": { "type": "Point", "coordinates": [ -4.50955, 48.48215 ] } },
{ "type": "Feature", "properties": { "name": "Étang de Laoual", "category": "Reservoir", "area_ha": 10.2, "altitude_m": null }, "geometry": { "type": "Point", "coordinates": [ -4.69812, 48.04622 ] } },
{ "type": "Feature", "properties": { "name": "Unnamed", "category": "Reservoir", "area_ha": 18.6, "altitude_m": null }, "geometry": { "type": "Point", "coordinates": [ -4.40637, 47.9495 ] } },
{ "type": "Feature", "properties": { "name": "Étang du Roual", "category": "Reservoir", "area_ha": 6.6, "altitude_m": null }, "geometry": { "type": "Point", "coordinates": [ -4.2747, 48.41963 ] } },
{ "type": "Feature", "properties": { "name": "Lac de la Comiren", "category": "Reservoir", "area_ha": 10.2, "altitude_m": null }, "geometry": { "type": "Point", "coordinates": [ -4.62536, 48.43761 ] } },
{ "type": "Feature", "properties": { "name": "Étang de Poulguidou", "category": "Reservoir", "area_ha": 21.5, "altitude_m": null }, "geometry": { "type": "Point", "coordinates": [ -4.44637, 48.01309 ] } },
{ "type": "Feature", "properties": { "name": "Lac de Pontavennec", "category": "Reservoir", "area_ha": 12.8, "altitude_m": null }, "geometry": { "type": "Point", "coordinates": [ -4.60049, 48.42204 ] } },
{ "type": "Feature", "properties": { "name": "Étang de Kergalan", "category": "Reservoir", "area_ha": 77.0, "altitude_m": null }, "geometry": { "type": "Point", "coordinates": [ -4.36967, 47.90666 ] } },
{ "type": "Feature", "properties": { "name": "Lac Saint-Michel", "category": "Dam", "area_ha": 450.6, "altitude_m": null }, "geometry": { "type": "Point", "coordinates": [ -3.90743, 48.35849 ] } },
{ "type": "Feature", "properties": { "name": "Retenue de Saint-Herbot", "category": "Dam", "area_ha": 7.3, "altitude_m": null }, "geometry": { "type": "Point", "coordinates": [ -3.81252, 48.33653 ] } },
{ "type": "Feature", "properties": { "name": "Étang de Kerjan", "category": "Dam", "area_ha": 9.5, "altitude_m": null }, "geometry": { "type": "Point", "coordinates": [ -4.74675, 48.3586 ] } },
{ "type": "Feature", "properties": { "name": "Étang du Mur", "category": "Dam", "area_ha": 6.5, "altitude_m": null }, "geometry": { "type": "Point", "coordinates": [ -4.00744, 47.95265 ] } },
{ "type": "Feature", "properties": { "name": "Étang du Guic", "category": "Dam", "area_ha": 25.7, "altitude_m": null }, "geometry": { "type": "Point", "coordinates": [ -3.57019, 48.5181 ] } },
{ "type": "Feature", "properties": { "name": "Plan d'Eau de Lanorgant", "category": "Dam", "area_ha": 10.3, "altitude_m": null }, "geometry": { "type": "Point", "coordinates": [ -4.03023, 48.57584 ] } },
{ "type": "Feature", "properties": { "name": "Unnamed", "category": "Dam", "area_ha": 20.4, "altitude_m": null }, "geometry": { "type": "Point", "coordinates": [ -3.82547, 47.96358 ] } }
]
}
