{
"type": "FeatureCollection",
"name": "dep23.geojson",
"crs": { "type": "name", "properties": { "name": "urn:ogc:def:crs:OGC:1.3:CRS84" } },
"xy_coordinate_resolution": 1e-05,
"features": [
{ "type": "Feature", "properties": { "name": "Étang de la Combe", "category": "Reservoir", "area_ha": 6.9, "altitude_m": null }, "geometry": { "type": "Point", "coordinates": [ 2.191, 46.09501 ] } },
{ "type": "Feature", "properties": { "name": "Lac de Vassivière", "category": "Dam", "area_ha": 928.7, "altitude_m": null }, "geometry": { "type": "Point", "coordinates": [ 1.90018, 45.7983 ] } },
{ "type": "Feature", "properties": { "name": "Lac de la Vaud Gelade", "category": "Dam", "area_ha": 227.0, "altitude_m": null }, "geometry": { "type": "Point", "coordinates": [ 1.96878, 45.8425 ] } },
{ "type": "Feature", "properties": { "name": "Étang de la Brivonne", "category": "Reservoir", "area_ha": 5.3, "altitude_m": null }, "geometry": { "type": "Point", "coordinates": [ 2.3388, 45.77406 ] } },
{ "type": "Feature", "properties": { "name": "Unnamed", "category": "Reservoir", "area_ha": 7.3, "altitude_m": null }, "geometry": { "type": "Point", "coordinates": [ 2.37014, 46.18464 ] } },
{ "type": "Feature", "properties": { "name": "Unnamed", "category": "Dam", "area_ha": 19.3, "altitude_m": null }, "geometry": { "type": "Point", "coordinates": [ 1.8386, 46.27635 ] } },
{ "type": "Feature", "properties": { "name": "Unnamed", "category": "Reservoir", "area_ha": 6.3, "altitude_m": null }, "geometry": { "type": "Point", "coordinates": [ 2.04985, 46.35412 ] } },
{ "type": "Feature", "properties": { "name": "Étang des Ribières", "category": "Reservoir", "area_ha": 5.5, "altitude_m": null }, "geometry": { "type": "Point", "coordinates": [ 1.94087, 45.9226 ] } },
{ "type": "Feature", "properties": { "name": "Étang de Coutéjoux", "category": "Reservoir", "area_ha": 7.3, "altitude_m": null }, "geometry": { "type": "Point", "coordinates": [ 2.30839, 45.72828 ] } },
{ "type": "Feature", "properties": { "name": "Étang de la Toueille", "category": "Reservoir", "area_ha": 29.2, "altitude_m": null }, "geometry": { "type": "Point", "coordinates": [ 1.61911, 46.14356 ] } },
{ "type": "Feature", "properties": { "name": "Étang de Pinaud", "category": "Reservoir", "area_ha": 34.7, "altitude_m": null }, "geometry": { "type": "Point", "coordinates": [ 2.23616, 46.13315 ] } },
{ "type": "Feature", "properties": { "name": "Barrage de Rochebut", "category": "Dam", "area_ha": 109.9, "altitude_m": null }, "geometry": { "type": "Point", "coordinates": [ 2.50607, 46.22621 ] } },
{ "type": "Feature", "properties": { "name": "Lac de Faux", "category": "Dam", "area_ha": 36.0, "altitude_m": null }, "geometry": { "type": "Point", "coordinates": [ 1.93891, 45.75796 ] } },
{ "type": "Feature", "properties": { "name": "le Cante", "category": "Reservoir", "area_ha": 5.3, "altitude_m": null }, "geometry": { "type": "Point", "coordinates": [ 2.181, 46.10357 ] } },
{ "type": "Feature", "properties": { "name": "Étang de Méouze", "category": "Reservoir", "area_ha": 50.9, "altitude_m": null }, "geometry": { "type": "Point", "coordinates": [ 2.33896, 45.74528 ] } },
{ "type": "Feature", "properties": { "name": "Complexe de la Roche Talamy", "category": "Dam", "area_ha": 119.7, "altitude_m": null }, "geometry": { "type": "Point", "coordinates": [ 1.66153, 46.01095 ] } },
{ "type": "Feature", "properties": { "name": "Étang de Vervialle", "category": "Reservoir", "area_ha": 5.1, "altitude_m": null }, "geometry": { "type": "Point", "coordinates": [ 2.07991, 45.82852 ] } },
{ "type": "Feature", "properties": { "name": "Étang de la Cazine", "category": "Reservoir", "area_ha": 51.5, "altitude_m": null }, "geometry": { "type": "Point", "coordinates": [ 1.58044, 46.24339 ] } },
{ "type": "Feature", "properties": { "name": "Étang de la Naute", "category": "Reservoir", "area_ha": 5.8, "altitude_m": null }, "geometry": { "type": "Point", "coordinates": [ 2.27915, 46.03288 ] } },
{ "type": "Feature", "properties": { "name": "Étang de la Vacherie", "category": "Reservoir", "area_ha": 7.3, "altitude_m": null }, "geometry": { "type": "Point", "coordinates": [ 2.37086, 45.76081 ] } },
{ "type": "Feature", "properties": { "name": "Champsanglard", "category": "Dam", "area_ha": 47.9, "altitude_m": null }, "geometry": { "type": "Point", "coordinates": [ 1.88917, 46.25476 ] } },
{ "type": "Feature", "properties": { "name": "Étang de la Ramade", "category": "Reservoir", "area_ha": 70.7, "altitude_m": null }, "geometry": { "type": "Point", "coordinates": [ 2.42722, 45.78908 ] } },
{ "type": "Feature", "properties": { "name": "Unnamed", "category": "Reservoir", "area_ha": 6.1, "altitude_m": null }, "geometry": { "type": "Point", "coordinates": [ 1.89383, 45.98925 ] } },
{ "type": "Feature", "properties": { "name": "Étang de la Tour", "category": "Reservoir", "area_ha": 9.1, "altitude_m": null }, "geometry": { "type": "Point", "coordinates": [ 2.1516, 46.14417 ] } },
{ "type": "Feature", "properties": { "name": "Barrage des Combes", "category": "Dam", "area_ha": 31.8, "altitude_m": null }, "geometry": { "type": "Point", "coordinates": [ 2.16545, 45.912 ] } },
{ "type": "Feature", "properties": { "name": "Étang de la Chapelle", "category": "Reservoir", "area_ha": 50.1, "altitude_m": null }, "geometry": { "type": "Point", "coordinates": [ 1.92938, 46.03129 ] } },
{ "type": "Feature", "properties": { "name": "Étang de la Vergne", "category": "Reservoir", "area_ha": 8.1, "altitude_m": null }, "geometry": { "type": "Point", "coordinates": [ 1.77789, 46.24886 ] } },
{ "type": "Feature", "properties": { "name": "Étang du Crouzet", "category": "Reservoir", "area_ha": 6.6, "altitude_m": null }, "geometry": { "type": "Point", "coordinates": [ 2.51774, 46.06585 ] } },
{ "type": "Feature", "properties": { "name": "Étang Truffinet", "category": "Reservoir", "area_ha": 9.6, "altitude_m": null }, "geometry": { "type": "Point", "coordinates": [ 1.95297, 45.92724 ] } },
{ "type": "Feature", "properties": { "name": "Unnamed", "category": "Reservoir", "area_ha": 5.4, "altitude_m": null }, "geometry": { "type": "Point", "coordinates": [ 2.07662, 46.22414 ] } },
{ "type": "Feature", "properties": { "name": "Étang de Cherpont", "category": "Reservoir", "area_ha": 14.4, "altitude_m": null }, "geometry": { "type": "Point", "coordinates": [ 1.93925, 46.15231 ] } },
{ "type": "Feature", "properties": { "name": "Étang de Néravaud", "category": "Reservoir", "area_ha": 13.9, "altitude_m": null }, "geometry": { "type": "Point", "coordinates": [ 1.51699, 46.19426 ] } },
{ "type": "Feature", "properties": { "name": "Étang de Boudacher", "category": "Reservoir", "area_ha": 5.2, "altitude_m": null }, "geometry": { "type": "Point", "coordinates": [ 2.03077, 46.28766 ] } },
{ "type": "Feature", "properties": { "name": "Étang des Signolles", "category": "Reservoir", "area_ha": 9.7, "altitude_m": null }, "geometry": { "type": "Point", "coordinates": [ 1.9977, 46.21292 ] } },
{ "type": "Feature", "properties": { "name": "Étang de Masmangeas", "category": "Reservoir", "area_ha": 10.1, "altitude_m": null }, "geometry": { "type": "Point", "coordinates": [ 1.84721, 46.03703 ] } },
{ "type": "Feature", "properties": { "name": "Étang de la Valette", "category": "Reservoir", "area_ha": 6.7, "altitude_m": null }, "geometry": { "type": "Point", "coordinates": [ 2.21022, 46.00436 ] } },
{ "type": "Feature", "properties": { "name": "Étang de l'Écluse", "category": "Reservoir", "area_ha": 9.3, "altitude_m": null }, "geometry": { "type": "Point", "coordinates": [ 2.34306, 45.76962 ] } },
{ "type": "Feature", "properties": { "name": "Étang de Tra la Sagne", "category": "Reservoir", "area_ha": 5.1, "altitude_m": null }, "geometry": { "type": "Point", "coordinates": [ 1.98422, 45.77726 ] } },
{ "type": "Feature", "properties": { "name": "Étang de Cassonet", "category": "Reservoir", "area_ha": 6.3, "altitude_m": null }, "geometry": { "type": "Point", "coordinates": [ 2.44836, 45.85198 ] } },
{ "type": "Feature", "properties": { "name": "Étang de la Chaussade", "category": "Reservoir", "area_ha": 10.2, "altitude_m": null }, "geometry": { "type": "Point", "coordinates": [ 2.09265, 45.9693 ] } },
{ "type": "Feature", "properties": { "name": "Unnamed", "category": "Reservoir", "area_ha": 9.0, "altitude_m": null }, "geometry": { "type": "Point", "coordinates": [ 1.63507, 46.09199 ] } },
{ "type": "Feature", "properties": { "name": "Unnamed", "category": "Reservoir", "area_ha": 6.2, "altitude_m": null }, "geometry": { "type": "Point", "coordinates": [ 2.18459, 46.13373 ] } },
{ "type": "Feature", "properties": { "name": "Étang de la Crouzette", "category": "Reservoir", "area_ha": 6.4, "altitude_m": null }, "geometry": { "type": "Point", "coordinates": [ 1.57704, 46.30944 ] } },
{ "type": "Feature", "properties": { "name": "Étang près la Trimouille", "category": "Reservoir", "area_ha": 9.8, "altitude_m": null }, "geometry": { "type": "Point", "coordinates": [ 2.02178, 46.09793 ] } },
{ "type": "Feature", "properties": { "name": "Étang de la Genête", "category": "Reservoir", "area_ha": 9.9, "altitude_m": null }, "geometry": { "type": "Point", "coordinates": [ 1.89493, 46.04337 ] } },
{ "type": "Feature", "properties": { "name": "Unnamed", "category": "Reservoir", "area_ha": 5.7, "altitude_m": null }, "geometry": { "type": "Point", "coordinates": [ 1.6451, 45.98566 ] } },
{ "type": "Feature", "properties": { "name": "Unnamed", "category": "Reservoir", "area_ha": 6.6, "altitude_m": null }, "geometry": { "type": "Point", "coordinates": [ 1.831, 46.04579 ] } },
{ "type": "Feature", "properties": { "name": "Unnamed", "category": "Reservoir", "area_ha": 5.8, "altitude_m": null }, "geometry": { "type": "Point", "coordinates": [ 2.08418, 45.89974 ] } },
{ "type": "Feature", "properties": { "name": "Étang de la Porte", "category": "Reservoir", "area_ha": 6.6, "altitude_m": null }, "geometry": { "type": "Point", "coordinates": [ 1.73323, 45.86761 ] } },
{ "type": "Feature", "properties": { "name": "Étang de Sagne Jurade", "category": "Reservoir", "area_ha": 8.5, "altitude_m": null }, "geometry": { "type": "Point", "coordinates": [ 2.48513, 45.91108 ] } },
{ "type": "Feature", "properties": { "name": "Étang Neuf", "category": "Reservoir", "area_ha": 12.3, "altitude_m": null }, "geometry": { "type": "Point", "coordinates": [ 2.0815, 46.19822 ] } },
{ "type": "Feature", "properties": { "name": "Étang de Courtille", "category": "Reservoir", "area_ha": 20.0, "altitude_m": null }, "geometry": { "type": "Point", "coordinates": [ 1.85463, 46.16368 ] } },
{ "type": "Feature", "properties": { "name": "Unnamed", "category": "Reservoir", "area_ha": 5.8, "altitude_m": null }, "geometry": { "type": "Point", "coordinates": [ 2.43917, 46.06341 ] } },
{ "type": "Feature", "properties": { "name": "Unnamed", "category": "Reservoir", "area_ha": 6.5, "altitude_m": null }, "geometry": { "type": "Point", "coordinates": [ 2.23209, 46.22838 ] } },
{ "type": "Feature", "properties": { "name": "Étang de Pognat", "category": "Reservoir", "area_ha": 5.7, "altitude_m": null }, "geometry": { "type": "Point", "coordinates": [ 2.02471, 46.06004 ] } },
{ "type": "Feature", "properties": { "name": "Unnamed", "category": "Reservoir", "area_ha": 5.7, "altitude_m": null }, "geometry": { "type": "Point", "coordinates": [ 2.15843, 46.11795 ] } },
{ "type": "Feature", "properties": { "name": "Étang des Moines", "category": "Reservoir", "area_ha": 13.2, "altitude_m": null }, "geometry": { "type": "Point", "coordinates": [ 2.19177, 46.04565 ] } },
{ "type": "Feature", "properties": { "name": "Unnamed", "category": "Reservoir", "area_ha": 25.4, "altitude_m": null }, "geometry": { "type": "Point", "coordinates": [ 1.40494, 46.23144 ] } },
{ "type": "Feature", "properties": { "name": "Unnamed", "category": "Reservoir", "area_ha": 8.7, "altitude_m": null }, "geometry": { "type": "Point", "coordinates": [ 2.22479, 46.04975 ] } },
{ "type": "Feature", "properties": { "name": "Unnamed", "category": "Reservoir", "area_ha": 7.8, "altitude_m": null }, "geometry": { "type": "Point", "coordinates": [ 2.23283, 46.06609 ] } },
{ "type": "Feature", "properties": { "name": "Étang de la Chaume", "category": "Reservoir", "area_ha": 35.4, "altitude_m": null }, "geometry": { "type": "Point", "coordinates": [ 1.4512, 46.32937 ] } },
{ "type": "Feature", "properties": { "name": "Étang du Bois de la Forêt", "category": "Reservoir", "area_ha": 5.3, "altitude_m": null }, "geometry": { "type": "Point", "coordinates": [ 2.41436, 46.03 ] } },
{ "type": "Feature", "properties": { "name": "Étang de Chamberaud", "category": "Reservoir", "area_ha": 15.3, "altitude_m": null }, "geometry": { "type": "Point", "coordinates": [ 2.03713, 46.0447 ] } },
{ "type": "Feature", "properties": { "name": "Étang de Commau", "category": "Reservoir", "area_ha": 6.8, "altitude_m": null }, "geometry": { "type": "Point", "coordinates": [ 2.32447, 46.25275 ] } },
{ "type": "Feature", "properties": { "name": "Étang de la Forêt", "category": "Reservoir", "area_ha": 6.7, "altitude_m": null }, "geometry": { "type": "Point", "coordinates": [ 2.20473, 46.23544 ] } },
{ "type": "Feature", "properties": { "name": "Étang de Coudert", "category": "Reservoir", "area_ha": 7.1, "altitude_m": null }, "geometry": { "type": "Point", "coordinates": [ 1.73405, 46.21174 ] } },
{ "type": "Feature", "properties": { "name": "Étang de la Ville", "category": "Reservoir", "area_ha": 12.0, "altitude_m": null }, "geometry": { "type": "Point", "coordinates": [ 1.75333, 46.2093 ] } },
{ "type": "Feature", "properties": { "name": "Étangs de Tiolet", "category": "Reservoir", "area_ha": 8.5, "altitude_m": null }, "geometry": { "type": "Point", "coordinates": [ 2.22593, 46.20674 ] } },
{ "type": "Feature", "properties": { "name": "le Grand Étang", "category": "Reservoir", "area_ha": 5.7, "altitude_m": null }, "geometry": { "type": "Point", "coordinates": [ 2.02548, 46.18532 ] } },
{ "type": "Feature", "properties": { "name": "Étang de Poutinchoux", "category": "Reservoir", "area_ha": 7.7, "altitude_m": null }, "geometry": { "type": "Point", "coordinates": [ 2.32086, 46.15125 ] } },
{ "type": "Feature", "properties": { "name": "Étang de Maubrant", "category": "Reservoir", "area_ha": 14.1, "altitude_m": null }, "geometry": { "type": "Point", "coordinates": [ 1.57914, 46.19185 ] } },
{ "type": "Feature", "properties": { "name": "Étang de Tête de Bœuf", "category": "Reservoir", "area_ha": 20.2, "altitude_m": null }, "geometry": { "type": "Point", "coordinates": [ 2.31587, 46.16187 ] } },
{ "type": "Feature", "properties": { "name": "Étang de la Bastide", "category": "Reservoir", "area_ha": 20.1, "altitude_m": null }, "geometry": { "type": "Point", "coordinates": [ 2.30284, 46.16194 ] } },
{ "type": "Feature", "properties": { "name": "Pompeix Étang", "category": "Reservoir", "area_ha": 5.5, "altitude_m": null }, "geometry": { "type": "Point", "coordinates": [ 2.17423, 46.12344 ] } },
{ "type": "Feature", "properties": { "name": "Étang des Brochets", "category": "Reservoir", "area_ha": 9.0, "altitude_m": null }, "geometry": { "type": "Point", "coordinates": [ 2.16522, 46.11573 ] } },
{ "type": "Feature", "properties": { "name": "Étang de Malleret", "category": "Reservoir", "area_ha": 12.3, "altitude_m": null }, "geometry": { "type": "Point", "coordinates": [ 2.18415, 46.12792 ] } },
{ "type": "Feature", "properties": { "name": "Étang du Masroy", "category": "Reservoir", "area_ha": 6.7, "altitude_m": null }, "geometry": { "type": "Point", "coordinates": [ 1.6092, 46.13533 ] } },
{ "type": "Feature", "properties": { "name": "Étang de la Brousse", "category": "Reservoir", "area_ha": 8.3, "altitude_m": null }, "geometry": { "type": "Point", "coordinates": [ 1.58206, 46.10711 ] } },
{ "type": "Feature", "properties": { "name": "Étang du Mont", "category": "Reservoir", "area_ha": 8.2, "altitude_m": null }, "geometry": { "type": "Point", "coordinates": [ 2.40304, 46.0517 ] } },
{ "type": "Feature", "properties": { "name": "Étang de Chaux", "category": "Reservoir", "area_ha": 5.7, "altitude_m": null }, "geometry": { "type": "Point", "coordinates": [ 2.25113, 46.05133 ] } },
{ "type": "Feature", "properties": { "name": "Étang de Marque", "category": "Reservoir", "area_ha": 5.3, "altitude_m": null }, "geometry": { "type": "Point", "coordinates": [ 1.83116, 46.02466 ] } },
{ "type": "Feature", "properties": { "name": "Étang du Moulin", "category": "Reservoir", "area_ha": 11.7, "altitude_m": null }, "geometry": { "type": "Point", "coordinates": [ 1.98042, 46.03424 ] } },
{ "type": "Feature", "properties": { "name": "Étang de Roudeleix", "category": "Reservoir", "area_ha": 13.0, "altitude_m": null }, "geometry": { "type": "Point", "coordinates": [ 2.40403, 45.98266 ] } },
{ "type": "Feature", "properties": { "name": "Étang Taillac", "category": "Reservoir", "area_ha": 7.1, "altitude_m": null }, "geometry": { "type": "Point", "coordinates": [ 2.39952, 45.9736 ] } },
{ "type": "Feature", "properties": { "name": "Étang de Chevillat", "category": "Reservoir", "area_ha": 8.6, "altitude_m": null }, "geometry": { "type": "Point", "coordinates": [ 2.23791, 45.96375 ] } },
{ "type": "Feature", "properties": { "name": "Étang de Létrade", "category": "Reservoir", "area_ha": 10.7, "altitude_m": null }, "geometry": { "type": "Point", "coordinates": [ 2.47831, 45.88344 ] } },
{ "type": "Feature", "properties": { "name": "Étang de Chavardeix", "category": "Reservoir", "area_ha": 7.8, "altitude_m": null }, "geometry": { "type": "Point", "coordinates": [ 2.33107, 45.77495 ] } },
{ "type": "Feature", "properties": { "name": "Étang de Feneyroux", "category": "Reservoir", "area_ha": 8.5, "altitude_m": null }, "geometry": { "type": "Point", "coordinates": [ 1.98867, 45.81651 ] } },
{ "type": "Feature", "properties": { "name": "Étang de Chanaud", "category": "Reservoir", "area_ha": 6.2, "altitude_m": null }, "geometry": { "type": "Point", "coordinates": [ 2.33378, 45.78931 ] } },
{ "type": "Feature", "properties": { "name": "Étang Neuf", "category": "Reservoir", "area_ha": 14.9, "altitude_m": null }, "geometry": { "type": "Point", "coordinates": [ 2.42685, 45.85342 ] } },
{ "type": "Feature", "properties": { "name": "Étang de Flayat", "category": "Reservoir", "area_ha": 9.1, "altitude_m": null }, "geometry": { "type": "Point", "coordinates": [ 2.36949, 45.77969 ] } },
{ "type": "Feature", "properties": { "name": "Étang Neuf", "category": "Reservoir", "area_ha": 6.0, "altitude_m": null }, "geometry": { "type": "Point", "coordinates": [ 2.34877, 45.77591 ] } },
{ "type": "Feature", "properties": { "name": "Étang de Franouille", "category": "Reservoir", "area_ha": 6.2, "altitude_m": null }, "geometry": { "type": "Point", "coordinates": [ 2.39828, 45.75378 ] } },
{ "type": "Feature", "properties": { "name": "Étang de Brutebœuf", "category": "Reservoir", "area_ha": 8.1, "altitude_m": null }, "geometry": { "type": "Point", "coordinates": [ 2.17776, 46.08562 ] } },
{ "type": "Feature", "properties": { "name": "Étang Neuf", "category": "Reservoir", "area_ha": 18.6, "altitude_m": null }, "geometry": { "type": "Point", "coordinates": [ 2.5608, 45.94868 ] } },
{ "type": "Feature", "properties": { "name": "Étang du Cheix", "category": "Reservoir", "area_ha": 5.6, "altitude_m": null }, "geometry": { "type": "Point", "coordinates": [ 1.50616, 46.24413 ] } },
{ "type": "Feature", "properties": { "name": "Étang de Grattadour", "category": "Reservoir", "area_ha": 9.5, "altitude_m": null }, "geometry": { "type": "Point", "coordinates": [ 2.26044, 45.70906 ] } },
{ "type": "Feature", "properties": { "name": "Étang de Champroy", "category": "Reservoir", "area_ha": 8.3, "altitude_m": null }, "geometry": { "type": "Point", "coordinates": [ 2.00477, 46.21501 ] } },
{ "type": "Feature", "properties": { "name": "Étang de Fragne", "category": "Reservoir", "area_ha": 17.2, "altitude_m": null }, "geometry": { "type": "Point", "coordinates": [ 2.04089, 46.24746 ] } },
{ "type": "Feature", "properties": { "name": "Étang de Graves", "category": "Reservoir", "area_ha": 5.7, "altitude_m": null }, "geometry": { "type": "Point", "coordinates": [ 2.41305, 45.96891 ] } },
{ "type": "Feature", "properties": { "name": "Étang de la Reyberie", "category": "Reservoir", "area_ha": 11.9, "altitude_m": null }, "geometry": { "type": "Point", "coordinates": [ 2.45106, 46.21075 ] } },
{ "type": "Feature", "properties": { "name": "Unnamed", "category": "Reservoir", "area_ha": 5.6, "altitude_m": null }, "geometry": { "type": "Point", "coordinates": [ 1.76239, 46.21562 ] } },
{ "type": "Feature", "properties": { "name": "Étang des Besses", "category": "Reservoir", "area_ha": 8.6, "altitude_m": null }, "geometry": { "type": "Point", "coordinates": [ 2.35919, 45.77755 ] } },
{ "type": "Feature", "properties": { "name": "Étang de Viges", "category": "Reservoir", "area_ha": 15.2, "altitude_m": null }, "geometry": { "type": "Point", "coordinates": [ 2.1285, 46.1552 ] } },
{ "type": "Feature", "properties": { "name": "Étang des Landes", "category": "Reservoir", "area_ha": 122.5, "altitude_m": null }, "geometry": { "type": "Point", "coordinates": [ 2.31504, 46.18002 ] } },
{ "type": "Feature", "properties": { "name": "Étang des Salesses", "category": "Reservoir", "area_ha": 9.9, "altitude_m": null }, "geometry": { "type": "Point", "coordinates": [ 2.0211, 46.06428 ] } },
{ "type": "Feature", "properties": { "name": "Étang du Mondayraud", "category": "Reservoir", "area_ha": 20.6, "altitude_m": null }, "geometry": { "type": "Point", "coordinates": [ 2.50271, 45.92406 ] } },
{ "type": "Feature", "properties": { "name": "Barrage de Chantegrêle", "category": "Dam", "area_ha": 11.9, "altitude_m": null }, "geometry": { "type": "Point", "coordinates": [ 2.06961, 46.06481 ] } },
{ "type": "Feature", "properties": { "name": "Farge", "category": "Dam", "area_ha": 6.3, "altitude_m": null }, "geometry": { "type": "Point", "coordinates": [ 1.65191, 45.84919 ] } },
{ "type": "Feature", "properties": { "name": "Unnamed", "category": "Dam", "area_ha": 1.8, "altitude_m": null }, "geometry": { "type": "Point", "coordinates": [ 1.69089, 45.88998 ] } },
{ "type": "Feature", "properties": { "name": "Barrage de la Rozeille", "category": "Dam", "area_ha": 21.7, "altitude_m": null }, "geometry": { "type": "Point", "coordinates": [ 2.2708, 45.77936 ] } },
{ "type": "Feature", "properties": { "name": "Barrage de l'Étroit", "category": "Dam", "area_ha": 22.0, "altitude_m": null }, "geometry": { "type": "Point", "coordinates": [ 1.60638, 45.99143 ] } },
{ "type": "Feature", "properties": { "name": "Montalétang Cinq Cent Vingt", "category": "Dam", "area_ha": 8.4, "altitude_m": null }, "geometry": { "type": "Point", "coordinates": [ 1.69539, 45.89013 ] } },
{ "type": "Feature", "properties": { "name": "Barrage de l'Âge", "category": "Dam", "area_ha": 36.1, "altitude_m": null }, "geometry": { "type": "Point", "coordinates": [ 1.82149, 46.29421 ] } },
{ "type": "Feature", "properties": { "name": "Unnamed", "category": "Dam", "area_ha": 0.9, "altitude_m": null }, "geometry": { "type": "Point", "coordinates": [ 1.70489, 45.85689 ] } },
{ "type": "Feature", "properties": { "name": "Unnamed", "category": "Dam", "area_ha": 1.6, "altitude_m": null }, "geometry": { "type": "Point", "coordinates": [ 2.35871, 46.15779 ] } },
{ "type": "Feature", "properties": { "name": "Étang de Beaulon", "category": "Dam", "area_ha": 10.2, "altitude_m": null }, "geometry": { "type": "Point", "coordinates": [ 2.42271, 45.98661 ] } },
{ "type": "Feature", "properties": { "name": "Montalétang Cinq Cent Dix", "category": "Dam", "area_ha": 4.7, "altitude_m": null }, "geometry": { "type": "Point", "coordinates": [ 1.69529, 45.88512 ] } }
]
}
