{
"type": "FeatureCollection",
"name": "dep24.geojson",
"crs": { "type": "name", "properties": { "name": "urn:ogc:def:crs:OGC:1.3:CRS84" } },
"xy_coordinate_resolution": 1e-05,
"features": [
{ "type": "Feature", "properties": { "name": "Unnamed", "category": "Reservoir", "area_ha": 8.3, "altitude_m": null }, "geometry": { "type": "Point", "coordinates": [ 0.6422, 45.10169 ] } },
{ "type": "Feature", "properties": { "name": "Étang des Petits Moulins", "category": "Reservoir", "area_ha": 5.5, "altitude_m": null }, "geometry": { "type": "Point", "coordinates": [ 0.71018, 45.65932 ] } },
{ "type": "Feature", "properties": { "name": "Étang de Lazard", "category": "Reservoir", "area_ha": 5.5, "altitude_m": null }, "geometry": { "type": "Point", "coordinates": [ 0.26975, 45.17227 ] } },
{ "type": "Feature", "properties": { "name": "Étang du Tuquet", "category": "Reservoir", "area_ha": 5.8, "altitude_m": null }, "geometry": { "type": "Point", "coordinates": [ 0.28332, 45.15045 ] } },
{ "type": "Feature", "properties": { "name": "Étang de Vivale", "category": "Reservoir", "area_ha": 13.2, "altitude_m": null }, "geometry": { "type": "Point", "coordinates": [ 0.89465, 45.55085 ] } },
{ "type": "Feature", "properties": { "name": "Unnamed", "category": "Reservoir", "area_ha": 10.3, "altitude_m": null }, "geometry": { "type": "Point", "coordinates": [ 1.37599, 44.8721 ] } },
{ "type": "Feature", "properties": { "name": "Unnamed", "category": "Reservoir", "area_ha": 5.0, "altitude_m": null }, "geometry": { "type": "Point", "coordinates": [ 0.83932, 45.50575 ] } },
{ "type": "Feature", "properties": { "name": "Unnamed", "category": "Reservoir", "area_ha": 5.9, "altitude_m": null }, "geometry": { "type": "Point", "coordinates": [ 1.16283, 45.02463 ] } },
{ "type": "Feature", "properties": { "name": "Lac de Neufont", "category": "Reservoir", "area_ha": 5.0, "altitude_m": null }, "geometry": { "type": "Point", "coordinates": [ 0.69407, 45.0086 ] } },
{ "type": "Feature", "properties": { "name": "Étang de Born", "category": "Reservoir", "area_ha": 17.4, "altitude_m": null }, "geometry": { "type": "Point", "coordinates": [ 1.2178, 45.31024 ] } },
{ "type": "Feature", "properties": { "name": "Grand Étang de la Jemaye", "category": "Reservoir", "area_ha": 21.7, "altitude_m": null }, "geometry": { "type": "Point", "coordinates": [ 0.27872, 45.15612 ] } },
{ "type": "Feature", "properties": { "name": "Unnamed", "category": "Reservoir", "area_ha": 8.0, "altitude_m": null }, "geometry": { "type": "Point", "coordinates": [ 0.94601, 45.61357 ] } },
{ "type": "Feature", "properties": { "name": "Unnamed", "category": "Reservoir", "area_ha": 13.7, "altitude_m": null }, "geometry": { "type": "Point", "coordinates": [ 1.29758, 44.80373 ] } },
{ "type": "Feature", "properties": { "name": "Unnamed", "category": "Reservoir", "area_ha": 6.4, "altitude_m": null }, "geometry": { "type": "Point", "coordinates": [ 0.5467, 45.44702 ] } },
{ "type": "Feature", "properties": { "name": "Lac de Rouffiac en Périgord", "category": "Reservoir", "area_ha": 37.9, "altitude_m": null }, "geometry": { "type": "Point", "coordinates": [ 1.16118, 45.41447 ] } },
{ "type": "Feature", "properties": { "name": "Étang de Petitonne", "category": "Reservoir", "area_ha": 8.8, "altitude_m": null }, "geometry": { "type": "Point", "coordinates": [ 0.27456, 45.14865 ] } },
{ "type": "Feature", "properties": { "name": "Étang Grolhier", "category": "Reservoir", "area_ha": 22.3, "altitude_m": null }, "geometry": { "type": "Point", "coordinates": [ 0.68189, 45.65963 ] } },
{ "type": "Feature", "properties": { "name": "Unnamed", "category": "Reservoir", "area_ha": 9.1, "altitude_m": null }, "geometry": { "type": "Point", "coordinates": [ 0.42012, 44.8545 ] } },
{ "type": "Feature", "properties": { "name": "Étang de Babiol", "category": "Reservoir", "area_ha": 5.8, "altitude_m": null }, "geometry": { "type": "Point", "coordinates": [ 0.20223, 45.04468 ] } },
{ "type": "Feature", "properties": { "name": "Étang du Coucou", "category": "Reservoir", "area_ha": 6.8, "altitude_m": null }, "geometry": { "type": "Point", "coordinates": [ 1.13762, 45.25049 ] } },
{ "type": "Feature", "properties": { "name": "Grand Étang", "category": "Reservoir", "area_ha": 10.3, "altitude_m": null }, "geometry": { "type": "Point", "coordinates": [ 0.8213, 45.56031 ] } },
{ "type": "Feature", "properties": { "name": "Étang de Saint-Estèphe", "category": "Reservoir", "area_ha": 19.4, "altitude_m": null }, "geometry": { "type": "Point", "coordinates": [ 0.67678, 45.59511 ] } },
{ "type": "Feature", "properties": { "name": "Étang Neuf", "category": "Reservoir", "area_ha": 6.3, "altitude_m": null }, "geometry": { "type": "Point", "coordinates": [ 0.23308, 45.15224 ] } },
{ "type": "Feature", "properties": { "name": "le Grand Étang", "category": "Reservoir", "area_ha": 19.3, "altitude_m": null }, "geometry": { "type": "Point", "coordinates": [ 0.20065, 45.15778 ] } },
{ "type": "Feature", "properties": { "name": "Étang des Tables", "category": "Reservoir", "area_ha": 6.9, "altitude_m": null }, "geometry": { "type": "Point", "coordinates": [ 0.27363, 45.14332 ] } },
{ "type": "Feature", "properties": { "name": "Étang de Chemisac", "category": "Reservoir", "area_ha": 8.7, "altitude_m": null }, "geometry": { "type": "Point", "coordinates": [ 0.24004, 45.13507 ] } },
{ "type": "Feature", "properties": { "name": "Étang de Bouyssour", "category": "Reservoir", "area_ha": 5.3, "altitude_m": null }, "geometry": { "type": "Point", "coordinates": [ 0.77839, 45.07258 ] } },
{ "type": "Feature", "properties": { "name": "Lac de Gurson", "category": "Reservoir", "area_ha": 10.8, "altitude_m": null }, "geometry": { "type": "Point", "coordinates": [ 0.0724, 44.94006 ] } },
{ "type": "Feature", "properties": { "name": "Étangs de Peytavit", "category": "Reservoir", "area_ha": 9.9, "altitude_m": null }, "geometry": { "type": "Point", "coordinates": [ 0.27423, 44.87582 ] } },
{ "type": "Feature", "properties": { "name": "Unnamed", "category": "Dam", "area_ha": 1.4, "altitude_m": null }, "geometry": { "type": "Point", "coordinates": [ 1.15845, 45.39461 ] } },
{ "type": "Feature", "properties": { "name": "Étang de Farganaud", "category": "Reservoir", "area_ha": 9.1, "altitude_m": null }, "geometry": { "type": "Point", "coordinates": [ 0.25987, 45.04597 ] } },
{ "type": "Feature", "properties": { "name": "Lac de l'Escourou", "category": "Dam", "area_ha": 109.6, "altitude_m": null }, "geometry": { "type": "Point", "coordinates": [ 0.35209, 44.67581 ] } },
{ "type": "Feature", "properties": { "name": "Plan d'Eau de Mialet", "category": "Dam", "area_ha": 71.6, "altitude_m": null }, "geometry": { "type": "Point", "coordinates": [ 0.9281, 45.55533 ] } },
{ "type": "Feature", "properties": { "name": "Unnamed", "category": "Dam", "area_ha": 6.0, "altitude_m": null }, "geometry": { "type": "Point", "coordinates": [ 0.94916, 45.5526 ] } },
{ "type": "Feature", "properties": { "name": "Retenue de la Nette", "category": "Dam", "area_ha": 27.7, "altitude_m": null }, "geometry": { "type": "Point", "coordinates": [ 0.62446, 44.70277 ] } },
{ "type": "Feature", "properties": { "name": "Lac de Mérigole", "category": "Dam", "area_ha": 4.4, "altitude_m": null }, "geometry": { "type": "Point", "coordinates": [ 0.46745, 44.6865 ] } }
]
}
