{
"type": "FeatureCollection",
"name": "dep27.geojson",
"crs": { "type": "name", "properties": { "name": "urn:ogc:def:crs:OGC:1.3:CRS84" } },
"xy_coordinate_resolution": 1e-05,
"features": [
{ "type": "Feature", "properties": { "name": "Plan d'Eau 1 de la Rosière", "category": "Reservoir", "area_ha": 10.1, "altitude_m": null }, "geometry": { "type": "Point", "coordinates": [ 1.33682, 49.23471 ] } },
{ "type": "Feature", "properties": { "name": "Plan d'Eau 3 du Bois de la Banque", "category": "Reservoir", "area_ha": 5.4, "altitude_m": null }, "geometry": { "type": "Point", "coordinates": [ 1.34844, 49.23606 ] } },
{ "type": "Feature", "properties": { "name": "Unnamed", "category": "Reservoir", "area_ha": 21.3, "altitude_m": null }, "geometry": { "type": "Point", "coordinates": [ 0.71656, 49.18851 ] } },
{ "type": "Feature", "properties": { "name": "Sablière du Maupas", "category": "Reservoir", "area_ha": 15.6, "altitude_m": null }, "geometry": { "type": "Point", "coordinates": [ 1.70396, 49.25735 ] } },
{ "type": "Feature", "properties": { "name": "Plan d'Eau 5 du Bois de la Tremblaie", "category": "Reservoir", "area_ha": 6.7, "altitude_m": null }, "geometry": { "type": "Point", "coordinates": [ 1.36162, 49.23829 ] } },
{ "type": "Feature", "properties": { "name": "Unnamed", "category": "Reservoir", "area_ha": 10.9, "altitude_m": null }, "geometry": { "type": "Point", "coordinates": [ 0.7182, 49.15737 ] } },
{ "type": "Feature", "properties": { "name": "Plan d'Eau 1 de la Commune de Appeville-Annebault", "category": "Reservoir", "area_ha": 5.7, "altitude_m": null }, "geometry": { "type": "Point", "coordinates": [ 0.61923, 49.31878 ] } },
{ "type": "Feature", "properties": { "name": "Plan d'Eau 3 de la Commune de Breuilpont", "category": "Reservoir", "area_ha": 10.4, "altitude_m": null }, "geometry": { "type": "Point", "coordinates": [ 1.42799, 48.94853 ] } },
{ "type": "Feature", "properties": { "name": "Unnamed", "category": "Reservoir", "area_ha": 6.1, "altitude_m": null }, "geometry": { "type": "Point", "coordinates": [ 0.49683, 49.35849 ] } },
{ "type": "Feature", "properties": { "name": "Lac de Grosley", "category": "Reservoir", "area_ha": 10.4, "altitude_m": null }, "geometry": { "type": "Point", "coordinates": [ 0.80022, 49.05591 ] } },
{ "type": "Feature", "properties": { "name": "Plan d'Eau 1 de la Commune de Manneville-sur-Risle", "category": "Reservoir", "area_ha": 5.5, "altitude_m": null }, "geometry": { "type": "Point", "coordinates": [ 0.55723, 49.34499 ] } },
{ "type": "Feature", "properties": { "name": "Sablière de la Pièce des Rivières", "category": "Reservoir", "area_ha": 15.5, "altitude_m": null }, "geometry": { "type": "Point", "coordinates": [ 1.72767, 49.26991 ] } },
{ "type": "Feature", "properties": { "name": "les Étangs de Pont-Audemer", "category": "Reservoir", "area_ha": 76.5, "altitude_m": null }, "geometry": { "type": "Point", "coordinates": [ 0.49116, 49.35921 ] } },
{ "type": "Feature", "properties": { "name": "Plan d'Eau 1 du Bâtiment", "category": "Reservoir", "area_ha": 19.8, "altitude_m": null }, "geometry": { "type": "Point", "coordinates": [ 1.25172, 49.09941 ] } },
{ "type": "Feature", "properties": { "name": "Plan d'Eau 1 de la Noë du Bois", "category": "Reservoir", "area_ha": 5.0, "altitude_m": null }, "geometry": { "type": "Point", "coordinates": [ 1.37535, 49.00271 ] } },
{ "type": "Feature", "properties": { "name": "Gravière 1 des Closets", "category": "Reservoir", "area_ha": 5.3, "altitude_m": null }, "geometry": { "type": "Point", "coordinates": [ 1.20479, 49.12598 ] } },
{ "type": "Feature", "properties": { "name": "Unnamed", "category": "Reservoir", "area_ha": 9.6, "altitude_m": null }, "geometry": { "type": "Point", "coordinates": [ 0.57338, 49.03776 ] } },
{ "type": "Feature", "properties": { "name": "Plan d'Eau 2 du Parc d'Ézy", "category": "Reservoir", "area_ha": 5.4, "altitude_m": null }, "geometry": { "type": "Point", "coordinates": [ 1.44459, 48.86936 ] } },
{ "type": "Feature", "properties": { "name": "Gravière du Bout Louvet", "category": "Reservoir", "area_ha": 8.9, "altitude_m": null }, "geometry": { "type": "Point", "coordinates": [ 0.63374, 49.31091 ] } },
{ "type": "Feature", "properties": { "name": "Plan d'Eau 1 de la Garenne", "category": "Reservoir", "area_ha": 6.6, "altitude_m": null }, "geometry": { "type": "Point", "coordinates": [ 1.19922, 49.13426 ] } },
{ "type": "Feature", "properties": { "name": "Plan d'Eau 4 de la Commune de Condé-sur-Risle", "category": "Reservoir", "area_ha": 11.4, "altitude_m": null }, "geometry": { "type": "Point", "coordinates": [ 0.6408, 49.30527 ] } },
{ "type": "Feature", "properties": { "name": "Unnamed", "category": "Reservoir", "area_ha": 6.3, "altitude_m": null }, "geometry": { "type": "Point", "coordinates": [ 0.61862, 49.31591 ] } },
{ "type": "Feature", "properties": { "name": "Plan d'Eau 1 de la Commune de Venables", "category": "Reservoir", "area_ha": 121.2, "altitude_m": null }, "geometry": { "type": "Point", "coordinates": [ 1.29134, 49.21159 ] } },
{ "type": "Feature", "properties": { "name": "Sablière des Marais Saint-Martin", "category": "Reservoir", "area_ha": 9.1, "altitude_m": null }, "geometry": { "type": "Point", "coordinates": [ 1.72016, 49.26583 ] } },
{ "type": "Feature", "properties": { "name": "Plan d'Eau 1 des Ballastières", "category": "Reservoir", "area_ha": 11.5, "altitude_m": null }, "geometry": { "type": "Point", "coordinates": [ 1.76545, 49.26975 ] } },
{ "type": "Feature", "properties": { "name": "Sablière 1 des Ruisseaux", "category": "Reservoir", "area_ha": 11.6, "altitude_m": null }, "geometry": { "type": "Point", "coordinates": [ 1.72085, 49.26802 ] } },
{ "type": "Feature", "properties": { "name": "Étang James", "category": "Reservoir", "area_ha": 6.0, "altitude_m": null }, "geometry": { "type": "Point", "coordinates": [ 1.42147, 48.9511 ] } },
{ "type": "Feature", "properties": { "name": "Gravière 9 des Prés Baudouin", "category": "Reservoir", "area_ha": 7.4, "altitude_m": null }, "geometry": { "type": "Point", "coordinates": [ 0.9199, 48.80269 ] } },
{ "type": "Feature", "properties": { "name": "le Marais", "category": "Reservoir", "area_ha": 5.3, "altitude_m": null }, "geometry": { "type": "Point", "coordinates": [ 0.51137, 49.41723 ] } },
{ "type": "Feature", "properties": { "name": "Gravière 3 des Prés du Moulin", "category": "Reservoir", "area_ha": 5.3, "altitude_m": null }, "geometry": { "type": "Point", "coordinates": [ 0.93281, 48.80616 ] } },
{ "type": "Feature", "properties": { "name": "Sablière des Haras de Dangu", "category": "Reservoir", "area_ha": 35.7, "altitude_m": null }, "geometry": { "type": "Point", "coordinates": [ 1.70521, 49.26321 ] } },
{ "type": "Feature", "properties": { "name": "Gravière 1 des Prés Baudouin", "category": "Reservoir", "area_ha": 5.3, "altitude_m": null }, "geometry": { "type": "Point", "coordinates": [ 0.90463, 48.80069 ] } },
{ "type": "Feature", "properties": { "name": "Plan d'Eau 1 du Cornouillet", "category": "Reservoir", "area_ha": 11.8, "altitude_m": null }, "geometry": { "type": "Point", "coordinates": [ 1.32827, 49.04615 ] } },
{ "type": "Feature", "properties": { "name": "Plan d'Eau de la Vallée René", "category": "Reservoir", "area_ha": 5.9, "altitude_m": null }, "geometry": { "type": "Point", "coordinates": [ 1.32088, 49.05874 ] } },
{ "type": "Feature", "properties": { "name": "Plan d'Eau de la Commune de Tosny", "category": "Reservoir", "area_ha": 29.1, "altitude_m": null }, "geometry": { "type": "Point", "coordinates": [ 1.38952, 49.22884 ] } },
{ "type": "Feature", "properties": { "name": "Lac de l'Onglais", "category": "Reservoir", "area_ha": 18.0, "altitude_m": null }, "geometry": { "type": "Point", "coordinates": [ 1.1852, 49.15729 ] } },
{ "type": "Feature", "properties": { "name": "Plan d'Eau du Clos Boivin", "category": "Reservoir", "area_ha": 7.0, "altitude_m": null }, "geometry": { "type": "Point", "coordinates": [ 1.42812, 48.93796 ] } },
{ "type": "Feature", "properties": { "name": "Plan d'Eau 1 du Parc d'Ézy", "category": "Reservoir", "area_ha": 17.5, "altitude_m": null }, "geometry": { "type": "Point", "coordinates": [ 1.4416, 48.8676 ] } },
{ "type": "Feature", "properties": { "name": "Plan d'Eau 2 de la Garenne", "category": "Reservoir", "area_ha": 5.6, "altitude_m": null }, "geometry": { "type": "Point", "coordinates": [ 1.19712, 49.13212 ] } },
{ "type": "Feature", "properties": { "name": "Sablière 3 du Pot à l'Eau", "category": "Reservoir", "area_ha": 9.7, "altitude_m": null }, "geometry": { "type": "Point", "coordinates": [ 1.36172, 49.16649 ] } },
{ "type": "Feature", "properties": { "name": "Plan d'Eau 1 de la Commune de Tosny", "category": "Reservoir", "area_ha": 10.2, "altitude_m": null }, "geometry": { "type": "Point", "coordinates": [ 1.38329, 49.22298 ] } },
{ "type": "Feature", "properties": { "name": "Gravière de la Ballastière", "category": "Reservoir", "area_ha": 9.6, "altitude_m": null }, "geometry": { "type": "Point", "coordinates": [ 0.90713, 48.79762 ] } },
{ "type": "Feature", "properties": { "name": "Lac Ravin", "category": "Reservoir", "area_ha": 12.8, "altitude_m": null }, "geometry": { "type": "Point", "coordinates": [ 1.41204, 48.96148 ] } },
{ "type": "Feature", "properties": { "name": "Étang du Lac Chambon", "category": "Reservoir", "area_ha": 9.9, "altitude_m": null }, "geometry": { "type": "Point", "coordinates": [ 1.41696, 48.95561 ] } },
{ "type": "Feature", "properties": { "name": "Étangs du Vieux Conches", "category": "Reservoir", "area_ha": 6.9, "altitude_m": null }, "geometry": { "type": "Point", "coordinates": [ 0.91157, 48.95891 ] } },
{ "type": "Feature", "properties": { "name": "Étang du Lac Guéry", "category": "Reservoir", "area_ha": 8.8, "altitude_m": null }, "geometry": { "type": "Point", "coordinates": [ 1.4267, 48.95248 ] } },
{ "type": "Feature", "properties": { "name": "Unnamed", "category": "Reservoir", "area_ha": 20.3, "altitude_m": null }, "geometry": { "type": "Point", "coordinates": [ 0.56014, 49.34241 ] } },
{ "type": "Feature", "properties": { "name": "Étangs de Cintray", "category": "Reservoir", "area_ha": 6.2, "altitude_m": null }, "geometry": { "type": "Point", "coordinates": [ 0.91015, 48.80177 ] } },
{ "type": "Feature", "properties": { "name": "Unnamed", "category": "Reservoir", "area_ha": 11.9, "altitude_m": null }, "geometry": { "type": "Point", "coordinates": [ 0.6638, 49.28144 ] } },
{ "type": "Feature", "properties": { "name": "Gravière du Bout Louvet", "category": "Reservoir", "area_ha": 25.3, "altitude_m": null }, "geometry": { "type": "Point", "coordinates": [ 0.6282, 49.31065 ] } },
{ "type": "Feature", "properties": { "name": "Unnamed", "category": "Reservoir", "area_ha": 13.2, "altitude_m": null }, "geometry": { "type": "Point", "coordinates": [ 0.83432, 48.82008 ] } },
{ "type": "Feature", "properties": { "name": "la Grand-Mare", "category": "Reservoir", "area_ha": 42.9, "altitude_m": null }, "geometry": { "type": "Point", "coordinates": [ 0.53036, 49.42459 ] } },
{ "type": "Feature", "properties": { "name": "Étang de la Cour Jacques", "category": "Reservoir", "area_ha": 11.5, "altitude_m": null }, "geometry": { "type": "Point", "coordinates": [ 1.35691, 48.82979 ] } },
{ "type": "Feature", "properties": { "name": "Étang de la Noë", "category": "Reservoir", "area_ha": 5.7, "altitude_m": null }, "geometry": { "type": "Point", "coordinates": [ 1.04598, 48.99447 ] } },
{ "type": "Feature", "properties": { "name": "Plan d'Eau 3 des Ballastières", "category": "Reservoir", "area_ha": 5.3, "altitude_m": null }, "geometry": { "type": "Point", "coordinates": [ 1.77158, 49.27229 ] } },
{ "type": "Feature", "properties": { "name": "Unnamed", "category": "Dam", "area_ha": 0.7, "altitude_m": null }, "geometry": { "type": "Point", "coordinates": [ 0.7494, 48.92245 ] } },
{ "type": "Feature", "properties": { "name": "Plan d'Eau de la Forge", "category": "Dam", "area_ha": 2.2, "altitude_m": null }, "geometry": { "type": "Point", "coordinates": [ 1.03589, 48.98622 ] } }
]
}
