{
"type": "FeatureCollection",
"name": "dep22.geojson",
"crs": { "type": "name", "properties": { "name": "urn:ogc:def:crs:OGC:1.3:CRS84" } },
"xy_coordinate_resolution": 1e-05,
"features": [
{ "type": "Feature", "properties": { "name": "Barrage de St Barthélémy", "category": "Dam", "area_ha": 78.9, "altitude_m": null }, "geometry": { "type": "Point", "coordinates": [ -2.83978, 48.48198 ] } },
{ "type": "Feature", "properties": { "name": "Stank ar Vilin Nevez", "category": "Reservoir", "area_ha": 12.4, "altitude_m": null }, "geometry": { "type": "Point", "coordinates": [ -3.56246, 48.565 ] } },
{ "type": "Feature", "properties": { "name": "Complexe du Bois Joli", "category": "Dam", "area_ha": 50.7, "altitude_m": null }, "geometry": { "type": "Point", "coordinates": [ -2.08165, 48.56634 ] } },
{ "type": "Feature", "properties": { "name": "l'Étang Neuf", "category": "Reservoir", "area_ha": 7.1, "altitude_m": null }, "geometry": { "type": "Point", "coordinates": [ -3.1113, 48.41645 ] } },
{ "type": "Feature", "properties": { "name": "Étang de la Rivière", "category": "Reservoir", "area_ha": 6.0, "altitude_m": null }, "geometry": { "type": "Point", "coordinates": [ -3.06136, 48.33167 ] } },
{ "type": "Feature", "properties": { "name": "Barrage du Pont Ruffier", "category": "Dam", "area_ha": 27.1, "altitude_m": null }, "geometry": { "type": "Point", "coordinates": [ -2.09634, 48.39394 ] } },
{ "type": "Feature", "properties": { "name": "Étang du Guébriand", "category": "Reservoir", "area_ha": 7.4, "altitude_m": null }, "geometry": { "type": "Point", "coordinates": [ -2.28897, 48.52386 ] } },
{ "type": "Feature", "properties": { "name": "Unnamed", "category": "Dam", "area_ha": 17.1, "altitude_m": null }, "geometry": { "type": "Point", "coordinates": [ -2.12195, 48.41151 ] } },
{ "type": "Feature", "properties": { "name": "Étang de Kerné Uhel", "category": "Dam", "area_ha": 59.1, "altitude_m": null }, "geometry": { "type": "Point", "coordinates": [ -3.25458, 48.3627 ] } },
{ "type": "Feature", "properties": { "name": "Étang de Beaulieu", "category": "Dam", "area_ha": 16.7, "altitude_m": null }, "geometry": { "type": "Point", "coordinates": [ -2.20693, 48.3924 ] } },
{ "type": "Feature", "properties": { "name": "Étang de Beffoù", "category": "Dam", "area_ha": 11.3, "altitude_m": null }, "geometry": { "type": "Point", "coordinates": [ -3.54224, 48.49597 ] } },
{ "type": "Feature", "properties": { "name": "Unnamed", "category": "Reservoir", "area_ha": 11.4, "altitude_m": null }, "geometry": { "type": "Point", "coordinates": [ -2.51685, 48.29119 ] } },
{ "type": "Feature", "properties": { "name": "Retenue de l'Arguenon", "category": "Dam", "area_ha": 167.4, "altitude_m": null }, "geometry": { "type": "Point", "coordinates": [ -2.32588, 48.45092 ] } },
{ "type": "Feature", "properties": { "name": "Unnamed", "category": "Reservoir", "area_ha": 8.0, "altitude_m": null }, "geometry": { "type": "Point", "coordinates": [ -2.72645, 48.17778 ] } },
{ "type": "Feature", "properties": { "name": "Étang de Néal", "category": "Dam", "area_ha": 81.2, "altitude_m": null }, "geometry": { "type": "Point", "coordinates": [ -2.06053, 48.30784 ] } },
{ "type": "Feature", "properties": { "name": "Étang de Loziers", "category": "Reservoir", "area_ha": 6.6, "altitude_m": null }, "geometry": { "type": "Point", "coordinates": [ -2.26385, 48.23508 ] } },
{ "type": "Feature", "properties": { "name": "Étang de Jugon", "category": "Dam", "area_ha": 60.9, "altitude_m": null }, "geometry": { "type": "Point", "coordinates": [ -2.31311, 48.39228 ] } },
{ "type": "Feature", "properties": { "name": "Étang du Coronc", "category": "Dam", "area_ha": 56.4, "altitude_m": null }, "geometry": { "type": "Point", "coordinates": [ -3.39777, 48.21283 ] } },
{ "type": "Feature", "properties": { "name": "Étang des Salles", "category": "Reservoir", "area_ha": 35.4, "altitude_m": null }, "geometry": { "type": "Point", "coordinates": [ -3.13845, 48.18053 ] } },
{ "type": "Feature", "properties": { "name": "Étang de Mezouët", "category": "Reservoir", "area_ha": 10.7, "altitude_m": null }, "geometry": { "type": "Point", "coordinates": [ -3.36942, 48.22713 ] } },
{ "type": "Feature", "properties": { "name": "Étang de Gourveaux", "category": "Reservoir", "area_ha": 11.8, "altitude_m": null }, "geometry": { "type": "Point", "coordinates": [ -2.96894, 48.2599 ] } },
{ "type": "Feature", "properties": { "name": "Étang du Blavet", "category": "Reservoir", "area_ha": 17.0, "altitude_m": null }, "geometry": { "type": "Point", "coordinates": [ -3.27238, 48.42702 ] } },
{ "type": "Feature", "properties": { "name": "Étang de la Salle", "category": "Reservoir", "area_ha": 11.5, "altitude_m": null }, "geometry": { "type": "Point", "coordinates": [ -2.94082, 48.27719 ] } },
{ "type": "Feature", "properties": { "name": "Étang de Bétineuc", "category": "Reservoir", "area_ha": 20.0, "altitude_m": null }, "geometry": { "type": "Point", "coordinates": [ -2.00009, 48.37541 ] } },
{ "type": "Feature", "properties": { "name": "Étang de la Martyre", "category": "Reservoir", "area_ha": 6.6, "altitude_m": null }, "geometry": { "type": "Point", "coordinates": [ -2.99751, 48.24274 ] } },
{ "type": "Feature", "properties": { "name": "Étang des Sources", "category": "Reservoir", "area_ha": 6.2, "altitude_m": null }, "geometry": { "type": "Point", "coordinates": [ -3.42992, 48.27854 ] } },
{ "type": "Feature", "properties": { "name": "Étang de Poulancre", "category": "Reservoir", "area_ha": 7.5, "altitude_m": null }, "geometry": { "type": "Point", "coordinates": [ -2.98185, 48.24153 ] } },
{ "type": "Feature", "properties": { "name": "Unnamed", "category": "Reservoir", "area_ha": 16.1, "altitude_m": null }, "geometry": { "type": "Point", "coordinates": [ -3.40242, 48.18966 ] } },
{ "type": "Feature", "properties": { "name": "Unnamed", "category": "Reservoir", "area_ha": 10.6, "altitude_m": null }, "geometry": { "type": "Point", "coordinates": [ -2.21719, 48.56304 ] } },
{ "type": "Feature", "properties": { "name": "Unnamed", "category": "Reservoir", "area_ha": 29.0, "altitude_m": null }, "geometry": { "type": "Point", "coordinates": [ -2.18372, 48.58017 ] } },
{ "type": "Feature", "properties": { "name": "Étang de Bosméléac", "category": "Dam", "area_ha": 59.2, "altitude_m": null }, "geometry": { "type": "Point", "coordinates": [ -2.91862, 48.30793 ] } },
{ "type": "Feature", "properties": { "name": "Lac de Guerlédan", "category": "Dam", "area_ha": 295.4, "altitude_m": null }, "geometry": { "type": "Point", "coordinates": [ -3.04469, 48.20425 ] } },
{ "type": "Feature", "properties": { "name": "Unnamed", "category": "Dam", "area_ha": 2.1, "altitude_m": null }, "geometry": { "type": "Point", "coordinates": [ -2.53199, 48.56523 ] } },
{ "type": "Feature", "properties": { "name": "Étang de la Hardouinais", "category": "Dam", "area_ha": 34.7, "altitude_m": null }, "geometry": { "type": "Point", "coordinates": [ -2.3836, 48.22357 ] } },
{ "type": "Feature", "properties": { "name": "Étang de la Grande Isle", "category": "Dam", "area_ha": 7.8, "altitude_m": null }, "geometry": { "type": "Point", "coordinates": [ -2.97582, 48.37975 ] } },
{ "type": "Feature", "properties": { "name": "Étang de Saint-Connan", "category": "Dam", "area_ha": 7.1, "altitude_m": null }, "geometry": { "type": "Point", "coordinates": [ -3.05989, 48.41626 ] } },
{ "type": "Feature", "properties": { "name": "Étang de Loscouët", "category": "Dam", "area_ha": 21.2, "altitude_m": null }, "geometry": { "type": "Point", "coordinates": [ -2.25273, 48.18317 ] } },
{ "type": "Feature", "properties": { "name": "Retenue de Pont Rolland", "category": "Dam", "area_ha": 11.4, "altitude_m": null }, "geometry": { "type": "Point", "coordinates": [ -2.61805, 48.51236 ] } },
{ "type": "Feature", "properties": { "name": "Étang de Pellinec", "category": "Dam", "area_ha": 11.4, "altitude_m": null }, "geometry": { "type": "Point", "coordinates": [ -3.11153, 48.32691 ] } },
{ "type": "Feature", "properties": { "name": "Unnamed", "category": "Dam", "area_ha": 6.7, "altitude_m": null }, "geometry": { "type": "Point", "coordinates": [ -3.44207, 48.40143 ] } },
{ "type": "Feature", "properties": { "name": "Étang de la Rieule", "category": "Dam", "area_ha": 6.0, "altitude_m": null }, "geometry": { "type": "Point", "coordinates": [ -2.38156, 48.32837 ] } }
]
}
