{
"type": "FeatureCollection",
"name": "dep2B.geojson",
"crs": { "type": "name", "properties": { "name": "urn:ogc:def:crs:OGC:1.3:CRS84" } },
"xy_coordinate_resolution": 1e-05,
"features": [
{ "type": "Feature", "properties": { "name": "Réservoir de Gazza", "category": "Reservoir", "area_ha": 5.7, "altitude_m": null }, "geometry": { "type": "Point", "coordinates": [ 9.41468, 42.51897 ] } },
{ "type": "Feature", "properties": { "name": "Retenue de l'Alesani", "category": "Dam", "area_ha": 42.8, "altitude_m": null }, "geometry": { "type": "Point", "coordinates": [ 9.47582, 42.29936 ] } },
{ "type": "Feature", "properties": { "name": "Lac de Melo", "category": "Lake", "area_ha": 6.0, "altitude_m": null }, "geometry": { "type": "Point", "coordinates": [ 9.02266, 42.21298 ] } },
{ "type": "Feature", "properties": { "name": "Étang d'Urbino", "category": "Reservoir", "area_ha": 769.4, "altitude_m": null }, "geometry": { "type": "Point", "coordinates": [ 9.48583, 42.05269 ] } },
{ "type": "Feature", "properties": { "name": "Lac de Padula", "category": "Dam", "area_ha": 24.3, "altitude_m": null }, "geometry": { "type": "Point", "coordinates": [ 9.32111, 42.62993 ] } },
{ "type": "Feature", "properties": { "name": "Retenue de Calacuccia", "category": "Dam", "area_ha": 120.3, "altitude_m": null }, "geometry": { "type": "Point", "coordinates": [ 9.01449, 42.32752 ] } },
{ "type": "Feature", "properties": { "name": "Lac de Nino", "category": "Lake", "area_ha": 6.7, "altitude_m": null }, "geometry": { "type": "Point", "coordinates": [ 8.94054, 42.25506 ] } },
{ "type": "Feature", "properties": { "name": "Lac de Capitello", "category": "Lake", "area_ha": 5.4, "altitude_m": null }, "geometry": { "type": "Point", "coordinates": [ 9.01188, 42.2124 ] } },
{ "type": "Feature", "properties": { "name": "Étang de Cannuta", "category": "Lake", "area_ha": 5.0, "altitude_m": null }, "geometry": { "type": "Point", "coordinates": [ 9.0822, 42.65327 ] } },
{ "type": "Feature", "properties": { "name": "Lac de Codole", "category": "Dam", "area_ha": 80.9, "altitude_m": null }, "geometry": { "type": "Point", "coordinates": [ 8.94678, 42.58682 ] } },
{ "type": "Feature", "properties": { "name": "Lac de Bettaniella", "category": "Reservoir", "area_ha": 7.1, "altitude_m": null }, "geometry": { "type": "Point", "coordinates": [ 9.05441, 42.21122 ] } },
{ "type": "Feature", "properties": { "name": "Étang de Loto", "category": "Reservoir", "area_ha": 7.0, "altitude_m": null }, "geometry": { "type": "Point", "coordinates": [ 9.2307, 42.71862 ] } },
{ "type": "Feature", "properties": { "name": "Réservoir de Teppe Rosse", "category": "Dam", "area_ha": 72.0, "altitude_m": null }, "geometry": { "type": "Point", "coordinates": [ 9.45716, 42.10654 ] } },
{ "type": "Feature", "properties": { "name": "u Stagnolu", "category": "Reservoir", "area_ha": 10.7, "altitude_m": null }, "geometry": { "type": "Point", "coordinates": [ 9.55182, 42.21205 ] } },
{ "type": "Feature", "properties": { "name": "Réservoir d'Alzitone", "category": "Dam", "area_ha": 46.5, "altitude_m": null }, "geometry": { "type": "Point", "coordinates": [ 9.42185, 42.07142 ] } }
]
}
