{
"type": "FeatureCollection",
"name": "dep28.geojson",
"crs": { "type": "name", "properties": { "name": "urn:ogc:def:crs:OGC:1.3:CRS84" } },
"xy_coordinate_resolution": 1e-05,
"features": [
{ "type": "Feature", "properties": { "name": "Étang du Mesnil", "category": "Reservoir", "area_ha": 5.1, "altitude_m": null }, "geometry": { "type": "Point", "coordinates": [ 1.10909, 48.24607 ] } },
{ "type": "Feature", "properties": { "name": "Étang de Théllière", "category": "Reservoir", "area_ha": 11.6, "altitude_m": null }, "geometry": { "type": "Point", "coordinates": [ 1.01278, 48.43198 ] } },
{ "type": "Feature", "properties": { "name": "Unnamed", "category": "Reservoir", "area_ha": 5.7, "altitude_m": null }, "geometry": { "type": "Point", "coordinates": [ 1.27102, 48.04509 ] } },
{ "type": "Feature", "properties": { "name": "Plan d'Eau de la Commune de Barjouville", "category": "Reservoir", "area_ha": 5.1, "altitude_m": null }, "geometry": { "type": "Point", "coordinates": [ 1.48256, 48.41168 ] } },
{ "type": "Feature", "properties": { "name": "Plan d'Eau des Masures", "category": "Reservoir", "area_ha": 8.0, "altitude_m": null }, "geometry": { "type": "Point", "coordinates": [ 0.92545, 48.536 ] } },
{ "type": "Feature", "properties": { "name": "Sablière 1 des Chandelles", "category": "Reservoir", "area_ha": 6.0, "altitude_m": null }, "geometry": { "type": "Point", "coordinates": [ 1.54854, 48.64029 ] } },
{ "type": "Feature", "properties": { "name": "Sablière 2 de la Commune de Villiers-le-Morhier", "category": "Reservoir", "area_ha": 6.3, "altitude_m": null }, "geometry": { "type": "Point", "coordinates": [ 1.55634, 48.60952 ] } },
{ "type": "Feature", "properties": { "name": "Plan d'Eau 1 de la Bouverie des Noes", "category": "Reservoir", "area_ha": 8.2, "altitude_m": null }, "geometry": { "type": "Point", "coordinates": [ 1.40848, 48.75386 ] } },
{ "type": "Feature", "properties": { "name": "Étang de Montemont", "category": "Reservoir", "area_ha": 6.8, "altitude_m": null }, "geometry": { "type": "Point", "coordinates": [ 1.23081, 48.21187 ] } },
{ "type": "Feature", "properties": { "name": "Ballastière", "category": "Reservoir", "area_ha": 9.3, "altitude_m": null }, "geometry": { "type": "Point", "coordinates": [ 1.29109, 48.05684 ] } },
{ "type": "Feature", "properties": { "name": "Unnamed", "category": "Reservoir", "area_ha": 14.6, "altitude_m": null }, "geometry": { "type": "Point", "coordinates": [ 1.88184, 48.10503 ] } },
{ "type": "Feature", "properties": { "name": "Plan d'Eau 2 des Martels", "category": "Reservoir", "area_ha": 6.3, "altitude_m": null }, "geometry": { "type": "Point", "coordinates": [ 1.57754, 48.53251 ] } },
{ "type": "Feature", "properties": { "name": "Unnamed", "category": "Reservoir", "area_ha": 13.8, "altitude_m": null }, "geometry": { "type": "Point", "coordinates": [ 1.33354, 48.244 ] } },
{ "type": "Feature", "properties": { "name": "Plan d'Eau 2 de Saint-Georges-sur-Eure", "category": "Reservoir", "area_ha": 17.3, "altitude_m": null }, "geometry": { "type": "Point", "coordinates": [ 1.37266, 48.41665 ] } },
{ "type": "Feature", "properties": { "name": "Plan d'Eau des Communes", "category": "Reservoir", "area_ha": 8.8, "altitude_m": null }, "geometry": { "type": "Point", "coordinates": [ 1.50526, 48.48486 ] } },
{ "type": "Feature", "properties": { "name": "Étang des Vingtaines", "category": "Reservoir", "area_ha": 10.1, "altitude_m": null }, "geometry": { "type": "Point", "coordinates": [ 1.46448, 48.86924 ] } },
{ "type": "Feature", "properties": { "name": "Gravière 3 de la Séverine", "category": "Reservoir", "area_ha": 8.3, "altitude_m": null }, "geometry": { "type": "Point", "coordinates": [ 1.40384, 48.39096 ] } },
{ "type": "Feature", "properties": { "name": "Bassins de Mousseuse", "category": "Reservoir", "area_ha": 5.1, "altitude_m": null }, "geometry": { "type": "Point", "coordinates": [ 0.88747, 48.61121 ] } },
{ "type": "Feature", "properties": { "name": "Étang de Gautres", "category": "Reservoir", "area_ha": 5.5, "altitude_m": null }, "geometry": { "type": "Point", "coordinates": [ 0.90039, 48.60594 ] } },
{ "type": "Feature", "properties": { "name": "Étang d'Haron", "category": "Reservoir", "area_ha": 5.3, "altitude_m": null }, "geometry": { "type": "Point", "coordinates": [ 0.94458, 48.59812 ] } },
{ "type": "Feature", "properties": { "name": "Étang du Vieux Moulin", "category": "Reservoir", "area_ha": 7.4, "altitude_m": null }, "geometry": { "type": "Point", "coordinates": [ 0.91286, 48.13086 ] } },
{ "type": "Feature", "properties": { "name": "Étangs de Chandelles", "category": "Reservoir", "area_ha": 5.5, "altitude_m": null }, "geometry": { "type": "Point", "coordinates": [ 1.55272, 48.63093 ] } },
{ "type": "Feature", "properties": { "name": "Plan d'Eau 2 de la Commune de Fontaine-Simon", "category": "Reservoir", "area_ha": 7.2, "altitude_m": null }, "geometry": { "type": "Point", "coordinates": [ 1.01981, 48.51019 ] } },
{ "type": "Feature", "properties": { "name": "Gravière 1 du Moulin de Guervilliers", "category": "Reservoir", "area_ha": 5.5, "altitude_m": null }, "geometry": { "type": "Point", "coordinates": [ 1.38956, 48.39594 ] } },
{ "type": "Feature", "properties": { "name": "Unnamed", "category": "Reservoir", "area_ha": 9.8, "altitude_m": null }, "geometry": { "type": "Point", "coordinates": [ 0.97552, 48.2414 ] } },
{ "type": "Feature", "properties": { "name": "Unnamed", "category": "Reservoir", "area_ha": 5.5, "altitude_m": null }, "geometry": { "type": "Point", "coordinates": [ 1.34569, 48.11022 ] } },
{ "type": "Feature", "properties": { "name": "Unnamed", "category": "Reservoir", "area_ha": 6.2, "altitude_m": null }, "geometry": { "type": "Point", "coordinates": [ 0.9643, 48.24178 ] } },
{ "type": "Feature", "properties": { "name": "Plan d'Eau du Moulin du Sauvage", "category": "Reservoir", "area_ha": 14.1, "altitude_m": null }, "geometry": { "type": "Point", "coordinates": [ 1.21514, 48.44527 ] } },
{ "type": "Feature", "properties": { "name": "Étang Communal d'Arrou", "category": "Reservoir", "area_ha": 9.1, "altitude_m": null }, "geometry": { "type": "Point", "coordinates": [ 1.11637, 48.09003 ] } },
{ "type": "Feature", "properties": { "name": "Plan d'Eau 1 du Moulin de l'Orme Hâlé", "category": "Reservoir", "area_ha": 6.4, "altitude_m": null }, "geometry": { "type": "Point", "coordinates": [ 1.58805, 48.56318 ] } },
{ "type": "Feature", "properties": { "name": "Plan d'Eau de Lancey", "category": "Reservoir", "area_ha": 6.5, "altitude_m": null }, "geometry": { "type": "Point", "coordinates": [ 1.24803, 48.4438 ] } },
{ "type": "Feature", "properties": { "name": "Plan d'Eau de la Gadelière", "category": "Reservoir", "area_ha": 6.6, "altitude_m": null }, "geometry": { "type": "Point", "coordinates": [ 1.32718, 48.42922 ] } },
{ "type": "Feature", "properties": { "name": "Plan d'Eau des Mines de Fer", "category": "Reservoir", "area_ha": 5.6, "altitude_m": null }, "geometry": { "type": "Point", "coordinates": [ 1.17404, 48.47462 ] } },
{ "type": "Feature", "properties": { "name": "Plan d'Eau du Moulin de Breuil", "category": "Reservoir", "area_ha": 11.3, "altitude_m": null }, "geometry": { "type": "Point", "coordinates": [ 1.57367, 48.52823 ] } },
{ "type": "Feature", "properties": { "name": "Unnamed", "category": "Reservoir", "area_ha": 6.9, "altitude_m": null }, "geometry": { "type": "Point", "coordinates": [ 1.34221, 48.24273 ] } },
{ "type": "Feature", "properties": { "name": "Plan d'Eau 2 de la Bouverie des Noes", "category": "Reservoir", "area_ha": 9.5, "altitude_m": null }, "geometry": { "type": "Point", "coordinates": [ 1.41023, 48.75272 ] } },
{ "type": "Feature", "properties": { "name": "Plan d'Eau 1 des Malassis", "category": "Reservoir", "area_ha": 92.2, "altitude_m": null }, "geometry": { "type": "Point", "coordinates": [ 1.42656, 48.71462 ] } },
{ "type": "Feature", "properties": { "name": "Unnamed", "category": "Reservoir", "area_ha": 44.3, "altitude_m": null }, "geometry": { "type": "Point", "coordinates": [ 1.24943, 48.01166 ] } },
{ "type": "Feature", "properties": { "name": "Unnamed", "category": "Reservoir", "area_ha": 17.4, "altitude_m": null }, "geometry": { "type": "Point", "coordinates": [ 1.34873, 48.23989 ] } },
{ "type": "Feature", "properties": { "name": "Unnamed", "category": "Reservoir", "area_ha": 25.4, "altitude_m": null }, "geometry": { "type": "Point", "coordinates": [ 1.14997, 48.21094 ] } },
{ "type": "Feature", "properties": { "name": "Plan d'Eau de la Commune de Maintenon", "category": "Reservoir", "area_ha": 10.5, "altitude_m": null }, "geometry": { "type": "Point", "coordinates": [ 1.57329, 48.59601 ] } },
{ "type": "Feature", "properties": { "name": "Étangs de Marsalin", "category": "Reservoir", "area_ha": 8.8, "altitude_m": null }, "geometry": { "type": "Point", "coordinates": [ 1.27477, 48.75982 ] } },
{ "type": "Feature", "properties": { "name": "Plan d'Eau de la Billette", "category": "Reservoir", "area_ha": 8.2, "altitude_m": null }, "geometry": { "type": "Point", "coordinates": [ 1.03049, 48.50834 ] } },
{ "type": "Feature", "properties": { "name": "Sablière 1 de la Commune de Villiers-le-Morhier", "category": "Reservoir", "area_ha": 10.7, "altitude_m": null }, "geometry": { "type": "Point", "coordinates": [ 1.55645, 48.61228 ] } },
{ "type": "Feature", "properties": { "name": "Plan d'Eau du Ménillet", "category": "Reservoir", "area_ha": 16.0, "altitude_m": null }, "geometry": { "type": "Point", "coordinates": [ 1.16611, 48.76824 ] } },
{ "type": "Feature", "properties": { "name": "Unnamed", "category": "Reservoir", "area_ha": 11.3, "altitude_m": null }, "geometry": { "type": "Point", "coordinates": [ 1.19517, 48.28935 ] } },
{ "type": "Feature", "properties": { "name": "Sablière 1 des Prés de l'Église", "category": "Reservoir", "area_ha": 13.9, "altitude_m": null }, "geometry": { "type": "Point", "coordinates": [ 1.56278, 48.60066 ] } },
{ "type": "Feature", "properties": { "name": "la Nicoltière 920", "category": "Reservoir", "area_ha": 5.9, "altitude_m": null }, "geometry": { "type": "Point", "coordinates": [ 1.19772, 48.29857 ] } },
{ "type": "Feature", "properties": { "name": "Plan d'Eau des Pâtures", "category": "Reservoir", "area_ha": 13.0, "altitude_m": null }, "geometry": { "type": "Point", "coordinates": [ 1.40747, 48.74063 ] } },
{ "type": "Feature", "properties": { "name": "Gravière 1 de la Guinguette", "category": "Reservoir", "area_ha": 9.4, "altitude_m": null }, "geometry": { "type": "Point", "coordinates": [ 1.38162, 48.40668 ] } },
{ "type": "Feature", "properties": { "name": "Étangs de Marsalin", "category": "Reservoir", "area_ha": 9.8, "altitude_m": null }, "geometry": { "type": "Point", "coordinates": [ 1.27631, 48.76145 ] } },
{ "type": "Feature", "properties": { "name": "Plan d'Eau du Larry", "category": "Reservoir", "area_ha": 13.5, "altitude_m": null }, "geometry": { "type": "Point", "coordinates": [ 1.40707, 48.74634 ] } },
{ "type": "Feature", "properties": { "name": "Unnamed", "category": "Reservoir", "area_ha": 6.0, "altitude_m": null }, "geometry": { "type": "Point", "coordinates": [ 1.41505, 48.39082 ] } },
{ "type": "Feature", "properties": { "name": "Plan d'Eau du Carillon", "category": "Reservoir", "area_ha": 7.6, "altitude_m": null }, "geometry": { "type": "Point", "coordinates": [ 1.48238, 48.42049 ] } },
{ "type": "Feature", "properties": { "name": "Plan d'Eau de la Carrière des Canaux", "category": "Reservoir", "area_ha": 7.5, "altitude_m": null }, "geometry": { "type": "Point", "coordinates": [ 1.23881, 48.44263 ] } },
{ "type": "Feature", "properties": { "name": "Sablière 2 des Chandelles", "category": "Reservoir", "area_ha": 15.1, "altitude_m": null }, "geometry": { "type": "Point", "coordinates": [ 1.55094, 48.63586 ] } },
{ "type": "Feature", "properties": { "name": "Gravière 2 des Varennes", "category": "Reservoir", "area_ha": 7.6, "altitude_m": null }, "geometry": { "type": "Point", "coordinates": [ 1.0356, 48.73908 ] } },
{ "type": "Feature", "properties": { "name": "Unnamed", "category": "Reservoir", "area_ha": 7.1, "altitude_m": null }, "geometry": { "type": "Point", "coordinates": [ 0.98864, 48.31329 ] } },
{ "type": "Feature", "properties": { "name": "Plan du Bois Brûlé", "category": "Reservoir", "area_ha": 6.7, "altitude_m": null }, "geometry": { "type": "Point", "coordinates": [ 1.12023, 48.48393 ] } },
{ "type": "Feature", "properties": { "name": "Plan d'Eau 1 de la Commune de Fontaine-Simon", "category": "Reservoir", "area_ha": 5.4, "altitude_m": null }, "geometry": { "type": "Point", "coordinates": [ 1.02225, 48.507 ] } },
{ "type": "Feature", "properties": { "name": "Plan d'Eau des Bouvilles", "category": "Reservoir", "area_ha": 6.5, "altitude_m": null }, "geometry": { "type": "Point", "coordinates": [ 1.56996, 48.52479 ] } },
{ "type": "Feature", "properties": { "name": "Plan d'Eau 1 de la Commune de Saint-Luperce", "category": "Reservoir", "area_ha": 8.5, "altitude_m": null }, "geometry": { "type": "Point", "coordinates": [ 1.32613, 48.43414 ] } },
{ "type": "Feature", "properties": { "name": "Gravière 5 de la Séverine", "category": "Reservoir", "area_ha": 6.0, "altitude_m": null }, "geometry": { "type": "Point", "coordinates": [ 1.39839, 48.39361 ] } },
{ "type": "Feature", "properties": { "name": "la Nicoltière 910", "category": "Reservoir", "area_ha": 7.3, "altitude_m": null }, "geometry": { "type": "Point", "coordinates": [ 1.20072, 48.29676 ] } },
{ "type": "Feature", "properties": { "name": "Plan d'Eau de la Grairie", "category": "Reservoir", "area_ha": 5.8, "altitude_m": null }, "geometry": { "type": "Point", "coordinates": [ 1.59021, 48.56721 ] } },
{ "type": "Feature", "properties": { "name": "Gravière u Pré Villaine", "category": "Reservoir", "area_ha": 5.9, "altitude_m": null }, "geometry": { "type": "Point", "coordinates": [ 1.41124, 48.39024 ] } },
{ "type": "Feature", "properties": { "name": "Plan d'Eau 1 de la Grande Fosse", "category": "Reservoir", "area_ha": 5.2, "altitude_m": null }, "geometry": { "type": "Point", "coordinates": [ 1.29457, 48.44662 ] } },
{ "type": "Feature", "properties": { "name": "Étang de la Benette", "category": "Reservoir", "area_ha": 6.8, "altitude_m": null }, "geometry": { "type": "Point", "coordinates": [ 0.9752, 48.5852 ] } },
{ "type": "Feature", "properties": { "name": "Unnamed", "category": "Reservoir", "area_ha": 5.2, "altitude_m": null }, "geometry": { "type": "Point", "coordinates": [ 1.16014, 48.28282 ] } },
{ "type": "Feature", "properties": { "name": "Unnamed", "category": "Reservoir", "area_ha": 13.2, "altitude_m": null }, "geometry": { "type": "Point", "coordinates": [ 1.00247, 48.28213 ] } },
{ "type": "Feature", "properties": { "name": "Unnamed", "category": "Reservoir", "area_ha": 17.6, "altitude_m": null }, "geometry": { "type": "Point", "coordinates": [ 1.24125, 48.0116 ] } },
{ "type": "Feature", "properties": { "name": "Étang de Perruchet", "category": "Reservoir", "area_ha": 22.6, "altitude_m": null }, "geometry": { "type": "Point", "coordinates": [ 1.00313, 48.43093 ] } },
{ "type": "Feature", "properties": { "name": "Vieil Étang", "category": "Reservoir", "area_ha": 6.6, "altitude_m": null }, "geometry": { "type": "Point", "coordinates": [ 1.15683, 48.39031 ] } },
{ "type": "Feature", "properties": { "name": "Étang du Pont", "category": "Reservoir", "area_ha": 5.6, "altitude_m": null }, "geometry": { "type": "Point", "coordinates": [ 0.90185, 48.12504 ] } },
{ "type": "Feature", "properties": { "name": "Plan d'Eau du Moulin du Pré", "category": "Reservoir", "area_ha": 8.3, "altitude_m": null }, "geometry": { "type": "Point", "coordinates": [ 1.18846, 48.46597 ] } },
{ "type": "Feature", "properties": { "name": "Plan d'Eau du Moulin au Rat", "category": "Reservoir", "area_ha": 27.1, "altitude_m": null }, "geometry": { "type": "Point", "coordinates": [ 1.20332, 48.45586 ] } },
{ "type": "Feature", "properties": { "name": "Plan d'Eau de la Commune de Oinville-sous-Auneau", "category": "Reservoir", "area_ha": 17.3, "altitude_m": null }, "geometry": { "type": "Point", "coordinates": [ 1.74073, 48.47383 ] } },
{ "type": "Feature", "properties": { "name": "Étang de Dampierre", "category": "Reservoir", "area_ha": 16.3, "altitude_m": null }, "geometry": { "type": "Point", "coordinates": [ 1.117, 48.62676 ] } },
{ "type": "Feature", "properties": { "name": "Étang du Bois Landry", "category": "Reservoir", "area_ha": 5.4, "altitude_m": null }, "geometry": { "type": "Point", "coordinates": [ 1.0446, 48.39246 ] } }
]
}
