{
"type": "FeatureCollection",
"name": "dep2A.geojson",
"crs": { "type": "name", "properties": { "name": "urn:ogc:def:crs:OGC:1.3:CRS84" } },
"xy_coordinate_resolution": 1e-05,
"features": [
{ "type": "Feature", "properties": { "name": "Lac de Tolla", "category": "Dam", "area_ha": 111.9, "altitude_m": null }, "geometry": { "type": "Point", "coordinates": [ 8.97217, 41.96884 ] } },
{ "type": "Feature", "properties": { "name": "Padulatu", "category": "Reservoir", "area_ha": 22.1, "altitude_m": null }, "geometry": { "type": "Point", "coordinates": [ 9.37381, 41.66757 ] } },
{ "type": "Feature", "properties": { "name": "Padulu Tortu", "category": "Reservoir", "area_ha": 11.9, "altitude_m": null }, "geometry": { "type": "Point", "coordinates": [ 9.37607, 41.66299 ] } },
{ "type": "Feature", "properties": { "name": "Retenue de Figari", "category": "Dam", "area_ha": 70.5, "altitude_m": null }, "geometry": { "type": "Point", "coordinates": [ 9.14861, 41.47006 ] } },
{ "type": "Feature", "properties": { "name": "Étang de Canniccia", "category": "Reservoir", "area_ha": 8.0, "altitude_m": null }, "geometry": { "type": "Point", "coordinates": [ 8.8488, 41.72847 ] } },
{ "type": "Feature", "properties": { "name": "Étangs d'Arasu", "category": "Reservoir", "area_ha": 5.6, "altitude_m": null }, "geometry": { "type": "Point", "coordinates": [ 9.35437, 41.64191 ] } },
{ "type": "Feature", "properties": { "name": "Étang de Pisciu Cane", "category": "Reservoir", "area_ha": 10.0, "altitude_m": null }, "geometry": { "type": "Point", "coordinates": [ 9.09914, 41.45368 ] } },
{ "type": "Feature", "properties": { "name": "Étang de Canetto", "category": "Reservoir", "area_ha": 5.2, "altitude_m": null }, "geometry": { "type": "Point", "coordinates": [ 9.22342, 41.42402 ] } },
{ "type": "Feature", "properties": { "name": "Étang de Balistra", "category": "Reservoir", "area_ha": 24.4, "altitude_m": null }, "geometry": { "type": "Point", "coordinates": [ 9.21738, 41.44018 ] } },
{ "type": "Feature", "properties": { "name": "Étang de Ventilegne", "category": "Reservoir", "area_ha": 6.7, "altitude_m": null }, "geometry": { "type": "Point", "coordinates": [ 9.12508, 41.44467 ] } },
{ "type": "Feature", "properties": { "name": "Lac de l'Ospedale", "category": "Dam", "area_ha": 45.8, "altitude_m": null }, "geometry": { "type": "Point", "coordinates": [ 9.19706, 41.66371 ] } }
]
}
