{
"type": "FeatureCollection",
"name": "dep21.geojson",
"crs": { "type": "name", "properties": { "name": "urn:ogc:def:crs:OGC:1.3:CRS84" } },
"xy_coordinate_resolution": 1e-05,
"features": [
{ "type": "Feature", "properties": { "name": "Étang Pierre", "category": "Reservoir", "area_ha": 5.6, "altitude_m": null }, "geometry": { "type": "Point", "coordinates": [ 5.34051, 47.29708 ] } },
{ "type": "Feature", "properties": { "name": "Étang de derrière", "category": "Reservoir", "area_ha": 7.5, "altitude_m": null }, "geometry": { "type": "Point", "coordinates": [ 5.22397, 47.16252 ] } },
{ "type": "Feature", "properties": { "name": "Lac de la Tille", "category": "Reservoir", "area_ha": 6.2, "altitude_m": null }, "geometry": { "type": "Point", "coordinates": [ 5.1785, 47.28176 ] } },
{ "type": "Feature", "properties": { "name": "Étang Millot", "category": "Reservoir", "area_ha": 10.2, "altitude_m": null }, "geometry": { "type": "Point", "coordinates": [ 5.12819, 47.11642 ] } },
{ "type": "Feature", "properties": { "name": "Lac de Pont", "category": "Dam", "area_ha": 72.4, "altitude_m": null }, "geometry": { "type": "Point", "coordinates": [ 4.35674, 47.45143 ] } },
{ "type": "Feature", "properties": { "name": "Unnamed", "category": "Reservoir", "area_ha": 7.5, "altitude_m": null }, "geometry": { "type": "Point", "coordinates": [ 4.1562, 47.38376 ] } },
{ "type": "Feature", "properties": { "name": "Étang Pagosse", "category": "Reservoir", "area_ha": 6.8, "altitude_m": null }, "geometry": { "type": "Point", "coordinates": [ 5.36513, 47.52717 ] } },
{ "type": "Feature", "properties": { "name": "Gravière de Nuits St Georges", "category": "Reservoir", "area_ha": 6.0, "altitude_m": null }, "geometry": { "type": "Point", "coordinates": [ 4.9556, 47.10927 ] } },
{ "type": "Feature", "properties": { "name": "Réservoir de Cercey", "category": "Reservoir", "area_ha": 60.7, "altitude_m": null }, "geometry": { "type": "Point", "coordinates": [ 4.50381, 47.25412 ] } },
{ "type": "Feature", "properties": { "name": "Étang de Marcenay", "category": "Reservoir", "area_ha": 58.3, "altitude_m": null }, "geometry": { "type": "Point", "coordinates": [ 4.41398, 47.87554 ] } },
{ "type": "Feature", "properties": { "name": "Gravière de Prissey", "category": "Reservoir", "area_ha": 14.9, "altitude_m": null }, "geometry": { "type": "Point", "coordinates": [ 4.95213, 47.10049 ] } },
{ "type": "Feature", "properties": { "name": "Étang Cousin", "category": "Reservoir", "area_ha": 5.9, "altitude_m": null }, "geometry": { "type": "Point", "coordinates": [ 4.16167, 47.24941 ] } },
{ "type": "Feature", "properties": { "name": "Étang du Milieu", "category": "Reservoir", "area_ha": 11.2, "altitude_m": null }, "geometry": { "type": "Point", "coordinates": [ 5.04161, 47.1524 ] } },
{ "type": "Feature", "properties": { "name": "Étang Neuf", "category": "Dam", "area_ha": 21.5, "altitude_m": null }, "geometry": { "type": "Point", "coordinates": [ 5.36692, 47.2723 ] } },
{ "type": "Feature", "properties": { "name": "Étang d'Époisses", "category": "Reservoir", "area_ha": 23.5, "altitude_m": null }, "geometry": { "type": "Point", "coordinates": [ 4.14278, 47.51179 ] } },
{ "type": "Feature", "properties": { "name": "Étang de l'Aillon", "category": "Dam", "area_ha": 18.0, "altitude_m": null }, "geometry": { "type": "Point", "coordinates": [ 5.33027, 47.08217 ] } },
{ "type": "Feature", "properties": { "name": "l'Eau des Vignes", "category": "Reservoir", "area_ha": 9.7, "altitude_m": null }, "geometry": { "type": "Point", "coordinates": [ 4.82619, 46.9604 ] } },
{ "type": "Feature", "properties": { "name": "Étang de Venarde", "category": "Dam", "area_ha": 5.6, "altitude_m": null }, "geometry": { "type": "Point", "coordinates": [ 5.1325, 47.50411 ] } },
{ "type": "Feature", "properties": { "name": "Lac de Chamboux", "category": "Dam", "area_ha": 68.5, "altitude_m": null }, "geometry": { "type": "Point", "coordinates": [ 4.2005, 47.25246 ] } },
{ "type": "Feature", "properties": { "name": "Ruisseau le Brevon", "category": "Reservoir", "area_ha": 5.7, "altitude_m": null }, "geometry": { "type": "Point", "coordinates": [ 4.75959, 47.70355 ] } },
{ "type": "Feature", "properties": { "name": "Gravière de Premeaux", "category": "Reservoir", "area_ha": 10.6, "altitude_m": null }, "geometry": { "type": "Point", "coordinates": [ 4.94912, 47.10221 ] } },
{ "type": "Feature", "properties": { "name": "Étang Bailly", "category": "Reservoir", "area_ha": 18.2, "altitude_m": null }, "geometry": { "type": "Point", "coordinates": [ 4.3972, 47.88913 ] } },
{ "type": "Feature", "properties": { "name": "Grand Étang de Satenay", "category": "Reservoir", "area_ha": 16.5, "altitude_m": null }, "geometry": { "type": "Point", "coordinates": [ 5.0249, 47.2222 ] } },
{ "type": "Feature", "properties": { "name": "Étang de Noiron", "category": "Dam", "area_ha": 11.8, "altitude_m": null }, "geometry": { "type": "Point", "coordinates": [ 5.2854, 47.43535 ] } },
{ "type": "Feature", "properties": { "name": "Unnamed", "category": "Reservoir", "area_ha": 9.4, "altitude_m": null }, "geometry": { "type": "Point", "coordinates": [ 5.16078, 47.35125 ] } },
{ "type": "Feature", "properties": { "name": "Étang Bienvenu", "category": "Reservoir", "area_ha": 9.3, "altitude_m": null }, "geometry": { "type": "Point", "coordinates": [ 4.81454, 46.95917 ] } },
{ "type": "Feature", "properties": { "name": "Étang de Lochère", "category": "Reservoir", "area_ha": 10.3, "altitude_m": null }, "geometry": { "type": "Point", "coordinates": [ 5.23752, 47.30044 ] } },
{ "type": "Feature", "properties": { "name": "Étang de l'Argentalet", "category": "Dam", "area_ha": 2.0, "altitude_m": null }, "geometry": { "type": "Point", "coordinates": [ 4.22411, 47.30889 ] } },
{ "type": "Feature", "properties": { "name": "Étang Morin", "category": "Reservoir", "area_ha": 17.7, "altitude_m": null }, "geometry": { "type": "Point", "coordinates": [ 4.14452, 47.26227 ] } },
{ "type": "Feature", "properties": { "name": "Étang Rougeot", "category": "Reservoir", "area_ha": 5.9, "altitude_m": null }, "geometry": { "type": "Point", "coordinates": [ 5.30192, 47.41184 ] } },
{ "type": "Feature", "properties": { "name": "Grand Étang", "category": "Dam", "area_ha": 46.1, "altitude_m": null }, "geometry": { "type": "Point", "coordinates": [ 5.35465, 47.30454 ] } },
{ "type": "Feature", "properties": { "name": "Unnamed", "category": "Reservoir", "area_ha": 5.0, "altitude_m": null }, "geometry": { "type": "Point", "coordinates": [ 4.17495, 47.29029 ] } },
{ "type": "Feature", "properties": { "name": "Étang de Bauche", "category": "Reservoir", "area_ha": 11.2, "altitude_m": null }, "geometry": { "type": "Point", "coordinates": [ 5.20336, 47.02847 ] } },
{ "type": "Feature", "properties": { "name": "Étang Saint-Georges", "category": "Reservoir", "area_ha": 12.7, "altitude_m": null }, "geometry": { "type": "Point", "coordinates": [ 5.17263, 46.97387 ] } },
{ "type": "Feature", "properties": { "name": "Étang Fortier", "category": "Reservoir", "area_ha": 21.9, "altitude_m": null }, "geometry": { "type": "Point", "coordinates": [ 4.1698, 47.28229 ] } },
{ "type": "Feature", "properties": { "name": "Lac de Gigny", "category": "Reservoir", "area_ha": 9.1, "altitude_m": null }, "geometry": { "type": "Point", "coordinates": [ 4.87198, 47.03446 ] } },
{ "type": "Feature", "properties": { "name": "Étang Sauvage", "category": "Reservoir", "area_ha": 8.1, "altitude_m": null }, "geometry": { "type": "Point", "coordinates": [ 4.81056, 46.96062 ] } },
{ "type": "Feature", "properties": { "name": "Étang de Lacanche", "category": "Reservoir", "area_ha": 52.0, "altitude_m": null }, "geometry": { "type": "Point", "coordinates": [ 4.57083, 47.08025 ] } },
{ "type": "Feature", "properties": { "name": "Grand Étang", "category": "Reservoir", "area_ha": 8.3, "altitude_m": null }, "geometry": { "type": "Point", "coordinates": [ 5.06452, 47.06379 ] } },
{ "type": "Feature", "properties": { "name": "Étang de Chaume", "category": "Reservoir", "area_ha": 6.4, "altitude_m": null }, "geometry": { "type": "Point", "coordinates": [ 4.1842, 47.46387 ] } },
{ "type": "Feature", "properties": { "name": "Étang Loppin", "category": "Reservoir", "area_ha": 5.3, "altitude_m": null }, "geometry": { "type": "Point", "coordinates": [ 5.09132, 47.01189 ] } },
{ "type": "Feature", "properties": { "name": "Lac de Chour", "category": "Reservoir", "area_ha": 25.7, "altitude_m": null }, "geometry": { "type": "Point", "coordinates": [ 5.23282, 47.05676 ] } },
{ "type": "Feature", "properties": { "name": "Étang des Carpistes", "category": "Reservoir", "area_ha": 9.2, "altitude_m": null }, "geometry": { "type": "Point", "coordinates": [ 4.83051, 46.95476 ] } },
{ "type": "Feature", "properties": { "name": "les Genièvres", "category": "Reservoir", "area_ha": 25.8, "altitude_m": null }, "geometry": { "type": "Point", "coordinates": [ 4.84018, 46.99664 ] } },
{ "type": "Feature", "properties": { "name": "Étang de devant", "category": "Reservoir", "area_ha": 6.8, "altitude_m": null }, "geometry": { "type": "Point", "coordinates": [ 5.22427, 47.15611 ] } },
{ "type": "Feature", "properties": { "name": "Étang des Hâtes", "category": "Reservoir", "area_ha": 19.2, "altitude_m": null }, "geometry": { "type": "Point", "coordinates": [ 4.1529, 47.24425 ] } },
{ "type": "Feature", "properties": { "name": "Étang Jobaut", "category": "Reservoir", "area_ha": 6.7, "altitude_m": null }, "geometry": { "type": "Point", "coordinates": [ 5.38036, 47.2993 ] } },
{ "type": "Feature", "properties": { "name": "Étang Jacquelin", "category": "Reservoir", "area_ha": 5.6, "altitude_m": null }, "geometry": { "type": "Point", "coordinates": [ 4.20399, 47.27995 ] } },
{ "type": "Feature", "properties": { "name": "Étang de Romanet", "category": "Reservoir", "area_ha": 9.0, "altitude_m": null }, "geometry": { "type": "Point", "coordinates": [ 4.1434, 47.36684 ] } },
{ "type": "Feature", "properties": { "name": "Étang des Fontaines", "category": "Reservoir", "area_ha": 7.0, "altitude_m": null }, "geometry": { "type": "Point", "coordinates": [ 5.07543, 47.10749 ] } },
{ "type": "Feature", "properties": { "name": "Étang de Longbroche", "category": "Reservoir", "area_ha": 7.5, "altitude_m": null }, "geometry": { "type": "Point", "coordinates": [ 5.03874, 47.06155 ] } },
{ "type": "Feature", "properties": { "name": "Étang du Moulin", "category": "Reservoir", "area_ha": 5.0, "altitude_m": null }, "geometry": { "type": "Point", "coordinates": [ 5.05501, 47.02916 ] } },
{ "type": "Feature", "properties": { "name": "Étang du Grand Borne", "category": "Reservoir", "area_ha": 11.8, "altitude_m": null }, "geometry": { "type": "Point", "coordinates": [ 4.96214, 47.05095 ] } },
{ "type": "Feature", "properties": { "name": "Étang du Fourneau", "category": "Reservoir", "area_ha": 29.9, "altitude_m": null }, "geometry": { "type": "Point", "coordinates": [ 5.36945, 47.52012 ] } },
{ "type": "Feature", "properties": { "name": "Étang de Saule", "category": "Reservoir", "area_ha": 7.5, "altitude_m": null }, "geometry": { "type": "Point", "coordinates": [ 5.12675, 47.1244 ] } },
{ "type": "Feature", "properties": { "name": "Étang de la Tuilerie", "category": "Reservoir", "area_ha": 9.9, "altitude_m": null }, "geometry": { "type": "Point", "coordinates": [ 5.30795, 47.25114 ] } },
{ "type": "Feature", "properties": { "name": "Étang Bordot", "category": "Reservoir", "area_ha": 8.9, "altitude_m": null }, "geometry": { "type": "Point", "coordinates": [ 4.18863, 47.2662 ] } },
{ "type": "Feature", "properties": { "name": "Petit Étang de Satenay", "category": "Reservoir", "area_ha": 14.6, "altitude_m": null }, "geometry": { "type": "Point", "coordinates": [ 5.03701, 47.22033 ] } },
{ "type": "Feature", "properties": { "name": "Étang Neuf", "category": "Reservoir", "area_ha": 18.3, "altitude_m": null }, "geometry": { "type": "Point", "coordinates": [ 5.08407, 47.11094 ] } },
{ "type": "Feature", "properties": { "name": "Étang du Tournesac", "category": "Reservoir", "area_ha": 5.3, "altitude_m": null }, "geometry": { "type": "Point", "coordinates": [ 4.16484, 47.37887 ] } },
{ "type": "Feature", "properties": { "name": "Étang de Champeau", "category": "Reservoir", "area_ha": 24.9, "altitude_m": null }, "geometry": { "type": "Point", "coordinates": [ 4.14687, 47.27251 ] } },
{ "type": "Feature", "properties": { "name": "Unnamed", "category": "Reservoir", "area_ha": 10.8, "altitude_m": null }, "geometry": { "type": "Point", "coordinates": [ 4.54236, 47.92115 ] } },
{ "type": "Feature", "properties": { "name": "Grand Étang", "category": "Reservoir", "area_ha": 6.4, "altitude_m": null }, "geometry": { "type": "Point", "coordinates": [ 5.11104, 47.01141 ] } },
{ "type": "Feature", "properties": { "name": "Étang du Pont", "category": "Reservoir", "area_ha": 5.0, "altitude_m": null }, "geometry": { "type": "Point", "coordinates": [ 4.17424, 47.28648 ] } },
{ "type": "Feature", "properties": { "name": "Unnamed", "category": "Dam", "area_ha": 3.6, "altitude_m": null }, "geometry": { "type": "Point", "coordinates": [ 4.16114, 47.28957 ] } },
{ "type": "Feature", "properties": { "name": "Étang du Château", "category": "Dam", "area_ha": 1.2, "altitude_m": null }, "geometry": { "type": "Point", "coordinates": [ 4.70735, 47.5537 ] } },
{ "type": "Feature", "properties": { "name": "Réservoir de Chazilly", "category": "Dam", "area_ha": 40.6, "altitude_m": null }, "geometry": { "type": "Point", "coordinates": [ 4.5963, 47.18244 ] } },
{ "type": "Feature", "properties": { "name": "Étang de Rouhey", "category": "Dam", "area_ha": 48.2, "altitude_m": null }, "geometry": { "type": "Point", "coordinates": [ 4.58032, 47.09066 ] } },
{ "type": "Feature", "properties": { "name": "Lac Kir", "category": "Dam", "area_ha": 33.9, "altitude_m": null }, "geometry": { "type": "Point", "coordinates": [ 4.99949, 47.32714 ] } },
{ "type": "Feature", "properties": { "name": "Étang de Champ Jarley", "category": "Dam", "area_ha": 23.7, "altitude_m": null }, "geometry": { "type": "Point", "coordinates": [ 5.01594, 47.01048 ] } },
{ "type": "Feature", "properties": { "name": "Étang Barrot", "category": "Dam", "area_ha": 13.5, "altitude_m": null }, "geometry": { "type": "Point", "coordinates": [ 4.52256, 47.13515 ] } },
{ "type": "Feature", "properties": { "name": "Étang de Villers Rotin", "category": "Dam", "area_ha": 15.3, "altitude_m": null }, "geometry": { "type": "Point", "coordinates": [ 5.40697, 47.16574 ] } },
{ "type": "Feature", "properties": { "name": "Unnamed", "category": "Dam", "area_ha": 5.1, "altitude_m": null }, "geometry": { "type": "Point", "coordinates": [ 4.6191, 47.74212 ] } },
{ "type": "Feature", "properties": { "name": "Étang de Champ Jarley", "category": "Dam", "area_ha": 6.5, "altitude_m": null }, "geometry": { "type": "Point", "coordinates": [ 5.01872, 47.01936 ] } },
{ "type": "Feature", "properties": { "name": "Étang de Marcilly", "category": "Dam", "area_ha": 24.3, "altitude_m": null }, "geometry": { "type": "Point", "coordinates": [ 5.14771, 47.5179 ] } },
{ "type": "Feature", "properties": { "name": "Étang Neuf", "category": "Dam", "area_ha": 6.4, "altitude_m": null }, "geometry": { "type": "Point", "coordinates": [ 5.01596, 47.09646 ] } },
{ "type": "Feature", "properties": { "name": "Réservoir du Tillot", "category": "Dam", "area_ha": 12.7, "altitude_m": null }, "geometry": { "type": "Point", "coordinates": [ 4.59949, 47.20727 ] } },
{ "type": "Feature", "properties": { "name": "Étang de Chénomenne", "category": "Dam", "area_ha": 15.9, "altitude_m": null }, "geometry": { "type": "Point", "coordinates": [ 4.32024, 47.26269 ] } },
{ "type": "Feature", "properties": { "name": "Réservoir de Panthier", "category": "Dam", "area_ha": 113.8, "altitude_m": null }, "geometry": { "type": "Point", "coordinates": [ 4.62953, 47.24323 ] } },
{ "type": "Feature", "properties": { "name": "Étang de Bessey", "category": "Dam", "area_ha": 10.1, "altitude_m": null }, "geometry": { "type": "Point", "coordinates": [ 5.30901, 47.48066 ] } },
{ "type": "Feature", "properties": { "name": "Étang de Breuil", "category": "Dam", "area_ha": 12.0, "altitude_m": null }, "geometry": { "type": "Point", "coordinates": [ 4.47463, 47.09447 ] } },
{ "type": "Feature", "properties": { "name": "Étang des Vernots", "category": "Dam", "area_ha": 1.5, "altitude_m": null }, "geometry": { "type": "Point", "coordinates": [ 4.23913, 47.39211 ] } },
{ "type": "Feature", "properties": { "name": "Étang Fouché", "category": "Dam", "area_ha": 13.7, "altitude_m": null }, "geometry": { "type": "Point", "coordinates": [ 4.50659, 47.13217 ] } },
{ "type": "Feature", "properties": { "name": "Étang Lambert", "category": "Dam", "area_ha": 6.4, "altitude_m": null }, "geometry": { "type": "Point", "coordinates": [ 4.57744, 47.10734 ] } },
{ "type": "Feature", "properties": { "name": "Étang de Matrot", "category": "Dam", "area_ha": 3.6, "altitude_m": null }, "geometry": { "type": "Point", "coordinates": [ 4.2099, 47.38113 ] } },
{ "type": "Feature", "properties": { "name": "Étang de Poncey", "category": "Dam", "area_ha": 18.0, "altitude_m": null }, "geometry": { "type": "Point", "coordinates": [ 5.36957, 47.24489 ] } },
{ "type": "Feature", "properties": { "name": "Grand Étang du Bois", "category": "Dam", "area_ha": 9.3, "altitude_m": null }, "geometry": { "type": "Point", "coordinates": [ 5.01573, 47.12778 ] } },
{ "type": "Feature", "properties": { "name": "Étang de Grange Rosotte", "category": "Dam", "area_ha": 5.8, "altitude_m": null }, "geometry": { "type": "Point", "coordinates": [ 5.38972, 47.13736 ] } },
{ "type": "Feature", "properties": { "name": "Réservoir de Grosbois", "category": "Dam", "area_ha": 101.0, "altitude_m": null }, "geometry": { "type": "Point", "coordinates": [ 4.61663, 47.30763 ] } },
{ "type": "Feature", "properties": { "name": "Étang du Milieu", "category": "Dam", "area_ha": 34.0, "altitude_m": null }, "geometry": { "type": "Point", "coordinates": [ 5.34368, 47.09802 ] } },
{ "type": "Feature", "properties": { "name": "Étang du Milieu", "category": "Dam", "area_ha": 8.4, "altitude_m": null }, "geometry": { "type": "Point", "coordinates": [ 5.37784, 47.27177 ] } },
{ "type": "Feature", "properties": { "name": "Étang du Pré Haut", "category": "Dam", "area_ha": 13.6, "altitude_m": null }, "geometry": { "type": "Point", "coordinates": [ 5.414, 47.5075 ] } }
]
}
