{
"type": "FeatureCollection",
"name": "dep31.geojson",
"crs": { "type": "name", "properties": { "name": "urn:ogc:def:crs:OGC:1.3:CRS84" } },
"xy_coordinate_resolution": 1e-05,
"features": [
{ "type": "Feature", "properties": { "name": "Unnamed", "category": "Reservoir", "area_ha": 6.3, "altitude_m": null }, "geometry": { "type": "Point", "coordinates": [ 0.69713, 43.09619 ] } },
{ "type": "Feature", "properties": { "name": "Étang de l'Orme Blanc", "category": "Reservoir", "area_ha": 5.2, "altitude_m": null }, "geometry": { "type": "Point", "coordinates": [ 1.74555, 43.52724 ] } },
{ "type": "Feature", "properties": { "name": "Unnamed", "category": "Reservoir", "area_ha": 5.7, "altitude_m": null }, "geometry": { "type": "Point", "coordinates": [ 1.37192, 43.71388 ] } },
{ "type": "Feature", "properties": { "name": "Lac Saussat", "category": "Lake", "area_ha": 6.5, "altitude_m": null }, "geometry": { "type": "Point", "coordinates": [ 0.50214, 42.72398 ] } },
{ "type": "Feature", "properties": { "name": "Unnamed", "category": "Reservoir", "area_ha": 5.1, "altitude_m": null }, "geometry": { "type": "Point", "coordinates": [ 1.36611, 43.71796 ] } },
{ "type": "Feature", "properties": { "name": "Unnamed", "category": "Reservoir", "area_ha": 5.9, "altitude_m": null }, "geometry": { "type": "Point", "coordinates": [ 1.56687, 43.5943 ] } },
{ "type": "Feature", "properties": { "name": "Retenue de Fabas", "category": "Dam", "area_ha": 37.4, "altitude_m": null }, "geometry": { "type": "Point", "coordinates": [ 0.86406, 43.30023 ] } },
{ "type": "Feature", "properties": { "name": "Retenue de Savères", "category": "Dam", "area_ha": 34.6, "altitude_m": null }, "geometry": { "type": "Point", "coordinates": [ 1.09978, 43.37612 ] } },
{ "type": "Feature", "properties": { "name": "Unnamed", "category": "Reservoir", "area_ha": 12.8, "altitude_m": null }, "geometry": { "type": "Point", "coordinates": [ 1.3574, 43.5132 ] } },
{ "type": "Feature", "properties": { "name": "Unnamed", "category": "Reservoir", "area_ha": 15.5, "altitude_m": null }, "geometry": { "type": "Point", "coordinates": [ 1.29045, 43.52369 ] } },
{ "type": "Feature", "properties": { "name": "Lac de Raby", "category": "Lake", "area_ha": 9.1, "altitude_m": null }, "geometry": { "type": "Point", "coordinates": [ 1.36792, 43.71522 ] } },
{ "type": "Feature", "properties": { "name": "Lac de la Montagnette", "category": "Lake", "area_ha": 6.7, "altitude_m": null }, "geometry": { "type": "Point", "coordinates": [ 0.62633, 42.70025 ] } },
{ "type": "Feature", "properties": { "name": "Boums du Port", "category": "Lake", "area_ha": 9.7, "altitude_m": null }, "geometry": { "type": "Point", "coordinates": [ 0.63909, 42.69713 ] } },
{ "type": "Feature", "properties": { "name": "Unnamed", "category": "Reservoir", "area_ha": 8.7, "altitude_m": null }, "geometry": { "type": "Point", "coordinates": [ 1.35516, 43.51495 ] } },
{ "type": "Feature", "properties": { "name": "Lac de la Gimone", "category": "Dam", "area_ha": 223.4, "altitude_m": null }, "geometry": { "type": "Point", "coordinates": [ 0.66106, 43.32019 ] } },
{ "type": "Feature", "properties": { "name": "Unnamed", "category": "Reservoir", "area_ha": 7.3, "altitude_m": null }, "geometry": { "type": "Point", "coordinates": [ 1.35207, 43.51024 ] } },
{ "type": "Feature", "properties": { "name": "Unnamed", "category": "Reservoir", "area_ha": 15.2, "altitude_m": null }, "geometry": { "type": "Point", "coordinates": [ 1.28323, 43.52543 ] } },
{ "type": "Feature", "properties": { "name": "Étang de la Riquette", "category": "Reservoir", "area_ha": 20.4, "altitude_m": null }, "geometry": { "type": "Point", "coordinates": [ 1.29005, 43.53016 ] } },
{ "type": "Feature", "properties": { "name": "Bassin de Saint-Ferréol", "category": "Dam", "area_ha": 64.4, "altitude_m": null }, "geometry": { "type": "Point", "coordinates": [ 2.02871, 43.43675 ] } },
{ "type": "Feature", "properties": { "name": "Retenue de Saint-Frajou", "category": "Dam", "area_ha": 40.2, "altitude_m": null }, "geometry": { "type": "Point", "coordinates": [ 0.82848, 43.31685 ] } },
{ "type": "Feature", "properties": { "name": "Unnamed", "category": "Reservoir", "area_ha": 6.9, "altitude_m": null }, "geometry": { "type": "Point", "coordinates": [ 1.42371, 43.45386 ] } },
{ "type": "Feature", "properties": { "name": "Lac Glacé ou Lac du Port d'Oô", "category": "Lake", "area_ha": 11.2, "altitude_m": null }, "geometry": { "type": "Point", "coordinates": [ 0.49373, 42.70399 ] } },
{ "type": "Feature", "properties": { "name": "Unnamed", "category": "Reservoir", "area_ha": 8.3, "altitude_m": null }, "geometry": { "type": "Point", "coordinates": [ 1.36013, 43.57005 ] } },
{ "type": "Feature", "properties": { "name": "Unnamed", "category": "Reservoir", "area_ha": 5.6, "altitude_m": null }, "geometry": { "type": "Point", "coordinates": [ 1.38235, 43.53687 ] } },
{ "type": "Feature", "properties": { "name": "Unnamed", "category": "Reservoir", "area_ha": 5.5, "altitude_m": null }, "geometry": { "type": "Point", "coordinates": [ 1.29538, 43.52983 ] } },
{ "type": "Feature", "properties": { "name": "Lac de Peyssies", "category": "Lake", "area_ha": 13.6, "altitude_m": null }, "geometry": { "type": "Point", "coordinates": [ 1.17205, 43.32925 ] } },
{ "type": "Feature", "properties": { "name": "Lac du Val de Saune", "category": "Lake", "area_ha": 5.7, "altitude_m": null }, "geometry": { "type": "Point", "coordinates": [ 1.60913, 43.54726 ] } },
{ "type": "Feature", "properties": { "name": "Lac d'Aussonne", "category": "Dam", "area_ha": 7.4, "altitude_m": null }, "geometry": { "type": "Point", "coordinates": [ 1.31303, 43.67827 ] } },
{ "type": "Feature", "properties": { "name": "Lac du Portillon", "category": "Dam", "area_ha": 35.0, "altitude_m": null }, "geometry": { "type": "Point", "coordinates": [ 0.50846, 42.7004 ] } },
{ "type": "Feature", "properties": { "name": "Retenue Ste Foy de Peyrolières II", "category": "Dam", "area_ha": 18.6, "altitude_m": null }, "geometry": { "type": "Point", "coordinates": [ 1.15451, 43.46588 ] } },
{ "type": "Feature", "properties": { "name": "Unnamed", "category": "Reservoir", "area_ha": 5.1, "altitude_m": null }, "geometry": { "type": "Point", "coordinates": [ 0.89151, 43.10628 ] } },
{ "type": "Feature", "properties": { "name": "Lac Lamartine", "category": "Lake", "area_ha": 21.3, "altitude_m": null }, "geometry": { "type": "Point", "coordinates": [ 1.33666, 43.50626 ] } },
{ "type": "Feature", "properties": { "name": "Lac du Bocage", "category": "Lake", "area_ha": 33.3, "altitude_m": null }, "geometry": { "type": "Point", "coordinates": [ 1.39062, 43.69779 ] } },
{ "type": "Feature", "properties": { "name": "Lac de la Thésauque", "category": "Lake", "area_ha": 29.9, "altitude_m": null }, "geometry": { "type": "Point", "coordinates": [ 1.64286, 43.35076 ] } },
{ "type": "Feature", "properties": { "name": "Lac Vert", "category": "Lake", "area_ha": 6.3, "altitude_m": null }, "geometry": { "type": "Point", "coordinates": [ 0.56848, 42.71409 ] } },
{ "type": "Feature", "properties": { "name": "Unnamed", "category": "Reservoir", "area_ha": 6.4, "altitude_m": null }, "geometry": { "type": "Point", "coordinates": [ 1.41705, 43.51984 ] } },
{ "type": "Feature", "properties": { "name": "Unnamed", "category": "Reservoir", "area_ha": 11.5, "altitude_m": null }, "geometry": { "type": "Point", "coordinates": [ 1.34634, 43.51497 ] } },
{ "type": "Feature", "properties": { "name": "Unnamed", "category": "Reservoir", "area_ha": 15.2, "altitude_m": null }, "geometry": { "type": "Point", "coordinates": [ 1.37352, 43.51879 ] } },
{ "type": "Feature", "properties": { "name": "Unnamed", "category": "Reservoir", "area_ha": 12.9, "altitude_m": null }, "geometry": { "type": "Point", "coordinates": [ 1.59679, 43.77463 ] } },
{ "type": "Feature", "properties": { "name": "les Lacs", "category": "Reservoir", "area_ha": 9.4, "altitude_m": null }, "geometry": { "type": "Point", "coordinates": [ 1.39063, 43.49472 ] } },
{ "type": "Feature", "properties": { "name": "Unnamed", "category": "Reservoir", "area_ha": 6.3, "altitude_m": null }, "geometry": { "type": "Point", "coordinates": [ 1.49937, 43.5521 ] } },
{ "type": "Feature", "properties": { "name": "Unnamed", "category": "Reservoir", "area_ha": 13.2, "altitude_m": null }, "geometry": { "type": "Point", "coordinates": [ 0.95798, 43.08333 ] } },
{ "type": "Feature", "properties": { "name": "Unnamed", "category": "Reservoir", "area_ha": 6.1, "altitude_m": null }, "geometry": { "type": "Point", "coordinates": [ 1.38069, 43.67634 ] } },
{ "type": "Feature", "properties": { "name": "Unnamed", "category": "Reservoir", "area_ha": 5.5, "altitude_m": null }, "geometry": { "type": "Point", "coordinates": [ 1.27273, 43.37124 ] } },
{ "type": "Feature", "properties": { "name": "Unnamed", "category": "Reservoir", "area_ha": 6.1, "altitude_m": null }, "geometry": { "type": "Point", "coordinates": [ 1.37921, 43.72118 ] } },
{ "type": "Feature", "properties": { "name": "Lac de la Ramée", "category": "Reservoir", "area_ha": 41.4, "altitude_m": null }, "geometry": { "type": "Point", "coordinates": [ 1.34904, 43.57001 ] } },
{ "type": "Feature", "properties": { "name": "Unnamed", "category": "Reservoir", "area_ha": 6.6, "altitude_m": null }, "geometry": { "type": "Point", "coordinates": [ 1.39941, 43.6631 ] } },
{ "type": "Feature", "properties": { "name": "Unnamed", "category": "Reservoir", "area_ha": 12.7, "altitude_m": null }, "geometry": { "type": "Point", "coordinates": [ 0.88859, 43.10372 ] } },
{ "type": "Feature", "properties": { "name": "Unnamed", "category": "Reservoir", "area_ha": 6.4, "altitude_m": null }, "geometry": { "type": "Point", "coordinates": [ 1.35056, 43.7408 ] } },
{ "type": "Feature", "properties": { "name": "Unnamed", "category": "Reservoir", "area_ha": 5.3, "altitude_m": null }, "geometry": { "type": "Point", "coordinates": [ 1.33719, 43.49798 ] } },
{ "type": "Feature", "properties": { "name": "Lac de Sesquières", "category": "Reservoir", "area_ha": 12.2, "altitude_m": null }, "geometry": { "type": "Point", "coordinates": [ 1.41896, 43.65119 ] } },
{ "type": "Feature", "properties": { "name": "Unnamed", "category": "Reservoir", "area_ha": 5.7, "altitude_m": null }, "geometry": { "type": "Point", "coordinates": [ 1.38752, 43.72165 ] } },
{ "type": "Feature", "properties": { "name": "Lac de Montréjeau", "category": "Reservoir", "area_ha": 19.4, "altitude_m": null }, "geometry": { "type": "Point", "coordinates": [ 0.56196, 43.07655 ] } },
{ "type": "Feature", "properties": { "name": "Unnamed", "category": "Reservoir", "area_ha": 6.0, "altitude_m": null }, "geometry": { "type": "Point", "coordinates": [ 1.671, 43.32353 ] } },
{ "type": "Feature", "properties": { "name": "Unnamed", "category": "Reservoir", "area_ha": 9.9, "altitude_m": null }, "geometry": { "type": "Point", "coordinates": [ 1.21663, 43.31658 ] } },
{ "type": "Feature", "properties": { "name": "Unnamed", "category": "Reservoir", "area_ha": 12.3, "altitude_m": null }, "geometry": { "type": "Point", "coordinates": [ 1.76508, 43.36839 ] } },
{ "type": "Feature", "properties": { "name": "Unnamed", "category": "Reservoir", "area_ha": 5.5, "altitude_m": null }, "geometry": { "type": "Point", "coordinates": [ 1.58698, 43.79913 ] } },
{ "type": "Feature", "properties": { "name": "Unnamed", "category": "Reservoir", "area_ha": 5.2, "altitude_m": null }, "geometry": { "type": "Point", "coordinates": [ 1.04943, 43.20436 ] } },
{ "type": "Feature", "properties": { "name": "Unnamed", "category": "Reservoir", "area_ha": 7.9, "altitude_m": null }, "geometry": { "type": "Point", "coordinates": [ 1.60118, 43.77463 ] } },
{ "type": "Feature", "properties": { "name": "Unnamed", "category": "Reservoir", "area_ha": 20.6, "altitude_m": null }, "geometry": { "type": "Point", "coordinates": [ 0.69685, 43.10204 ] } },
{ "type": "Feature", "properties": { "name": "Unnamed", "category": "Reservoir", "area_ha": 5.5, "altitude_m": null }, "geometry": { "type": "Point", "coordinates": [ 1.26023, 43.54949 ] } },
{ "type": "Feature", "properties": { "name": "Unnamed", "category": "Reservoir", "area_ha": 12.9, "altitude_m": null }, "geometry": { "type": "Point", "coordinates": [ 1.80132, 43.35686 ] } },
{ "type": "Feature", "properties": { "name": "Unnamed", "category": "Reservoir", "area_ha": 9.9, "altitude_m": null }, "geometry": { "type": "Point", "coordinates": [ 1.50704, 43.74409 ] } },
{ "type": "Feature", "properties": { "name": "Unnamed", "category": "Dam", "area_ha": 3.0, "altitude_m": null }, "geometry": { "type": "Point", "coordinates": [ 1.11063, 43.7806 ] } },
{ "type": "Feature", "properties": { "name": "Lac Galdou", "category": "Dam", "area_ha": 9.7, "altitude_m": null }, "geometry": { "type": "Point", "coordinates": [ 1.76535, 43.49159 ] } },
{ "type": "Feature", "properties": { "name": "Retenue du Gorse ou de la Garrigue", "category": "Dam", "area_ha": 14.0, "altitude_m": null }, "geometry": { "type": "Point", "coordinates": [ 1.73688, 43.51228 ] } },
{ "type": "Feature", "properties": { "name": "Lac de Thil-Bretx", "category": "Dam", "area_ha": 23.2, "altitude_m": null }, "geometry": { "type": "Point", "coordinates": [ 1.15126, 43.70172 ] } },
{ "type": "Feature", "properties": { "name": "Retenue de Ste Foy I", "category": "Dam", "area_ha": 23.8, "altitude_m": null }, "geometry": { "type": "Point", "coordinates": [ 1.12609, 43.49834 ] } },
{ "type": "Feature", "properties": { "name": "Lac d'Oô", "category": "Dam", "area_ha": 42.5, "altitude_m": null }, "geometry": { "type": "Point", "coordinates": [ 0.49226, 42.74052 ] } },
{ "type": "Feature", "properties": { "name": "Unnamed", "category": "Dam", "area_ha": 4.4, "altitude_m": null }, "geometry": { "type": "Point", "coordinates": [ 0.73741, 42.85757 ] } },
{ "type": "Feature", "properties": { "name": "Lac d'Espingo", "category": "Dam", "area_ha": 7.9, "altitude_m": null }, "geometry": { "type": "Point", "coordinates": [ 0.49586, 42.7287 ] } },
{ "type": "Feature", "properties": { "name": "Unnamed", "category": "Dam", "area_ha": 7.2, "altitude_m": null }, "geometry": { "type": "Point", "coordinates": [ 1.37409, 43.35751 ] } },
{ "type": "Feature", "properties": { "name": "Unnamed", "category": "Dam", "area_ha": 13.0, "altitude_m": null }, "geometry": { "type": "Point", "coordinates": [ 0.81441, 43.26667 ] } },
{ "type": "Feature", "properties": { "name": "Lac du Laragou", "category": "Dam", "area_ha": 39.4, "altitude_m": null }, "geometry": { "type": "Point", "coordinates": [ 1.66071, 43.69411 ] } },
{ "type": "Feature", "properties": { "name": "Unnamed", "category": "Dam", "area_ha": 11.1, "altitude_m": null }, "geometry": { "type": "Point", "coordinates": [ 1.12135, 43.44669 ] } },
{ "type": "Feature", "properties": { "name": "Unnamed", "category": "Dam", "area_ha": 13.8, "altitude_m": null }, "geometry": { "type": "Point", "coordinates": [ 1.00481, 43.76802 ] } },
{ "type": "Feature", "properties": { "name": "Retenue de Bouillac-Lagraulet", "category": "Dam", "area_ha": 43.1, "altitude_m": null }, "geometry": { "type": "Point", "coordinates": [ 1.07783, 43.81069 ] } },
{ "type": "Feature", "properties": { "name": "Unnamed", "category": "Dam", "area_ha": 25.9, "altitude_m": null }, "geometry": { "type": "Point", "coordinates": [ 1.70488, 43.58438 ] } },
{ "type": "Feature", "properties": { "name": "Unnamed", "category": "Dam", "area_ha": 8.3, "altitude_m": null }, "geometry": { "type": "Point", "coordinates": [ 1.1774, 43.74505 ] } },
{ "type": "Feature", "properties": { "name": "Unnamed", "category": "Dam", "area_ha": 8.7, "altitude_m": null }, "geometry": { "type": "Point", "coordinates": [ 1.75272, 43.42141 ] } },
{ "type": "Feature", "properties": { "name": "Retenue de Cambernard", "category": "Dam", "area_ha": 26.1, "altitude_m": null }, "geometry": { "type": "Point", "coordinates": [ 1.1759, 43.48063 ] } },
{ "type": "Feature", "properties": { "name": "Lac de Garac", "category": "Dam", "area_ha": 16.8, "altitude_m": null }, "geometry": { "type": "Point", "coordinates": [ 1.10636, 43.70034 ] } },
{ "type": "Feature", "properties": { "name": "Lac de Sainte-Marie", "category": "Dam", "area_ha": 12.1, "altitude_m": null }, "geometry": { "type": "Point", "coordinates": [ 1.79196, 43.49918 ] } },
{ "type": "Feature", "properties": { "name": "Unnamed", "category": "Dam", "area_ha": 4.6, "altitude_m": null }, "geometry": { "type": "Point", "coordinates": [ 1.30406, 43.64408 ] } },
{ "type": "Feature", "properties": { "name": "Retenue de Labrioulette", "category": "Dam", "area_ha": 41.5, "altitude_m": null }, "geometry": { "type": "Point", "coordinates": [ 1.11484, 43.20806 ] } },
{ "type": "Feature", "properties": { "name": "Retenue du Mancies", "category": "Dam", "area_ha": 100.9, "altitude_m": null }, "geometry": { "type": "Point", "coordinates": [ 1.18721, 43.27437 ] } },
{ "type": "Feature", "properties": { "name": "Lac de Poucharramet", "category": "Dam", "area_ha": 60.1, "altitude_m": null }, "geometry": { "type": "Point", "coordinates": [ 1.1502, 43.41574 ] } },
{ "type": "Feature", "properties": { "name": "Lac de Saint-Sernin", "category": "Dam", "area_ha": 18.8, "altitude_m": null }, "geometry": { "type": "Point", "coordinates": [ 1.65972, 43.5435 ] } }
]
}
