{
"type": "FeatureCollection",
"name": "dep38.geojson",
"crs": { "type": "name", "properties": { "name": "urn:ogc:def:crs:OGC:1.3:CRS84" } },
"xy_coordinate_resolution": 1e-05,
"features": [
{ "type": "Feature", "properties": { "name": "Lac de Monteynard-Avignonet", "category": "Dam", "area_ha": 564.1, "altitude_m": null }, "geometry": { "type": "Point", "coordinates": [ 5.67527, 44.91313 ] } },
{ "type": "Feature", "properties": { "name": "Lac du Sautet", "category": "Dam", "area_ha": 308.6, "altitude_m": null }, "geometry": { "type": "Point", "coordinates": [ 5.95389, 44.79905 ] } },
{ "type": "Feature", "properties": { "name": "Lac Fourchu", "category": "Lake", "area_ha": 6.8, "altitude_m": null }, "geometry": { "type": "Point", "coordinates": [ 5.9301, 45.05617 ] } },
{ "type": "Feature", "properties": { "name": "Lac du Cos", "category": "Dam", "area_ha": 19.8, "altitude_m": null }, "geometry": { "type": "Point", "coordinates": [ 6.07929, 45.23381 ] } },
{ "type": "Feature", "properties": { "name": "Étang Pécoud", "category": "Reservoir", "area_ha": 5.5, "altitude_m": null }, "geometry": { "type": "Point", "coordinates": [ 5.42114, 45.72172 ] } },
{ "type": "Feature", "properties": { "name": "Lac des Rouies", "category": "Lake", "area_ha": 7.6, "altitude_m": null }, "geometry": { "type": "Point", "coordinates": [ 6.24529, 44.87642 ] } },
{ "type": "Feature", "properties": { "name": "Lac de la Muande", "category": "Lake", "area_ha": 5.9, "altitude_m": null }, "geometry": { "type": "Point", "coordinates": [ 6.233, 44.86218 ] } },
{ "type": "Feature", "properties": { "name": "Lac Cottepens", "category": "Reservoir", "area_ha": 34.6, "altitude_m": null }, "geometry": { "type": "Point", "coordinates": [ 6.0811, 45.24506 ] } },
{ "type": "Feature", "properties": { "name": "Étangs de Fenières", "category": "Reservoir", "area_ha": 5.6, "altitude_m": null }, "geometry": { "type": "Point", "coordinates": [ 5.33942, 45.69727 ] } },
{ "type": "Feature", "properties": { "name": "Lac de Moras", "category": "Reservoir", "area_ha": 20.1, "altitude_m": null }, "geometry": { "type": "Point", "coordinates": [ 5.26957, 45.67931 ] } },
{ "type": "Feature", "properties": { "name": "Lac de Notre-Dame-de-Commiers", "category": "Dam", "area_ha": 153.3, "altitude_m": null }, "geometry": { "type": "Point", "coordinates": [ 5.68832, 44.98947 ] } },
{ "type": "Feature", "properties": { "name": "Lac de Paladru", "category": "Lake", "area_ha": 383.7, "altitude_m": null }, "geometry": { "type": "Point", "coordinates": [ 5.53277, 45.45353 ] } },
{ "type": "Feature", "properties": { "name": "Grand Lac de Laffrey", "category": "Lake", "area_ha": 122.6, "altitude_m": null }, "geometry": { "type": "Point", "coordinates": [ 5.77753, 45.01165 ] } },
{ "type": "Feature", "properties": { "name": "Lac du Chambon", "category": "Dam", "area_ha": 113.4, "altitude_m": null }, "geometry": { "type": "Point", "coordinates": [ 6.14762, 45.04335 ] } },
{ "type": "Feature", "properties": { "name": "Lac de Plan Vianney", "category": "Reservoir", "area_ha": 5.2, "altitude_m": null }, "geometry": { "type": "Point", "coordinates": [ 6.04354, 44.95784 ] } },
{ "type": "Feature", "properties": { "name": "Étang de Charamel", "category": "Reservoir", "area_ha": 6.1, "altitude_m": null }, "geometry": { "type": "Point", "coordinates": [ 5.18402, 45.66331 ] } },
{ "type": "Feature", "properties": { "name": "Lacs Robert", "category": "Reservoir", "area_ha": 7.7, "altitude_m": null }, "geometry": { "type": "Point", "coordinates": [ 5.91392, 45.13194 ] } },
{ "type": "Feature", "properties": { "name": "Plans d'Eau Salonique", "category": "Reservoir", "area_ha": 6.9, "altitude_m": null }, "geometry": { "type": "Point", "coordinates": [ 5.09847, 45.7632 ] } },
{ "type": "Feature", "properties": { "name": "Étang Riboud", "category": "Reservoir", "area_ha": 8.0, "altitude_m": null }, "geometry": { "type": "Point", "coordinates": [ 5.22816, 45.52995 ] } },
{ "type": "Feature", "properties": { "name": "Lac de la Muzelle", "category": "Reservoir", "area_ha": 9.7, "altitude_m": null }, "geometry": { "type": "Point", "coordinates": [ 6.09728, 44.95064 ] } },
{ "type": "Feature", "properties": { "name": "Lac de Pétichet", "category": "Lake", "area_ha": 80.7, "altitude_m": null }, "geometry": { "type": "Point", "coordinates": [ 5.7792, 44.98972 ] } },
{ "type": "Feature", "properties": { "name": "Lac de la Taillat", "category": "Reservoir", "area_ha": 17.1, "altitude_m": null }, "geometry": { "type": "Point", "coordinates": [ 5.80095, 45.18985 ] } },
{ "type": "Feature", "properties": { "name": "Étang du Moulin", "category": "Dam", "area_ha": 7.5, "altitude_m": null }, "geometry": { "type": "Point", "coordinates": [ 5.20298, 45.50855 ] } },
{ "type": "Feature", "properties": { "name": "le Lauvitel", "category": "Lake", "area_ha": 37.4, "altitude_m": null }, "geometry": { "type": "Point", "coordinates": [ 6.06392, 44.96962 ] } },
{ "type": "Feature", "properties": { "name": "Lac de Pierre-Châtel", "category": "Lake", "area_ha": 97.8, "altitude_m": null }, "geometry": { "type": "Point", "coordinates": [ 5.77873, 44.97319 ] } },
{ "type": "Feature", "properties": { "name": "Étang de Lemps", "category": "Reservoir", "area_ha": 13.8, "altitude_m": null }, "geometry": { "type": "Point", "coordinates": [ 5.36128, 45.7579 ] } },
{ "type": "Feature", "properties": { "name": "Lac de Grand-Maison", "category": "Dam", "area_ha": 186.2, "altitude_m": null }, "geometry": { "type": "Point", "coordinates": [ 6.13408, 45.21154 ] } },
{ "type": "Feature", "properties": { "name": "Lac du Vallon", "category": "Reservoir", "area_ha": 14.7, "altitude_m": null }, "geometry": { "type": "Point", "coordinates": [ 6.01943, 44.97735 ] } },
{ "type": "Feature", "properties": { "name": "Lac de la Fare", "category": "Lake", "area_ha": 8.8, "altitude_m": null }, "geometry": { "type": "Point", "coordinates": [ 6.1189, 45.14101 ] } },
{ "type": "Feature", "properties": { "name": "Étang du Moulin", "category": "Reservoir", "area_ha": 6.6, "altitude_m": null }, "geometry": { "type": "Point", "coordinates": [ 5.51056, 45.45453 ] } },
{ "type": "Feature", "properties": { "name": "Retenue de Saint-Pierre-Cognet", "category": "Dam", "area_ha": 106.8, "altitude_m": null }, "geometry": { "type": "Point", "coordinates": [ 5.8383, 44.85684 ] } },
{ "type": "Feature", "properties": { "name": "Lac Blanc", "category": "Lake", "area_ha": 13.7, "altitude_m": null }, "geometry": { "type": "Point", "coordinates": [ 6.10516, 45.11353 ] } },
{ "type": "Feature", "properties": { "name": "Lac des Quirlies", "category": "Lake", "area_ha": 9.6, "altitude_m": null }, "geometry": { "type": "Point", "coordinates": [ 6.16562, 45.14345 ] } },
{ "type": "Feature", "properties": { "name": "Lac Mort", "category": "Lake", "area_ha": 31.0, "altitude_m": null }, "geometry": { "type": "Point", "coordinates": [ 5.78989, 45.03119 ] } },
{ "type": "Feature", "properties": { "name": "Gravière de la Terrasse", "category": "Reservoir", "area_ha": 12.1, "altitude_m": null }, "geometry": { "type": "Point", "coordinates": [ 5.95046, 45.3209 ] } },
{ "type": "Feature", "properties": { "name": "Lac Clair", "category": "Reservoir", "area_ha": 7.9, "altitude_m": null }, "geometry": { "type": "Point", "coordinates": [ 5.35707, 45.60519 ] } },
{ "type": "Feature", "properties": { "name": "Étang du Carré", "category": "Reservoir", "area_ha": 10.1, "altitude_m": null }, "geometry": { "type": "Point", "coordinates": [ 5.33671, 45.71496 ] } },
{ "type": "Feature", "properties": { "name": "Étang de Fallavier", "category": "Reservoir", "area_ha": 29.4, "altitude_m": null }, "geometry": { "type": "Point", "coordinates": [ 5.13157, 45.62154 ] } },
{ "type": "Feature", "properties": { "name": "Bassin du Cheylas", "category": "Reservoir", "area_ha": 50.2, "altitude_m": null }, "geometry": { "type": "Point", "coordinates": [ 5.98823, 45.38365 ] } },
{ "type": "Feature", "properties": { "name": "Lac de la Sagne", "category": "Reservoir", "area_ha": 6.1, "altitude_m": null }, "geometry": { "type": "Point", "coordinates": [ 6.07527, 45.22097 ] } },
{ "type": "Feature", "properties": { "name": "Étang de Ry", "category": "Reservoir", "area_ha": 11.0, "altitude_m": null }, "geometry": { "type": "Point", "coordinates": [ 5.27749, 45.73126 ] } },
{ "type": "Feature", "properties": { "name": "Étang de Saint-Bonnet", "category": "Reservoir", "area_ha": 20.6, "altitude_m": null }, "geometry": { "type": "Point", "coordinates": [ 5.16683, 45.60919 ] } },
{ "type": "Feature", "properties": { "name": "Lac Blanc", "category": "Reservoir", "area_ha": 9.8, "altitude_m": null }, "geometry": { "type": "Point", "coordinates": [ 5.97234, 45.17837 ] } },
{ "type": "Feature", "properties": { "name": "Lac de la Corne", "category": "Reservoir", "area_ha": 8.2, "altitude_m": null }, "geometry": { "type": "Point", "coordinates": [ 6.07756, 45.22428 ] } },
{ "type": "Feature", "properties": { "name": "Unnamed", "category": "Reservoir", "area_ha": 8.6, "altitude_m": null }, "geometry": { "type": "Point", "coordinates": [ 5.64141, 45.25608 ] } },
{ "type": "Feature", "properties": { "name": "Grand Étang de Vienne", "category": "Reservoir", "area_ha": 10.5, "altitude_m": null }, "geometry": { "type": "Point", "coordinates": [ 5.16942, 45.28157 ] } },
{ "type": "Feature", "properties": { "name": "Étang le Grand Étang 1", "category": "Reservoir", "area_ha": 8.9, "altitude_m": null }, "geometry": { "type": "Point", "coordinates": [ 5.14666, 45.30762 ] } },
{ "type": "Feature", "properties": { "name": "Étangs de Praille", "category": "Reservoir", "area_ha": 6.7, "altitude_m": null }, "geometry": { "type": "Point", "coordinates": [ 5.42033, 45.7437 ] } },
{ "type": "Feature", "properties": { "name": "Lac Chartreuse", "category": "Reservoir", "area_ha": 11.4, "altitude_m": null }, "geometry": { "type": "Point", "coordinates": [ 5.83675, 45.23243 ] } },
{ "type": "Feature", "properties": { "name": "Bassin du Flumet", "category": "Reservoir", "area_ha": 59.9, "altitude_m": null }, "geometry": { "type": "Point", "coordinates": [ 6.06012, 45.38115 ] } },
{ "type": "Feature", "properties": { "name": "Étang de la Grumate", "category": "Reservoir", "area_ha": 5.2, "altitude_m": null }, "geometry": { "type": "Point", "coordinates": [ 5.41955, 45.73789 ] } },
{ "type": "Feature", "properties": { "name": "Étang Darde ou des Fèves", "category": "Reservoir", "area_ha": 9.9, "altitude_m": null }, "geometry": { "type": "Point", "coordinates": [ 5.35818, 45.59815 ] } },
{ "type": "Feature", "properties": { "name": "Grand Étang", "category": "Reservoir", "area_ha": 9.4, "altitude_m": null }, "geometry": { "type": "Point", "coordinates": [ 5.12597, 45.42392 ] } },
{ "type": "Feature", "properties": { "name": "Étang de Frignon", "category": "Reservoir", "area_ha": 8.7, "altitude_m": null }, "geometry": { "type": "Point", "coordinates": [ 5.5, 45.72053 ] } },
{ "type": "Feature", "properties": { "name": "Étang de Beauve", "category": "Reservoir", "area_ha": 11.4, "altitude_m": null }, "geometry": { "type": "Point", "coordinates": [ 5.49837, 45.71022 ] } },
{ "type": "Feature", "properties": { "name": "Lac de la Save", "category": "Reservoir", "area_ha": 14.4, "altitude_m": null }, "geometry": { "type": "Point", "coordinates": [ 5.45351, 45.70303 ] } },
{ "type": "Feature", "properties": { "name": "Étang de la Rama", "category": "Reservoir", "area_ha": 20.8, "altitude_m": null }, "geometry": { "type": "Point", "coordinates": [ 5.33865, 45.71963 ] } },
{ "type": "Feature", "properties": { "name": "Étang Neuf", "category": "Reservoir", "area_ha": 12.9, "altitude_m": null }, "geometry": { "type": "Point", "coordinates": [ 5.33602, 45.72923 ] } },
{ "type": "Feature", "properties": { "name": "Lac de Crucillieux", "category": "Reservoir", "area_ha": 16.3, "altitude_m": null }, "geometry": { "type": "Point", "coordinates": [ 5.39683, 45.64091 ] } },
{ "type": "Feature", "properties": { "name": "Lac de Romagnieu", "category": "Reservoir", "area_ha": 14.2, "altitude_m": null }, "geometry": { "type": "Point", "coordinates": [ 5.63926, 45.58351 ] } },
{ "type": "Feature", "properties": { "name": "Étang la Négria", "category": "Reservoir", "area_ha": 5.6, "altitude_m": null }, "geometry": { "type": "Point", "coordinates": [ 5.10581, 45.80128 ] } },
{ "type": "Feature", "properties": { "name": "Jublet", "category": "Reservoir", "area_ha": 15.0, "altitude_m": null }, "geometry": { "type": "Point", "coordinates": [ 5.35111, 45.60392 ] } },
{ "type": "Feature", "properties": { "name": "Étangs des Grenouilles", "category": "Reservoir", "area_ha": 6.1, "altitude_m": null }, "geometry": { "type": "Point", "coordinates": [ 5.13131, 45.55027 ] } },
{ "type": "Feature", "properties": { "name": "Étang du Chêne", "category": "Reservoir", "area_ha": 15.9, "altitude_m": null }, "geometry": { "type": "Point", "coordinates": [ 5.51085, 45.72522 ] } },
{ "type": "Feature", "properties": { "name": "Étang de Gole", "category": "Reservoir", "area_ha": 9.5, "altitude_m": null }, "geometry": { "type": "Point", "coordinates": [ 5.39978, 45.60874 ] } },
{ "type": "Feature", "properties": { "name": "Lac de la Motte", "category": "Reservoir", "area_ha": 14.3, "altitude_m": null }, "geometry": { "type": "Point", "coordinates": [ 6.08516, 45.25108 ] } },
{ "type": "Feature", "properties": { "name": "Lac du Grand Domènon", "category": "Reservoir", "area_ha": 6.4, "altitude_m": null }, "geometry": { "type": "Point", "coordinates": [ 5.96222, 45.16318 ] } },
{ "type": "Feature", "properties": { "name": "Lac du Crozet", "category": "Reservoir", "area_ha": 7.8, "altitude_m": null }, "geometry": { "type": "Point", "coordinates": [ 5.93548, 45.17026 ] } },
{ "type": "Feature", "properties": { "name": "Grand Étang", "category": "Reservoir", "area_ha": 28.5, "altitude_m": null }, "geometry": { "type": "Point", "coordinates": [ 5.44092, 45.75288 ] } },
{ "type": "Feature", "properties": { "name": "Étang de la Serre", "category": "Reservoir", "area_ha": 13.5, "altitude_m": null }, "geometry": { "type": "Point", "coordinates": [ 5.42406, 45.72919 ] } },
{ "type": "Feature", "properties": { "name": "Étang Pisse Vieille", "category": "Reservoir", "area_ha": 6.3, "altitude_m": null }, "geometry": { "type": "Point", "coordinates": [ 5.42237, 45.72512 ] } },
{ "type": "Feature", "properties": { "name": "Étang de Praille", "category": "Reservoir", "area_ha": 8.8, "altitude_m": null }, "geometry": { "type": "Point", "coordinates": [ 5.41939, 45.74172 ] } },
{ "type": "Feature", "properties": { "name": "Lac Saint-Félix", "category": "Reservoir", "area_ha": 19.4, "altitude_m": null }, "geometry": { "type": "Point", "coordinates": [ 5.49599, 45.55843 ] } },
{ "type": "Feature", "properties": { "name": "Lac Carré", "category": "Reservoir", "area_ha": 7.8, "altitude_m": null }, "geometry": { "type": "Point", "coordinates": [ 6.07729, 45.25072 ] } },
{ "type": "Feature", "properties": { "name": "Étang de Barral", "category": "Reservoir", "area_ha": 6.2, "altitude_m": null }, "geometry": { "type": "Point", "coordinates": [ 5.44138, 45.74357 ] } },
{ "type": "Feature", "properties": { "name": "Étang de Salette", "category": "Reservoir", "area_ha": 32.5, "altitude_m": null }, "geometry": { "type": "Point", "coordinates": [ 5.37056, 45.72777 ] } },
{ "type": "Feature", "properties": { "name": "Étang Bénétan", "category": "Reservoir", "area_ha": 6.1, "altitude_m": null }, "geometry": { "type": "Point", "coordinates": [ 5.31121, 45.72845 ] } },
{ "type": "Feature", "properties": { "name": "Plan d'Eau des Lônes", "category": "Reservoir", "area_ha": 13.2, "altitude_m": null }, "geometry": { "type": "Point", "coordinates": [ 6.00836, 45.44765 ] } },
{ "type": "Feature", "properties": { "name": "Étang de Montjoux", "category": "Dam", "area_ha": 11.8, "altitude_m": null }, "geometry": { "type": "Point", "coordinates": [ 5.16999, 45.50649 ] } },
{ "type": "Feature", "properties": { "name": "Étang du Fay", "category": "Dam", "area_ha": 11.0, "altitude_m": null }, "geometry": { "type": "Point", "coordinates": [ 5.09979, 45.3779 ] } },
{ "type": "Feature", "properties": { "name": "Lac du Verney", "category": "Dam", "area_ha": 66.2, "altitude_m": null }, "geometry": { "type": "Point", "coordinates": [ 6.04667, 45.13865 ] } },
{ "type": "Feature", "properties": { "name": "Lac de Périoule", "category": "Dam", "area_ha": 1.6, "altitude_m": null }, "geometry": { "type": "Point", "coordinates": [ 6.15659, 45.3482 ] } },
{ "type": "Feature", "properties": { "name": "Étang Grande Chaume", "category": "Dam", "area_ha": 5.0, "altitude_m": null }, "geometry": { "type": "Point", "coordinates": [ 5.25893, 45.45684 ] } },
{ "type": "Feature", "properties": { "name": "Étang d'Amblérieu", "category": "Dam", "area_ha": 2.4, "altitude_m": null }, "geometry": { "type": "Point", "coordinates": [ 5.33339, 45.83187 ] } },
{ "type": "Feature", "properties": { "name": "Étang de Tabouret", "category": "Dam", "area_ha": 1.8, "altitude_m": null }, "geometry": { "type": "Point", "coordinates": [ 5.3884, 45.8189 ] } },
{ "type": "Feature", "properties": { "name": "Étang du Grand Albert", "category": "Dam", "area_ha": 15.2, "altitude_m": null }, "geometry": { "type": "Point", "coordinates": [ 5.15288, 45.4364 ] } },
{ "type": "Feature", "properties": { "name": "Lac de Roybon", "category": "Dam", "area_ha": 5.4, "altitude_m": null }, "geometry": { "type": "Point", "coordinates": [ 5.2472, 45.25073 ] } }
]
}
