{
"type": "FeatureCollection",
"name": "dep35.geojson",
"crs": { "type": "name", "properties": { "name": "urn:ogc:def:crs:OGC:1.3:CRS84" } },
"xy_coordinate_resolution": 1e-05,
"features": [
{ "type": "Feature", "properties": { "name": "Unnamed", "category": "Reservoir", "area_ha": 11.1, "altitude_m": null }, "geometry": { "type": "Point", "coordinates": [ -1.79947, 48.0415 ] } },
{ "type": "Feature", "properties": { "name": "Plan d'Eau de la Valière", "category": "Dam", "area_ha": 95.4, "altitude_m": null }, "geometry": { "type": "Point", "coordinates": [ -1.15422, 48.10712 ] } },
{ "type": "Feature", "properties": { "name": "Étang de Marcillé", "category": "Dam", "area_ha": 87.2, "altitude_m": null }, "geometry": { "type": "Point", "coordinates": [ -1.36321, 47.94211 ] } },
{ "type": "Feature", "properties": { "name": "Étang de la Verrerie", "category": "Reservoir", "area_ha": 7.2, "altitude_m": null }, "geometry": { "type": "Point", "coordinates": [ -1.09325, 48.05435 ] } },
{ "type": "Feature", "properties": { "name": "Étang de Livry", "category": "Reservoir", "area_ha": 8.6, "altitude_m": null }, "geometry": { "type": "Point", "coordinates": [ -2.01924, 47.95156 ] } },
{ "type": "Feature", "properties": { "name": "Plan d'Eau du Barrage de la Chèze", "category": "Dam", "area_ha": 158.1, "altitude_m": null }, "geometry": { "type": "Point", "coordinates": [ -1.98224, 48.01876 ] } },
{ "type": "Feature", "properties": { "name": "Plan d'Eau de la Cantache", "category": "Dam", "area_ha": 173.4, "altitude_m": null }, "geometry": { "type": "Point", "coordinates": [ -1.27343, 48.14501 ] } },
{ "type": "Feature", "properties": { "name": "Étang de Boulet", "category": "Reservoir", "area_ha": 111.2, "altitude_m": null }, "geometry": { "type": "Point", "coordinates": [ -1.64155, 48.34386 ] } },
{ "type": "Feature", "properties": { "name": "Bassin de Partage des Eaux", "category": "Reservoir", "area_ha": 9.3, "altitude_m": null }, "geometry": { "type": "Point", "coordinates": [ -1.71185, 48.31496 ] } },
{ "type": "Feature", "properties": { "name": "Unnamed", "category": "Reservoir", "area_ha": 9.7, "altitude_m": null }, "geometry": { "type": "Point", "coordinates": [ -1.64346, 47.94251 ] } },
{ "type": "Feature", "properties": { "name": "Unnamed", "category": "Reservoir", "area_ha": 5.1, "altitude_m": null }, "geometry": { "type": "Point", "coordinates": [ -1.79704, 48.03979 ] } },
{ "type": "Feature", "properties": { "name": "Étang de la Forge", "category": "Reservoir", "area_ha": 62.0, "altitude_m": null }, "geometry": { "type": "Point", "coordinates": [ -1.30047, 47.83304 ] } },
{ "type": "Feature", "properties": { "name": "Unnamed", "category": "Reservoir", "area_ha": 39.1, "altitude_m": null }, "geometry": { "type": "Point", "coordinates": [ -1.50686, 48.51097 ] } },
{ "type": "Feature", "properties": { "name": "Unnamed", "category": "Reservoir", "area_ha": 46.9, "altitude_m": null }, "geometry": { "type": "Point", "coordinates": [ -1.82835, 48.47096 ] } },
{ "type": "Feature", "properties": { "name": "Unnamed", "category": "Reservoir", "area_ha": 9.6, "altitude_m": null }, "geometry": { "type": "Point", "coordinates": [ -1.78872, 47.84061 ] } },
{ "type": "Feature", "properties": { "name": "Unnamed", "category": "Dam", "area_ha": 16.4, "altitude_m": null }, "geometry": { "type": "Point", "coordinates": [ -2.01768, 48.00999 ] } },
{ "type": "Feature", "properties": { "name": "Étang d'Ouée", "category": "Reservoir", "area_ha": 66.7, "altitude_m": null }, "geometry": { "type": "Point", "coordinates": [ -1.46239, 48.26472 ] } },
{ "type": "Feature", "properties": { "name": "Étang de la Musse", "category": "Dam", "area_ha": 16.8, "altitude_m": null }, "geometry": { "type": "Point", "coordinates": [ -1.98592, 48.0011 ] } },
{ "type": "Feature", "properties": { "name": "Étang de la Motte Neuf Cent Dix", "category": "Reservoir", "area_ha": 5.9, "altitude_m": null }, "geometry": { "type": "Point", "coordinates": [ -1.87524, 48.15509 ] } },
{ "type": "Feature", "properties": { "name": "Étang de Careil", "category": "Reservoir", "area_ha": 30.8, "altitude_m": null }, "geometry": { "type": "Point", "coordinates": [ -2.01161, 48.0734 ] } },
{ "type": "Feature", "properties": { "name": "Étang de Carcraon", "category": "Dam", "area_ha": 86.9, "altitude_m": null }, "geometry": { "type": "Point", "coordinates": [ -1.25485, 47.96736 ] } },
{ "type": "Feature", "properties": { "name": "Étangs de Trémigon", "category": "Reservoir", "area_ha": 24.9, "altitude_m": null }, "geometry": { "type": "Point", "coordinates": [ -1.76034, 48.44479 ] } },
{ "type": "Feature", "properties": { "name": "Unnamed", "category": "Reservoir", "area_ha": 12.7, "altitude_m": null }, "geometry": { "type": "Point", "coordinates": [ -1.9904, 48.20768 ] } },
{ "type": "Feature", "properties": { "name": "Étang des Épronnières", "category": "Reservoir", "area_ha": 6.8, "altitude_m": null }, "geometry": { "type": "Point", "coordinates": [ -1.09615, 48.2478 ] } },
{ "type": "Feature", "properties": { "name": "Étang de Trémelin", "category": "Reservoir", "area_ha": 43.9, "altitude_m": null }, "geometry": { "type": "Point", "coordinates": [ -2.02834, 48.09659 ] } },
{ "type": "Feature", "properties": { "name": "Étang de Paimpont", "category": "Reservoir", "area_ha": 43.2, "altitude_m": null }, "geometry": { "type": "Point", "coordinates": [ -2.17765, 48.018 ] } },
{ "type": "Feature", "properties": { "name": "Unnamed", "category": "Reservoir", "area_ha": 5.7, "altitude_m": null }, "geometry": { "type": "Point", "coordinates": [ -2.10475, 47.65618 ] } },
{ "type": "Feature", "properties": { "name": "Étang de Rolin", "category": "Reservoir", "area_ha": 7.6, "altitude_m": null }, "geometry": { "type": "Point", "coordinates": [ -1.80751, 48.34046 ] } },
{ "type": "Feature", "properties": { "name": "Étang de Châtillon", "category": "Reservoir", "area_ha": 87.2, "altitude_m": null }, "geometry": { "type": "Point", "coordinates": [ -1.18738, 48.23562 ] } },
{ "type": "Feature", "properties": { "name": "Étang de Bain", "category": "Reservoir", "area_ha": 34.5, "altitude_m": null }, "geometry": { "type": "Point", "coordinates": [ -1.67877, 47.83556 ] } },
{ "type": "Feature", "properties": { "name": "Unnamed", "category": "Reservoir", "area_ha": 5.4, "altitude_m": null }, "geometry": { "type": "Point", "coordinates": [ -1.46188, 48.14251 ] } },
{ "type": "Feature", "properties": { "name": "Étang de la Pille", "category": "Reservoir", "area_ha": 5.7, "altitude_m": null }, "geometry": { "type": "Point", "coordinates": [ -1.60865, 47.76371 ] } },
{ "type": "Feature", "properties": { "name": "Lac Tranquille", "category": "Reservoir", "area_ha": 27.9, "altitude_m": null }, "geometry": { "type": "Point", "coordinates": [ -1.74809, 48.40684 ] } },
{ "type": "Feature", "properties": { "name": "Étang de Chaillou", "category": "Reservoir", "area_ha": 7.6, "altitude_m": null }, "geometry": { "type": "Point", "coordinates": [ -2.04273, 48.18855 ] } },
{ "type": "Feature", "properties": { "name": "Étang des Maffrais", "category": "Reservoir", "area_ha": 9.3, "altitude_m": null }, "geometry": { "type": "Point", "coordinates": [ -1.55296, 48.21236 ] } },
{ "type": "Feature", "properties": { "name": "Unnamed", "category": "Reservoir", "area_ha": 5.8, "altitude_m": null }, "geometry": { "type": "Point", "coordinates": [ -1.76, 47.99944 ] } },
{ "type": "Feature", "properties": { "name": "l'Étang Neuf", "category": "Reservoir", "area_ha": 6.1, "altitude_m": null }, "geometry": { "type": "Point", "coordinates": [ -1.81019, 48.35251 ] } },
{ "type": "Feature", "properties": { "name": "Étang de Sainte-Suzanne", "category": "Dam", "area_ha": 13.1, "altitude_m": null }, "geometry": { "type": "Point", "coordinates": [ -1.92501, 48.67138 ] } },
{ "type": "Feature", "properties": { "name": "l'Étang Neuf", "category": "Reservoir", "area_ha": 5.0, "altitude_m": null }, "geometry": { "type": "Point", "coordinates": [ -1.73461, 48.28028 ] } },
{ "type": "Feature", "properties": { "name": "Unnamed", "category": "Reservoir", "area_ha": 6.8, "altitude_m": null }, "geometry": { "type": "Point", "coordinates": [ -1.66646, 47.96025 ] } },
{ "type": "Feature", "properties": { "name": "Unnamed", "category": "Reservoir", "area_ha": 6.1, "altitude_m": null }, "geometry": { "type": "Point", "coordinates": [ -1.08963, 48.31147 ] } },
{ "type": "Feature", "properties": { "name": "Unnamed", "category": "Reservoir", "area_ha": 7.9, "altitude_m": null }, "geometry": { "type": "Point", "coordinates": [ -1.84108, 47.72274 ] } },
{ "type": "Feature", "properties": { "name": "Étangs de Boëssel", "category": "Reservoir", "area_ha": 10.7, "altitude_m": null }, "geometry": { "type": "Point", "coordinates": [ -1.58978, 48.32245 ] } },
{ "type": "Feature", "properties": { "name": "Étang de la Taberge", "category": "Reservoir", "area_ha": 15.4, "altitude_m": null }, "geometry": { "type": "Point", "coordinates": [ -1.81291, 47.73355 ] } },
{ "type": "Feature", "properties": { "name": "Étang de Painroux", "category": "Reservoir", "area_ha": 17.3, "altitude_m": null }, "geometry": { "type": "Point", "coordinates": [ -1.83351, 47.92141 ] } },
{ "type": "Feature", "properties": { "name": "Étang de Saint-Morand", "category": "Reservoir", "area_ha": 7.5, "altitude_m": null }, "geometry": { "type": "Point", "coordinates": [ -1.28004, 47.79395 ] } },
{ "type": "Feature", "properties": { "name": "Étang de Roches", "category": "Reservoir", "area_ha": 21.6, "altitude_m": null }, "geometry": { "type": "Point", "coordinates": [ -1.24997, 47.86771 ] } },
{ "type": "Feature", "properties": { "name": "Étang du Rouvre", "category": "Reservoir", "area_ha": 33.0, "altitude_m": null }, "geometry": { "type": "Point", "coordinates": [ -1.86897, 48.43548 ] } },
{ "type": "Feature", "properties": { "name": "Saint-Éloi", "category": "Reservoir", "area_ha": 8.3, "altitude_m": null }, "geometry": { "type": "Point", "coordinates": [ -2.05647, 48.19591 ] } },
{ "type": "Feature", "properties": { "name": "Étang d'Andouillé", "category": "Reservoir", "area_ha": 20.4, "altitude_m": null }, "geometry": { "type": "Point", "coordinates": [ -1.58324, 48.2991 ] } },
{ "type": "Feature", "properties": { "name": "Étang des Glyorels", "category": "Reservoir", "area_ha": 5.4, "altitude_m": null }, "geometry": { "type": "Point", "coordinates": [ -2.1052, 48.02377 ] } },
{ "type": "Feature", "properties": { "name": "Étang du Perray", "category": "Reservoir", "area_ha": 9.8, "altitude_m": null }, "geometry": { "type": "Point", "coordinates": [ -2.12525, 47.99575 ] } },
{ "type": "Feature", "properties": { "name": "Étang des Forges", "category": "Reservoir", "area_ha": 9.8, "altitude_m": null }, "geometry": { "type": "Point", "coordinates": [ -2.14113, 47.99567 ] } },
{ "type": "Feature", "properties": { "name": "Étang du Pas du Houx", "category": "Reservoir", "area_ha": 53.8, "altitude_m": null }, "geometry": { "type": "Point", "coordinates": [ -2.13584, 48.03853 ] } },
{ "type": "Feature", "properties": { "name": "Unnamed", "category": "Reservoir", "area_ha": 6.4, "altitude_m": null }, "geometry": { "type": "Point", "coordinates": [ -1.68081, 48.46454 ] } },
{ "type": "Feature", "properties": { "name": "Étang de Muez", "category": "Reservoir", "area_ha": 8.0, "altitude_m": null }, "geometry": { "type": "Point", "coordinates": [ -1.19122, 48.29079 ] } },
{ "type": "Feature", "properties": { "name": "Unnamed", "category": "Reservoir", "area_ha": 6.7, "altitude_m": null }, "geometry": { "type": "Point", "coordinates": [ -1.94996, 48.2908 ] } },
{ "type": "Feature", "properties": { "name": "Unnamed", "category": "Reservoir", "area_ha": 6.3, "altitude_m": null }, "geometry": { "type": "Point", "coordinates": [ -1.81212, 48.04857 ] } },
{ "type": "Feature", "properties": { "name": "Grand Étang de la Musse", "category": "Reservoir", "area_ha": 35.9, "altitude_m": null }, "geometry": { "type": "Point", "coordinates": [ -1.95654, 48.00281 ] } },
{ "type": "Feature", "properties": { "name": "Étang de Pont Dom Jean", "category": "Reservoir", "area_ha": 12.0, "altitude_m": null }, "geometry": { "type": "Point", "coordinates": [ -2.14255, 48.06988 ] } },
{ "type": "Feature", "properties": { "name": "Unnamed", "category": "Reservoir", "area_ha": 10.8, "altitude_m": null }, "geometry": { "type": "Point", "coordinates": [ -1.90038, 47.94464 ] } },
{ "type": "Feature", "properties": { "name": "Étang de Paintourteau", "category": "Reservoir", "area_ha": 46.8, "altitude_m": null }, "geometry": { "type": "Point", "coordinates": [ -1.1309, 48.11733 ] } },
{ "type": "Feature", "properties": { "name": "Étang de Ville Alain", "category": "Reservoir", "area_ha": 7.3, "altitude_m": null }, "geometry": { "type": "Point", "coordinates": [ -1.62982, 48.55401 ] } },
{ "type": "Feature", "properties": { "name": "Étang de Villecartier", "category": "Reservoir", "area_ha": 8.4, "altitude_m": null }, "geometry": { "type": "Point", "coordinates": [ -1.56612, 48.48056 ] } },
{ "type": "Feature", "properties": { "name": "Étang de la Chesnaie", "category": "Reservoir", "area_ha": 10.1, "altitude_m": null }, "geometry": { "type": "Point", "coordinates": [ -1.92888, 48.47326 ] } },
{ "type": "Feature", "properties": { "name": "Unnamed", "category": "Reservoir", "area_ha": 6.2, "altitude_m": null }, "geometry": { "type": "Point", "coordinates": [ -1.82352, 48.14968 ] } },
{ "type": "Feature", "properties": { "name": "Unnamed", "category": "Reservoir", "area_ha": 15.4, "altitude_m": null }, "geometry": { "type": "Point", "coordinates": [ -1.47856, 48.47541 ] } },
{ "type": "Feature", "properties": { "name": "Unnamed", "category": "Reservoir", "area_ha": 6.2, "altitude_m": null }, "geometry": { "type": "Point", "coordinates": [ -1.91605, 48.11109 ] } },
{ "type": "Feature", "properties": { "name": "Étang du Moulin aux Moines", "category": "Reservoir", "area_ha": 12.5, "altitude_m": null }, "geometry": { "type": "Point", "coordinates": [ -1.12712, 48.06361 ] } },
{ "type": "Feature", "properties": { "name": "Grand Étang de Fayelle", "category": "Reservoir", "area_ha": 10.3, "altitude_m": null }, "geometry": { "type": "Point", "coordinates": [ -1.38637, 48.12556 ] } },
{ "type": "Feature", "properties": { "name": "Unnamed", "category": "Reservoir", "area_ha": 7.2, "altitude_m": null }, "geometry": { "type": "Point", "coordinates": [ -1.36576, 48.2248 ] } },
{ "type": "Feature", "properties": { "name": "Étang de la Rivière", "category": "Reservoir", "area_ha": 5.4, "altitude_m": null }, "geometry": { "type": "Point", "coordinates": [ -1.31305, 48.13248 ] } },
{ "type": "Feature", "properties": { "name": "Étang du Pas Gérault", "category": "Reservoir", "area_ha": 5.8, "altitude_m": null }, "geometry": { "type": "Point", "coordinates": [ -1.61304, 48.55629 ] } },
{ "type": "Feature", "properties": { "name": "Étang de la Basse Roussière", "category": "Reservoir", "area_ha": 8.7, "altitude_m": null }, "geometry": { "type": "Point", "coordinates": [ -1.45067, 48.28939 ] } },
{ "type": "Feature", "properties": { "name": "Étang aux Moines", "category": "Reservoir", "area_ha": 8.6, "altitude_m": null }, "geometry": { "type": "Point", "coordinates": [ -1.68244, 48.3706 ] } },
{ "type": "Feature", "properties": { "name": "Étang de la Bézardière", "category": "Reservoir", "area_ha": 16.0, "altitude_m": null }, "geometry": { "type": "Point", "coordinates": [ -1.78582, 48.31119 ] } },
{ "type": "Feature", "properties": { "name": "Étang de la Perronnaye", "category": "Reservoir", "area_ha": 16.7, "altitude_m": null }, "geometry": { "type": "Point", "coordinates": [ -1.9241, 48.21511 ] } },
{ "type": "Feature", "properties": { "name": "Étang de la Noë", "category": "Reservoir", "area_ha": 24.3, "altitude_m": null }, "geometry": { "type": "Point", "coordinates": [ -1.29732, 48.19971 ] } },
{ "type": "Feature", "properties": { "name": "Étang de Baron", "category": "Reservoir", "area_ha": 5.8, "altitude_m": null }, "geometry": { "type": "Point", "coordinates": [ -1.85619, 47.78324 ] } },
{ "type": "Feature", "properties": { "name": "Étang de la Corbière", "category": "Reservoir", "area_ha": 9.5, "altitude_m": null }, "geometry": { "type": "Point", "coordinates": [ -1.37293, 48.14113 ] } },
{ "type": "Feature", "properties": { "name": "Étang de la Motte", "category": "Reservoir", "area_ha": 7.9, "altitude_m": null }, "geometry": { "type": "Point", "coordinates": [ -1.87665, 48.15409 ] } },
{ "type": "Feature", "properties": { "name": "Étang de Trécouët", "category": "Reservoir", "area_ha": 6.4, "altitude_m": null }, "geometry": { "type": "Point", "coordinates": [ -2.06462, 48.0402 ] } },
{ "type": "Feature", "properties": { "name": "Étang des Noës Chérel", "category": "Reservoir", "area_ha": 13.7, "altitude_m": null }, "geometry": { "type": "Point", "coordinates": [ -1.82683, 47.98927 ] } },
{ "type": "Feature", "properties": { "name": "Étang de Daniel", "category": "Reservoir", "area_ha": 12.0, "altitude_m": null }, "geometry": { "type": "Point", "coordinates": [ -1.32426, 48.03935 ] } },
{ "type": "Feature", "properties": { "name": "Étang de la Roche", "category": "Reservoir", "area_ha": 7.2, "altitude_m": null }, "geometry": { "type": "Point", "coordinates": [ -1.85077, 48.01931 ] } },
{ "type": "Feature", "properties": { "name": "le Grand Étang", "category": "Reservoir", "area_ha": 9.4, "altitude_m": null }, "geometry": { "type": "Point", "coordinates": [ -1.85325, 47.99216 ] } },
{ "type": "Feature", "properties": { "name": "Grand Étang de Beauvais", "category": "Reservoir", "area_ha": 5.7, "altitude_m": null }, "geometry": { "type": "Point", "coordinates": [ -1.63573, 47.98538 ] } },
{ "type": "Feature", "properties": { "name": "Unnamed", "category": "Reservoir", "area_ha": 9.2, "altitude_m": null }, "geometry": { "type": "Point", "coordinates": [ -1.17308, 48.39251 ] } },
{ "type": "Feature", "properties": { "name": "Unnamed", "category": "Reservoir", "area_ha": 8.2, "altitude_m": null }, "geometry": { "type": "Point", "coordinates": [ -1.35424, 48.3269 ] } },
{ "type": "Feature", "properties": { "name": "Étang Communal du Guern", "category": "Reservoir", "area_ha": 5.4, "altitude_m": null }, "geometry": { "type": "Point", "coordinates": [ -1.91503, 48.10818 ] } },
{ "type": "Feature", "properties": { "name": "Étang de Hédé", "category": "Reservoir", "area_ha": 22.8, "altitude_m": null }, "geometry": { "type": "Point", "coordinates": [ -1.79509, 48.28671 ] } },
{ "type": "Feature", "properties": { "name": "Étang de la Rigaudière", "category": "Reservoir", "area_ha": 13.7, "altitude_m": null }, "geometry": { "type": "Point", "coordinates": [ -1.43781, 47.93192 ] } },
{ "type": "Feature", "properties": { "name": "Étang de Bélouze", "category": "Reservoir", "area_ha": 14.3, "altitude_m": null }, "geometry": { "type": "Point", "coordinates": [ -1.91953, 47.97294 ] } },
{ "type": "Feature", "properties": { "name": "Unnamed", "category": "Reservoir", "area_ha": 7.9, "altitude_m": null }, "geometry": { "type": "Point", "coordinates": [ -1.2357, 48.41899 ] } },
{ "type": "Feature", "properties": { "name": "Étang de Chalibeau", "category": "Reservoir", "area_ha": 6.5, "altitude_m": null }, "geometry": { "type": "Point", "coordinates": [ -1.13426, 48.47064 ] } },
{ "type": "Feature", "properties": { "name": "Étang de Forges", "category": "Dam", "area_ha": 9.4, "altitude_m": null }, "geometry": { "type": "Point", "coordinates": [ -1.46441, 48.1551 ] } },
{ "type": "Feature", "properties": { "name": "Étang de Buzot", "category": "Dam", "area_ha": 9.2, "altitude_m": null }, "geometry": { "type": "Point", "coordinates": [ -1.67008, 48.47116 ] } },
{ "type": "Feature", "properties": { "name": "Étang de Sérigné", "category": "Dam", "area_ha": 19.3, "altitude_m": null }, "geometry": { "type": "Point", "coordinates": [ -1.48432, 48.20574 ] } },
{ "type": "Feature", "properties": { "name": "Étang de Chevré", "category": "Dam", "area_ha": 17.7, "altitude_m": null }, "geometry": { "type": "Point", "coordinates": [ -1.44884, 48.19579 ] } },
{ "type": "Feature", "properties": { "name": "Lac de Mireloup", "category": "Dam", "area_ha": 22.2, "altitude_m": null }, "geometry": { "type": "Point", "coordinates": [ -1.84725, 48.49682 ] } },
{ "type": "Feature", "properties": { "name": "Unnamed", "category": "Dam", "area_ha": 5.8, "altitude_m": null }, "geometry": { "type": "Point", "coordinates": [ -1.72085, 48.28576 ] } },
{ "type": "Feature", "properties": { "name": "Étang de la Charrière Marqué", "category": "Dam", "area_ha": 9.1, "altitude_m": null }, "geometry": { "type": "Point", "coordinates": [ -2.07586, 48.0678 ] } },
{ "type": "Feature", "properties": { "name": "Étang de Beaufort", "category": "Dam", "area_ha": 28.6, "altitude_m": null }, "geometry": { "type": "Point", "coordinates": [ -1.82179, 48.50833 ] } },
{ "type": "Feature", "properties": { "name": "Étang de la Vallée", "category": "Dam", "area_ha": 11.2, "altitude_m": null }, "geometry": { "type": "Point", "coordinates": [ -1.48194, 48.19347 ] } },
{ "type": "Feature", "properties": { "name": "Étang de Liffré", "category": "Dam", "area_ha": 7.7, "altitude_m": null }, "geometry": { "type": "Point", "coordinates": [ -1.49321, 48.21026 ] } },
{ "type": "Feature", "properties": { "name": "Étang du Pré", "category": "Dam", "area_ha": 6.5, "altitude_m": null }, "geometry": { "type": "Point", "coordinates": [ -2.15259, 48.06771 ] } },
{ "type": "Feature", "properties": { "name": "Étang du Moulin du Bois", "category": "Dam", "area_ha": 9.8, "altitude_m": null }, "geometry": { "type": "Point", "coordinates": [ -1.07227, 48.08077 ] } },
{ "type": "Feature", "properties": { "name": "Étang de la Serpaudais", "category": "Dam", "area_ha": 7.9, "altitude_m": null }, "geometry": { "type": "Point", "coordinates": [ -1.6132, 47.78756 ] } },
{ "type": "Feature", "properties": { "name": "Unnamed", "category": "Dam", "area_ha": 16.9, "altitude_m": null }, "geometry": { "type": "Point", "coordinates": [ -2.11128, 48.58473 ] } }
]
}
