{
"type": "FeatureCollection",
"name": "dep32.geojson",
"crs": { "type": "name", "properties": { "name": "urn:ogc:def:crs:OGC:1.3:CRS84" } },
"xy_coordinate_resolution": 1e-05,
"features": [
{ "type": "Feature", "properties": { "name": "Lac de l'Uby", "category": "Dam", "area_ha": 71.9, "altitude_m": null }, "geometry": { "type": "Point", "coordinates": [ -0.04072, 43.93594 ] } },
{ "type": "Feature", "properties": { "name": "Lac de Miélan", "category": "Dam", "area_ha": 69.7, "altitude_m": null }, "geometry": { "type": "Point", "coordinates": [ 0.324, 43.44102 ] } },
{ "type": "Feature", "properties": { "name": "Unnamed", "category": "Reservoir", "area_ha": 6.8, "altitude_m": null }, "geometry": { "type": "Point", "coordinates": [ 0.21315, 43.77676 ] } },
{ "type": "Feature", "properties": { "name": "Unnamed", "category": "Reservoir", "area_ha": 5.7, "altitude_m": null }, "geometry": { "type": "Point", "coordinates": [ 0.04948, 43.6118 ] } },
{ "type": "Feature", "properties": { "name": "Unnamed", "category": "Reservoir", "area_ha": 8.8, "altitude_m": null }, "geometry": { "type": "Point", "coordinates": [ 0.92573, 43.48579 ] } },
{ "type": "Feature", "properties": { "name": "Unnamed", "category": "Reservoir", "area_ha": 5.1, "altitude_m": null }, "geometry": { "type": "Point", "coordinates": [ 0.15625, 43.49185 ] } },
{ "type": "Feature", "properties": { "name": "Unnamed", "category": "Dam", "area_ha": 5.4, "altitude_m": null }, "geometry": { "type": "Point", "coordinates": [ 0.58917, 43.89789 ] } },
{ "type": "Feature", "properties": { "name": "Lac de l'Isle-Jourdain", "category": "Reservoir", "area_ha": 16.2, "altitude_m": null }, "geometry": { "type": "Point", "coordinates": [ 1.0693, 43.61705 ] } },
{ "type": "Feature", "properties": { "name": "Unnamed", "category": "Reservoir", "area_ha": 7.0, "altitude_m": null }, "geometry": { "type": "Point", "coordinates": [ 0.00594, 43.61395 ] } },
{ "type": "Feature", "properties": { "name": "Barrage-Réservoir de l'Astarac", "category": "Dam", "area_ha": 158.3, "altitude_m": null }, "geometry": { "type": "Point", "coordinates": [ 0.62927, 43.38066 ] } },
{ "type": "Feature", "properties": { "name": "Unnamed", "category": "Dam", "area_ha": 20.9, "altitude_m": null }, "geometry": { "type": "Point", "coordinates": [ -0.0776, 43.71269 ] } },
{ "type": "Feature", "properties": { "name": "Unnamed", "category": "Dam", "area_ha": 3.0, "altitude_m": null }, "geometry": { "type": "Point", "coordinates": [ 0.08354, 43.94652 ] } },
{ "type": "Feature", "properties": { "name": "Unnamed", "category": "Reservoir", "area_ha": 5.4, "altitude_m": null }, "geometry": { "type": "Point", "coordinates": [ 0.55281, 43.52893 ] } },
{ "type": "Feature", "properties": { "name": "Unnamed", "category": "Reservoir", "area_ha": 5.5, "altitude_m": null }, "geometry": { "type": "Point", "coordinates": [ 0.1376, 43.70381 ] } },
{ "type": "Feature", "properties": { "name": "Réservoir du Lizet", "category": "Dam", "area_ha": 62.0, "altitude_m": null }, "geometry": { "type": "Point", "coordinates": [ 0.37192, 43.57012 ] } },
{ "type": "Feature", "properties": { "name": "Unnamed", "category": "Reservoir", "area_ha": 5.4, "altitude_m": null }, "geometry": { "type": "Point", "coordinates": [ -0.23154, 43.58949 ] } },
{ "type": "Feature", "properties": { "name": "Unnamed", "category": "Reservoir", "area_ha": 23.0, "altitude_m": null }, "geometry": { "type": "Point", "coordinates": [ 0.15667, 43.53413 ] } },
{ "type": "Feature", "properties": { "name": "Retenue de la Barne", "category": "Reservoir", "area_ha": 17.6, "altitude_m": null }, "geometry": { "type": "Point", "coordinates": [ 0.02993, 43.579 ] } },
{ "type": "Feature", "properties": { "name": "Étang de Gaillon", "category": "Reservoir", "area_ha": 6.2, "altitude_m": null }, "geometry": { "type": "Point", "coordinates": [ 0.08679, 43.80943 ] } },
{ "type": "Feature", "properties": { "name": "Étangs de Porté", "category": "Reservoir", "area_ha": 7.5, "altitude_m": null }, "geometry": { "type": "Point", "coordinates": [ 0.04643, 43.81074 ] } },
{ "type": "Feature", "properties": { "name": "Unnamed", "category": "Reservoir", "area_ha": 6.4, "altitude_m": null }, "geometry": { "type": "Point", "coordinates": [ -0.10911, 43.80374 ] } },
{ "type": "Feature", "properties": { "name": "Unnamed", "category": "Reservoir", "area_ha": 5.1, "altitude_m": null }, "geometry": { "type": "Point", "coordinates": [ -0.06155, 43.62842 ] } },
{ "type": "Feature", "properties": { "name": "Unnamed", "category": "Reservoir", "area_ha": 5.8, "altitude_m": null }, "geometry": { "type": "Point", "coordinates": [ -0.05985, 43.66496 ] } },
{ "type": "Feature", "properties": { "name": "Unnamed", "category": "Reservoir", "area_ha": 5.9, "altitude_m": null }, "geometry": { "type": "Point", "coordinates": [ 0.60103, 43.9527 ] } },
{ "type": "Feature", "properties": { "name": "Unnamed", "category": "Reservoir", "area_ha": 7.1, "altitude_m": null }, "geometry": { "type": "Point", "coordinates": [ 0.60074, 43.71244 ] } },
{ "type": "Feature", "properties": { "name": "Étang du Moura", "category": "Reservoir", "area_ha": 10.4, "altitude_m": null }, "geometry": { "type": "Point", "coordinates": [ 0.05759, 43.77682 ] } },
{ "type": "Feature", "properties": { "name": "Étang du Pouy", "category": "Reservoir", "area_ha": 6.8, "altitude_m": null }, "geometry": { "type": "Point", "coordinates": [ 0.04041, 43.81436 ] } },
{ "type": "Feature", "properties": { "name": "Unnamed", "category": "Dam", "area_ha": 10.0, "altitude_m": null }, "geometry": { "type": "Point", "coordinates": [ 0.73367, 43.62933 ] } },
{ "type": "Feature", "properties": { "name": "Unnamed", "category": "Dam", "area_ha": 6.3, "altitude_m": null }, "geometry": { "type": "Point", "coordinates": [ 0.11361, 43.8306 ] } },
{ "type": "Feature", "properties": { "name": "Unnamed", "category": "Dam", "area_ha": 5.6, "altitude_m": null }, "geometry": { "type": "Point", "coordinates": [ 0.18656, 43.72603 ] } },
{ "type": "Feature", "properties": { "name": "Lacs Zou Fou Dou", "category": "Dam", "area_ha": 8.1, "altitude_m": null }, "geometry": { "type": "Point", "coordinates": [ 0.13239, 43.90698 ] } },
{ "type": "Feature", "properties": { "name": "Étang de la Hitère", "category": "Dam", "area_ha": 7.0, "altitude_m": null }, "geometry": { "type": "Point", "coordinates": [ 0.02779, 43.84334 ] } },
{ "type": "Feature", "properties": { "name": "Lac du Baïset", "category": "Dam", "area_ha": 12.4, "altitude_m": null }, "geometry": { "type": "Point", "coordinates": [ 0.46435, 43.71165 ] } },
{ "type": "Feature", "properties": { "name": "Lac de Bousquètara", "category": "Dam", "area_ha": 22.8, "altitude_m": null }, "geometry": { "type": "Point", "coordinates": [ 0.42897, 43.9647 ] } },
{ "type": "Feature", "properties": { "name": "Retenue de Lassalle", "category": "Dam", "area_ha": 10.1, "altitude_m": null }, "geometry": { "type": "Point", "coordinates": [ 0.45666, 43.56692 ] } },
{ "type": "Feature", "properties": { "name": "Retenue du Lapede", "category": "Dam", "area_ha": 22.5, "altitude_m": null }, "geometry": { "type": "Point", "coordinates": [ -0.07617, 43.78858 ] } },
{ "type": "Feature", "properties": { "name": "Unnamed", "category": "Dam", "area_ha": 15.6, "altitude_m": null }, "geometry": { "type": "Point", "coordinates": [ -0.1949, 43.76844 ] } },
{ "type": "Feature", "properties": { "name": "Retenue des Aygues Vives", "category": "Dam", "area_ha": 10.4, "altitude_m": null }, "geometry": { "type": "Point", "coordinates": [ 0.51284, 43.33696 ] } },
{ "type": "Feature", "properties": { "name": "Retenue du Bosc", "category": "Dam", "area_ha": 11.0, "altitude_m": null }, "geometry": { "type": "Point", "coordinates": [ 0.52578, 43.36229 ] } },
{ "type": "Feature", "properties": { "name": "Unnamed", "category": "Dam", "area_ha": 6.8, "altitude_m": null }, "geometry": { "type": "Point", "coordinates": [ 0.0486, 43.64863 ] } },
{ "type": "Feature", "properties": { "name": "Unnamed", "category": "Dam", "area_ha": 6.4, "altitude_m": null }, "geometry": { "type": "Point", "coordinates": [ 0.30935, 43.50243 ] } },
{ "type": "Feature", "properties": { "name": "Petit Lac de Thoux-Saint-Cricq", "category": "Dam", "area_ha": 4.2, "altitude_m": null }, "geometry": { "type": "Point", "coordinates": [ 1.00726, 43.69652 ] } },
{ "type": "Feature", "properties": { "name": "Unnamed", "category": "Dam", "area_ha": 6.2, "altitude_m": null }, "geometry": { "type": "Point", "coordinates": [ 0.37613, 43.48645 ] } },
{ "type": "Feature", "properties": { "name": "Unnamed", "category": "Dam", "area_ha": 7.6, "altitude_m": null }, "geometry": { "type": "Point", "coordinates": [ 0.19588, 43.56851 ] } },
{ "type": "Feature", "properties": { "name": "Unnamed", "category": "Dam", "area_ha": 5.6, "altitude_m": null }, "geometry": { "type": "Point", "coordinates": [ 0.72384, 43.85701 ] } },
{ "type": "Feature", "properties": { "name": "Lac de la Baradée", "category": "Dam", "area_ha": 49.1, "altitude_m": null }, "geometry": { "type": "Point", "coordinates": [ 0.2764, 43.60001 ] } },
{ "type": "Feature", "properties": { "name": "Unnamed", "category": "Dam", "area_ha": 3.5, "altitude_m": null }, "geometry": { "type": "Point", "coordinates": [ -0.14941, 43.71704 ] } },
{ "type": "Feature", "properties": { "name": "Unnamed", "category": "Dam", "area_ha": 6.6, "altitude_m": null }, "geometry": { "type": "Point", "coordinates": [ 0.89449, 43.89543 ] } },
{ "type": "Feature", "properties": { "name": "Unnamed", "category": "Dam", "area_ha": 10.8, "altitude_m": null }, "geometry": { "type": "Point", "coordinates": [ 0.11644, 43.84435 ] } },
{ "type": "Feature", "properties": { "name": "Unnamed", "category": "Dam", "area_ha": 5.4, "altitude_m": null }, "geometry": { "type": "Point", "coordinates": [ 0.56258, 43.89069 ] } },
{ "type": "Feature", "properties": { "name": "Retenue de la Marcaoué", "category": "Dam", "area_ha": 19.5, "altitude_m": null }, "geometry": { "type": "Point", "coordinates": [ 0.79578, 43.46608 ] } },
{ "type": "Feature", "properties": { "name": "Retenue du Saclès", "category": "Dam", "area_ha": 13.6, "altitude_m": null }, "geometry": { "type": "Point", "coordinates": [ 0.51511, 43.48583 ] } },
{ "type": "Feature", "properties": { "name": "Unnamed", "category": "Dam", "area_ha": 10.1, "altitude_m": null }, "geometry": { "type": "Point", "coordinates": [ 0.8916, 43.51579 ] } },
{ "type": "Feature", "properties": { "name": "Lac de Thoux-Saint-Cricq", "category": "Dam", "area_ha": 41.0, "altitude_m": null }, "geometry": { "type": "Point", "coordinates": [ 1.0016, 43.68897 ] } },
{ "type": "Feature", "properties": { "name": "Barrage du Candau", "category": "Dam", "area_ha": 56.5, "altitude_m": null }, "geometry": { "type": "Point", "coordinates": [ 0.17471, 43.72146 ] } },
{ "type": "Feature", "properties": { "name": "Unnamed", "category": "Dam", "area_ha": 6.6, "altitude_m": null }, "geometry": { "type": "Point", "coordinates": [ 0.10975, 43.83939 ] } },
{ "type": "Feature", "properties": { "name": "Lac de la Castagnère", "category": "Dam", "area_ha": 25.7, "altitude_m": null }, "geometry": { "type": "Point", "coordinates": [ 0.5004, 43.60552 ] } },
{ "type": "Feature", "properties": { "name": "Retenue de Tillac", "category": "Dam", "area_ha": 18.4, "altitude_m": null }, "geometry": { "type": "Point", "coordinates": [ 0.27545, 43.49321 ] } },
{ "type": "Feature", "properties": { "name": "Unnamed", "category": "Dam", "area_ha": 8.4, "altitude_m": null }, "geometry": { "type": "Point", "coordinates": [ 0.11048, 43.95786 ] } },
{ "type": "Feature", "properties": { "name": "Unnamed", "category": "Dam", "area_ha": 5.1, "altitude_m": null }, "geometry": { "type": "Point", "coordinates": [ 0.47792, 43.59512 ] } },
{ "type": "Feature", "properties": { "name": "Unnamed", "category": "Dam", "area_ha": 6.8, "altitude_m": null }, "geometry": { "type": "Point", "coordinates": [ 0.9218, 43.6124 ] } },
{ "type": "Feature", "properties": { "name": "Unnamed", "category": "Dam", "area_ha": 9.5, "altitude_m": null }, "geometry": { "type": "Point", "coordinates": [ 0.09649, 43.7259 ] } },
{ "type": "Feature", "properties": { "name": "Unnamed", "category": "Dam", "area_ha": 6.0, "altitude_m": null }, "geometry": { "type": "Point", "coordinates": [ 0.14621, 43.87025 ] } },
{ "type": "Feature", "properties": { "name": "Retenue de Cabournieu", "category": "Dam", "area_ha": 27.8, "altitude_m": null }, "geometry": { "type": "Point", "coordinates": [ 0.24356, 43.45791 ] } },
{ "type": "Feature", "properties": { "name": "Réservoir de Lapeyrie", "category": "Dam", "area_ha": 19.0, "altitude_m": null }, "geometry": { "type": "Point", "coordinates": [ 0.10004, 43.68232 ] } },
{ "type": "Feature", "properties": { "name": "Lac de Lupiac", "category": "Dam", "area_ha": 10.5, "altitude_m": null }, "geometry": { "type": "Point", "coordinates": [ 0.19828, 43.67858 ] } },
{ "type": "Feature", "properties": { "name": "Lac de Pessoulens", "category": "Dam", "area_ha": 14.2, "altitude_m": null }, "geometry": { "type": "Point", "coordinates": [ 0.87819, 43.86196 ] } },
{ "type": "Feature", "properties": { "name": "Unnamed", "category": "Dam", "area_ha": 6.6, "altitude_m": null }, "geometry": { "type": "Point", "coordinates": [ 0.11438, 43.79827 ] } },
{ "type": "Feature", "properties": { "name": "Réservoir de Charros", "category": "Dam", "area_ha": 35.4, "altitude_m": null }, "geometry": { "type": "Point", "coordinates": [ -0.20039, 43.85033 ] } },
{ "type": "Feature", "properties": { "name": "Unnamed", "category": "Dam", "area_ha": 11.4, "altitude_m": null }, "geometry": { "type": "Point", "coordinates": [ 0.24382, 43.47183 ] } },
{ "type": "Feature", "properties": { "name": "Réservoir de Bourges", "category": "Dam", "area_ha": 10.9, "altitude_m": null }, "geometry": { "type": "Point", "coordinates": [ 0.17315, 43.60632 ] } },
{ "type": "Feature", "properties": { "name": "Unnamed", "category": "Dam", "area_ha": 11.3, "altitude_m": null }, "geometry": { "type": "Point", "coordinates": [ 0.35187, 43.47768 ] } },
{ "type": "Feature", "properties": { "name": "Lac Saint-Jean", "category": "Dam", "area_ha": 58.6, "altitude_m": null }, "geometry": { "type": "Point", "coordinates": [ 0.18426, 43.6523 ] } },
{ "type": "Feature", "properties": { "name": "Lac de Saint-Laurent", "category": "Dam", "area_ha": 40.8, "altitude_m": null }, "geometry": { "type": "Point", "coordinates": [ 0.23128, 43.60018 ] } },
{ "type": "Feature", "properties": { "name": "Retenue de Maribot", "category": "Dam", "area_ha": 25.5, "altitude_m": null }, "geometry": { "type": "Point", "coordinates": [ 0.10152, 43.6021 ] } }
]
}
