{
"type": "FeatureCollection",
"name": "dep36.geojson",
"crs": { "type": "name", "properties": { "name": "urn:ogc:def:crs:OGC:1.3:CRS84" } },
"xy_coordinate_resolution": 1e-05,
"features": [
{ "type": "Feature", "properties": { "name": "Unnamed", "category": "Reservoir", "area_ha": 5.6, "altitude_m": null }, "geometry": { "type": "Point", "coordinates": [ 1.13914, 46.81529 ] } },
{ "type": "Feature", "properties": { "name": "Unnamed", "category": "Reservoir", "area_ha": 7.3, "altitude_m": null }, "geometry": { "type": "Point", "coordinates": [ 1.27054, 46.79736 ] } },
{ "type": "Feature", "properties": { "name": "Étang des Mottes", "category": "Reservoir", "area_ha": 8.5, "altitude_m": null }, "geometry": { "type": "Point", "coordinates": [ 1.25061, 46.80897 ] } },
{ "type": "Feature", "properties": { "name": "Étang du Grand Salvert", "category": "Reservoir", "area_ha": 12.6, "altitude_m": null }, "geometry": { "type": "Point", "coordinates": [ 1.34065, 46.69534 ] } },
{ "type": "Feature", "properties": { "name": "Unnamed", "category": "Reservoir", "area_ha": 5.5, "altitude_m": null }, "geometry": { "type": "Point", "coordinates": [ 1.29059, 46.76643 ] } },
{ "type": "Feature", "properties": { "name": "la Grande Gorce", "category": "Reservoir", "area_ha": 19.3, "altitude_m": null }, "geometry": { "type": "Point", "coordinates": [ 1.41574, 46.69586 ] } },
{ "type": "Feature", "properties": { "name": "Unnamed", "category": "Reservoir", "area_ha": 5.3, "altitude_m": null }, "geometry": { "type": "Point", "coordinates": [ 1.29256, 46.57378 ] } },
{ "type": "Feature", "properties": { "name": "le Grand Ménard", "category": "Reservoir", "area_ha": 13.7, "altitude_m": null }, "geometry": { "type": "Point", "coordinates": [ 1.28897, 46.66806 ] } },
{ "type": "Feature", "properties": { "name": "Unnamed", "category": "Reservoir", "area_ha": 10.0, "altitude_m": null }, "geometry": { "type": "Point", "coordinates": [ 1.14957, 46.6931 ] } },
{ "type": "Feature", "properties": { "name": "Unnamed", "category": "Reservoir", "area_ha": 6.4, "altitude_m": null }, "geometry": { "type": "Point", "coordinates": [ 1.17121, 46.71148 ] } },
{ "type": "Feature", "properties": { "name": "Étang de la Foulquetière", "category": "Reservoir", "area_ha": 8.0, "altitude_m": null }, "geometry": { "type": "Point", "coordinates": [ 1.40204, 47.1124 ] } },
{ "type": "Feature", "properties": { "name": "Étang des Renardières", "category": "Reservoir", "area_ha": 5.1, "altitude_m": null }, "geometry": { "type": "Point", "coordinates": [ 1.35975, 47.1059 ] } },
{ "type": "Feature", "properties": { "name": "Étangs de la Loge", "category": "Reservoir", "area_ha": 5.8, "altitude_m": null }, "geometry": { "type": "Point", "coordinates": [ 1.33311, 47.05433 ] } },
{ "type": "Feature", "properties": { "name": "Étang Gilet", "category": "Reservoir", "area_ha": 7.1, "altitude_m": null }, "geometry": { "type": "Point", "coordinates": [ 1.31472, 46.79073 ] } },
{ "type": "Feature", "properties": { "name": "Étang Chauveau", "category": "Reservoir", "area_ha": 6.1, "altitude_m": null }, "geometry": { "type": "Point", "coordinates": [ 1.12647, 46.76837 ] } },
{ "type": "Feature", "properties": { "name": "Étang Castor", "category": "Reservoir", "area_ha": 6.6, "altitude_m": null }, "geometry": { "type": "Point", "coordinates": [ 1.05377, 46.78029 ] } },
{ "type": "Feature", "properties": { "name": "Étang Chat", "category": "Reservoir", "area_ha": 5.1, "altitude_m": null }, "geometry": { "type": "Point", "coordinates": [ 1.05727, 46.76577 ] } },
{ "type": "Feature", "properties": { "name": "l'Étang Neuf", "category": "Reservoir", "area_ha": 7.4, "altitude_m": null }, "geometry": { "type": "Point", "coordinates": [ 1.04256, 46.77342 ] } },
{ "type": "Feature", "properties": { "name": "le Grand Fauviget", "category": "Reservoir", "area_ha": 6.5, "altitude_m": null }, "geometry": { "type": "Point", "coordinates": [ 1.22337, 46.6388 ] } },
{ "type": "Feature", "properties": { "name": "Étang de Lancré", "category": "Reservoir", "area_ha": 13.5, "altitude_m": null }, "geometry": { "type": "Point", "coordinates": [ 1.30569, 46.73065 ] } },
{ "type": "Feature", "properties": { "name": "l'Étang Neuf", "category": "Reservoir", "area_ha": 49.9, "altitude_m": null }, "geometry": { "type": "Point", "coordinates": [ 1.31684, 46.84039 ] } },
{ "type": "Feature", "properties": { "name": "Étang de Fongombault", "category": "Reservoir", "area_ha": 61.3, "altitude_m": null }, "geometry": { "type": "Point", "coordinates": [ 1.13606, 46.71512 ] } },
{ "type": "Feature", "properties": { "name": "Unnamed", "category": "Reservoir", "area_ha": 5.3, "altitude_m": null }, "geometry": { "type": "Point", "coordinates": [ 1.66401, 46.70657 ] } },
{ "type": "Feature", "properties": { "name": "Étang du Sault", "category": "Reservoir", "area_ha": 97.1, "altitude_m": null }, "geometry": { "type": "Point", "coordinates": [ 1.24985, 46.7332 ] } },
{ "type": "Feature", "properties": { "name": "Unnamed", "category": "Reservoir", "area_ha": 8.0, "altitude_m": null }, "geometry": { "type": "Point", "coordinates": [ 1.16547, 46.78918 ] } },
{ "type": "Feature", "properties": { "name": "Unnamed", "category": "Reservoir", "area_ha": 5.1, "altitude_m": null }, "geometry": { "type": "Point", "coordinates": [ 1.23895, 46.76866 ] } },
{ "type": "Feature", "properties": { "name": "Unnamed", "category": "Reservoir", "area_ha": 10.7, "altitude_m": null }, "geometry": { "type": "Point", "coordinates": [ 1.26247, 46.65441 ] } },
{ "type": "Feature", "properties": { "name": "Étang Dauvigé", "category": "Reservoir", "area_ha": 27.4, "altitude_m": null }, "geometry": { "type": "Point", "coordinates": [ 1.31296, 46.69295 ] } },
{ "type": "Feature", "properties": { "name": "Étang Philippe", "category": "Reservoir", "area_ha": 8.3, "altitude_m": null }, "geometry": { "type": "Point", "coordinates": [ 1.19047, 46.81935 ] } },
{ "type": "Feature", "properties": { "name": "Étang des Nielloux", "category": "Reservoir", "area_ha": 5.4, "altitude_m": null }, "geometry": { "type": "Point", "coordinates": [ 1.65668, 46.61692 ] } },
{ "type": "Feature", "properties": { "name": "Unnamed", "category": "Reservoir", "area_ha": 6.5, "altitude_m": null }, "geometry": { "type": "Point", "coordinates": [ 1.27798, 46.6879 ] } },
{ "type": "Feature", "properties": { "name": "Étang du Blanc", "category": "Lake", "area_ha": 14.0, "altitude_m": null }, "geometry": { "type": "Point", "coordinates": [ 1.12939, 46.70016 ] } },
{ "type": "Feature", "properties": { "name": "Unnamed", "category": "Reservoir", "area_ha": 6.0, "altitude_m": null }, "geometry": { "type": "Point", "coordinates": [ 1.26483, 46.75964 ] } },
{ "type": "Feature", "properties": { "name": "Marcheboeuf Neuf Cent Vingt", "category": "Reservoir", "area_ha": 11.6, "altitude_m": null }, "geometry": { "type": "Point", "coordinates": [ 1.16176, 46.66468 ] } },
{ "type": "Feature", "properties": { "name": "Unnamed", "category": "Reservoir", "area_ha": 6.0, "altitude_m": null }, "geometry": { "type": "Point", "coordinates": [ 1.1867, 46.80549 ] } },
{ "type": "Feature", "properties": { "name": "Étang des Rondières Sept Cent Cinquante", "category": "Reservoir", "area_ha": 5.9, "altitude_m": null }, "geometry": { "type": "Point", "coordinates": [ 1.22676, 46.78067 ] } },
{ "type": "Feature", "properties": { "name": "Unnamed", "category": "Reservoir", "area_ha": 5.2, "altitude_m": null }, "geometry": { "type": "Point", "coordinates": [ 1.16327, 46.5841 ] } },
{ "type": "Feature", "properties": { "name": "les Lattiers", "category": "Reservoir", "area_ha": 5.4, "altitude_m": null }, "geometry": { "type": "Point", "coordinates": [ 1.25963, 46.78618 ] } },
{ "type": "Feature", "properties": { "name": "Unnamed", "category": "Reservoir", "area_ha": 7.0, "altitude_m": null }, "geometry": { "type": "Point", "coordinates": [ 1.28484, 46.80514 ] } },
{ "type": "Feature", "properties": { "name": "Unnamed", "category": "Reservoir", "area_ha": 6.9, "altitude_m": null }, "geometry": { "type": "Point", "coordinates": [ 1.22774, 46.80584 ] } },
{ "type": "Feature", "properties": { "name": "Étang des Lus", "category": "Reservoir", "area_ha": 6.3, "altitude_m": null }, "geometry": { "type": "Point", "coordinates": [ 1.08878, 46.77722 ] } },
{ "type": "Feature", "properties": { "name": "Unnamed", "category": "Reservoir", "area_ha": 13.5, "altitude_m": null }, "geometry": { "type": "Point", "coordinates": [ 1.17486, 46.8073 ] } },
{ "type": "Feature", "properties": { "name": "Étang des Rondières", "category": "Reservoir", "area_ha": 8.8, "altitude_m": null }, "geometry": { "type": "Point", "coordinates": [ 1.23287, 46.77993 ] } },
{ "type": "Feature", "properties": { "name": "Unnamed", "category": "Reservoir", "area_ha": 13.1, "altitude_m": null }, "geometry": { "type": "Point", "coordinates": [ 1.21564, 46.79254 ] } },
{ "type": "Feature", "properties": { "name": "Grand Étang de Grandeffe", "category": "Reservoir", "area_ha": 51.0, "altitude_m": null }, "geometry": { "type": "Point", "coordinates": [ 1.54954, 46.76153 ] } },
{ "type": "Feature", "properties": { "name": "Unnamed", "category": "Reservoir", "area_ha": 5.3, "altitude_m": null }, "geometry": { "type": "Point", "coordinates": [ 1.66255, 46.71553 ] } },
{ "type": "Feature", "properties": { "name": "Unnamed", "category": "Reservoir", "area_ha": 6.3, "altitude_m": null }, "geometry": { "type": "Point", "coordinates": [ 1.22091, 46.65892 ] } },
{ "type": "Feature", "properties": { "name": "Unnamed", "category": "Reservoir", "area_ha": 13.9, "altitude_m": null }, "geometry": { "type": "Point", "coordinates": [ 1.27517, 46.64683 ] } },
{ "type": "Feature", "properties": { "name": "Étang de Rochegaudon", "category": "Reservoir", "area_ha": 7.8, "altitude_m": null }, "geometry": { "type": "Point", "coordinates": [ 1.28728, 46.43109 ] } },
{ "type": "Feature", "properties": { "name": "Unnamed", "category": "Reservoir", "area_ha": 7.6, "altitude_m": null }, "geometry": { "type": "Point", "coordinates": [ 1.09425, 46.76855 ] } },
{ "type": "Feature", "properties": { "name": "Unnamed", "category": "Reservoir", "area_ha": 5.0, "altitude_m": null }, "geometry": { "type": "Point", "coordinates": [ 1.32743, 46.73832 ] } },
{ "type": "Feature", "properties": { "name": "l'Étang Vieux", "category": "Reservoir", "area_ha": 20.7, "altitude_m": null }, "geometry": { "type": "Point", "coordinates": [ 1.29256, 46.85039 ] } },
{ "type": "Feature", "properties": { "name": "Unnamed", "category": "Reservoir", "area_ha": 7.0, "altitude_m": null }, "geometry": { "type": "Point", "coordinates": [ 1.43288, 46.74576 ] } },
{ "type": "Feature", "properties": { "name": "Unnamed", "category": "Reservoir", "area_ha": 5.7, "altitude_m": null }, "geometry": { "type": "Point", "coordinates": [ 1.21741, 46.65865 ] } },
{ "type": "Feature", "properties": { "name": "Étang Fleur", "category": "Reservoir", "area_ha": 8.1, "altitude_m": null }, "geometry": { "type": "Point", "coordinates": [ 1.11925, 46.78105 ] } },
{ "type": "Feature", "properties": { "name": "Étang Bourreau", "category": "Reservoir", "area_ha": 8.6, "altitude_m": null }, "geometry": { "type": "Point", "coordinates": [ 1.01758, 46.77622 ] } },
{ "type": "Feature", "properties": { "name": "Étang Passe-Mauvais", "category": "Reservoir", "area_ha": 7.1, "altitude_m": null }, "geometry": { "type": "Point", "coordinates": [ 1.38375, 46.70957 ] } },
{ "type": "Feature", "properties": { "name": "Étang de Laragé", "category": "Reservoir", "area_ha": 9.0, "altitude_m": null }, "geometry": { "type": "Point", "coordinates": [ 1.32214, 46.70524 ] } },
{ "type": "Feature", "properties": { "name": "Étang de la Villeperdue", "category": "Reservoir", "area_ha": 5.8, "altitude_m": null }, "geometry": { "type": "Point", "coordinates": [ 1.27699, 46.72635 ] } },
{ "type": "Feature", "properties": { "name": "Unnamed", "category": "Reservoir", "area_ha": 7.9, "altitude_m": null }, "geometry": { "type": "Point", "coordinates": [ 1.45354, 46.55903 ] } },
{ "type": "Feature", "properties": { "name": "Étang de la Menaigue", "category": "Reservoir", "area_ha": 5.1, "altitude_m": null }, "geometry": { "type": "Point", "coordinates": [ 1.46147, 46.67635 ] } },
{ "type": "Feature", "properties": { "name": "l'Étang Vieux", "category": "Reservoir", "area_ha": 9.3, "altitude_m": null }, "geometry": { "type": "Point", "coordinates": [ 1.35604, 46.69534 ] } },
{ "type": "Feature", "properties": { "name": "Étang de Souvigny", "category": "Reservoir", "area_ha": 6.3, "altitude_m": null }, "geometry": { "type": "Point", "coordinates": [ 1.35236, 46.55887 ] } },
{ "type": "Feature", "properties": { "name": "Unnamed", "category": "Reservoir", "area_ha": 13.5, "altitude_m": null }, "geometry": { "type": "Point", "coordinates": [ 1.21473, 46.81056 ] } },
{ "type": "Feature", "properties": { "name": "Étang du Grand Maître Guillaume", "category": "Reservoir", "area_ha": 12.8, "altitude_m": null }, "geometry": { "type": "Point", "coordinates": [ 1.2651, 46.71633 ] } },
{ "type": "Feature", "properties": { "name": "Étang de la Hire", "category": "Reservoir", "area_ha": 11.5, "altitude_m": null }, "geometry": { "type": "Point", "coordinates": [ 1.11773, 46.7107 ] } },
{ "type": "Feature", "properties": { "name": "Étang Lion", "category": "Reservoir", "area_ha": 24.0, "altitude_m": null }, "geometry": { "type": "Point", "coordinates": [ 1.29743, 46.8248 ] } },
{ "type": "Feature", "properties": { "name": "Unnamed", "category": "Reservoir", "area_ha": 5.8, "altitude_m": null }, "geometry": { "type": "Point", "coordinates": [ 1.0537, 46.94163 ] } },
{ "type": "Feature", "properties": { "name": "Unnamed", "category": "Reservoir", "area_ha": 6.8, "altitude_m": null }, "geometry": { "type": "Point", "coordinates": [ 1.21975, 46.87284 ] } },
{ "type": "Feature", "properties": { "name": "Unnamed", "category": "Reservoir", "area_ha": 7.8, "altitude_m": null }, "geometry": { "type": "Point", "coordinates": [ 1.35023, 46.69264 ] } },
{ "type": "Feature", "properties": { "name": "Unnamed", "category": "Reservoir", "area_ha": 17.6, "altitude_m": null }, "geometry": { "type": "Point", "coordinates": [ 1.19877, 46.83928 ] } },
{ "type": "Feature", "properties": { "name": "Unnamed", "category": "Reservoir", "area_ha": 5.1, "altitude_m": null }, "geometry": { "type": "Point", "coordinates": [ 1.19255, 46.79506 ] } },
{ "type": "Feature", "properties": { "name": "Unnamed", "category": "Reservoir", "area_ha": 10.8, "altitude_m": null }, "geometry": { "type": "Point", "coordinates": [ 1.28818, 46.7855 ] } },
{ "type": "Feature", "properties": { "name": "Étang des Planchettes", "category": "Reservoir", "area_ha": 8.1, "altitude_m": null }, "geometry": { "type": "Point", "coordinates": [ 1.31858, 46.74454 ] } },
{ "type": "Feature", "properties": { "name": "Étang du Petit Mez", "category": "Reservoir", "area_ha": 10.1, "altitude_m": null }, "geometry": { "type": "Point", "coordinates": [ 1.45434, 46.75845 ] } },
{ "type": "Feature", "properties": { "name": "Étang du Grand Épinay", "category": "Reservoir", "area_ha": 27.5, "altitude_m": null }, "geometry": { "type": "Point", "coordinates": [ 1.42458, 46.72958 ] } },
{ "type": "Feature", "properties": { "name": "Unnamed", "category": "Reservoir", "area_ha": 8.7, "altitude_m": null }, "geometry": { "type": "Point", "coordinates": [ 1.21355, 46.74078 ] } },
{ "type": "Feature", "properties": { "name": "Étang du Grand Mez", "category": "Reservoir", "area_ha": 46.0, "altitude_m": null }, "geometry": { "type": "Point", "coordinates": [ 1.44372, 46.74765 ] } },
{ "type": "Feature", "properties": { "name": "Étang Baré", "category": "Reservoir", "area_ha": 7.9, "altitude_m": null }, "geometry": { "type": "Point", "coordinates": [ 1.24411, 46.65888 ] } },
{ "type": "Feature", "properties": { "name": "Étang de la Mer Rouge", "category": "Reservoir", "area_ha": 128.0, "altitude_m": null }, "geometry": { "type": "Point", "coordinates": [ 1.16066, 46.7073 ] } },
{ "type": "Feature", "properties": { "name": "Unnamed", "category": "Reservoir", "area_ha": 6.1, "altitude_m": null }, "geometry": { "type": "Point", "coordinates": [ 1.228, 46.79237 ] } },
{ "type": "Feature", "properties": { "name": "Étang de Bernadoux", "category": "Reservoir", "area_ha": 34.1, "altitude_m": null }, "geometry": { "type": "Point", "coordinates": [ 1.24706, 46.77858 ] } },
{ "type": "Feature", "properties": { "name": "Étang de Pouquereau", "category": "Reservoir", "area_ha": 19.0, "altitude_m": null }, "geometry": { "type": "Point", "coordinates": [ 1.26204, 46.72204 ] } },
{ "type": "Feature", "properties": { "name": "Lac d'Éguzon", "category": "Dam", "area_ha": 169.2, "altitude_m": null }, "geometry": { "type": "Point", "coordinates": [ 1.61299, 46.4373 ] } },
{ "type": "Feature", "properties": { "name": "Unnamed", "category": "Reservoir", "area_ha": 11.7, "altitude_m": null }, "geometry": { "type": "Point", "coordinates": [ 1.1539, 46.65593 ] } },
{ "type": "Feature", "properties": { "name": "Étang de la Gabrière", "category": "Reservoir", "area_ha": 122.3, "altitude_m": null }, "geometry": { "type": "Point", "coordinates": [ 1.17435, 46.75414 ] } },
{ "type": "Feature", "properties": { "name": "Étang de Lys-Saint-Georges", "category": "Reservoir", "area_ha": 28.5, "altitude_m": null }, "geometry": { "type": "Point", "coordinates": [ 1.8212, 46.67262 ] } },
{ "type": "Feature", "properties": { "name": "Étang de Lérignon", "category": "Reservoir", "area_ha": 48.2, "altitude_m": null }, "geometry": { "type": "Point", "coordinates": [ 1.11381, 46.76465 ] } },
{ "type": "Feature", "properties": { "name": "Étang de Gabriau", "category": "Reservoir", "area_ha": 110.2, "altitude_m": null }, "geometry": { "type": "Point", "coordinates": [ 1.14398, 46.75783 ] } },
{ "type": "Feature", "properties": { "name": "Étang de Péchovet", "category": "Reservoir", "area_ha": 5.2, "altitude_m": null }, "geometry": { "type": "Point", "coordinates": [ 1.55204, 46.45394 ] } },
{ "type": "Feature", "properties": { "name": "Unnamed", "category": "Reservoir", "area_ha": 8.1, "altitude_m": null }, "geometry": { "type": "Point", "coordinates": [ 1.25899, 46.7149 ] } },
{ "type": "Feature", "properties": { "name": "Unnamed", "category": "Reservoir", "area_ha": 5.5, "altitude_m": null }, "geometry": { "type": "Point", "coordinates": [ 1.18773, 46.73543 ] } },
{ "type": "Feature", "properties": { "name": "Unnamed", "category": "Reservoir", "area_ha": 8.2, "altitude_m": null }, "geometry": { "type": "Point", "coordinates": [ 1.14775, 46.97301 ] } },
{ "type": "Feature", "properties": { "name": "Unnamed", "category": "Reservoir", "area_ha": 5.2, "altitude_m": null }, "geometry": { "type": "Point", "coordinates": [ 1.7136, 46.68477 ] } },
{ "type": "Feature", "properties": { "name": "Étang Neuf", "category": "Reservoir", "area_ha": 5.7, "altitude_m": null }, "geometry": { "type": "Point", "coordinates": [ 1.13121, 46.75334 ] } },
{ "type": "Feature", "properties": { "name": "Étang de Cors", "category": "Reservoir", "area_ha": 6.5, "altitude_m": null }, "geometry": { "type": "Point", "coordinates": [ 1.40604, 46.71019 ] } },
{ "type": "Feature", "properties": { "name": "Étang Millère", "category": "Reservoir", "area_ha": 7.5, "altitude_m": null }, "geometry": { "type": "Point", "coordinates": [ 1.13967, 46.72211 ] } },
{ "type": "Feature", "properties": { "name": "l'Adenet", "category": "Reservoir", "area_ha": 5.0, "altitude_m": null }, "geometry": { "type": "Point", "coordinates": [ 1.71377, 46.69303 ] } },
{ "type": "Feature", "properties": { "name": "Étang de Romefort", "category": "Reservoir", "area_ha": 11.5, "altitude_m": null }, "geometry": { "type": "Point", "coordinates": [ 1.23458, 46.58706 ] } },
{ "type": "Feature", "properties": { "name": "l'Étang Neuf", "category": "Reservoir", "area_ha": 5.8, "altitude_m": null }, "geometry": { "type": "Point", "coordinates": [ 1.3993, 46.55469 ] } },
{ "type": "Feature", "properties": { "name": "Unnamed", "category": "Reservoir", "area_ha": 8.4, "altitude_m": null }, "geometry": { "type": "Point", "coordinates": [ 1.18574, 46.73889 ] } },
{ "type": "Feature", "properties": { "name": "Unnamed", "category": "Reservoir", "area_ha": 5.2, "altitude_m": null }, "geometry": { "type": "Point", "coordinates": [ 1.32858, 46.74864 ] } },
{ "type": "Feature", "properties": { "name": "Unnamed", "category": "Reservoir", "area_ha": 9.7, "altitude_m": null }, "geometry": { "type": "Point", "coordinates": [ 1.17837, 46.809 ] } },
{ "type": "Feature", "properties": { "name": "Unnamed", "category": "Reservoir", "area_ha": 5.6, "altitude_m": null }, "geometry": { "type": "Point", "coordinates": [ 1.24709, 46.77474 ] } },
{ "type": "Feature", "properties": { "name": "Unnamed", "category": "Reservoir", "area_ha": 5.6, "altitude_m": null }, "geometry": { "type": "Point", "coordinates": [ 1.27979, 46.79896 ] } },
{ "type": "Feature", "properties": { "name": "Unnamed", "category": "Reservoir", "area_ha": 5.6, "altitude_m": null }, "geometry": { "type": "Point", "coordinates": [ 1.19188, 46.72276 ] } },
{ "type": "Feature", "properties": { "name": "Étang Neuf", "category": "Reservoir", "area_ha": 10.4, "altitude_m": null }, "geometry": { "type": "Point", "coordinates": [ 1.74446, 46.68234 ] } },
{ "type": "Feature", "properties": { "name": "Étang de Rongères", "category": "Reservoir", "area_ha": 11.8, "altitude_m": null }, "geometry": { "type": "Point", "coordinates": [ 2.07065, 46.5256 ] } },
{ "type": "Feature", "properties": { "name": "Unnamed", "category": "Reservoir", "area_ha": 9.4, "altitude_m": null }, "geometry": { "type": "Point", "coordinates": [ 1.14245, 46.69125 ] } },
{ "type": "Feature", "properties": { "name": "Unnamed", "category": "Reservoir", "area_ha": 7.0, "altitude_m": null }, "geometry": { "type": "Point", "coordinates": [ 1.25165, 46.7803 ] } },
{ "type": "Feature", "properties": { "name": "Étang des Charbonnières", "category": "Reservoir", "area_ha": 8.1, "altitude_m": null }, "geometry": { "type": "Point", "coordinates": [ 1.2619, 46.74305 ] } },
{ "type": "Feature", "properties": { "name": "Étang Pérussault", "category": "Reservoir", "area_ha": 7.8, "altitude_m": null }, "geometry": { "type": "Point", "coordinates": [ 1.36511, 46.6976 ] } },
{ "type": "Feature", "properties": { "name": "Unnamed", "category": "Reservoir", "area_ha": 10.2, "altitude_m": null }, "geometry": { "type": "Point", "coordinates": [ 1.34383, 46.79723 ] } },
{ "type": "Feature", "properties": { "name": "Unnamed", "category": "Reservoir", "area_ha": 10.8, "altitude_m": null }, "geometry": { "type": "Point", "coordinates": [ 1.13444, 46.69165 ] } },
{ "type": "Feature", "properties": { "name": "Unnamed", "category": "Reservoir", "area_ha": 5.5, "altitude_m": null }, "geometry": { "type": "Point", "coordinates": [ 1.16824, 46.71599 ] } },
{ "type": "Feature", "properties": { "name": "Étang Massé", "category": "Reservoir", "area_ha": 23.5, "altitude_m": null }, "geometry": { "type": "Point", "coordinates": [ 1.21575, 46.73768 ] } },
{ "type": "Feature", "properties": { "name": "Unnamed", "category": "Reservoir", "area_ha": 6.2, "altitude_m": null }, "geometry": { "type": "Point", "coordinates": [ 1.21768, 46.77487 ] } },
{ "type": "Feature", "properties": { "name": "Unnamed", "category": "Reservoir", "area_ha": 5.7, "altitude_m": null }, "geometry": { "type": "Point", "coordinates": [ 1.1909, 46.7618 ] } },
{ "type": "Feature", "properties": { "name": "Étang de Malakoff", "category": "Reservoir", "area_ha": 7.8, "altitude_m": null }, "geometry": { "type": "Point", "coordinates": [ 1.34264, 46.79148 ] } },
{ "type": "Feature", "properties": { "name": "Étang Nuret", "category": "Reservoir", "area_ha": 19.4, "altitude_m": null }, "geometry": { "type": "Point", "coordinates": [ 1.20506, 46.79088 ] } },
{ "type": "Feature", "properties": { "name": "Étang des Vigneaux", "category": "Reservoir", "area_ha": 25.0, "altitude_m": null }, "geometry": { "type": "Point", "coordinates": [ 1.27767, 46.78214 ] } },
{ "type": "Feature", "properties": { "name": "Unnamed", "category": "Reservoir", "area_ha": 5.2, "altitude_m": null }, "geometry": { "type": "Point", "coordinates": [ 1.42312, 46.75917 ] } },
{ "type": "Feature", "properties": { "name": "Étang Barineau", "category": "Reservoir", "area_ha": 5.5, "altitude_m": null }, "geometry": { "type": "Point", "coordinates": [ 1.22745, 46.72846 ] } },
{ "type": "Feature", "properties": { "name": "Unnamed", "category": "Reservoir", "area_ha": 5.2, "altitude_m": null }, "geometry": { "type": "Point", "coordinates": [ 1.55425, 46.77395 ] } },
{ "type": "Feature", "properties": { "name": "Unnamed", "category": "Reservoir", "area_ha": 7.6, "altitude_m": null }, "geometry": { "type": "Point", "coordinates": [ 1.3112, 46.74179 ] } },
{ "type": "Feature", "properties": { "name": "Unnamed", "category": "Reservoir", "area_ha": 10.7, "altitude_m": null }, "geometry": { "type": "Point", "coordinates": [ 1.13281, 46.71843 ] } },
{ "type": "Feature", "properties": { "name": "Étang des Cosses", "category": "Reservoir", "area_ha": 11.6, "altitude_m": null }, "geometry": { "type": "Point", "coordinates": [ 1.64274, 46.70732 ] } },
{ "type": "Feature", "properties": { "name": "Étang Moine", "category": "Reservoir", "area_ha": 6.1, "altitude_m": null }, "geometry": { "type": "Point", "coordinates": [ 1.28899, 46.72082 ] } },
{ "type": "Feature", "properties": { "name": "Étang de Durtal", "category": "Reservoir", "area_ha": 6.9, "altitude_m": null }, "geometry": { "type": "Point", "coordinates": [ 1.06476, 46.77655 ] } },
{ "type": "Feature", "properties": { "name": "Étang des Chaumes", "category": "Reservoir", "area_ha": 5.2, "altitude_m": null }, "geometry": { "type": "Point", "coordinates": [ 1.12201, 46.82847 ] } },
{ "type": "Feature", "properties": { "name": "l'Étang Neuf", "category": "Reservoir", "area_ha": 7.2, "altitude_m": null }, "geometry": { "type": "Point", "coordinates": [ 1.22156, 46.68537 ] } },
{ "type": "Feature", "properties": { "name": "Étang Borgne", "category": "Reservoir", "area_ha": 9.5, "altitude_m": null }, "geometry": { "type": "Point", "coordinates": [ 1.75917, 46.47228 ] } },
{ "type": "Feature", "properties": { "name": "Plan d'Eau de la Presle", "category": "Reservoir", "area_ha": 5.5, "altitude_m": null }, "geometry": { "type": "Point", "coordinates": [ 2.09933, 47.00182 ] } },
{ "type": "Feature", "properties": { "name": "Unnamed", "category": "Reservoir", "area_ha": 5.2, "altitude_m": null }, "geometry": { "type": "Point", "coordinates": [ 1.19559, 46.84453 ] } },
{ "type": "Feature", "properties": { "name": "Étang Chat", "category": "Reservoir", "area_ha": 6.7, "altitude_m": null }, "geometry": { "type": "Point", "coordinates": [ 1.14472, 46.71862 ] } },
{ "type": "Feature", "properties": { "name": "Étang de Nioron", "category": "Reservoir", "area_ha": 7.4, "altitude_m": null }, "geometry": { "type": "Point", "coordinates": [ 1.3339, 46.79831 ] } },
{ "type": "Feature", "properties": { "name": "Unnamed", "category": "Reservoir", "area_ha": 10.0, "altitude_m": null }, "geometry": { "type": "Point", "coordinates": [ 1.18305, 46.77938 ] } },
{ "type": "Feature", "properties": { "name": "Unnamed", "category": "Reservoir", "area_ha": 16.6, "altitude_m": null }, "geometry": { "type": "Point", "coordinates": [ 1.27686, 46.80861 ] } },
{ "type": "Feature", "properties": { "name": "Étang des Grandes Fourdines", "category": "Reservoir", "area_ha": 66.5, "altitude_m": null }, "geometry": { "type": "Point", "coordinates": [ 1.2161, 46.65288 ] } },
{ "type": "Feature", "properties": { "name": "l'Enfer", "category": "Reservoir", "area_ha": 38.6, "altitude_m": null }, "geometry": { "type": "Point", "coordinates": [ 1.17525, 46.82751 ] } },
{ "type": "Feature", "properties": { "name": "Unnamed", "category": "Reservoir", "area_ha": 16.4, "altitude_m": null }, "geometry": { "type": "Point", "coordinates": [ 1.32719, 46.76868 ] } },
{ "type": "Feature", "properties": { "name": "Étang Rousseau", "category": "Reservoir", "area_ha": 6.4, "altitude_m": null }, "geometry": { "type": "Point", "coordinates": [ 1.38336, 46.7135 ] } },
{ "type": "Feature", "properties": { "name": "les Ballastières", "category": "Reservoir", "area_ha": 6.4, "altitude_m": null }, "geometry": { "type": "Point", "coordinates": [ 1.62855, 46.80913 ] } },
{ "type": "Feature", "properties": { "name": "Étang Neuf ou des Jourdineries", "category": "Reservoir", "area_ha": 41.6, "altitude_m": null }, "geometry": { "type": "Point", "coordinates": [ 1.22684, 46.79792 ] } },
{ "type": "Feature", "properties": { "name": "Unnamed", "category": "Reservoir", "area_ha": 17.0, "altitude_m": null }, "geometry": { "type": "Point", "coordinates": [ 1.25099, 46.67387 ] } },
{ "type": "Feature", "properties": { "name": "Unnamed", "category": "Reservoir", "area_ha": 6.7, "altitude_m": null }, "geometry": { "type": "Point", "coordinates": [ 1.19644, 46.71912 ] } },
{ "type": "Feature", "properties": { "name": "Unnamed", "category": "Reservoir", "area_ha": 23.4, "altitude_m": null }, "geometry": { "type": "Point", "coordinates": [ 1.31028, 46.71098 ] } },
{ "type": "Feature", "properties": { "name": "Unnamed", "category": "Reservoir", "area_ha": 5.6, "altitude_m": null }, "geometry": { "type": "Point", "coordinates": [ 1.10086, 46.74202 ] } },
{ "type": "Feature", "properties": { "name": "Étang de la Morandière", "category": "Reservoir", "area_ha": 8.6, "altitude_m": null }, "geometry": { "type": "Point", "coordinates": [ 1.40286, 46.79469 ] } },
{ "type": "Feature", "properties": { "name": "le Grand Plancher", "category": "Reservoir", "area_ha": 11.1, "altitude_m": null }, "geometry": { "type": "Point", "coordinates": [ 1.24626, 46.78909 ] } },
{ "type": "Feature", "properties": { "name": "les Verneries", "category": "Reservoir", "area_ha": 23.0, "altitude_m": null }, "geometry": { "type": "Point", "coordinates": [ 1.22029, 46.80047 ] } },
{ "type": "Feature", "properties": { "name": "Étang du Couvent", "category": "Reservoir", "area_ha": 40.8, "altitude_m": null }, "geometry": { "type": "Point", "coordinates": [ 1.19559, 46.7989 ] } },
{ "type": "Feature", "properties": { "name": "Étang de la Sous", "category": "Reservoir", "area_ha": 29.4, "altitude_m": null }, "geometry": { "type": "Point", "coordinates": [ 1.17767, 46.79775 ] } },
{ "type": "Feature", "properties": { "name": "Étang de la Métairie", "category": "Reservoir", "area_ha": 10.1, "altitude_m": null }, "geometry": { "type": "Point", "coordinates": [ 1.25028, 46.78387 ] } },
{ "type": "Feature", "properties": { "name": "Étang des Ardennes", "category": "Reservoir", "area_ha": 18.2, "altitude_m": null }, "geometry": { "type": "Point", "coordinates": [ 1.28747, 46.77797 ] } },
{ "type": "Feature", "properties": { "name": "Étangs des Rondières", "category": "Reservoir", "area_ha": 6.7, "altitude_m": null }, "geometry": { "type": "Point", "coordinates": [ 1.23198, 46.78215 ] } },
{ "type": "Feature", "properties": { "name": "Étang des Grandes Patrières", "category": "Reservoir", "area_ha": 10.8, "altitude_m": null }, "geometry": { "type": "Point", "coordinates": [ 1.10186, 46.76079 ] } },
{ "type": "Feature", "properties": { "name": "Étang du Machereau", "category": "Reservoir", "area_ha": 8.1, "altitude_m": null }, "geometry": { "type": "Point", "coordinates": [ 1.2994, 46.7373 ] } },
{ "type": "Feature", "properties": { "name": "Étang d'Écoute-s'il-pleut", "category": "Reservoir", "area_ha": 9.8, "altitude_m": null }, "geometry": { "type": "Point", "coordinates": [ 1.56223, 46.75721 ] } },
{ "type": "Feature", "properties": { "name": "Étang du Bourg", "category": "Reservoir", "area_ha": 5.1, "altitude_m": null }, "geometry": { "type": "Point", "coordinates": [ 1.96221, 46.72623 ] } },
{ "type": "Feature", "properties": { "name": "Étang Cormier", "category": "Reservoir", "area_ha": 15.2, "altitude_m": null }, "geometry": { "type": "Point", "coordinates": [ 1.55569, 46.75344 ] } },
{ "type": "Feature", "properties": { "name": "Étang du Pied du Tour", "category": "Reservoir", "area_ha": 21.0, "altitude_m": null }, "geometry": { "type": "Point", "coordinates": [ 1.25183, 46.74502 ] } },
{ "type": "Feature", "properties": { "name": "Étang Pèchevreau", "category": "Reservoir", "area_ha": 47.1, "altitude_m": null }, "geometry": { "type": "Point", "coordinates": [ 1.23065, 46.75014 ] } },
{ "type": "Feature", "properties": { "name": "Étang du Ralé", "category": "Reservoir", "area_ha": 6.2, "altitude_m": null }, "geometry": { "type": "Point", "coordinates": [ 1.20161, 46.75071 ] } },
{ "type": "Feature", "properties": { "name": "Étang Curé", "category": "Reservoir", "area_ha": 7.3, "altitude_m": null }, "geometry": { "type": "Point", "coordinates": [ 1.28255, 46.69095 ] } },
{ "type": "Feature", "properties": { "name": "Étang du Verdin", "category": "Reservoir", "area_ha": 5.5, "altitude_m": null }, "geometry": { "type": "Point", "coordinates": [ 1.64762, 46.70477 ] } },
{ "type": "Feature", "properties": { "name": "Étang des Brosses", "category": "Reservoir", "area_ha": 5.1, "altitude_m": null }, "geometry": { "type": "Point", "coordinates": [ 1.27611, 46.70649 ] } },
{ "type": "Feature", "properties": { "name": "Étang de Madagascar", "category": "Reservoir", "area_ha": 28.2, "altitude_m": null }, "geometry": { "type": "Point", "coordinates": [ 1.65471, 46.67339 ] } },
{ "type": "Feature", "properties": { "name": "Étang Ex Chèvres", "category": "Reservoir", "area_ha": 14.2, "altitude_m": null }, "geometry": { "type": "Point", "coordinates": [ 1.346, 46.68134 ] } },
{ "type": "Feature", "properties": { "name": "Étang de la Cosse", "category": "Reservoir", "area_ha": 10.1, "altitude_m": null }, "geometry": { "type": "Point", "coordinates": [ 1.32659, 46.67081 ] } },
{ "type": "Feature", "properties": { "name": "Étang Bienfait", "category": "Reservoir", "area_ha": 12.2, "altitude_m": null }, "geometry": { "type": "Point", "coordinates": [ 1.24976, 46.57711 ] } },
{ "type": "Feature", "properties": { "name": "Étang des Bouiges", "category": "Reservoir", "area_ha": 14.8, "altitude_m": null }, "geometry": { "type": "Point", "coordinates": [ 1.35893, 46.71224 ] } },
{ "type": "Feature", "properties": { "name": "Étang du Latté", "category": "Reservoir", "area_ha": 12.5, "altitude_m": null }, "geometry": { "type": "Point", "coordinates": [ 1.33617, 46.68773 ] } },
{ "type": "Feature", "properties": { "name": "Unnamed", "category": "Reservoir", "area_ha": 5.4, "altitude_m": null }, "geometry": { "type": "Point", "coordinates": [ 1.2521, 46.81557 ] } },
{ "type": "Feature", "properties": { "name": "Étang du Grand Greffier", "category": "Reservoir", "area_ha": 8.1, "altitude_m": null }, "geometry": { "type": "Point", "coordinates": [ 1.31208, 46.6608 ] } },
{ "type": "Feature", "properties": { "name": "Unnamed", "category": "Reservoir", "area_ha": 5.5, "altitude_m": null }, "geometry": { "type": "Point", "coordinates": [ 1.17114, 46.77953 ] } },
{ "type": "Feature", "properties": { "name": "Étang de Pontali", "category": "Reservoir", "area_ha": 7.1, "altitude_m": null }, "geometry": { "type": "Point", "coordinates": [ 1.27056, 46.71544 ] } },
{ "type": "Feature", "properties": { "name": "Unnamed", "category": "Reservoir", "area_ha": 5.8, "altitude_m": null }, "geometry": { "type": "Point", "coordinates": [ 1.13552, 46.75317 ] } },
{ "type": "Feature", "properties": { "name": "Unnamed", "category": "Reservoir", "area_ha": 6.4, "altitude_m": null }, "geometry": { "type": "Point", "coordinates": [ 1.21498, 46.79669 ] } },
{ "type": "Feature", "properties": { "name": "Unnamed", "category": "Reservoir", "area_ha": 12.4, "altitude_m": null }, "geometry": { "type": "Point", "coordinates": [ 1.34816, 46.73049 ] } },
{ "type": "Feature", "properties": { "name": "Unnamed", "category": "Reservoir", "area_ha": 7.3, "altitude_m": null }, "geometry": { "type": "Point", "coordinates": [ 1.09094, 46.76204 ] } },
{ "type": "Feature", "properties": { "name": "Unnamed", "category": "Reservoir", "area_ha": 5.9, "altitude_m": null }, "geometry": { "type": "Point", "coordinates": [ 1.53743, 46.75288 ] } },
{ "type": "Feature", "properties": { "name": "Unnamed", "category": "Reservoir", "area_ha": 12.3, "altitude_m": null }, "geometry": { "type": "Point", "coordinates": [ 1.09055, 46.7543 ] } },
{ "type": "Feature", "properties": { "name": "Unnamed", "category": "Reservoir", "area_ha": 25.6, "altitude_m": null }, "geometry": { "type": "Point", "coordinates": [ 1.30365, 46.85022 ] } },
{ "type": "Feature", "properties": { "name": "Unnamed", "category": "Reservoir", "area_ha": 5.5, "altitude_m": null }, "geometry": { "type": "Point", "coordinates": [ 1.45741, 46.75783 ] } },
{ "type": "Feature", "properties": { "name": "Unnamed", "category": "Reservoir", "area_ha": 5.8, "altitude_m": null }, "geometry": { "type": "Point", "coordinates": [ 1.21437, 46.72626 ] } },
{ "type": "Feature", "properties": { "name": "Unnamed", "category": "Reservoir", "area_ha": 11.2, "altitude_m": null }, "geometry": { "type": "Point", "coordinates": [ 1.53789, 46.75588 ] } },
{ "type": "Feature", "properties": { "name": "Étang Buzon", "category": "Reservoir", "area_ha": 7.0, "altitude_m": null }, "geometry": { "type": "Point", "coordinates": [ 1.64172, 46.67088 ] } },
{ "type": "Feature", "properties": { "name": "Unnamed", "category": "Reservoir", "area_ha": 6.6, "altitude_m": null }, "geometry": { "type": "Point", "coordinates": [ 1.17358, 46.80231 ] } },
{ "type": "Feature", "properties": { "name": "Unnamed", "category": "Reservoir", "area_ha": 10.1, "altitude_m": null }, "geometry": { "type": "Point", "coordinates": [ 1.29311, 46.77267 ] } },
{ "type": "Feature", "properties": { "name": "Étang la Vallée", "category": "Reservoir", "area_ha": 6.4, "altitude_m": null }, "geometry": { "type": "Point", "coordinates": [ 1.16248, 46.86444 ] } },
{ "type": "Feature", "properties": { "name": "Étang des Fontenelles", "category": "Reservoir", "area_ha": 12.9, "altitude_m": null }, "geometry": { "type": "Point", "coordinates": [ 1.32117, 46.68079 ] } },
{ "type": "Feature", "properties": { "name": "Unnamed", "category": "Reservoir", "area_ha": 6.7, "altitude_m": null }, "geometry": { "type": "Point", "coordinates": [ 1.38486, 46.9701 ] } },
{ "type": "Feature", "properties": { "name": "Unnamed", "category": "Reservoir", "area_ha": 8.0, "altitude_m": null }, "geometry": { "type": "Point", "coordinates": [ 1.81531, 46.69401 ] } },
{ "type": "Feature", "properties": { "name": "Unnamed", "category": "Reservoir", "area_ha": 5.3, "altitude_m": null }, "geometry": { "type": "Point", "coordinates": [ 1.27571, 46.73384 ] } },
{ "type": "Feature", "properties": { "name": "Unnamed", "category": "Reservoir", "area_ha": 11.9, "altitude_m": null }, "geometry": { "type": "Point", "coordinates": [ 1.18015, 46.83553 ] } },
{ "type": "Feature", "properties": { "name": "Étang des Pinassières", "category": "Reservoir", "area_ha": 9.8, "altitude_m": null }, "geometry": { "type": "Point", "coordinates": [ 1.82526, 46.69028 ] } },
{ "type": "Feature", "properties": { "name": "Unnamed", "category": "Reservoir", "area_ha": 7.0, "altitude_m": null }, "geometry": { "type": "Point", "coordinates": [ 1.29031, 46.80223 ] } },
{ "type": "Feature", "properties": { "name": "Étang Foucault", "category": "Reservoir", "area_ha": 12.5, "altitude_m": null }, "geometry": { "type": "Point", "coordinates": [ 1.23173, 46.72524 ] } },
{ "type": "Feature", "properties": { "name": "Unnamed", "category": "Reservoir", "area_ha": 8.8, "altitude_m": null }, "geometry": { "type": "Point", "coordinates": [ 1.6512, 47.06129 ] } },
{ "type": "Feature", "properties": { "name": "Unnamed", "category": "Reservoir", "area_ha": 10.6, "altitude_m": null }, "geometry": { "type": "Point", "coordinates": [ 1.35528, 46.72602 ] } },
{ "type": "Feature", "properties": { "name": "Unnamed", "category": "Reservoir", "area_ha": 5.1, "altitude_m": null }, "geometry": { "type": "Point", "coordinates": [ 1.23471, 46.77053 ] } },
{ "type": "Feature", "properties": { "name": "Unnamed", "category": "Reservoir", "area_ha": 7.8, "altitude_m": null }, "geometry": { "type": "Point", "coordinates": [ 1.28424, 46.78063 ] } },
{ "type": "Feature", "properties": { "name": "Unnamed", "category": "Reservoir", "area_ha": 9.8, "altitude_m": null }, "geometry": { "type": "Point", "coordinates": [ 1.28756, 46.82137 ] } },
{ "type": "Feature", "properties": { "name": "Unnamed", "category": "Reservoir", "area_ha": 6.2, "altitude_m": null }, "geometry": { "type": "Point", "coordinates": [ 1.54972, 46.7531 ] } },
{ "type": "Feature", "properties": { "name": "Étang Duris", "category": "Reservoir", "area_ha": 23.5, "altitude_m": null }, "geometry": { "type": "Point", "coordinates": [ 1.57658, 46.72365 ] } },
{ "type": "Feature", "properties": { "name": "Étang Baron", "category": "Reservoir", "area_ha": 6.7, "altitude_m": null }, "geometry": { "type": "Point", "coordinates": [ 1.37652, 46.88966 ] } },
{ "type": "Feature", "properties": { "name": "Étang de la Touchette", "category": "Reservoir", "area_ha": 5.5, "altitude_m": null }, "geometry": { "type": "Point", "coordinates": [ 1.36334, 46.84655 ] } },
{ "type": "Feature", "properties": { "name": "les Bourres", "category": "Reservoir", "area_ha": 9.1, "altitude_m": null }, "geometry": { "type": "Point", "coordinates": [ 1.2499, 46.801 ] } },
{ "type": "Feature", "properties": { "name": "Étang des Vigneaux", "category": "Reservoir", "area_ha": 62.4, "altitude_m": null }, "geometry": { "type": "Point", "coordinates": [ 1.27126, 46.77364 ] } },
{ "type": "Feature", "properties": { "name": "Étang de la Loge", "category": "Reservoir", "area_ha": 10.3, "altitude_m": null }, "geometry": { "type": "Point", "coordinates": [ 1.23799, 46.78472 ] } },
{ "type": "Feature", "properties": { "name": "Étang Bénisme", "category": "Reservoir", "area_ha": 14.6, "altitude_m": null }, "geometry": { "type": "Point", "coordinates": [ 1.23203, 46.72911 ] } },
{ "type": "Feature", "properties": { "name": "Unnamed", "category": "Reservoir", "area_ha": 8.0, "altitude_m": null }, "geometry": { "type": "Point", "coordinates": [ 1.12902, 46.72053 ] } },
{ "type": "Feature", "properties": { "name": "Unnamed", "category": "Reservoir", "area_ha": 7.6, "altitude_m": null }, "geometry": { "type": "Point", "coordinates": [ 1.46449, 46.746 ] } },
{ "type": "Feature", "properties": { "name": "Étang de l'Île", "category": "Reservoir", "area_ha": 22.4, "altitude_m": null }, "geometry": { "type": "Point", "coordinates": [ 1.14158, 46.90529 ] } },
{ "type": "Feature", "properties": { "name": "Unnamed", "category": "Reservoir", "area_ha": 6.9, "altitude_m": null }, "geometry": { "type": "Point", "coordinates": [ 1.1784, 46.91159 ] } },
{ "type": "Feature", "properties": { "name": "Étang de l'Ardonnière", "category": "Reservoir", "area_ha": 19.9, "altitude_m": null }, "geometry": { "type": "Point", "coordinates": [ 1.1575, 46.77587 ] } },
{ "type": "Feature", "properties": { "name": "Étang des Chaumes", "category": "Reservoir", "area_ha": 7.6, "altitude_m": null }, "geometry": { "type": "Point", "coordinates": [ 1.1821, 46.67526 ] } },
{ "type": "Feature", "properties": { "name": "Unnamed", "category": "Reservoir", "area_ha": 5.9, "altitude_m": null }, "geometry": { "type": "Point", "coordinates": [ 1.21382, 46.65735 ] } },
{ "type": "Feature", "properties": { "name": "Unnamed", "category": "Reservoir", "area_ha": 6.6, "altitude_m": null }, "geometry": { "type": "Point", "coordinates": [ 1.4223, 46.71718 ] } },
{ "type": "Feature", "properties": { "name": "Unnamed", "category": "Reservoir", "area_ha": 9.5, "altitude_m": null }, "geometry": { "type": "Point", "coordinates": [ 1.31329, 46.7541 ] } },
{ "type": "Feature", "properties": { "name": "Étang de Bois Dion", "category": "Reservoir", "area_ha": 22.1, "altitude_m": null }, "geometry": { "type": "Point", "coordinates": [ 1.26622, 46.73743 ] } },
{ "type": "Feature", "properties": { "name": "Unnamed", "category": "Reservoir", "area_ha": 5.8, "altitude_m": null }, "geometry": { "type": "Point", "coordinates": [ 1.25648, 46.77455 ] } },
{ "type": "Feature", "properties": { "name": "Unnamed", "category": "Reservoir", "area_ha": 5.4, "altitude_m": null }, "geometry": { "type": "Point", "coordinates": [ 1.34114, 46.70855 ] } },
{ "type": "Feature", "properties": { "name": "Étang des Tourneix", "category": "Reservoir", "area_ha": 9.5, "altitude_m": null }, "geometry": { "type": "Point", "coordinates": [ 1.58104, 46.75357 ] } },
{ "type": "Feature", "properties": { "name": "Unnamed", "category": "Reservoir", "area_ha": 26.6, "altitude_m": null }, "geometry": { "type": "Point", "coordinates": [ 1.26294, 46.65955 ] } },
{ "type": "Feature", "properties": { "name": "Étang de Fond Rouge", "category": "Reservoir", "area_ha": 19.2, "altitude_m": null }, "geometry": { "type": "Point", "coordinates": [ 1.25831, 46.68028 ] } },
{ "type": "Feature", "properties": { "name": "Unnamed", "category": "Reservoir", "area_ha": 8.8, "altitude_m": null }, "geometry": { "type": "Point", "coordinates": [ 1.3143, 46.71308 ] } },
{ "type": "Feature", "properties": { "name": "Unnamed", "category": "Reservoir", "area_ha": 11.1, "altitude_m": null }, "geometry": { "type": "Point", "coordinates": [ 1.21957, 46.69029 ] } },
{ "type": "Feature", "properties": { "name": "Unnamed", "category": "Reservoir", "area_ha": 5.9, "altitude_m": null }, "geometry": { "type": "Point", "coordinates": [ 1.2079, 46.73456 ] } },
{ "type": "Feature", "properties": { "name": "Étang des Effes", "category": "Reservoir", "area_ha": 8.7, "altitude_m": null }, "geometry": { "type": "Point", "coordinates": [ 1.2654, 46.83551 ] } },
{ "type": "Feature", "properties": { "name": "Unnamed", "category": "Reservoir", "area_ha": 6.2, "altitude_m": null }, "geometry": { "type": "Point", "coordinates": [ 1.53477, 46.7598 ] } },
{ "type": "Feature", "properties": { "name": "Unnamed", "category": "Reservoir", "area_ha": 8.0, "altitude_m": null }, "geometry": { "type": "Point", "coordinates": [ 1.29268, 46.80361 ] } },
{ "type": "Feature", "properties": { "name": "Unnamed", "category": "Reservoir", "area_ha": 6.0, "altitude_m": null }, "geometry": { "type": "Point", "coordinates": [ 1.1876, 46.78925 ] } },
{ "type": "Feature", "properties": { "name": "Unnamed", "category": "Reservoir", "area_ha": 7.8, "altitude_m": null }, "geometry": { "type": "Point", "coordinates": [ 1.12987, 46.70676 ] } },
{ "type": "Feature", "properties": { "name": "Unnamed", "category": "Reservoir", "area_ha": 10.1, "altitude_m": null }, "geometry": { "type": "Point", "coordinates": [ 1.28286, 46.78905 ] } },
{ "type": "Feature", "properties": { "name": "Étang Cerisier", "category": "Reservoir", "area_ha": 8.7, "altitude_m": null }, "geometry": { "type": "Point", "coordinates": [ 1.16475, 46.68347 ] } },
{ "type": "Feature", "properties": { "name": "l'Étang Neuf", "category": "Reservoir", "area_ha": 6.2, "altitude_m": null }, "geometry": { "type": "Point", "coordinates": [ 1.07684, 46.78647 ] } },
{ "type": "Feature", "properties": { "name": "Unnamed", "category": "Reservoir", "area_ha": 13.3, "altitude_m": null }, "geometry": { "type": "Point", "coordinates": [ 1.22377, 46.68987 ] } },
{ "type": "Feature", "properties": { "name": "Étang de Chabenet", "category": "Reservoir", "area_ha": 8.5, "altitude_m": null }, "geometry": { "type": "Point", "coordinates": [ 1.5603, 46.67408 ] } },
{ "type": "Feature", "properties": { "name": "Étang de Monmélier", "category": "Reservoir", "area_ha": 30.4, "altitude_m": null }, "geometry": { "type": "Point", "coordinates": [ 1.20154, 46.7841 ] } },
{ "type": "Feature", "properties": { "name": "Unnamed", "category": "Reservoir", "area_ha": 5.7, "altitude_m": null }, "geometry": { "type": "Point", "coordinates": [ 1.24842, 46.67071 ] } },
{ "type": "Feature", "properties": { "name": "Étang Bisset", "category": "Reservoir", "area_ha": 8.8, "altitude_m": null }, "geometry": { "type": "Point", "coordinates": [ 1.19424, 46.76522 ] } },
{ "type": "Feature", "properties": { "name": "Unnamed", "category": "Reservoir", "area_ha": 11.7, "altitude_m": null }, "geometry": { "type": "Point", "coordinates": [ 1.18452, 46.80799 ] } },
{ "type": "Feature", "properties": { "name": "Unnamed", "category": "Reservoir", "area_ha": 6.9, "altitude_m": null }, "geometry": { "type": "Point", "coordinates": [ 1.29671, 46.69225 ] } },
{ "type": "Feature", "properties": { "name": "Unnamed", "category": "Reservoir", "area_ha": 12.2, "altitude_m": null }, "geometry": { "type": "Point", "coordinates": [ 1.38019, 46.86483 ] } },
{ "type": "Feature", "properties": { "name": "Unnamed", "category": "Reservoir", "area_ha": 13.0, "altitude_m": null }, "geometry": { "type": "Point", "coordinates": [ 1.18114, 46.74716 ] } },
{ "type": "Feature", "properties": { "name": "Étang des Frênes", "category": "Reservoir", "area_ha": 7.2, "altitude_m": null }, "geometry": { "type": "Point", "coordinates": [ 1.89694, 47.06114 ] } },
{ "type": "Feature", "properties": { "name": "Unnamed", "category": "Reservoir", "area_ha": 12.7, "altitude_m": null }, "geometry": { "type": "Point", "coordinates": [ 1.92174, 46.4773 ] } },
{ "type": "Feature", "properties": { "name": "Unnamed", "category": "Reservoir", "area_ha": 7.2, "altitude_m": null }, "geometry": { "type": "Point", "coordinates": [ 1.20107, 46.72778 ] } },
{ "type": "Feature", "properties": { "name": "Étang de Corbette", "category": "Reservoir", "area_ha": 7.4, "altitude_m": null }, "geometry": { "type": "Point", "coordinates": [ 1.25995, 46.7055 ] } },
{ "type": "Feature", "properties": { "name": "Unnamed", "category": "Reservoir", "area_ha": 9.8, "altitude_m": null }, "geometry": { "type": "Point", "coordinates": [ 1.71454, 46.53071 ] } },
{ "type": "Feature", "properties": { "name": "Unnamed", "category": "Reservoir", "area_ha": 5.2, "altitude_m": null }, "geometry": { "type": "Point", "coordinates": [ 1.52254, 46.69498 ] } },
{ "type": "Feature", "properties": { "name": "Étang du Grand Brun", "category": "Reservoir", "area_ha": 14.1, "altitude_m": null }, "geometry": { "type": "Point", "coordinates": [ 1.32206, 46.77999 ] } },
{ "type": "Feature", "properties": { "name": "Unnamed", "category": "Reservoir", "area_ha": 9.4, "altitude_m": null }, "geometry": { "type": "Point", "coordinates": [ 1.13911, 46.75591 ] } },
{ "type": "Feature", "properties": { "name": "Unnamed", "category": "Reservoir", "area_ha": 6.9, "altitude_m": null }, "geometry": { "type": "Point", "coordinates": [ 1.18267, 46.80613 ] } },
{ "type": "Feature", "properties": { "name": "Unnamed", "category": "Reservoir", "area_ha": 5.7, "altitude_m": null }, "geometry": { "type": "Point", "coordinates": [ 1.10232, 46.81459 ] } },
{ "type": "Feature", "properties": { "name": "Unnamed", "category": "Reservoir", "area_ha": 6.1, "altitude_m": null }, "geometry": { "type": "Point", "coordinates": [ 1.26504, 46.72461 ] } },
{ "type": "Feature", "properties": { "name": "Unnamed", "category": "Reservoir", "area_ha": 5.4, "altitude_m": null }, "geometry": { "type": "Point", "coordinates": [ 1.41474, 46.9549 ] } },
{ "type": "Feature", "properties": { "name": "Unnamed", "category": "Reservoir", "area_ha": 40.5, "altitude_m": null }, "geometry": { "type": "Point", "coordinates": [ 1.13755, 46.77098 ] } },
{ "type": "Feature", "properties": { "name": "Étangs des Justices", "category": "Reservoir", "area_ha": 13.9, "altitude_m": null }, "geometry": { "type": "Point", "coordinates": [ 1.14391, 46.81042 ] } },
{ "type": "Feature", "properties": { "name": "Étang de la Bataillerie", "category": "Reservoir", "area_ha": 16.8, "altitude_m": null }, "geometry": { "type": "Point", "coordinates": [ 1.67314, 46.67481 ] } },
{ "type": "Feature", "properties": { "name": "Étang les Fontaines", "category": "Reservoir", "area_ha": 5.4, "altitude_m": null }, "geometry": { "type": "Point", "coordinates": [ 1.46015, 46.74045 ] } },
{ "type": "Feature", "properties": { "name": "Unnamed", "category": "Reservoir", "area_ha": 16.5, "altitude_m": null }, "geometry": { "type": "Point", "coordinates": [ 1.21673, 46.74656 ] } },
{ "type": "Feature", "properties": { "name": "le Grand Étang", "category": "Reservoir", "area_ha": 21.1, "altitude_m": null }, "geometry": { "type": "Point", "coordinates": [ 1.73453, 46.68701 ] } },
{ "type": "Feature", "properties": { "name": "Étang des Landes", "category": "Reservoir", "area_ha": 11.2, "altitude_m": null }, "geometry": { "type": "Point", "coordinates": [ 1.6913, 46.67533 ] } },
{ "type": "Feature", "properties": { "name": "Unnamed", "category": "Reservoir", "area_ha": 8.0, "altitude_m": null }, "geometry": { "type": "Point", "coordinates": [ 1.65315, 46.71177 ] } },
{ "type": "Feature", "properties": { "name": "le Grand Marcelot", "category": "Reservoir", "area_ha": 5.9, "altitude_m": null }, "geometry": { "type": "Point", "coordinates": [ 1.36442, 46.70132 ] } },
{ "type": "Feature", "properties": { "name": "la Commanderie", "category": "Reservoir", "area_ha": 7.6, "altitude_m": null }, "geometry": { "type": "Point", "coordinates": [ 1.26672, 46.79346 ] } },
{ "type": "Feature", "properties": { "name": "Unnamed", "category": "Reservoir", "area_ha": 9.1, "altitude_m": null }, "geometry": { "type": "Point", "coordinates": [ 1.26796, 46.79968 ] } },
{ "type": "Feature", "properties": { "name": "Lac de Belle Isle", "category": "Reservoir", "area_ha": 8.3, "altitude_m": null }, "geometry": { "type": "Point", "coordinates": [ 1.6927, 46.82647 ] } },
{ "type": "Feature", "properties": { "name": "Étang Capitaine", "category": "Reservoir", "area_ha": 5.9, "altitude_m": null }, "geometry": { "type": "Point", "coordinates": [ 1.20995, 46.72512 ] } },
{ "type": "Feature", "properties": { "name": "Étang des Essarts", "category": "Reservoir", "area_ha": 7.9, "altitude_m": null }, "geometry": { "type": "Point", "coordinates": [ 1.18872, 46.79116 ] } },
{ "type": "Feature", "properties": { "name": "Étang d'Eau", "category": "Reservoir", "area_ha": 19.8, "altitude_m": null }, "geometry": { "type": "Point", "coordinates": [ 1.24385, 46.66517 ] } },
{ "type": "Feature", "properties": { "name": "Étang du Moury", "category": "Reservoir", "area_ha": 27.2, "altitude_m": null }, "geometry": { "type": "Point", "coordinates": [ 1.15357, 46.82587 ] } },
{ "type": "Feature", "properties": { "name": "Unnamed", "category": "Reservoir", "area_ha": 8.8, "altitude_m": null }, "geometry": { "type": "Point", "coordinates": [ 1.13125, 46.73684 ] } },
{ "type": "Feature", "properties": { "name": "Étang de Chéroneuf", "category": "Reservoir", "area_ha": 18.5, "altitude_m": null }, "geometry": { "type": "Point", "coordinates": [ 1.28412, 46.74431 ] } },
{ "type": "Feature", "properties": { "name": "Unnamed", "category": "Reservoir", "area_ha": 5.2, "altitude_m": null }, "geometry": { "type": "Point", "coordinates": [ 1.16914, 46.74527 ] } },
{ "type": "Feature", "properties": { "name": "Unnamed", "category": "Reservoir", "area_ha": 6.3, "altitude_m": null }, "geometry": { "type": "Point", "coordinates": [ 1.24561, 46.78382 ] } },
{ "type": "Feature", "properties": { "name": "Étang de la Vernusse", "category": "Reservoir", "area_ha": 8.3, "altitude_m": null }, "geometry": { "type": "Point", "coordinates": [ 1.73183, 47.15979 ] } },
{ "type": "Feature", "properties": { "name": "le Grand Étang", "category": "Reservoir", "area_ha": 8.4, "altitude_m": null }, "geometry": { "type": "Point", "coordinates": [ 1.03882, 46.78188 ] } },
{ "type": "Feature", "properties": { "name": "Étang Berluet", "category": "Reservoir", "area_ha": 7.2, "altitude_m": null }, "geometry": { "type": "Point", "coordinates": [ 1.12336, 46.76046 ] } },
{ "type": "Feature", "properties": { "name": "Étang Sabré", "category": "Reservoir", "area_ha": 7.3, "altitude_m": null }, "geometry": { "type": "Point", "coordinates": [ 1.36063, 47.16106 ] } },
{ "type": "Feature", "properties": { "name": "Étang Joulin", "category": "Reservoir", "area_ha": 7.5, "altitude_m": null }, "geometry": { "type": "Point", "coordinates": [ 1.54313, 47.00497 ] } },
{ "type": "Feature", "properties": { "name": "Étang de la Grave", "category": "Reservoir", "area_ha": 11.1, "altitude_m": null }, "geometry": { "type": "Point", "coordinates": [ 1.27036, 46.85061 ] } },
{ "type": "Feature", "properties": { "name": "Étang Grivé", "category": "Reservoir", "area_ha": 7.2, "altitude_m": null }, "geometry": { "type": "Point", "coordinates": [ 1.32753, 46.83576 ] } },
{ "type": "Feature", "properties": { "name": "Étang de Notz", "category": "Reservoir", "area_ha": 22.6, "altitude_m": null }, "geometry": { "type": "Point", "coordinates": [ 1.23192, 46.87184 ] } },
{ "type": "Feature", "properties": { "name": "Étang Philippe", "category": "Reservoir", "area_ha": 5.6, "altitude_m": null }, "geometry": { "type": "Point", "coordinates": [ 1.18712, 46.82076 ] } },
{ "type": "Feature", "properties": { "name": "la Bonde en Fer", "category": "Reservoir", "area_ha": 6.5, "altitude_m": null }, "geometry": { "type": "Point", "coordinates": [ 1.2748, 46.79627 ] } },
{ "type": "Feature", "properties": { "name": "Étang de la Tournancière", "category": "Reservoir", "area_ha": 5.4, "altitude_m": null }, "geometry": { "type": "Point", "coordinates": [ 1.42215, 46.81035 ] } },
{ "type": "Feature", "properties": { "name": "Étang de Berge", "category": "Reservoir", "area_ha": 21.3, "altitude_m": null }, "geometry": { "type": "Point", "coordinates": [ 1.12546, 46.84122 ] } },
{ "type": "Feature", "properties": { "name": "Étang des Baudets", "category": "Reservoir", "area_ha": 18.5, "altitude_m": null }, "geometry": { "type": "Point", "coordinates": [ 1.2766, 46.79171 ] } },
{ "type": "Feature", "properties": { "name": "Étang du Liseré", "category": "Reservoir", "area_ha": 7.1, "altitude_m": null }, "geometry": { "type": "Point", "coordinates": [ 1.27046, 46.76027 ] } },
{ "type": "Feature", "properties": { "name": "le Bois Martin", "category": "Reservoir", "area_ha": 21.7, "altitude_m": null }, "geometry": { "type": "Point", "coordinates": [ 1.23708, 46.80548 ] } },
{ "type": "Feature", "properties": { "name": "Étang de Piégu", "category": "Reservoir", "area_ha": 77.8, "altitude_m": null }, "geometry": { "type": "Point", "coordinates": [ 1.26339, 46.80699 ] } },
{ "type": "Feature", "properties": { "name": "Étang Buret", "category": "Reservoir", "area_ha": 13.2, "altitude_m": null }, "geometry": { "type": "Point", "coordinates": [ 1.21192, 46.76055 ] } },
{ "type": "Feature", "properties": { "name": "Étang Cistude", "category": "Reservoir", "area_ha": 13.1, "altitude_m": null }, "geometry": { "type": "Point", "coordinates": [ 1.19999, 46.79269 ] } },
{ "type": "Feature", "properties": { "name": "Étang de Pruniers", "category": "Reservoir", "area_ha": 13.0, "altitude_m": null }, "geometry": { "type": "Point", "coordinates": [ 2.04971, 46.77679 ] } },
{ "type": "Feature", "properties": { "name": "Étang de la Cure", "category": "Reservoir", "area_ha": 6.5, "altitude_m": null }, "geometry": { "type": "Point", "coordinates": [ 1.30325, 46.76737 ] } },
{ "type": "Feature", "properties": { "name": "Étang Siméon", "category": "Reservoir", "area_ha": 12.8, "altitude_m": null }, "geometry": { "type": "Point", "coordinates": [ 1.24067, 46.77293 ] } },
{ "type": "Feature", "properties": { "name": "Étang Fontenette", "category": "Reservoir", "area_ha": 6.5, "altitude_m": null }, "geometry": { "type": "Point", "coordinates": [ 1.17484, 46.68004 ] } },
{ "type": "Feature", "properties": { "name": "Étang des Traits", "category": "Reservoir", "area_ha": 12.6, "altitude_m": null }, "geometry": { "type": "Point", "coordinates": [ 1.57645, 46.75495 ] } },
{ "type": "Feature", "properties": { "name": "Étang de Fosse Noire", "category": "Reservoir", "area_ha": 49.0, "altitude_m": null }, "geometry": { "type": "Point", "coordinates": [ 1.36538, 46.74817 ] } },
{ "type": "Feature", "properties": { "name": "Étang de Pisse-Loup", "category": "Reservoir", "area_ha": 12.2, "altitude_m": null }, "geometry": { "type": "Point", "coordinates": [ 1.32351, 46.74458 ] } },
{ "type": "Feature", "properties": { "name": "Étang du Chêne de Travers", "category": "Reservoir", "area_ha": 7.0, "altitude_m": null }, "geometry": { "type": "Point", "coordinates": [ 1.31119, 46.7519 ] } },
{ "type": "Feature", "properties": { "name": "la Planche à la Bonne", "category": "Reservoir", "area_ha": 8.6, "altitude_m": null }, "geometry": { "type": "Point", "coordinates": [ 1.32611, 46.73072 ] } },
{ "type": "Feature", "properties": { "name": "Étang de la Folie", "category": "Reservoir", "area_ha": 25.0, "altitude_m": null }, "geometry": { "type": "Point", "coordinates": [ 1.28666, 46.7377 ] } },
{ "type": "Feature", "properties": { "name": "Étang Pennetier", "category": "Reservoir", "area_ha": 7.3, "altitude_m": null }, "geometry": { "type": "Point", "coordinates": [ 1.28906, 46.75267 ] } },
{ "type": "Feature", "properties": { "name": "Étang des Roseaux", "category": "Reservoir", "area_ha": 7.0, "altitude_m": null }, "geometry": { "type": "Point", "coordinates": [ 1.2936, 46.73571 ] } },
{ "type": "Feature", "properties": { "name": "Étang des Épinettes", "category": "Reservoir", "area_ha": 24.5, "altitude_m": null }, "geometry": { "type": "Point", "coordinates": [ 1.22526, 46.75767 ] } },
{ "type": "Feature", "properties": { "name": "Étang de Maurepos", "category": "Reservoir", "area_ha": 5.5, "altitude_m": null }, "geometry": { "type": "Point", "coordinates": [ 1.39857, 46.69367 ] } },
{ "type": "Feature", "properties": { "name": "Étang Bâtard", "category": "Reservoir", "area_ha": 10.9, "altitude_m": null }, "geometry": { "type": "Point", "coordinates": [ 1.22526, 46.73212 ] } },
{ "type": "Feature", "properties": { "name": "Étang Perculeux", "category": "Reservoir", "area_ha": 10.6, "altitude_m": null }, "geometry": { "type": "Point", "coordinates": [ 1.20503, 46.74767 ] } },
{ "type": "Feature", "properties": { "name": "Étang de Baillaly", "category": "Reservoir", "area_ha": 9.0, "altitude_m": null }, "geometry": { "type": "Point", "coordinates": [ 1.39185, 46.71043 ] } },
{ "type": "Feature", "properties": { "name": "Étang de l'Ègue Froide", "category": "Reservoir", "area_ha": 8.3, "altitude_m": null }, "geometry": { "type": "Point", "coordinates": [ 1.37457, 46.7234 ] } },
{ "type": "Feature", "properties": { "name": "le Coudray", "category": "Reservoir", "area_ha": 19.1, "altitude_m": null }, "geometry": { "type": "Point", "coordinates": [ 1.33788, 46.71813 ] } },
{ "type": "Feature", "properties": { "name": "les Cures", "category": "Reservoir", "area_ha": 7.3, "altitude_m": null }, "geometry": { "type": "Point", "coordinates": [ 1.30862, 46.72209 ] } },
{ "type": "Feature", "properties": { "name": "Étang de Charpentesse", "category": "Reservoir", "area_ha": 17.5, "altitude_m": null }, "geometry": { "type": "Point", "coordinates": [ 1.29412, 46.72572 ] } },
{ "type": "Feature", "properties": { "name": "Étang Thomas", "category": "Reservoir", "area_ha": 9.4, "altitude_m": null }, "geometry": { "type": "Point", "coordinates": [ 1.2259, 46.72096 ] } },
{ "type": "Feature", "properties": { "name": "Étang l'Ajonc", "category": "Reservoir", "area_ha": 8.2, "altitude_m": null }, "geometry": { "type": "Point", "coordinates": [ 1.65685, 46.68596 ] } },
{ "type": "Feature", "properties": { "name": "Étang de la Garde", "category": "Reservoir", "area_ha": 11.4, "altitude_m": null }, "geometry": { "type": "Point", "coordinates": [ 1.68112, 46.67357 ] } },
{ "type": "Feature", "properties": { "name": "Étang d'Achet", "category": "Reservoir", "area_ha": 14.2, "altitude_m": null }, "geometry": { "type": "Point", "coordinates": [ 1.36019, 46.68408 ] } },
{ "type": "Feature", "properties": { "name": "Étang de la Renaudière", "category": "Reservoir", "area_ha": 8.9, "altitude_m": null }, "geometry": { "type": "Point", "coordinates": [ 1.33474, 46.68176 ] } },
{ "type": "Feature", "properties": { "name": "Étang Peaudeux", "category": "Reservoir", "area_ha": 9.7, "altitude_m": null }, "geometry": { "type": "Point", "coordinates": [ 1.32365, 46.68589 ] } },
{ "type": "Feature", "properties": { "name": "Étang Terrasson", "category": "Reservoir", "area_ha": 10.6, "altitude_m": null }, "geometry": { "type": "Point", "coordinates": [ 1.33215, 46.67426 ] } },
{ "type": "Feature", "properties": { "name": "Étang de la Chopaire", "category": "Reservoir", "area_ha": 16.4, "altitude_m": null }, "geometry": { "type": "Point", "coordinates": [ 1.31535, 46.6783 ] } },
{ "type": "Feature", "properties": { "name": "Étang Mardouin", "category": "Reservoir", "area_ha": 6.1, "altitude_m": null }, "geometry": { "type": "Point", "coordinates": [ 1.2314, 46.68746 ] } },
{ "type": "Feature", "properties": { "name": "Étang des Frères Tondus", "category": "Reservoir", "area_ha": 10.7, "altitude_m": null }, "geometry": { "type": "Point", "coordinates": [ 1.21296, 46.68382 ] } },
{ "type": "Feature", "properties": { "name": "Étang du Coudreau", "category": "Reservoir", "area_ha": 50.5, "altitude_m": null }, "geometry": { "type": "Point", "coordinates": [ 1.25599, 46.69922 ] } },
{ "type": "Feature", "properties": { "name": "Étang des Vignaults", "category": "Reservoir", "area_ha": 8.5, "altitude_m": null }, "geometry": { "type": "Point", "coordinates": [ 1.12544, 46.67155 ] } },
{ "type": "Feature", "properties": { "name": "Étang de Saint-Victor", "category": "Reservoir", "area_ha": 5.4, "altitude_m": null }, "geometry": { "type": "Point", "coordinates": [ 1.1985, 46.64468 ] } },
{ "type": "Feature", "properties": { "name": "le Grand Étang", "category": "Reservoir", "area_ha": 5.7, "altitude_m": null }, "geometry": { "type": "Point", "coordinates": [ 1.76688, 46.62525 ] } },
{ "type": "Feature", "properties": { "name": "Étang de Brenne", "category": "Reservoir", "area_ha": 9.0, "altitude_m": null }, "geometry": { "type": "Point", "coordinates": [ 1.72025, 46.64164 ] } },
{ "type": "Feature", "properties": { "name": "Étang de Fontpart", "category": "Reservoir", "area_ha": 15.1, "altitude_m": null }, "geometry": { "type": "Point", "coordinates": [ 1.67538, 46.62816 ] } },
{ "type": "Feature", "properties": { "name": "Étang Prieur", "category": "Reservoir", "area_ha": 6.0, "altitude_m": null }, "geometry": { "type": "Point", "coordinates": [ 1.14709, 46.58061 ] } },
{ "type": "Feature", "properties": { "name": "Étang de l'Épineau", "category": "Reservoir", "area_ha": 12.5, "altitude_m": null }, "geometry": { "type": "Point", "coordinates": [ 1.17977, 46.61185 ] } },
{ "type": "Feature", "properties": { "name": "Étang Caillaud", "category": "Reservoir", "area_ha": 5.8, "altitude_m": null }, "geometry": { "type": "Point", "coordinates": [ 1.17782, 46.58885 ] } },
{ "type": "Feature", "properties": { "name": "Étang de la Rouère", "category": "Reservoir", "area_ha": 28.5, "altitude_m": null }, "geometry": { "type": "Point", "coordinates": [ 1.1737, 46.60169 ] } },
{ "type": "Feature", "properties": { "name": "Étang Souveau", "category": "Reservoir", "area_ha": 5.5, "altitude_m": null }, "geometry": { "type": "Point", "coordinates": [ 1.16471, 46.58961 ] } },
{ "type": "Feature", "properties": { "name": "Étang du Blanc", "category": "Reservoir", "area_ha": 14.0, "altitude_m": null }, "geometry": { "type": "Point", "coordinates": [ 1.09892, 46.59342 ] } },
{ "type": "Feature", "properties": { "name": "Étang de la Chennerie", "category": "Reservoir", "area_ha": 15.0, "altitude_m": null }, "geometry": { "type": "Point", "coordinates": [ 1.10841, 46.5961 ] } },
{ "type": "Feature", "properties": { "name": "Étang de Landes", "category": "Reservoir", "area_ha": 6.3, "altitude_m": null }, "geometry": { "type": "Point", "coordinates": [ 1.41122, 46.56663 ] } },
{ "type": "Feature", "properties": { "name": "Étang de la Cure", "category": "Reservoir", "area_ha": 8.9, "altitude_m": null }, "geometry": { "type": "Point", "coordinates": [ 1.38185, 46.55692 ] } },
{ "type": "Feature", "properties": { "name": "Étang de Bœuf Mort", "category": "Reservoir", "area_ha": 11.1, "altitude_m": null }, "geometry": { "type": "Point", "coordinates": [ 1.27469, 46.58051 ] } },
{ "type": "Feature", "properties": { "name": "le Grand Étang", "category": "Reservoir", "area_ha": 7.7, "altitude_m": null }, "geometry": { "type": "Point", "coordinates": [ 1.25398, 46.55974 ] } },
{ "type": "Feature", "properties": { "name": "Étang de la Roche Chevreux", "category": "Reservoir", "area_ha": 9.6, "altitude_m": null }, "geometry": { "type": "Point", "coordinates": [ 1.23813, 46.49038 ] } },
{ "type": "Feature", "properties": { "name": "Étang de la Loge", "category": "Reservoir", "area_ha": 16.6, "altitude_m": null }, "geometry": { "type": "Point", "coordinates": [ 1.37968, 46.70901 ] } },
{ "type": "Feature", "properties": { "name": "Unnamed", "category": "Reservoir", "area_ha": 7.7, "altitude_m": null }, "geometry": { "type": "Point", "coordinates": [ 1.1864, 46.83194 ] } },
{ "type": "Feature", "properties": { "name": "Unnamed", "category": "Reservoir", "area_ha": 36.5, "altitude_m": null }, "geometry": { "type": "Point", "coordinates": [ 1.28254, 46.86027 ] } },
{ "type": "Feature", "properties": { "name": "Unnamed", "category": "Reservoir", "area_ha": 5.8, "altitude_m": null }, "geometry": { "type": "Point", "coordinates": [ 1.26224, 46.7786 ] } },
{ "type": "Feature", "properties": { "name": "Unnamed", "category": "Reservoir", "area_ha": 5.2, "altitude_m": null }, "geometry": { "type": "Point", "coordinates": [ 1.26153, 46.62305 ] } },
{ "type": "Feature", "properties": { "name": "Étang des Maquins", "category": "Reservoir", "area_ha": 10.6, "altitude_m": null }, "geometry": { "type": "Point", "coordinates": [ 1.58828, 46.75526 ] } },
{ "type": "Feature", "properties": { "name": "Étang Drait", "category": "Reservoir", "area_ha": 5.8, "altitude_m": null }, "geometry": { "type": "Point", "coordinates": [ 1.13682, 46.58966 ] } },
{ "type": "Feature", "properties": { "name": "Étang Bouteille", "category": "Reservoir", "area_ha": 9.1, "altitude_m": null }, "geometry": { "type": "Point", "coordinates": [ 1.15972, 46.58688 ] } },
{ "type": "Feature", "properties": { "name": "Unnamed", "category": "Reservoir", "area_ha": 13.0, "altitude_m": null }, "geometry": { "type": "Point", "coordinates": [ 1.16181, 46.73142 ] } },
{ "type": "Feature", "properties": { "name": "Étang Fenard", "category": "Reservoir", "area_ha": 11.2, "altitude_m": null }, "geometry": { "type": "Point", "coordinates": [ 1.37921, 46.68127 ] } },
{ "type": "Feature", "properties": { "name": "Unnamed", "category": "Reservoir", "area_ha": 5.8, "altitude_m": null }, "geometry": { "type": "Point", "coordinates": [ 1.45933, 46.74428 ] } },
{ "type": "Feature", "properties": { "name": "Étang du Verbois", "category": "Reservoir", "area_ha": 5.0, "altitude_m": null }, "geometry": { "type": "Point", "coordinates": [ 1.56289, 46.74632 ] } },
{ "type": "Feature", "properties": { "name": "Étang de Grandeffe", "category": "Reservoir", "area_ha": 10.2, "altitude_m": null }, "geometry": { "type": "Point", "coordinates": [ 1.56997, 46.75147 ] } },
{ "type": "Feature", "properties": { "name": "Étang Rebingue", "category": "Reservoir", "area_ha": 18.7, "altitude_m": null }, "geometry": { "type": "Point", "coordinates": [ 1.37021, 46.55507 ] } },
{ "type": "Feature", "properties": { "name": "Étang des Chaumes", "category": "Reservoir", "area_ha": 5.6, "altitude_m": null }, "geometry": { "type": "Point", "coordinates": [ 1.66018, 46.67415 ] } },
{ "type": "Feature", "properties": { "name": "Unnamed", "category": "Reservoir", "area_ha": 20.9, "altitude_m": null }, "geometry": { "type": "Point", "coordinates": [ 1.71827, 47.17792 ] } },
{ "type": "Feature", "properties": { "name": "Unnamed", "category": "Reservoir", "area_ha": 5.2, "altitude_m": null }, "geometry": { "type": "Point", "coordinates": [ 1.37024, 47.14848 ] } },
{ "type": "Feature", "properties": { "name": "Unnamed", "category": "Reservoir", "area_ha": 14.3, "altitude_m": null }, "geometry": { "type": "Point", "coordinates": [ 1.17959, 46.78192 ] } },
{ "type": "Feature", "properties": { "name": "l'Étang Roux", "category": "Reservoir", "area_ha": 11.2, "altitude_m": null }, "geometry": { "type": "Point", "coordinates": [ 1.23101, 46.78792 ] } },
{ "type": "Feature", "properties": { "name": "Étang Robert", "category": "Reservoir", "area_ha": 7.1, "altitude_m": null }, "geometry": { "type": "Point", "coordinates": [ 1.31172, 46.67411 ] } },
{ "type": "Feature", "properties": { "name": "le Grand Riau", "category": "Reservoir", "area_ha": 33.0, "altitude_m": null }, "geometry": { "type": "Point", "coordinates": [ 1.2555, 46.6481 ] } },
{ "type": "Feature", "properties": { "name": "Étang de la Fourdine", "category": "Reservoir", "area_ha": 5.2, "altitude_m": null }, "geometry": { "type": "Point", "coordinates": [ 1.34986, 46.73297 ] } },
{ "type": "Feature", "properties": { "name": "Étang de la Mer", "category": "Reservoir", "area_ha": 6.0, "altitude_m": null }, "geometry": { "type": "Point", "coordinates": [ 1.30332, 46.75488 ] } },
{ "type": "Feature", "properties": { "name": "Unnamed", "category": "Reservoir", "area_ha": 6.8, "altitude_m": null }, "geometry": { "type": "Point", "coordinates": [ 1.2418, 46.78609 ] } },
{ "type": "Feature", "properties": { "name": "Unnamed", "category": "Reservoir", "area_ha": 17.0, "altitude_m": null }, "geometry": { "type": "Point", "coordinates": [ 1.29482, 46.77928 ] } },
{ "type": "Feature", "properties": { "name": "Unnamed", "category": "Reservoir", "area_ha": 6.5, "altitude_m": null }, "geometry": { "type": "Point", "coordinates": [ 1.59613, 47.07228 ] } },
{ "type": "Feature", "properties": { "name": "Étang de la Prévôté", "category": "Reservoir", "area_ha": 7.6, "altitude_m": null }, "geometry": { "type": "Point", "coordinates": [ 1.46414, 46.73601 ] } },
{ "type": "Feature", "properties": { "name": "Étang Ménigault", "category": "Reservoir", "area_ha": 5.4, "altitude_m": null }, "geometry": { "type": "Point", "coordinates": [ 1.45601, 46.73395 ] } },
{ "type": "Feature", "properties": { "name": "Unnamed", "category": "Reservoir", "area_ha": 9.3, "altitude_m": null }, "geometry": { "type": "Point", "coordinates": [ 1.36599, 47.12072 ] } },
{ "type": "Feature", "properties": { "name": "Unnamed", "category": "Reservoir", "area_ha": 15.9, "altitude_m": null }, "geometry": { "type": "Point", "coordinates": [ 1.563, 46.75276 ] } },
{ "type": "Feature", "properties": { "name": "Unnamed", "category": "Reservoir", "area_ha": 15.9, "altitude_m": null }, "geometry": { "type": "Point", "coordinates": [ 1.55899, 46.77111 ] } },
{ "type": "Feature", "properties": { "name": "Étang Vain", "category": "Reservoir", "area_ha": 7.1, "altitude_m": null }, "geometry": { "type": "Point", "coordinates": [ 1.56721, 46.67357 ] } },
{ "type": "Feature", "properties": { "name": "Étang du Cormier", "category": "Reservoir", "area_ha": 10.0, "altitude_m": null }, "geometry": { "type": "Point", "coordinates": [ 1.55684, 46.75674 ] } },
{ "type": "Feature", "properties": { "name": "Étang Turpin", "category": "Reservoir", "area_ha": 7.0, "altitude_m": null }, "geometry": { "type": "Point", "coordinates": [ 1.55446, 46.70832 ] } },
{ "type": "Feature", "properties": { "name": "Unnamed", "category": "Reservoir", "area_ha": 28.5, "altitude_m": null }, "geometry": { "type": "Point", "coordinates": [ 1.36882, 46.93343 ] } },
{ "type": "Feature", "properties": { "name": "Étang de la Vienne", "category": "Reservoir", "area_ha": 7.7, "altitude_m": null }, "geometry": { "type": "Point", "coordinates": [ 1.37156, 46.88771 ] } },
{ "type": "Feature", "properties": { "name": "Unnamed", "category": "Reservoir", "area_ha": 6.2, "altitude_m": null }, "geometry": { "type": "Point", "coordinates": [ 1.3601, 46.88069 ] } },
{ "type": "Feature", "properties": { "name": "Étang d'Oince", "category": "Reservoir", "area_ha": 15.6, "altitude_m": null }, "geometry": { "type": "Point", "coordinates": [ 1.36633, 46.86912 ] } },
{ "type": "Feature", "properties": { "name": "Unnamed", "category": "Reservoir", "area_ha": 10.8, "altitude_m": null }, "geometry": { "type": "Point", "coordinates": [ 1.36786, 46.8461 ] } },
{ "type": "Feature", "properties": { "name": "Unnamed", "category": "Reservoir", "area_ha": 12.9, "altitude_m": null }, "geometry": { "type": "Point", "coordinates": [ 1.34973, 46.8212 ] } },
{ "type": "Feature", "properties": { "name": "Unnamed", "category": "Reservoir", "area_ha": 17.7, "altitude_m": null }, "geometry": { "type": "Point", "coordinates": [ 1.28928, 46.82693 ] } },
{ "type": "Feature", "properties": { "name": "Étang de Notz", "category": "Reservoir", "area_ha": 8.0, "altitude_m": null }, "geometry": { "type": "Point", "coordinates": [ 1.22202, 46.8684 ] } },
{ "type": "Feature", "properties": { "name": "Unnamed", "category": "Reservoir", "area_ha": 6.6, "altitude_m": null }, "geometry": { "type": "Point", "coordinates": [ 1.16398, 46.67389 ] } },
{ "type": "Feature", "properties": { "name": "Unnamed", "category": "Reservoir", "area_ha": 9.7, "altitude_m": null }, "geometry": { "type": "Point", "coordinates": [ 1.29107, 46.79295 ] } },
{ "type": "Feature", "properties": { "name": "Étang de l'Ègue Froide", "category": "Reservoir", "area_ha": 10.3, "altitude_m": null }, "geometry": { "type": "Point", "coordinates": [ 1.37957, 46.72541 ] } },
{ "type": "Feature", "properties": { "name": "Unnamed", "category": "Reservoir", "area_ha": 23.4, "altitude_m": null }, "geometry": { "type": "Point", "coordinates": [ 1.25521, 46.79063 ] } },
{ "type": "Feature", "properties": { "name": "Unnamed", "category": "Reservoir", "area_ha": 9.3, "altitude_m": null }, "geometry": { "type": "Point", "coordinates": [ 1.21219, 46.7981 ] } },
{ "type": "Feature", "properties": { "name": "Unnamed", "category": "Reservoir", "area_ha": 12.3, "altitude_m": null }, "geometry": { "type": "Point", "coordinates": [ 1.2298, 46.80225 ] } },
{ "type": "Feature", "properties": { "name": "Unnamed", "category": "Reservoir", "area_ha": 22.8, "altitude_m": null }, "geometry": { "type": "Point", "coordinates": [ 1.21333, 46.80773 ] } },
{ "type": "Feature", "properties": { "name": "Unnamed", "category": "Reservoir", "area_ha": 6.5, "altitude_m": null }, "geometry": { "type": "Point", "coordinates": [ 1.21746, 46.80508 ] } },
{ "type": "Feature", "properties": { "name": "Grenouilleau", "category": "Reservoir", "area_ha": 14.0, "altitude_m": null }, "geometry": { "type": "Point", "coordinates": [ 1.2513, 46.79837 ] } },
{ "type": "Feature", "properties": { "name": "Unnamed", "category": "Reservoir", "area_ha": 5.1, "altitude_m": null }, "geometry": { "type": "Point", "coordinates": [ 1.2346, 46.7967 ] } },
{ "type": "Feature", "properties": { "name": "Étang Fromager", "category": "Reservoir", "area_ha": 16.5, "altitude_m": null }, "geometry": { "type": "Point", "coordinates": [ 1.30429, 46.82028 ] } },
{ "type": "Feature", "properties": { "name": "Unnamed", "category": "Reservoir", "area_ha": 5.2, "altitude_m": null }, "geometry": { "type": "Point", "coordinates": [ 1.23971, 46.79166 ] } },
{ "type": "Feature", "properties": { "name": "Unnamed", "category": "Reservoir", "area_ha": 5.4, "altitude_m": null }, "geometry": { "type": "Point", "coordinates": [ 1.21565, 46.78333 ] } },
{ "type": "Feature", "properties": { "name": "Unnamed", "category": "Reservoir", "area_ha": 11.7, "altitude_m": null }, "geometry": { "type": "Point", "coordinates": [ 1.0928, 46.80822 ] } },
{ "type": "Feature", "properties": { "name": "le Ceux", "category": "Reservoir", "area_ha": 10.4, "altitude_m": null }, "geometry": { "type": "Point", "coordinates": [ 1.23193, 46.79261 ] } },
{ "type": "Feature", "properties": { "name": "Étang près Grenouilleau", "category": "Reservoir", "area_ha": 12.1, "altitude_m": null }, "geometry": { "type": "Point", "coordinates": [ 1.24032, 46.79906 ] } },
{ "type": "Feature", "properties": { "name": "Baigne-Jean", "category": "Reservoir", "area_ha": 46.8, "altitude_m": null }, "geometry": { "type": "Point", "coordinates": [ 1.22152, 46.78882 ] } },
{ "type": "Feature", "properties": { "name": "Étang du Petit Brun", "category": "Reservoir", "area_ha": 24.5, "altitude_m": null }, "geometry": { "type": "Point", "coordinates": [ 1.31782, 46.76382 ] } },
{ "type": "Feature", "properties": { "name": "le Grand Ménime", "category": "Reservoir", "area_ha": 28.5, "altitude_m": null }, "geometry": { "type": "Point", "coordinates": [ 1.34443, 46.72245 ] } },
{ "type": "Feature", "properties": { "name": "Étang des Gaudières", "category": "Reservoir", "area_ha": 17.2, "altitude_m": null }, "geometry": { "type": "Point", "coordinates": [ 1.36762, 46.73229 ] } },
{ "type": "Feature", "properties": { "name": "Unnamed", "category": "Reservoir", "area_ha": 7.0, "altitude_m": null }, "geometry": { "type": "Point", "coordinates": [ 1.41421, 46.75517 ] } },
{ "type": "Feature", "properties": { "name": "Unnamed", "category": "Reservoir", "area_ha": 7.0, "altitude_m": null }, "geometry": { "type": "Point", "coordinates": [ 1.32076, 46.73182 ] } },
{ "type": "Feature", "properties": { "name": "Unnamed", "category": "Reservoir", "area_ha": 5.6, "altitude_m": null }, "geometry": { "type": "Point", "coordinates": [ 1.20045, 46.58929 ] } },
{ "type": "Feature", "properties": { "name": "Unnamed", "category": "Reservoir", "area_ha": 6.2, "altitude_m": null }, "geometry": { "type": "Point", "coordinates": [ 1.34046, 46.71295 ] } },
{ "type": "Feature", "properties": { "name": "Unnamed", "category": "Reservoir", "area_ha": 9.1, "altitude_m": null }, "geometry": { "type": "Point", "coordinates": [ 1.40245, 46.745 ] } },
{ "type": "Feature", "properties": { "name": "le Plessis", "category": "Reservoir", "area_ha": 5.3, "altitude_m": null }, "geometry": { "type": "Point", "coordinates": [ 1.42559, 46.7411 ] } },
{ "type": "Feature", "properties": { "name": "Étang du Plessis", "category": "Reservoir", "area_ha": 7.3, "altitude_m": null }, "geometry": { "type": "Point", "coordinates": [ 1.63217, 47.15314 ] } },
{ "type": "Feature", "properties": { "name": "Étang Clérault", "category": "Reservoir", "area_ha": 18.1, "altitude_m": null }, "geometry": { "type": "Point", "coordinates": [ 1.39674, 46.71738 ] } },
{ "type": "Feature", "properties": { "name": "Unnamed", "category": "Reservoir", "area_ha": 37.8, "altitude_m": null }, "geometry": { "type": "Point", "coordinates": [ 1.21342, 46.7527 ] } },
{ "type": "Feature", "properties": { "name": "le Petit chez Rojoint", "category": "Reservoir", "area_ha": 7.8, "altitude_m": null }, "geometry": { "type": "Point", "coordinates": [ 1.28874, 46.76943 ] } },
{ "type": "Feature", "properties": { "name": "Étang de Terre Creuse", "category": "Reservoir", "area_ha": 6.9, "altitude_m": null }, "geometry": { "type": "Point", "coordinates": [ 1.28428, 46.68535 ] } },
{ "type": "Feature", "properties": { "name": "Étang d'Usseau", "category": "Reservoir", "area_ha": 13.3, "altitude_m": null }, "geometry": { "type": "Point", "coordinates": [ 1.29747, 46.74921 ] } },
{ "type": "Feature", "properties": { "name": "l'Étang Neuf", "category": "Reservoir", "area_ha": 8.9, "altitude_m": null }, "geometry": { "type": "Point", "coordinates": [ 1.24003, 46.59313 ] } },
{ "type": "Feature", "properties": { "name": "Étang Pifaudière", "category": "Reservoir", "area_ha": 7.2, "altitude_m": null }, "geometry": { "type": "Point", "coordinates": [ 1.22548, 46.72561 ] } },
{ "type": "Feature", "properties": { "name": "Unnamed", "category": "Reservoir", "area_ha": 9.3, "altitude_m": null }, "geometry": { "type": "Point", "coordinates": [ 1.2729, 46.76696 ] } },
{ "type": "Feature", "properties": { "name": "Unnamed", "category": "Reservoir", "area_ha": 14.1, "altitude_m": null }, "geometry": { "type": "Point", "coordinates": [ 1.24388, 46.7453 ] } },
{ "type": "Feature", "properties": { "name": "Unnamed", "category": "Reservoir", "area_ha": 19.3, "altitude_m": null }, "geometry": { "type": "Point", "coordinates": [ 1.28915, 46.73188 ] } },
{ "type": "Feature", "properties": { "name": "Étang Gorgeat", "category": "Reservoir", "area_ha": 12.7, "altitude_m": null }, "geometry": { "type": "Point", "coordinates": [ 1.21988, 46.76562 ] } },
{ "type": "Feature", "properties": { "name": "Étang de Bignotoi", "category": "Reservoir", "area_ha": 55.1, "altitude_m": null }, "geometry": { "type": "Point", "coordinates": [ 1.25138, 46.75711 ] } },
{ "type": "Feature", "properties": { "name": "Unnamed", "category": "Reservoir", "area_ha": 6.7, "altitude_m": null }, "geometry": { "type": "Point", "coordinates": [ 1.28998, 46.69167 ] } },
{ "type": "Feature", "properties": { "name": "Étang Lecertaindre", "category": "Reservoir", "area_ha": 10.0, "altitude_m": null }, "geometry": { "type": "Point", "coordinates": [ 1.27258, 46.68891 ] } },
{ "type": "Feature", "properties": { "name": "l'Étang Neuf", "category": "Reservoir", "area_ha": 14.7, "altitude_m": null }, "geometry": { "type": "Point", "coordinates": [ 1.27723, 46.6512 ] } },
{ "type": "Feature", "properties": { "name": "l'Étang Neuf", "category": "Reservoir", "area_ha": 9.5, "altitude_m": null }, "geometry": { "type": "Point", "coordinates": [ 1.29608, 46.70732 ] } },
{ "type": "Feature", "properties": { "name": "Étang de Barrière", "category": "Reservoir", "area_ha": 6.6, "altitude_m": null }, "geometry": { "type": "Point", "coordinates": [ 1.24506, 46.5836 ] } },
{ "type": "Feature", "properties": { "name": "Étang Bigot", "category": "Reservoir", "area_ha": 6.0, "altitude_m": null }, "geometry": { "type": "Point", "coordinates": [ 1.2799, 46.70983 ] } },
{ "type": "Feature", "properties": { "name": "Étang de Tixier", "category": "Reservoir", "area_ha": 6.4, "altitude_m": null }, "geometry": { "type": "Point", "coordinates": [ 1.27404, 46.67816 ] } },
{ "type": "Feature", "properties": { "name": "Étang des Essaims", "category": "Reservoir", "area_ha": 17.8, "altitude_m": null }, "geometry": { "type": "Point", "coordinates": [ 1.27441, 46.69126 ] } },
{ "type": "Feature", "properties": { "name": "les Trodins", "category": "Reservoir", "area_ha": 8.0, "altitude_m": null }, "geometry": { "type": "Point", "coordinates": [ 1.277, 46.67679 ] } },
{ "type": "Feature", "properties": { "name": "Unnamed", "category": "Reservoir", "area_ha": 10.0, "altitude_m": null }, "geometry": { "type": "Point", "coordinates": [ 1.22902, 46.65228 ] } },
{ "type": "Feature", "properties": { "name": "Étang Neuf", "category": "Reservoir", "area_ha": 10.0, "altitude_m": null }, "geometry": { "type": "Point", "coordinates": [ 1.2353, 46.64733 ] } },
{ "type": "Feature", "properties": { "name": "le Petit Riau", "category": "Reservoir", "area_ha": 19.4, "altitude_m": null }, "geometry": { "type": "Point", "coordinates": [ 1.24832, 46.64358 ] } },
{ "type": "Feature", "properties": { "name": "l'Étang Neuf", "category": "Reservoir", "area_ha": 16.0, "altitude_m": null }, "geometry": { "type": "Point", "coordinates": [ 1.32699, 46.66122 ] } },
{ "type": "Feature", "properties": { "name": "Étang du Tran", "category": "Reservoir", "area_ha": 19.4, "altitude_m": null }, "geometry": { "type": "Point", "coordinates": [ 1.13966, 46.81153 ] } },
{ "type": "Feature", "properties": { "name": "Unnamed", "category": "Reservoir", "area_ha": 16.7, "altitude_m": null }, "geometry": { "type": "Point", "coordinates": [ 1.20601, 46.80078 ] } },
{ "type": "Feature", "properties": { "name": "Unnamed", "category": "Reservoir", "area_ha": 12.0, "altitude_m": null }, "geometry": { "type": "Point", "coordinates": [ 1.08635, 46.80754 ] } },
{ "type": "Feature", "properties": { "name": "Unnamed", "category": "Reservoir", "area_ha": 7.2, "altitude_m": null }, "geometry": { "type": "Point", "coordinates": [ 1.18438, 46.83803 ] } },
{ "type": "Feature", "properties": { "name": "Unnamed", "category": "Reservoir", "area_ha": 9.4, "altitude_m": null }, "geometry": { "type": "Point", "coordinates": [ 1.16503, 46.79164 ] } },
{ "type": "Feature", "properties": { "name": "Étang Ricot", "category": "Reservoir", "area_ha": 27.5, "altitude_m": null }, "geometry": { "type": "Point", "coordinates": [ 1.1939, 46.78649 ] } },
{ "type": "Feature", "properties": { "name": "Étang de la Bienaise", "category": "Reservoir", "area_ha": 12.8, "altitude_m": null }, "geometry": { "type": "Point", "coordinates": [ 1.2113, 46.80068 ] } },
{ "type": "Feature", "properties": { "name": "Unnamed", "category": "Reservoir", "area_ha": 10.1, "altitude_m": null }, "geometry": { "type": "Point", "coordinates": [ 1.19993, 46.76287 ] } },
{ "type": "Feature", "properties": { "name": "Étang Benoît", "category": "Reservoir", "area_ha": 14.4, "altitude_m": null }, "geometry": { "type": "Point", "coordinates": [ 1.16464, 46.79422 ] } },
{ "type": "Feature", "properties": { "name": "Étang du Bois Secret", "category": "Reservoir", "area_ha": 38.4, "altitude_m": null }, "geometry": { "type": "Point", "coordinates": [ 1.1474, 46.79407 ] } },
{ "type": "Feature", "properties": { "name": "Étang du Pré Blanc", "category": "Reservoir", "area_ha": 12.5, "altitude_m": null }, "geometry": { "type": "Point", "coordinates": [ 1.11511, 46.71732 ] } },
{ "type": "Feature", "properties": { "name": "Étang Pluche", "category": "Reservoir", "area_ha": 6.4, "altitude_m": null }, "geometry": { "type": "Point", "coordinates": [ 1.13179, 46.75743 ] } },
{ "type": "Feature", "properties": { "name": "Unnamed", "category": "Reservoir", "area_ha": 12.2, "altitude_m": null }, "geometry": { "type": "Point", "coordinates": [ 1.16368, 46.76969 ] } },
{ "type": "Feature", "properties": { "name": "Unnamed", "category": "Reservoir", "area_ha": 15.8, "altitude_m": null }, "geometry": { "type": "Point", "coordinates": [ 1.17898, 46.83129 ] } },
{ "type": "Feature", "properties": { "name": "Étang près Étang des Bordes", "category": "Reservoir", "area_ha": 16.7, "altitude_m": null }, "geometry": { "type": "Point", "coordinates": [ 1.13178, 46.73301 ] } },
{ "type": "Feature", "properties": { "name": "Unnamed", "category": "Reservoir", "area_ha": 11.1, "altitude_m": null }, "geometry": { "type": "Point", "coordinates": [ 1.20479, 46.76516 ] } },
{ "type": "Feature", "properties": { "name": "Étang Miclos", "category": "Reservoir", "area_ha": 17.4, "altitude_m": null }, "geometry": { "type": "Point", "coordinates": [ 1.19838, 46.77852 ] } },
{ "type": "Feature", "properties": { "name": "Étang Barineau", "category": "Reservoir", "area_ha": 12.2, "altitude_m": null }, "geometry": { "type": "Point", "coordinates": [ 1.2018, 46.77444 ] } },
{ "type": "Feature", "properties": { "name": "Unnamed", "category": "Reservoir", "area_ha": 9.3, "altitude_m": null }, "geometry": { "type": "Point", "coordinates": [ 1.401, 47.04677 ] } },
{ "type": "Feature", "properties": { "name": "les Grands Étangs", "category": "Reservoir", "area_ha": 56.0, "altitude_m": null }, "geometry": { "type": "Point", "coordinates": [ 1.17136, 46.77672 ] } },
{ "type": "Feature", "properties": { "name": "Étang des Fougères", "category": "Reservoir", "area_ha": 13.4, "altitude_m": null }, "geometry": { "type": "Point", "coordinates": [ 1.12543, 46.73958 ] } },
{ "type": "Feature", "properties": { "name": "Étang Purais", "category": "Reservoir", "area_ha": 50.1, "altitude_m": null }, "geometry": { "type": "Point", "coordinates": [ 1.10616, 46.74885 ] } },
{ "type": "Feature", "properties": { "name": "Étang de l'Ardouine", "category": "Reservoir", "area_ha": 36.5, "altitude_m": null }, "geometry": { "type": "Point", "coordinates": [ 1.15453, 46.73792 ] } },
{ "type": "Feature", "properties": { "name": "Unnamed", "category": "Reservoir", "area_ha": 8.1, "altitude_m": null }, "geometry": { "type": "Point", "coordinates": [ 1.19591, 46.75279 ] } },
{ "type": "Feature", "properties": { "name": "Étang Rochefort", "category": "Reservoir", "area_ha": 26.4, "altitude_m": null }, "geometry": { "type": "Point", "coordinates": [ 1.16813, 46.73745 ] } },
{ "type": "Feature", "properties": { "name": "Étang de la Gâtevine", "category": "Reservoir", "area_ha": 9.7, "altitude_m": null }, "geometry": { "type": "Point", "coordinates": [ 1.20158, 46.68762 ] } },
{ "type": "Feature", "properties": { "name": "Unnamed", "category": "Reservoir", "area_ha": 5.5, "altitude_m": null }, "geometry": { "type": "Point", "coordinates": [ 1.12244, 46.775 ] } },
{ "type": "Feature", "properties": { "name": "Étang de Montiacre", "category": "Reservoir", "area_ha": 48.0, "altitude_m": null }, "geometry": { "type": "Point", "coordinates": [ 1.19348, 46.72974 ] } },
{ "type": "Feature", "properties": { "name": "Unnamed", "category": "Reservoir", "area_ha": 9.7, "altitude_m": null }, "geometry": { "type": "Point", "coordinates": [ 1.16914, 46.74338 ] } },
{ "type": "Feature", "properties": { "name": "Unnamed", "category": "Reservoir", "area_ha": 8.2, "altitude_m": null }, "geometry": { "type": "Point", "coordinates": [ 1.16144, 46.74224 ] } },
{ "type": "Feature", "properties": { "name": "Étang Mardasson", "category": "Reservoir", "area_ha": 20.9, "altitude_m": null }, "geometry": { "type": "Point", "coordinates": [ 1.09082, 46.76564 ] } },
{ "type": "Feature", "properties": { "name": "Étang de la Touche", "category": "Reservoir", "area_ha": 14.2, "altitude_m": null }, "geometry": { "type": "Point", "coordinates": [ 1.08883, 46.74657 ] } },
{ "type": "Feature", "properties": { "name": "Étangs Grouseaux", "category": "Reservoir", "area_ha": 13.9, "altitude_m": null }, "geometry": { "type": "Point", "coordinates": [ 1.04995, 46.72956 ] } },
{ "type": "Feature", "properties": { "name": "Étang Colas", "category": "Reservoir", "area_ha": 8.6, "altitude_m": null }, "geometry": { "type": "Point", "coordinates": [ 1.21008, 46.58476 ] } },
{ "type": "Feature", "properties": { "name": "le Petit Étang", "category": "Reservoir", "area_ha": 5.6, "altitude_m": null }, "geometry": { "type": "Point", "coordinates": [ 1.14017, 46.5775 ] } },
{ "type": "Feature", "properties": { "name": "Étang Pothier", "category": "Reservoir", "area_ha": 21.4, "altitude_m": null }, "geometry": { "type": "Point", "coordinates": [ 1.02889, 46.76935 ] } },
{ "type": "Feature", "properties": { "name": "Unnamed", "category": "Reservoir", "area_ha": 5.1, "altitude_m": null }, "geometry": { "type": "Point", "coordinates": [ 1.09249, 46.75668 ] } },
{ "type": "Feature", "properties": { "name": "Étang de Coublais", "category": "Reservoir", "area_ha": 16.4, "altitude_m": null }, "geometry": { "type": "Point", "coordinates": [ 1.19547, 46.65313 ] } },
{ "type": "Feature", "properties": { "name": "Unnamed", "category": "Reservoir", "area_ha": 7.1, "altitude_m": null }, "geometry": { "type": "Point", "coordinates": [ 1.35523, 46.73062 ] } },
{ "type": "Feature", "properties": { "name": "Étang du Blizon", "category": "Reservoir", "area_ha": 77.9, "altitude_m": null }, "geometry": { "type": "Point", "coordinates": [ 1.22751, 46.74128 ] } },
{ "type": "Feature", "properties": { "name": "Étang de la Gerbe", "category": "Reservoir", "area_ha": 16.1, "altitude_m": null }, "geometry": { "type": "Point", "coordinates": [ 1.60692, 46.76872 ] } },
{ "type": "Feature", "properties": { "name": "le Grand Étang", "category": "Reservoir", "area_ha": 63.7, "altitude_m": null }, "geometry": { "type": "Point", "coordinates": [ 1.32478, 46.72105 ] } },
{ "type": "Feature", "properties": { "name": "Unnamed", "category": "Reservoir", "area_ha": 21.7, "altitude_m": null }, "geometry": { "type": "Point", "coordinates": [ 1.28003, 46.69478 ] } },
{ "type": "Feature", "properties": { "name": "Étang de la Cure", "category": "Reservoir", "area_ha": 10.5, "altitude_m": null }, "geometry": { "type": "Point", "coordinates": [ 1.20481, 46.71055 ] } },
{ "type": "Feature", "properties": { "name": "Étang Renard", "category": "Reservoir", "area_ha": 55.8, "altitude_m": null }, "geometry": { "type": "Point", "coordinates": [ 1.27497, 46.80303 ] } },
{ "type": "Feature", "properties": { "name": "Étang de Bellebouche", "category": "Reservoir", "area_ha": 70.7, "altitude_m": null }, "geometry": { "type": "Point", "coordinates": [ 1.30746, 46.78848 ] } },
{ "type": "Feature", "properties": { "name": "Retenue de la Roche Bat l'Aigle", "category": "Reservoir", "area_ha": 24.6, "altitude_m": null }, "geometry": { "type": "Point", "coordinates": [ 1.58664, 46.52162 ] } },
{ "type": "Feature", "properties": { "name": "Unnamed", "category": "Reservoir", "area_ha": 8.8, "altitude_m": null }, "geometry": { "type": "Point", "coordinates": [ 1.36042, 46.72932 ] } },
{ "type": "Feature", "properties": { "name": "Unnamed", "category": "Reservoir", "area_ha": 26.8, "altitude_m": null }, "geometry": { "type": "Point", "coordinates": [ 1.09874, 46.8088 ] } },
{ "type": "Feature", "properties": { "name": "Retenue de la Roche aux Moines", "category": "Dam", "area_ha": 23.6, "altitude_m": null }, "geometry": { "type": "Point", "coordinates": [ 1.58018, 46.49686 ] } },
{ "type": "Feature", "properties": { "name": "Unnamed", "category": "Dam", "area_ha": 27.5, "altitude_m": null }, "geometry": { "type": "Point", "coordinates": [ 1.28459, 46.81615 ] } }
]
}
