{
"type": "FeatureCollection",
"name": "dep39.geojson",
"crs": { "type": "name", "properties": { "name": "urn:ogc:def:crs:OGC:1.3:CRS84" } },
"xy_coordinate_resolution": 1e-05,
"features": [
{ "type": "Feature", "properties": { "name": "Gravière du Bassin de Décantation N 1", "category": "Reservoir", "area_ha": 37.5, "altitude_m": null }, "geometry": { "type": "Point", "coordinates": [ 5.3941, 47.06716 ] } },
{ "type": "Feature", "properties": { "name": "Étang Monseigneur", "category": "Reservoir", "area_ha": 6.1, "altitude_m": null }, "geometry": { "type": "Point", "coordinates": [ 5.52188, 46.78746 ] } },
{ "type": "Feature", "properties": { "name": "Étang de Chevigny", "category": "Reservoir", "area_ha": 23.1, "altitude_m": null }, "geometry": { "type": "Point", "coordinates": [ 5.41815, 46.69239 ] } },
{ "type": "Feature", "properties": { "name": "Lac de Coiselet", "category": "Dam", "area_ha": 312.4, "altitude_m": null }, "geometry": { "type": "Point", "coordinates": [ 5.60813, 46.31953 ] } },
{ "type": "Feature", "properties": { "name": "Lac de Narlay", "category": "Lake", "area_ha": 40.0, "altitude_m": null }, "geometry": { "type": "Point", "coordinates": [ 5.91203, 46.6423 ] } },
{ "type": "Feature", "properties": { "name": "Lac du Petit Maclu", "category": "Lake", "area_ha": 6.0, "altitude_m": null }, "geometry": { "type": "Point", "coordinates": [ 5.91548, 46.63082 ] } },
{ "type": "Feature", "properties": { "name": "Lac de Fort-du-Plasne", "category": "Lake", "area_ha": 18.0, "altitude_m": null }, "geometry": { "type": "Point", "coordinates": [ 6.00058, 46.62166 ] } },
{ "type": "Feature", "properties": { "name": "Lac du Val", "category": "Lake", "area_ha": 50.5, "altitude_m": null }, "geometry": { "type": "Point", "coordinates": [ 5.81376, 46.62681 ] } },
{ "type": "Feature", "properties": { "name": "Étang de la Loge", "category": "Reservoir", "area_ha": 6.4, "altitude_m": null }, "geometry": { "type": "Point", "coordinates": [ 5.4052, 46.58155 ] } },
{ "type": "Feature", "properties": { "name": "Lac d'Onoz", "category": "Lake", "area_ha": 8.0, "altitude_m": null }, "geometry": { "type": "Point", "coordinates": [ 5.65375, 46.47517 ] } },
{ "type": "Feature", "properties": { "name": "Lac du Vernois", "category": "Lake", "area_ha": 8.1, "altitude_m": null }, "geometry": { "type": "Point", "coordinates": [ 5.88857, 46.64745 ] } },
{ "type": "Feature", "properties": { "name": "Étang Vaillant", "category": "Reservoir", "area_ha": 18.5, "altitude_m": null }, "geometry": { "type": "Point", "coordinates": [ 5.39721, 46.77915 ] } },
{ "type": "Feature", "properties": { "name": "Gravière du Bassin de Décantation N 2", "category": "Reservoir", "area_ha": 9.9, "altitude_m": null }, "geometry": { "type": "Point", "coordinates": [ 5.39709, 47.06366 ] } },
{ "type": "Feature", "properties": { "name": "Étang de Barbe", "category": "Reservoir", "area_ha": 7.6, "altitude_m": null }, "geometry": { "type": "Point", "coordinates": [ 5.34118, 46.90676 ] } },
{ "type": "Feature", "properties": { "name": "Étang Chardenet", "category": "Reservoir", "area_ha": 5.5, "altitude_m": null }, "geometry": { "type": "Point", "coordinates": [ 5.50195, 46.88131 ] } },
{ "type": "Feature", "properties": { "name": "Lac à la Dame", "category": "Lake", "area_ha": 14.3, "altitude_m": null }, "geometry": { "type": "Point", "coordinates": [ 6.01017, 46.63187 ] } },
{ "type": "Feature", "properties": { "name": "Lac de Chalain", "category": "Lake", "area_ha": 228.2, "altitude_m": null }, "geometry": { "type": "Point", "coordinates": [ 5.79289, 46.67059 ] } },
{ "type": "Feature", "properties": { "name": "Grand Étang", "category": "Reservoir", "area_ha": 5.7, "altitude_m": null }, "geometry": { "type": "Point", "coordinates": [ 5.60835, 47.11725 ] } },
{ "type": "Feature", "properties": { "name": "Étang Servotte", "category": "Reservoir", "area_ha": 21.5, "altitude_m": null }, "geometry": { "type": "Point", "coordinates": [ 5.44633, 46.97676 ] } },
{ "type": "Feature", "properties": { "name": "Lac des Rousses", "category": "Lake", "area_ha": 91.8, "altitude_m": null }, "geometry": { "type": "Point", "coordinates": [ 6.09024, 46.50439 ] } },
{ "type": "Feature", "properties": { "name": "Étang de l'Heute", "category": "Reservoir", "area_ha": 6.6, "altitude_m": null }, "geometry": { "type": "Point", "coordinates": [ 5.799, 46.77272 ] } },
{ "type": "Feature", "properties": { "name": "Étang Jean Guyon", "category": "Reservoir", "area_ha": 6.8, "altitude_m": null }, "geometry": { "type": "Point", "coordinates": [ 5.45586, 46.67974 ] } },
{ "type": "Feature", "properties": { "name": "Étang Antoine", "category": "Reservoir", "area_ha": 5.8, "altitude_m": null }, "geometry": { "type": "Point", "coordinates": [ 5.43481, 46.7773 ] } },
{ "type": "Feature", "properties": { "name": "le Petit Lac", "category": "Reservoir", "area_ha": 18.3, "altitude_m": null }, "geometry": { "type": "Point", "coordinates": [ 5.75364, 46.55536 ] } },
{ "type": "Feature", "properties": { "name": "Lac de Vouglans", "category": "Dam", "area_ha": 1581.4, "altitude_m": null }, "geometry": { "type": "Point", "coordinates": [ 5.6834, 46.48766 ] } },
{ "type": "Feature", "properties": { "name": "Lac d'Antre", "category": "Lake", "area_ha": 11.3, "altitude_m": null }, "geometry": { "type": "Point", "coordinates": [ 5.74979, 46.41442 ] } },
{ "type": "Feature", "properties": { "name": "Étang du Grand Virolot", "category": "Reservoir", "area_ha": 9.0, "altitude_m": null }, "geometry": { "type": "Point", "coordinates": [ 5.44625, 46.77612 ] } },
{ "type": "Feature", "properties": { "name": "Lac du Fioget", "category": "Lake", "area_ha": 9.8, "altitude_m": null }, "geometry": { "type": "Point", "coordinates": [ 5.91066, 46.66418 ] } },
{ "type": "Feature", "properties": { "name": "Lac de Chanon", "category": "Lake", "area_ha": 6.7, "altitude_m": null }, "geometry": { "type": "Point", "coordinates": [ 5.69776, 46.38179 ] } },
{ "type": "Feature", "properties": { "name": "Étang de Desnes", "category": "Reservoir", "area_ha": 5.1, "altitude_m": null }, "geometry": { "type": "Point", "coordinates": [ 5.46683, 46.77126 ] } },
{ "type": "Feature", "properties": { "name": "Lac des Rouges Truites", "category": "Lake", "area_ha": 32.2, "altitude_m": null }, "geometry": { "type": "Point", "coordinates": [ 6.00644, 46.60744 ] } },
{ "type": "Feature", "properties": { "name": "Étang Guignard", "category": "Reservoir", "area_ha": 9.0, "altitude_m": null }, "geometry": { "type": "Point", "coordinates": [ 5.51279, 46.90037 ] } },
{ "type": "Feature", "properties": { "name": "Étang du Mois de Jambe", "category": "Reservoir", "area_ha": 8.8, "altitude_m": null }, "geometry": { "type": "Point", "coordinates": [ 5.47464, 46.88595 ] } },
{ "type": "Feature", "properties": { "name": "Lac de Bellefontaine", "category": "Lake", "area_ha": 15.5, "altitude_m": null }, "geometry": { "type": "Point", "coordinates": [ 6.0925, 46.57367 ] } },
{ "type": "Feature", "properties": { "name": "Lac de Chambly", "category": "Lake", "area_ha": 89.9, "altitude_m": null }, "geometry": { "type": "Point", "coordinates": [ 5.80295, 46.64461 ] } },
{ "type": "Feature", "properties": { "name": "le Grand Maclu", "category": "Lake", "area_ha": 33.0, "altitude_m": null }, "geometry": { "type": "Point", "coordinates": [ 5.90629, 46.62404 ] } },
{ "type": "Feature", "properties": { "name": "Lac de Bonlieu", "category": "Lake", "area_ha": 23.6, "altitude_m": null }, "geometry": { "type": "Point", "coordinates": [ 5.8725, 46.58656 ] } },
{ "type": "Feature", "properties": { "name": "Lac de la Motte ou d'Ilay", "category": "Lake", "area_ha": 83.1, "altitude_m": null }, "geometry": { "type": "Point", "coordinates": [ 5.89543, 46.62475 ] } },
{ "type": "Feature", "properties": { "name": "Lac de l'Abbaye", "category": "Lake", "area_ha": 106.3, "altitude_m": null }, "geometry": { "type": "Point", "coordinates": [ 5.91282, 46.53141 ] } },
{ "type": "Feature", "properties": { "name": "Étang du Fort", "category": "Reservoir", "area_ha": 6.9, "altitude_m": null }, "geometry": { "type": "Point", "coordinates": [ 5.4103, 46.78242 ] } },
{ "type": "Feature", "properties": { "name": "Étang du Crêt", "category": "Reservoir", "area_ha": 9.1, "altitude_m": null }, "geometry": { "type": "Point", "coordinates": [ 5.40354, 46.78337 ] } },
{ "type": "Feature", "properties": { "name": "Étang Billedon", "category": "Reservoir", "area_ha": 7.7, "altitude_m": null }, "geometry": { "type": "Point", "coordinates": [ 5.49506, 46.96181 ] } },
{ "type": "Feature", "properties": { "name": "le Petit Lac", "category": "Reservoir", "area_ha": 5.1, "altitude_m": null }, "geometry": { "type": "Point", "coordinates": [ 5.80751, 46.50911 ] } },
{ "type": "Feature", "properties": { "name": "Grand Étang", "category": "Reservoir", "area_ha": 11.3, "altitude_m": null }, "geometry": { "type": "Point", "coordinates": [ 5.45619, 46.79498 ] } },
{ "type": "Feature", "properties": { "name": "l'Excavateur", "category": "Reservoir", "area_ha": 10.2, "altitude_m": null }, "geometry": { "type": "Point", "coordinates": [ 5.39011, 46.98093 ] } },
{ "type": "Feature", "properties": { "name": "Étang Vieux", "category": "Reservoir", "area_ha": 7.3, "altitude_m": null }, "geometry": { "type": "Point", "coordinates": [ 5.58374, 46.92968 ] } },
{ "type": "Feature", "properties": { "name": "Étang des Filles", "category": "Reservoir", "area_ha": 7.8, "altitude_m": null }, "geometry": { "type": "Point", "coordinates": [ 5.56508, 46.92595 ] } },
{ "type": "Feature", "properties": { "name": "Étang Bolais", "category": "Reservoir", "area_ha": 21.8, "altitude_m": null }, "geometry": { "type": "Point", "coordinates": [ 5.50706, 46.91049 ] } },
{ "type": "Feature", "properties": { "name": "Étang de Chêne-Bernard", "category": "Reservoir", "area_ha": 11.3, "altitude_m": null }, "geometry": { "type": "Point", "coordinates": [ 5.49249, 46.9154 ] } },
{ "type": "Feature", "properties": { "name": "Étang Chalot", "category": "Reservoir", "area_ha": 5.4, "altitude_m": null }, "geometry": { "type": "Point", "coordinates": [ 5.55748, 46.89652 ] } },
{ "type": "Feature", "properties": { "name": "Étang Rouge", "category": "Reservoir", "area_ha": 7.5, "altitude_m": null }, "geometry": { "type": "Point", "coordinates": [ 5.5221, 46.89879 ] } },
{ "type": "Feature", "properties": { "name": "Étang du Vernois", "category": "Reservoir", "area_ha": 19.8, "altitude_m": null }, "geometry": { "type": "Point", "coordinates": [ 5.4204, 46.79536 ] } },
{ "type": "Feature", "properties": { "name": "Étang au Roch", "category": "Reservoir", "area_ha": 10.1, "altitude_m": null }, "geometry": { "type": "Point", "coordinates": [ 5.4344, 46.80091 ] } },
{ "type": "Feature", "properties": { "name": "Étang des Tartres", "category": "Reservoir", "area_ha": 16.8, "altitude_m": null }, "geometry": { "type": "Point", "coordinates": [ 5.45968, 46.70141 ] } },
{ "type": "Feature", "properties": { "name": "le Grand Lac", "category": "Reservoir", "area_ha": 15.2, "altitude_m": null }, "geometry": { "type": "Point", "coordinates": [ 5.80375, 46.5025 ] } },
{ "type": "Feature", "properties": { "name": "Étang Boisson", "category": "Reservoir", "area_ha": 5.4, "altitude_m": null }, "geometry": { "type": "Point", "coordinates": [ 5.51495, 46.79641 ] } },
{ "type": "Feature", "properties": { "name": "Étang Aiguisson", "category": "Reservoir", "area_ha": 9.5, "altitude_m": null }, "geometry": { "type": "Point", "coordinates": [ 5.35993, 46.89383 ] } },
{ "type": "Feature", "properties": { "name": "Étang du Meix", "category": "Reservoir", "area_ha": 24.8, "altitude_m": null }, "geometry": { "type": "Point", "coordinates": [ 5.33667, 46.89254 ] } },
{ "type": "Feature", "properties": { "name": "le Grand Lac", "category": "Reservoir", "area_ha": 62.7, "altitude_m": null }, "geometry": { "type": "Point", "coordinates": [ 5.74885, 46.56648 ] } },
{ "type": "Feature", "properties": { "name": "Étang Grande Truge", "category": "Reservoir", "area_ha": 16.0, "altitude_m": null }, "geometry": { "type": "Point", "coordinates": [ 5.52715, 46.89518 ] } },
{ "type": "Feature", "properties": { "name": "Étang le Guet", "category": "Reservoir", "area_ha": 8.3, "altitude_m": null }, "geometry": { "type": "Point", "coordinates": [ 5.5199, 46.88812 ] } },
{ "type": "Feature", "properties": { "name": "Étang la Cude", "category": "Reservoir", "area_ha": 6.4, "altitude_m": null }, "geometry": { "type": "Point", "coordinates": [ 5.49345, 46.883 ] } },
{ "type": "Feature", "properties": { "name": "Étang Chancelier", "category": "Reservoir", "area_ha": 10.9, "altitude_m": null }, "geometry": { "type": "Point", "coordinates": [ 5.5098, 46.86975 ] } },
{ "type": "Feature", "properties": { "name": "Étang Seigneur", "category": "Reservoir", "area_ha": 22.2, "altitude_m": null }, "geometry": { "type": "Point", "coordinates": [ 5.51189, 46.87879 ] } },
{ "type": "Feature", "properties": { "name": "Étang du Moutoux", "category": "Reservoir", "area_ha": 35.7, "altitude_m": null }, "geometry": { "type": "Point", "coordinates": [ 5.923, 46.79753 ] } },
{ "type": "Feature", "properties": { "name": "Grand Étang", "category": "Reservoir", "area_ha": 5.6, "altitude_m": null }, "geometry": { "type": "Point", "coordinates": [ 5.52531, 46.95033 ] } },
{ "type": "Feature", "properties": { "name": "Grand Étang", "category": "Reservoir", "area_ha": 6.6, "altitude_m": null }, "geometry": { "type": "Point", "coordinates": [ 5.5443, 46.86317 ] } },
{ "type": "Feature", "properties": { "name": "Étang Daguin", "category": "Reservoir", "area_ha": 5.4, "altitude_m": null }, "geometry": { "type": "Point", "coordinates": [ 5.43441, 46.97675 ] } },
{ "type": "Feature", "properties": { "name": "Étang de la Muyre", "category": "Dam", "area_ha": 6.7, "altitude_m": null }, "geometry": { "type": "Point", "coordinates": [ 5.46227, 47.13962 ] } },
{ "type": "Feature", "properties": { "name": "Lac de Cuttura", "category": "Dam", "area_ha": 2.3, "altitude_m": null }, "geometry": { "type": "Point", "coordinates": [ 5.80024, 46.41641 ] } }
]
}
