{
"type": "FeatureCollection",
"name": "dep37.geojson",
"crs": { "type": "name", "properties": { "name": "urn:ogc:def:crs:OGC:1.3:CRS84" } },
"xy_coordinate_resolution": 1e-05,
"features": [
{ "type": "Feature", "properties": { "name": "Unnamed", "category": "Reservoir", "area_ha": 5.1, "altitude_m": null }, "geometry": { "type": "Point", "coordinates": [ 0.84401, 46.93409 ] } },
{ "type": "Feature", "properties": { "name": "Unnamed", "category": "Reservoir", "area_ha": 7.7, "altitude_m": null }, "geometry": { "type": "Point", "coordinates": [ 1.12935, 47.21516 ] } },
{ "type": "Feature", "properties": { "name": "Unnamed", "category": "Reservoir", "area_ha": 11.4, "altitude_m": null }, "geometry": { "type": "Point", "coordinates": [ 0.46703, 47.09708 ] } },
{ "type": "Feature", "properties": { "name": "Étang de Romette", "category": "Reservoir", "area_ha": 10.7, "altitude_m": null }, "geometry": { "type": "Point", "coordinates": [ 0.52994, 47.51715 ] } },
{ "type": "Feature", "properties": { "name": "le Petit Étang de Jumeaux", "category": "Reservoir", "area_ha": 5.5, "altitude_m": null }, "geometry": { "type": "Point", "coordinates": [ 1.08103, 47.37692 ] } },
{ "type": "Feature", "properties": { "name": "Étangs de la Philipponnière", "category": "Reservoir", "area_ha": 7.1, "altitude_m": null }, "geometry": { "type": "Point", "coordinates": [ 0.91374, 46.99632 ] } },
{ "type": "Feature", "properties": { "name": "Unnamed", "category": "Reservoir", "area_ha": 5.0, "altitude_m": null }, "geometry": { "type": "Point", "coordinates": [ 0.2624, 47.32537 ] } },
{ "type": "Feature", "properties": { "name": "Retenue de Pincemaille", "category": "Dam", "area_ha": 200.9, "altitude_m": null }, "geometry": { "type": "Point", "coordinates": [ 0.20407, 47.47149 ] } },
{ "type": "Feature", "properties": { "name": "Petit Étang de la Roche", "category": "Reservoir", "area_ha": 7.3, "altitude_m": null }, "geometry": { "type": "Point", "coordinates": [ 0.40444, 47.49992 ] } },
{ "type": "Feature", "properties": { "name": "Unnamed", "category": "Reservoir", "area_ha": 5.4, "altitude_m": null }, "geometry": { "type": "Point", "coordinates": [ 0.56944, 47.03287 ] } },
{ "type": "Feature", "properties": { "name": "Étangs de la Houssaye", "category": "Reservoir", "area_ha": 6.6, "altitude_m": null }, "geometry": { "type": "Point", "coordinates": [ 0.96243, 46.89552 ] } },
{ "type": "Feature", "properties": { "name": "Étang de Beaufou", "category": "Reservoir", "area_ha": 5.3, "altitude_m": null }, "geometry": { "type": "Point", "coordinates": [ 0.53287, 47.4772 ] } },
{ "type": "Feature", "properties": { "name": "Étang de Jumeau", "category": "Reservoir", "area_ha": 6.0, "altitude_m": null }, "geometry": { "type": "Point", "coordinates": [ 0.57149, 47.46027 ] } },
{ "type": "Feature", "properties": { "name": "Lac de la Bergeonnerie", "category": "Reservoir", "area_ha": 18.8, "altitude_m": null }, "geometry": { "type": "Point", "coordinates": [ 0.69338, 47.36751 ] } },
{ "type": "Feature", "properties": { "name": "Étang de la Barde", "category": "Reservoir", "area_ha": 6.1, "altitude_m": null }, "geometry": { "type": "Point", "coordinates": [ 0.62766, 47.56693 ] } },
{ "type": "Feature", "properties": { "name": "Étang de Tuane", "category": "Reservoir", "area_ha": 6.9, "altitude_m": null }, "geometry": { "type": "Point", "coordinates": [ 0.54385, 47.50809 ] } },
{ "type": "Feature", "properties": { "name": "Étang des Souches", "category": "Reservoir", "area_ha": 6.0, "altitude_m": null }, "geometry": { "type": "Point", "coordinates": [ 0.47777, 47.42169 ] } },
{ "type": "Feature", "properties": { "name": "Étang de l'Île", "category": "Reservoir", "area_ha": 6.4, "altitude_m": null }, "geometry": { "type": "Point", "coordinates": [ 0.45197, 47.40383 ] } },
{ "type": "Feature", "properties": { "name": "Étang de la Bénardière", "category": "Reservoir", "area_ha": 5.2, "altitude_m": null }, "geometry": { "type": "Point", "coordinates": [ 0.22524, 47.54396 ] } },
{ "type": "Feature", "properties": { "name": "Étang de la Garellerie", "category": "Reservoir", "area_ha": 5.2, "altitude_m": null }, "geometry": { "type": "Point", "coordinates": [ 0.53198, 47.45133 ] } },
{ "type": "Feature", "properties": { "name": "Étang du Louroux", "category": "Reservoir", "area_ha": 59.1, "altitude_m": null }, "geometry": { "type": "Point", "coordinates": [ 0.77631, 47.15156 ] } },
{ "type": "Feature", "properties": { "name": "Unnamed", "category": "Reservoir", "area_ha": 5.6, "altitude_m": null }, "geometry": { "type": "Point", "coordinates": [ 0.27466, 47.45186 ] } },
{ "type": "Feature", "properties": { "name": "Étang de la Corroirie", "category": "Reservoir", "area_ha": 9.1, "altitude_m": null }, "geometry": { "type": "Point", "coordinates": [ 1.14086, 47.14835 ] } },
{ "type": "Feature", "properties": { "name": "Unnamed", "category": "Reservoir", "area_ha": 7.1, "altitude_m": null }, "geometry": { "type": "Point", "coordinates": [ 0.95084, 47.5515 ] } },
{ "type": "Feature", "properties": { "name": "la Pinotière", "category": "Reservoir", "area_ha": 11.1, "altitude_m": null }, "geometry": { "type": "Point", "coordinates": [ 1.26021, 47.11697 ] } },
{ "type": "Feature", "properties": { "name": "Unnamed", "category": "Reservoir", "area_ha": 9.0, "altitude_m": null }, "geometry": { "type": "Point", "coordinates": [ 0.46091, 47.09954 ] } },
{ "type": "Feature", "properties": { "name": "Étang de la Chauvelière", "category": "Reservoir", "area_ha": 6.6, "altitude_m": null }, "geometry": { "type": "Point", "coordinates": [ 0.33479, 47.41924 ] } },
{ "type": "Feature", "properties": { "name": "Étang de la Simolière", "category": "Reservoir", "area_ha": 10.7, "altitude_m": null }, "geometry": { "type": "Point", "coordinates": [ 0.98552, 46.97129 ] } },
{ "type": "Feature", "properties": { "name": "Grand Étang de Crémille", "category": "Reservoir", "area_ha": 7.1, "altitude_m": null }, "geometry": { "type": "Point", "coordinates": [ 0.38581, 47.39434 ] } },
{ "type": "Feature", "properties": { "name": "Lac des Peupleraies", "category": "Reservoir", "area_ha": 24.1, "altitude_m": null }, "geometry": { "type": "Point", "coordinates": [ 0.73462, 47.37352 ] } },
{ "type": "Feature", "properties": { "name": "Unnamed", "category": "Reservoir", "area_ha": 12.0, "altitude_m": null }, "geometry": { "type": "Point", "coordinates": [ 0.52698, 47.06164 ] } },
{ "type": "Feature", "properties": { "name": "Étang d'Assay", "category": "Reservoir", "area_ha": 29.1, "altitude_m": null }, "geometry": { "type": "Point", "coordinates": [ 0.30288, 47.06571 ] } },
{ "type": "Feature", "properties": { "name": "Unnamed", "category": "Reservoir", "area_ha": 7.0, "altitude_m": null }, "geometry": { "type": "Point", "coordinates": [ 0.56401, 47.46202 ] } },
{ "type": "Feature", "properties": { "name": "Étang du Fay", "category": "Reservoir", "area_ha": 5.5, "altitude_m": null }, "geometry": { "type": "Point", "coordinates": [ 1.2953, 47.19769 ] } },
{ "type": "Feature", "properties": { "name": "Étang de la Hubaudière", "category": "Reservoir", "area_ha": 9.8, "altitude_m": null }, "geometry": { "type": "Point", "coordinates": [ 0.99013, 47.24297 ] } },
{ "type": "Feature", "properties": { "name": "Étang Perrière", "category": "Reservoir", "area_ha": 10.9, "altitude_m": null }, "geometry": { "type": "Point", "coordinates": [ 0.99745, 46.76762 ] } },
{ "type": "Feature", "properties": { "name": "Unnamed", "category": "Reservoir", "area_ha": 11.7, "altitude_m": null }, "geometry": { "type": "Point", "coordinates": [ 1.06809, 47.24763 ] } },
{ "type": "Feature", "properties": { "name": "Unnamed", "category": "Reservoir", "area_ha": 25.1, "altitude_m": null }, "geometry": { "type": "Point", "coordinates": [ 1.29684, 47.15808 ] } },
{ "type": "Feature", "properties": { "name": "Creusot", "category": "Reservoir", "area_ha": 9.4, "altitude_m": null }, "geometry": { "type": "Point", "coordinates": [ 0.71893, 47.27078 ] } },
{ "type": "Feature", "properties": { "name": "Unnamed", "category": "Reservoir", "area_ha": 6.6, "altitude_m": null }, "geometry": { "type": "Point", "coordinates": [ 0.30743, 47.43711 ] } },
{ "type": "Feature", "properties": { "name": "Dolus le Sec", "category": "Reservoir", "area_ha": 11.6, "altitude_m": null }, "geometry": { "type": "Point", "coordinates": [ 0.87878, 47.16754 ] } },
{ "type": "Feature", "properties": { "name": "Étang du Pas aux Ânes", "category": "Reservoir", "area_ha": 6.1, "altitude_m": null }, "geometry": { "type": "Point", "coordinates": [ 1.11465, 47.13235 ] } },
{ "type": "Feature", "properties": { "name": "Unnamed", "category": "Reservoir", "area_ha": 5.8, "altitude_m": null }, "geometry": { "type": "Point", "coordinates": [ 0.56893, 47.53945 ] } },
{ "type": "Feature", "properties": { "name": "Étang des Bois", "category": "Reservoir", "area_ha": 6.8, "altitude_m": null }, "geometry": { "type": "Point", "coordinates": [ 0.85184, 47.11482 ] } },
{ "type": "Feature", "properties": { "name": "Étang de la Fougeraie", "category": "Reservoir", "area_ha": 9.6, "altitude_m": null }, "geometry": { "type": "Point", "coordinates": [ 0.40629, 47.58257 ] } },
{ "type": "Feature", "properties": { "name": "Parc d'Ussé de Rigny", "category": "Reservoir", "area_ha": 9.7, "altitude_m": null }, "geometry": { "type": "Point", "coordinates": [ 0.293, 47.24175 ] } },
{ "type": "Feature", "properties": { "name": "Unnamed", "category": "Reservoir", "area_ha": 6.4, "altitude_m": null }, "geometry": { "type": "Point", "coordinates": [ 0.29066, 47.23505 ] } },
{ "type": "Feature", "properties": { "name": "Étang de l'Archevêque", "category": "Reservoir", "area_ha": 8.7, "altitude_m": null }, "geometry": { "type": "Point", "coordinates": [ 0.85416, 47.52467 ] } },
{ "type": "Feature", "properties": { "name": "Étang de la Blanchetière", "category": "Reservoir", "area_ha": 14.8, "altitude_m": null }, "geometry": { "type": "Point", "coordinates": [ 0.42826, 47.59317 ] } },
{ "type": "Feature", "properties": { "name": "Unnamed", "category": "Reservoir", "area_ha": 17.1, "altitude_m": null }, "geometry": { "type": "Point", "coordinates": [ 0.905, 46.81161 ] } },
{ "type": "Feature", "properties": { "name": "Étang de Toisé ou de la Piquetterie", "category": "Reservoir", "area_ha": 6.4, "altitude_m": null }, "geometry": { "type": "Point", "coordinates": [ 0.93657, 47.23016 ] } },
{ "type": "Feature", "properties": { "name": "Unnamed", "category": "Reservoir", "area_ha": 5.2, "altitude_m": null }, "geometry": { "type": "Point", "coordinates": [ 0.99316, 47.52812 ] } },
{ "type": "Feature", "properties": { "name": "Étang d'Hunault", "category": "Reservoir", "area_ha": 5.2, "altitude_m": null }, "geometry": { "type": "Point", "coordinates": [ 0.28404, 47.56852 ] } },
{ "type": "Feature", "properties": { "name": "Lac du Cher", "category": "Reservoir", "area_ha": 10.7, "altitude_m": null }, "geometry": { "type": "Point", "coordinates": [ 0.72775, 47.37004 ] } },
{ "type": "Feature", "properties": { "name": "Plan d'Eau d'Hommes", "category": "Reservoir", "area_ha": 13.0, "altitude_m": null }, "geometry": { "type": "Point", "coordinates": [ 0.27854, 47.44567 ] } },
{ "type": "Feature", "properties": { "name": "Grand Étang de Jumeaux", "category": "Reservoir", "area_ha": 20.6, "altitude_m": null }, "geometry": { "type": "Point", "coordinates": [ 1.08631, 47.36841 ] } },
{ "type": "Feature", "properties": { "name": "Lac des Bretonnières", "category": "Reservoir", "area_ha": 16.6, "altitude_m": null }, "geometry": { "type": "Point", "coordinates": [ 0.63925, 47.35264 ] } },
{ "type": "Feature", "properties": { "name": "Étang Bouchard", "category": "Reservoir", "area_ha": 16.7, "altitude_m": null }, "geometry": { "type": "Point", "coordinates": [ 0.35461, 47.49522 ] } },
{ "type": "Feature", "properties": { "name": "Étang de Radoire", "category": "Reservoir", "area_ha": 5.0, "altitude_m": null }, "geometry": { "type": "Point", "coordinates": [ 0.43102, 47.45854 ] } },
{ "type": "Feature", "properties": { "name": "Étang de Braineau", "category": "Reservoir", "area_ha": 18.4, "altitude_m": null }, "geometry": { "type": "Point", "coordinates": [ 0.40735, 47.49615 ] } },
{ "type": "Feature", "properties": { "name": "Étang de Givry", "category": "Reservoir", "area_ha": 8.9, "altitude_m": null }, "geometry": { "type": "Point", "coordinates": [ 0.42588, 47.46301 ] } },
{ "type": "Feature", "properties": { "name": "Étang de la Cailletterie", "category": "Reservoir", "area_ha": 6.1, "altitude_m": null }, "geometry": { "type": "Point", "coordinates": [ 1.25217, 47.04674 ] } },
{ "type": "Feature", "properties": { "name": "Étang Gargeau", "category": "Reservoir", "area_ha": 6.7, "altitude_m": null }, "geometry": { "type": "Point", "coordinates": [ 0.88349, 47.03941 ] } },
{ "type": "Feature", "properties": { "name": "Étang de Brosse", "category": "Reservoir", "area_ha": 12.9, "altitude_m": null }, "geometry": { "type": "Point", "coordinates": [ 1.05374, 47.27457 ] } },
{ "type": "Feature", "properties": { "name": "Étang du Chaiseau", "category": "Reservoir", "area_ha": 8.3, "altitude_m": null }, "geometry": { "type": "Point", "coordinates": [ 0.93875, 46.90108 ] } },
{ "type": "Feature", "properties": { "name": "Étang du Fau", "category": "Reservoir", "area_ha": 15.8, "altitude_m": null }, "geometry": { "type": "Point", "coordinates": [ 0.81648, 47.11293 ] } },
{ "type": "Feature", "properties": { "name": "l'Étang Neuf", "category": "Reservoir", "area_ha": 8.3, "altitude_m": null }, "geometry": { "type": "Point", "coordinates": [ 0.97921, 46.88782 ] } },
{ "type": "Feature", "properties": { "name": "Étang de Gousset", "category": "Reservoir", "area_ha": 5.6, "altitude_m": null }, "geometry": { "type": "Point", "coordinates": [ 0.77569, 47.16901 ] } },
{ "type": "Feature", "properties": { "name": "Étang du Grand Clos", "category": "Reservoir", "area_ha": 5.1, "altitude_m": null }, "geometry": { "type": "Point", "coordinates": [ 0.76055, 47.09789 ] } },
{ "type": "Feature", "properties": { "name": "Plan d'Eau des Ténières", "category": "Reservoir", "area_ha": 49.0, "altitude_m": null }, "geometry": { "type": "Point", "coordinates": [ 0.15251, 47.26075 ] } },
{ "type": "Feature", "properties": { "name": "l'Étang Neuf", "category": "Reservoir", "area_ha": 8.9, "altitude_m": null }, "geometry": { "type": "Point", "coordinates": [ 0.98786, 46.76378 ] } },
{ "type": "Feature", "properties": { "name": "Étang des Trois Frères", "category": "Reservoir", "area_ha": 15.9, "altitude_m": null }, "geometry": { "type": "Point", "coordinates": [ 0.43602, 47.47509 ] } },
{ "type": "Feature", "properties": { "name": "Étang des Grèles", "category": "Reservoir", "area_ha": 10.6, "altitude_m": null }, "geometry": { "type": "Point", "coordinates": [ 0.43993, 47.49161 ] } },
{ "type": "Feature", "properties": { "name": "le Grand Étang", "category": "Reservoir", "area_ha": 6.4, "altitude_m": null }, "geometry": { "type": "Point", "coordinates": [ 1.01658, 46.90077 ] } },
{ "type": "Feature", "properties": { "name": "Lac Mousson", "category": "Reservoir", "area_ha": 5.8, "altitude_m": null }, "geometry": { "type": "Point", "coordinates": [ 0.24241, 47.15966 ] } },
{ "type": "Feature", "properties": { "name": "Unnamed", "category": "Reservoir", "area_ha": 8.5, "altitude_m": null }, "geometry": { "type": "Point", "coordinates": [ 0.88985, 46.80688 ] } },
{ "type": "Feature", "properties": { "name": "Étang de Bussière", "category": "Reservoir", "area_ha": 6.7, "altitude_m": null }, "geometry": { "type": "Point", "coordinates": [ 0.93838, 47.1154 ] } },
{ "type": "Feature", "properties": { "name": "Unnamed", "category": "Dam", "area_ha": 15.0, "altitude_m": null }, "geometry": { "type": "Point", "coordinates": [ 1.06762, 47.27034 ] } },
{ "type": "Feature", "properties": { "name": "Unnamed", "category": "Dam", "area_ha": 2.5, "altitude_m": null }, "geometry": { "type": "Point", "coordinates": [ 0.82087, 47.16977 ] } },
{ "type": "Feature", "properties": { "name": "Plan d'Eau de Chemillé", "category": "Dam", "area_ha": 36.2, "altitude_m": null }, "geometry": { "type": "Point", "coordinates": [ 1.15942, 47.16047 ] } },
{ "type": "Feature", "properties": { "name": "Étang du Vau Rosé", "category": "Dam", "area_ha": 8.8, "altitude_m": null }, "geometry": { "type": "Point", "coordinates": [ 0.21732, 47.34475 ] } },
{ "type": "Feature", "properties": { "name": "Étang du Mur", "category": "Dam", "area_ha": 13.0, "altitude_m": null }, "geometry": { "type": "Point", "coordinates": [ 0.20617, 47.4095 ] } },
{ "type": "Feature", "properties": { "name": "Étang Neuf", "category": "Dam", "area_ha": 22.9, "altitude_m": null }, "geometry": { "type": "Point", "coordinates": [ 0.3744, 47.49072 ] } },
{ "type": "Feature", "properties": { "name": "Étang du Val Joyeux", "category": "Dam", "area_ha": 31.5, "altitude_m": null }, "geometry": { "type": "Point", "coordinates": [ 0.32575, 47.54032 ] } }
]
}
