{
"type": "FeatureCollection",
"name": "dep33.geojson",
"crs": { "type": "name", "properties": { "name": "urn:ogc:def:crs:OGC:1.3:CRS84" } },
"xy_coordinate_resolution": 1e-05,
"features": [
{ "type": "Feature", "properties": { "name": "Unnamed", "category": "Reservoir", "area_ha": 7.6, "altitude_m": null }, "geometry": { "type": "Point", "coordinates": [ -0.19485, 44.9837 ] } },
{ "type": "Feature", "properties": { "name": "Unnamed", "category": "Reservoir", "area_ha": 6.2, "altitude_m": null }, "geometry": { "type": "Point", "coordinates": [ -0.24826, 44.95702 ] } },
{ "type": "Feature", "properties": { "name": "Unnamed", "category": "Reservoir", "area_ha": 14.1, "altitude_m": null }, "geometry": { "type": "Point", "coordinates": [ -0.55319, 44.98353 ] } },
{ "type": "Feature", "properties": { "name": "Lac de Lacanau", "category": "Lake", "area_ha": 1966.6, "altitude_m": null }, "geometry": { "type": "Point", "coordinates": [ -1.11805, 44.9656 ] } },
{ "type": "Feature", "properties": { "name": "Unnamed", "category": "Reservoir", "area_ha": 19.6, "altitude_m": null }, "geometry": { "type": "Point", "coordinates": [ -1.02895, 44.64569 ] } },
{ "type": "Feature", "properties": { "name": "Lac de Bousquey", "category": "Reservoir", "area_ha": 64.3, "altitude_m": null }, "geometry": { "type": "Point", "coordinates": [ -0.62622, 44.49978 ] } },
{ "type": "Feature", "properties": { "name": "Lac de Curton", "category": "Reservoir", "area_ha": 35.8, "altitude_m": null }, "geometry": { "type": "Point", "coordinates": [ -0.59307, 44.47555 ] } },
{ "type": "Feature", "properties": { "name": "Unnamed", "category": "Reservoir", "area_ha": 6.4, "altitude_m": null }, "geometry": { "type": "Point", "coordinates": [ -0.52559, 44.94416 ] } },
{ "type": "Feature", "properties": { "name": "Unnamed", "category": "Reservoir", "area_ha": 16.6, "altitude_m": null }, "geometry": { "type": "Point", "coordinates": [ -0.34716, 44.65277 ] } },
{ "type": "Feature", "properties": { "name": "Unnamed", "category": "Reservoir", "area_ha": 7.1, "altitude_m": null }, "geometry": { "type": "Point", "coordinates": [ -1.07731, 45.509 ] } },
{ "type": "Feature", "properties": { "name": "Lac Vert", "category": "Lake", "area_ha": 7.2, "altitude_m": null }, "geometry": { "type": "Point", "coordinates": [ -0.65413, 44.74411 ] } },
{ "type": "Feature", "properties": { "name": "le Lac", "category": "Reservoir", "area_ha": 147.4, "altitude_m": null }, "geometry": { "type": "Point", "coordinates": [ -0.57832, 44.88632 ] } },
{ "type": "Feature", "properties": { "name": "Unnamed", "category": "Reservoir", "area_ha": 7.0, "altitude_m": null }, "geometry": { "type": "Point", "coordinates": [ -0.1569, 45.01554 ] } },
{ "type": "Feature", "properties": { "name": "Lacs du Moulin Blanc", "category": "Lake", "area_ha": 6.3, "altitude_m": null }, "geometry": { "type": "Point", "coordinates": [ -0.47474, 45.15113 ] } },
{ "type": "Feature", "properties": { "name": "Unnamed", "category": "Reservoir", "area_ha": 7.1, "altitude_m": null }, "geometry": { "type": "Point", "coordinates": [ -0.05055, 44.82961 ] } },
{ "type": "Feature", "properties": { "name": "Unnamed", "category": "Reservoir", "area_ha": 16.0, "altitude_m": null }, "geometry": { "type": "Point", "coordinates": [ -0.50619, 44.74486 ] } },
{ "type": "Feature", "properties": { "name": "Unnamed", "category": "Reservoir", "area_ha": 5.0, "altitude_m": null }, "geometry": { "type": "Point", "coordinates": [ -0.98027, 44.62581 ] } },
{ "type": "Feature", "properties": { "name": "Unnamed", "category": "Reservoir", "area_ha": 5.8, "altitude_m": null }, "geometry": { "type": "Point", "coordinates": [ -0.53817, 44.78389 ] } },
{ "type": "Feature", "properties": { "name": "Unnamed", "category": "Reservoir", "area_ha": 11.1, "altitude_m": null }, "geometry": { "type": "Point", "coordinates": [ -0.24032, 44.96097 ] } },
{ "type": "Feature", "properties": { "name": "Lac de la Cadie", "category": "Reservoir", "area_ha": 36.4, "altitude_m": null }, "geometry": { "type": "Point", "coordinates": [ -0.00065, 44.82842 ] } },
{ "type": "Feature", "properties": { "name": "Unnamed", "category": "Reservoir", "area_ha": 10.5, "altitude_m": null }, "geometry": { "type": "Point", "coordinates": [ -0.53598, 44.9976 ] } },
{ "type": "Feature", "properties": { "name": "Unnamed", "category": "Reservoir", "area_ha": 10.9, "altitude_m": null }, "geometry": { "type": "Point", "coordinates": [ -0.53441, 44.78397 ] } },
{ "type": "Feature", "properties": { "name": "Unnamed", "category": "Reservoir", "area_ha": 9.6, "altitude_m": null }, "geometry": { "type": "Point", "coordinates": [ -0.35186, 44.92017 ] } },
{ "type": "Feature", "properties": { "name": "Lac de Carcans", "category": "Lake", "area_ha": 2683.6, "altitude_m": null }, "geometry": { "type": "Point", "coordinates": [ -1.11352, 45.0951 ] } },
{ "type": "Feature", "properties": { "name": "Unnamed", "category": "Reservoir", "area_ha": 8.8, "altitude_m": null }, "geometry": { "type": "Point", "coordinates": [ -0.73829, 44.72249 ] } },
{ "type": "Feature", "properties": { "name": "Étang de la Levade", "category": "Reservoir", "area_ha": 5.3, "altitude_m": null }, "geometry": { "type": "Point", "coordinates": [ -0.97994, 44.95781 ] } },
{ "type": "Feature", "properties": { "name": "Gurc de Maubruc", "category": "Lake", "area_ha": 5.3, "altitude_m": null }, "geometry": { "type": "Point", "coordinates": [ -1.19853, 44.50666 ] } },
{ "type": "Feature", "properties": { "name": "Unnamed", "category": "Reservoir", "area_ha": 7.2, "altitude_m": null }, "geometry": { "type": "Point", "coordinates": [ -0.53854, 44.80436 ] } },
{ "type": "Feature", "properties": { "name": "Lacs du Moulin Blanc", "category": "Reservoir", "area_ha": 6.0, "altitude_m": null }, "geometry": { "type": "Point", "coordinates": [ -0.47734, 45.14582 ] } },
{ "type": "Feature", "properties": { "name": "Unnamed", "category": "Reservoir", "area_ha": 10.6, "altitude_m": null }, "geometry": { "type": "Point", "coordinates": [ -0.7215, 44.71473 ] } },
{ "type": "Feature", "properties": { "name": "Unnamed", "category": "Reservoir", "area_ha": 6.6, "altitude_m": null }, "geometry": { "type": "Point", "coordinates": [ -0.19956, 45.01222 ] } },
{ "type": "Feature", "properties": { "name": "Unnamed", "category": "Reservoir", "area_ha": 7.1, "altitude_m": null }, "geometry": { "type": "Point", "coordinates": [ -0.53184, 44.99544 ] } },
{ "type": "Feature", "properties": { "name": "Unnamed", "category": "Reservoir", "area_ha": 6.1, "altitude_m": null }, "geometry": { "type": "Point", "coordinates": [ -0.15926, 45.02819 ] } },
{ "type": "Feature", "properties": { "name": "Lac d'Hourtin", "category": "Lake", "area_ha": 3306.3, "altitude_m": null }, "geometry": { "type": "Point", "coordinates": [ -1.10778, 45.1706 ] } },
{ "type": "Feature", "properties": { "name": "Lac Bleu", "category": "Lake", "area_ha": 6.9, "altitude_m": null }, "geometry": { "type": "Point", "coordinates": [ -0.12565, 45.02768 ] } },
{ "type": "Feature", "properties": { "name": "Lac de Laromet", "category": "Lake", "area_ha": 7.4, "altitude_m": null }, "geometry": { "type": "Point", "coordinates": [ -0.2925, 44.66117 ] } },
{ "type": "Feature", "properties": { "name": "Unnamed", "category": "Reservoir", "area_ha": 5.7, "altitude_m": null }, "geometry": { "type": "Point", "coordinates": [ -0.53013, 44.78179 ] } },
{ "type": "Feature", "properties": { "name": "Unnamed", "category": "Reservoir", "area_ha": 6.9, "altitude_m": null }, "geometry": { "type": "Point", "coordinates": [ -1.09021, 44.61585 ] } },
{ "type": "Feature", "properties": { "name": "Unnamed", "category": "Reservoir", "area_ha": 10.1, "altitude_m": null }, "geometry": { "type": "Point", "coordinates": [ -1.04113, 44.69677 ] } },
{ "type": "Feature", "properties": { "name": "Unnamed", "category": "Reservoir", "area_ha": 7.9, "altitude_m": null }, "geometry": { "type": "Point", "coordinates": [ -0.68206, 45.28232 ] } },
{ "type": "Feature", "properties": { "name": "Unnamed", "category": "Reservoir", "area_ha": 12.7, "altitude_m": null }, "geometry": { "type": "Point", "coordinates": [ -0.92591, 45.36787 ] } },
{ "type": "Feature", "properties": { "name": "Unnamed", "category": "Reservoir", "area_ha": 27.8, "altitude_m": null }, "geometry": { "type": "Point", "coordinates": [ -0.16273, 45.00815 ] } },
{ "type": "Feature", "properties": { "name": "Grand Lac de Bernadas", "category": "Reservoir", "area_ha": 10.7, "altitude_m": null }, "geometry": { "type": "Point", "coordinates": [ -0.6484, 44.50586 ] } },
{ "type": "Feature", "properties": { "name": "Unnamed", "category": "Reservoir", "area_ha": 5.6, "altitude_m": null }, "geometry": { "type": "Point", "coordinates": [ -1.00388, 45.46813 ] } },
{ "type": "Feature", "properties": { "name": "Unnamed", "category": "Reservoir", "area_ha": 8.2, "altitude_m": null }, "geometry": { "type": "Point", "coordinates": [ -1.03189, 44.64515 ] } },
{ "type": "Feature", "properties": { "name": "Lac de la Hutte", "category": "Reservoir", "area_ha": 21.5, "altitude_m": null }, "geometry": { "type": "Point", "coordinates": [ -0.59847, 44.89195 ] } },
{ "type": "Feature", "properties": { "name": "Étang de Langouarde", "category": "Reservoir", "area_ha": 10.3, "altitude_m": null }, "geometry": { "type": "Point", "coordinates": [ -1.15437, 44.8619 ] } },
{ "type": "Feature", "properties": { "name": "Unnamed", "category": "Reservoir", "area_ha": 15.7, "altitude_m": null }, "geometry": { "type": "Point", "coordinates": [ -0.36671, 44.6676 ] } },
{ "type": "Feature", "properties": { "name": "Unnamed", "category": "Reservoir", "area_ha": 9.2, "altitude_m": null }, "geometry": { "type": "Point", "coordinates": [ -0.56243, 44.69648 ] } },
{ "type": "Feature", "properties": { "name": "Unnamed", "category": "Reservoir", "area_ha": 5.1, "altitude_m": null }, "geometry": { "type": "Point", "coordinates": [ -1.04277, 44.64729 ] } },
{ "type": "Feature", "properties": { "name": "Unnamed", "category": "Reservoir", "area_ha": 5.5, "altitude_m": null }, "geometry": { "type": "Point", "coordinates": [ -1.03987, 44.64533 ] } },
{ "type": "Feature", "properties": { "name": "Unnamed", "category": "Reservoir", "area_ha": 13.2, "altitude_m": null }, "geometry": { "type": "Point", "coordinates": [ -0.26624, 44.87273 ] } },
{ "type": "Feature", "properties": { "name": "Unnamed", "category": "Reservoir", "area_ha": 9.8, "altitude_m": null }, "geometry": { "type": "Point", "coordinates": [ -0.68293, 45.26129 ] } },
{ "type": "Feature", "properties": { "name": "Unnamed", "category": "Reservoir", "area_ha": 7.2, "altitude_m": null }, "geometry": { "type": "Point", "coordinates": [ -0.38012, 44.91905 ] } },
{ "type": "Feature", "properties": { "name": "Unnamed", "category": "Reservoir", "area_ha": 15.0, "altitude_m": null }, "geometry": { "type": "Point", "coordinates": [ -0.26806, 44.79955 ] } },
{ "type": "Feature", "properties": { "name": "Unnamed", "category": "Reservoir", "area_ha": 52.5, "altitude_m": null }, "geometry": { "type": "Point", "coordinates": [ -0.24861, 44.94135 ] } },
{ "type": "Feature", "properties": { "name": "Unnamed", "category": "Reservoir", "area_ha": 12.9, "altitude_m": null }, "geometry": { "type": "Point", "coordinates": [ -0.7692, 44.82183 ] } },
{ "type": "Feature", "properties": { "name": "Unnamed", "category": "Reservoir", "area_ha": 8.4, "altitude_m": null }, "geometry": { "type": "Point", "coordinates": [ -0.20169, 45.01108 ] } },
{ "type": "Feature", "properties": { "name": "Unnamed", "category": "Reservoir", "area_ha": 7.0, "altitude_m": null }, "geometry": { "type": "Point", "coordinates": [ -0.18956, 44.44798 ] } },
{ "type": "Feature", "properties": { "name": "Unnamed", "category": "Reservoir", "area_ha": 5.4, "altitude_m": null }, "geometry": { "type": "Point", "coordinates": [ -0.68709, 45.26373 ] } },
{ "type": "Feature", "properties": { "name": "Unnamed", "category": "Reservoir", "area_ha": 5.9, "altitude_m": null }, "geometry": { "type": "Point", "coordinates": [ -0.05887, 45.00457 ] } },
{ "type": "Feature", "properties": { "name": "Unnamed", "category": "Reservoir", "area_ha": 28.4, "altitude_m": null }, "geometry": { "type": "Point", "coordinates": [ -0.98771, 45.45623 ] } },
{ "type": "Feature", "properties": { "name": "Unnamed", "category": "Reservoir", "area_ha": 5.3, "altitude_m": null }, "geometry": { "type": "Point", "coordinates": [ -0.98197, 45.28222 ] } },
{ "type": "Feature", "properties": { "name": "Unnamed", "category": "Reservoir", "area_ha": 5.9, "altitude_m": null }, "geometry": { "type": "Point", "coordinates": [ -0.50938, 44.74895 ] } },
{ "type": "Feature", "properties": { "name": "Unnamed", "category": "Reservoir", "area_ha": 6.8, "altitude_m": null }, "geometry": { "type": "Point", "coordinates": [ -0.52603, 44.9473 ] } },
{ "type": "Feature", "properties": { "name": "Unnamed", "category": "Reservoir", "area_ha": 7.0, "altitude_m": null }, "geometry": { "type": "Point", "coordinates": [ -1.04094, 45.38222 ] } },
{ "type": "Feature", "properties": { "name": "Lac Vert", "category": "Reservoir", "area_ha": 6.1, "altitude_m": null }, "geometry": { "type": "Point", "coordinates": [ -0.95727, 44.64455 ] } },
{ "type": "Feature", "properties": { "name": "Unnamed", "category": "Reservoir", "area_ha": 9.2, "altitude_m": null }, "geometry": { "type": "Point", "coordinates": [ -1.04578, 45.38124 ] } },
{ "type": "Feature", "properties": { "name": "Unnamed", "category": "Reservoir", "area_ha": 14.3, "altitude_m": null }, "geometry": { "type": "Point", "coordinates": [ -0.37943, 44.92327 ] } },
{ "type": "Feature", "properties": { "name": "Plan d'Eau de Paloumey", "category": "Reservoir", "area_ha": 6.8, "altitude_m": null }, "geometry": { "type": "Point", "coordinates": [ -0.62781, 44.9838 ] } },
{ "type": "Feature", "properties": { "name": "Plan d'Eau de la Blanche", "category": "Reservoir", "area_ha": 32.9, "altitude_m": null }, "geometry": { "type": "Point", "coordinates": [ -0.51821, 44.94532 ] } },
{ "type": "Feature", "properties": { "name": "Lac de Lamothe", "category": "Reservoir", "area_ha": 35.3, "altitude_m": null }, "geometry": { "type": "Point", "coordinates": [ -0.64824, 44.50269 ] } },
{ "type": "Feature", "properties": { "name": "Étang de la Ferrière", "category": "Reservoir", "area_ha": 8.0, "altitude_m": null }, "geometry": { "type": "Point", "coordinates": [ -0.42815, 44.4693 ] } },
{ "type": "Feature", "properties": { "name": "Lac du Bourg", "category": "Reservoir", "area_ha": 19.0, "altitude_m": null }, "geometry": { "type": "Point", "coordinates": [ -0.64563, 44.49812 ] } },
{ "type": "Feature", "properties": { "name": "Unnamed", "category": "Reservoir", "area_ha": 41.8, "altitude_m": null }, "geometry": { "type": "Point", "coordinates": [ -0.84136, 44.69116 ] } },
{ "type": "Feature", "properties": { "name": "Unnamed", "category": "Reservoir", "area_ha": 6.8, "altitude_m": null }, "geometry": { "type": "Point", "coordinates": [ -1.03738, 44.64606 ] } },
{ "type": "Feature", "properties": { "name": "Petit Lac de Bernadas", "category": "Reservoir", "area_ha": 9.1, "altitude_m": null }, "geometry": { "type": "Point", "coordinates": [ -0.65469, 44.50308 ] } },
{ "type": "Feature", "properties": { "name": "Unnamed", "category": "Reservoir", "area_ha": 8.5, "altitude_m": null }, "geometry": { "type": "Point", "coordinates": [ -0.69339, 45.26278 ] } },
{ "type": "Feature", "properties": { "name": "Unnamed", "category": "Reservoir", "area_ha": 24.4, "altitude_m": null }, "geometry": { "type": "Point", "coordinates": [ -0.05347, 44.82333 ] } },
{ "type": "Feature", "properties": { "name": "Unnamed", "category": "Reservoir", "area_ha": 13.4, "altitude_m": null }, "geometry": { "type": "Point", "coordinates": [ -0.9959, 45.27862 ] } },
{ "type": "Feature", "properties": { "name": "Unnamed", "category": "Reservoir", "area_ha": 8.6, "altitude_m": null }, "geometry": { "type": "Point", "coordinates": [ -1.1559, 44.77192 ] } },
{ "type": "Feature", "properties": { "name": "la du Petit Bernadas", "category": "Dam", "area_ha": 15.7, "altitude_m": null }, "geometry": { "type": "Point", "coordinates": [ -0.0575, 44.45131 ] } },
{ "type": "Feature", "properties": { "name": "Lac de la Prade", "category": "Dam", "area_ha": 59.3, "altitude_m": null }, "geometry": { "type": "Point", "coordinates": [ -0.17115, 44.43641 ] } },
{ "type": "Feature", "properties": { "name": "Unnamed", "category": "Dam", "area_ha": 19.7, "altitude_m": null }, "geometry": { "type": "Point", "coordinates": [ -0.17376, 44.4755 ] } }
]
}
