{
"type": "FeatureCollection",
"name": "dep42.geojson",
"crs": { "type": "name", "properties": { "name": "urn:ogc:def:crs:OGC:1.3:CRS84" } },
"xy_coordinate_resolution": 1e-05,
"features": [
{ "type": "Feature", "properties": { "name": "Étang de la Vorzillière", "category": "Reservoir", "area_ha": 9.0, "altitude_m": null }, "geometry": { "type": "Point", "coordinates": [ 4.23106, 45.59614 ] } },
{ "type": "Feature", "properties": { "name": "Lac de Grangent", "category": "Dam", "area_ha": 333.6, "altitude_m": null }, "geometry": { "type": "Point", "coordinates": [ 4.24771, 45.42871 ] } },
{ "type": "Feature", "properties": { "name": "Étang Bardoire", "category": "Reservoir", "area_ha": 6.0, "altitude_m": null }, "geometry": { "type": "Point", "coordinates": [ 4.1572, 45.64526 ] } },
{ "type": "Feature", "properties": { "name": "Unnamed", "category": "Reservoir", "area_ha": 6.4, "altitude_m": null }, "geometry": { "type": "Point", "coordinates": [ 4.04777, 45.81988 ] } },
{ "type": "Feature", "properties": { "name": "Étang de Fleury", "category": "Reservoir", "area_ha": 9.9, "altitude_m": null }, "geometry": { "type": "Point", "coordinates": [ 4.0564, 45.76459 ] } },
{ "type": "Feature", "properties": { "name": "Unnamed", "category": "Reservoir", "area_ha": 9.2, "altitude_m": null }, "geometry": { "type": "Point", "coordinates": [ 4.26131, 45.69535 ] } },
{ "type": "Feature", "properties": { "name": "Étang du Mas", "category": "Reservoir", "area_ha": 12.5, "altitude_m": null }, "geometry": { "type": "Point", "coordinates": [ 4.07134, 45.80549 ] } },
{ "type": "Feature", "properties": { "name": "Unnamed", "category": "Reservoir", "area_ha": 9.2, "altitude_m": null }, "geometry": { "type": "Point", "coordinates": [ 4.19878, 45.63302 ] } },
{ "type": "Feature", "properties": { "name": "Étang de la Croisette", "category": "Reservoir", "area_ha": 12.5, "altitude_m": null }, "geometry": { "type": "Point", "coordinates": [ 4.26136, 45.71824 ] } },
{ "type": "Feature", "properties": { "name": "Étang du Perrin", "category": "Reservoir", "area_ha": 7.7, "altitude_m": null }, "geometry": { "type": "Point", "coordinates": [ 4.09574, 45.66025 ] } },
{ "type": "Feature", "properties": { "name": "Étang des Rivaux", "category": "Reservoir", "area_ha": 9.2, "altitude_m": null }, "geometry": { "type": "Point", "coordinates": [ 4.14373, 45.70585 ] } },
{ "type": "Feature", "properties": { "name": "Unnamed", "category": "Reservoir", "area_ha": 5.1, "altitude_m": null }, "geometry": { "type": "Point", "coordinates": [ 4.14066, 45.69341 ] } },
{ "type": "Feature", "properties": { "name": "Unnamed", "category": "Reservoir", "area_ha": 17.4, "altitude_m": null }, "geometry": { "type": "Point", "coordinates": [ 4.19958, 45.68795 ] } },
{ "type": "Feature", "properties": { "name": "Étang Vieux", "category": "Reservoir", "area_ha": 18.8, "altitude_m": null }, "geometry": { "type": "Point", "coordinates": [ 4.25092, 45.71531 ] } },
{ "type": "Feature", "properties": { "name": "Unnamed", "category": "Reservoir", "area_ha": 6.2, "altitude_m": null }, "geometry": { "type": "Point", "coordinates": [ 4.04101, 45.75473 ] } },
{ "type": "Feature", "properties": { "name": "Unnamed", "category": "Reservoir", "area_ha": 7.3, "altitude_m": null }, "geometry": { "type": "Point", "coordinates": [ 4.08174, 45.77265 ] } },
{ "type": "Feature", "properties": { "name": "Grand Étang d'Urfé", "category": "Reservoir", "area_ha": 11.6, "altitude_m": null }, "geometry": { "type": "Point", "coordinates": [ 4.04819, 45.79536 ] } },
{ "type": "Feature", "properties": { "name": "Étang de l'Île", "category": "Reservoir", "area_ha": 8.7, "altitude_m": null }, "geometry": { "type": "Point", "coordinates": [ 4.07827, 45.77647 ] } },
{ "type": "Feature", "properties": { "name": "Étang Durand", "category": "Reservoir", "area_ha": 8.9, "altitude_m": null }, "geometry": { "type": "Point", "coordinates": [ 4.12191, 45.68291 ] } },
{ "type": "Feature", "properties": { "name": "Étang César", "category": "Reservoir", "area_ha": 10.7, "altitude_m": null }, "geometry": { "type": "Point", "coordinates": [ 4.0506, 45.70787 ] } },
{ "type": "Feature", "properties": { "name": "Étangs de la Vallon", "category": "Reservoir", "area_ha": 7.3, "altitude_m": null }, "geometry": { "type": "Point", "coordinates": [ 4.07861, 45.65183 ] } },
{ "type": "Feature", "properties": { "name": "Unnamed", "category": "Reservoir", "area_ha": 9.0, "altitude_m": null }, "geometry": { "type": "Point", "coordinates": [ 4.07555, 45.79497 ] } },
{ "type": "Feature", "properties": { "name": "Étang des Rouiarts", "category": "Reservoir", "area_ha": 14.3, "altitude_m": null }, "geometry": { "type": "Point", "coordinates": [ 4.06498, 45.76161 ] } },
{ "type": "Feature", "properties": { "name": "Étang d'Urfé", "category": "Reservoir", "area_ha": 9.3, "altitude_m": null }, "geometry": { "type": "Point", "coordinates": [ 4.06693, 45.7736 ] } },
{ "type": "Feature", "properties": { "name": "Lizerieux", "category": "Reservoir", "area_ha": 6.2, "altitude_m": null }, "geometry": { "type": "Point", "coordinates": [ 4.10326, 45.76027 ] } },
{ "type": "Feature", "properties": { "name": "Étang de Sainte-Agathe", "category": "Reservoir", "area_ha": 9.8, "altitude_m": null }, "geometry": { "type": "Point", "coordinates": [ 4.06724, 45.76485 ] } },
{ "type": "Feature", "properties": { "name": "Plan d'Eau de la Lone", "category": "Dam", "area_ha": 18.6, "altitude_m": null }, "geometry": { "type": "Point", "coordinates": [ 4.75223, 45.37736 ] } },
{ "type": "Feature", "properties": { "name": "la Tuilerie", "category": "Reservoir", "area_ha": 6.0, "altitude_m": null }, "geometry": { "type": "Point", "coordinates": [ 4.11103, 45.77293 ] } },
{ "type": "Feature", "properties": { "name": "les Rouiarts Cinq Cent Cinquante", "category": "Reservoir", "area_ha": 5.2, "altitude_m": null }, "geometry": { "type": "Point", "coordinates": [ 4.05898, 45.75831 ] } },
{ "type": "Feature", "properties": { "name": "Unnamed", "category": "Reservoir", "area_ha": 11.0, "altitude_m": null }, "geometry": { "type": "Point", "coordinates": [ 4.09119, 45.61255 ] } },
{ "type": "Feature", "properties": { "name": "Étang Bardaine", "category": "Reservoir", "area_ha": 5.1, "altitude_m": null }, "geometry": { "type": "Point", "coordinates": [ 4.07542, 45.80515 ] } },
{ "type": "Feature", "properties": { "name": "Étang l'Île", "category": "Reservoir", "area_ha": 7.2, "altitude_m": null }, "geometry": { "type": "Point", "coordinates": [ 4.06459, 45.79745 ] } },
{ "type": "Feature", "properties": { "name": "Bellevue Cinq Cent Vingt", "category": "Reservoir", "area_ha": 9.9, "altitude_m": null }, "geometry": { "type": "Point", "coordinates": [ 4.24727, 45.7596 ] } },
{ "type": "Feature", "properties": { "name": "Unnamed", "category": "Dam", "area_ha": 25.5, "altitude_m": null }, "geometry": { "type": "Point", "coordinates": [ 4.41493, 45.32958 ] } },
{ "type": "Feature", "properties": { "name": "Étang d'Arçon", "category": "Reservoir", "area_ha": 9.7, "altitude_m": null }, "geometry": { "type": "Point", "coordinates": [ 3.90193, 46.15506 ] } },
{ "type": "Feature", "properties": { "name": "Étang de Lachaud", "category": "Reservoir", "area_ha": 6.5, "altitude_m": null }, "geometry": { "type": "Point", "coordinates": [ 4.17331, 45.62161 ] } },
{ "type": "Feature", "properties": { "name": "Étang des Joncs", "category": "Reservoir", "area_ha": 5.7, "altitude_m": null }, "geometry": { "type": "Point", "coordinates": [ 4.24504, 45.7241 ] } },
{ "type": "Feature", "properties": { "name": "Étang de l'Ally", "category": "Reservoir", "area_ha": 5.4, "altitude_m": null }, "geometry": { "type": "Point", "coordinates": [ 4.16523, 45.69611 ] } },
{ "type": "Feature", "properties": { "name": "le Grand Étang", "category": "Reservoir", "area_ha": 13.3, "altitude_m": null }, "geometry": { "type": "Point", "coordinates": [ 4.07717, 45.77329 ] } },
{ "type": "Feature", "properties": { "name": "Unnamed", "category": "Reservoir", "area_ha": 5.7, "altitude_m": null }, "geometry": { "type": "Point", "coordinates": [ 4.11632, 45.68441 ] } },
{ "type": "Feature", "properties": { "name": "Unnamed", "category": "Reservoir", "area_ha": 5.6, "altitude_m": null }, "geometry": { "type": "Point", "coordinates": [ 4.0641, 45.81381 ] } },
{ "type": "Feature", "properties": { "name": "Barrage du Rouchain", "category": "Dam", "area_ha": 35.9, "altitude_m": null }, "geometry": { "type": "Point", "coordinates": [ 3.86307, 46.04325 ] } },
{ "type": "Feature", "properties": { "name": "Petit Marais", "category": "Reservoir", "area_ha": 6.2, "altitude_m": null }, "geometry": { "type": "Point", "coordinates": [ 4.09967, 45.69831 ] } },
{ "type": "Feature", "properties": { "name": "Unnamed", "category": "Reservoir", "area_ha": 5.6, "altitude_m": null }, "geometry": { "type": "Point", "coordinates": [ 4.05045, 45.75709 ] } },
{ "type": "Feature", "properties": { "name": "Unnamed", "category": "Reservoir", "area_ha": 7.1, "altitude_m": null }, "geometry": { "type": "Point", "coordinates": [ 4.24122, 45.58732 ] } },
{ "type": "Feature", "properties": { "name": "Étang Couzon", "category": "Reservoir", "area_ha": 10.8, "altitude_m": null }, "geometry": { "type": "Point", "coordinates": [ 4.14605, 45.63449 ] } },
{ "type": "Feature", "properties": { "name": "Loibe", "category": "Reservoir", "area_ha": 12.8, "altitude_m": null }, "geometry": { "type": "Point", "coordinates": [ 4.09257, 45.69314 ] } },
{ "type": "Feature", "properties": { "name": "Unnamed", "category": "Reservoir", "area_ha": 10.8, "altitude_m": null }, "geometry": { "type": "Point", "coordinates": [ 3.83624, 45.99799 ] } },
{ "type": "Feature", "properties": { "name": "Unnamed", "category": "Reservoir", "area_ha": 5.8, "altitude_m": null }, "geometry": { "type": "Point", "coordinates": [ 4.20186, 45.68173 ] } },
{ "type": "Feature", "properties": { "name": "Unnamed", "category": "Reservoir", "area_ha": 6.5, "altitude_m": null }, "geometry": { "type": "Point", "coordinates": [ 4.12979, 45.65797 ] } },
{ "type": "Feature", "properties": { "name": "Unnamed", "category": "Reservoir", "area_ha": 6.9, "altitude_m": null }, "geometry": { "type": "Point", "coordinates": [ 4.08522, 45.63293 ] } },
{ "type": "Feature", "properties": { "name": "Unnamed", "category": "Reservoir", "area_ha": 10.2, "altitude_m": null }, "geometry": { "type": "Point", "coordinates": [ 4.27372, 45.72106 ] } },
{ "type": "Feature", "properties": { "name": "Unnamed", "category": "Reservoir", "area_ha": 5.4, "altitude_m": null }, "geometry": { "type": "Point", "coordinates": [ 4.24647, 45.51991 ] } },
{ "type": "Feature", "properties": { "name": "Unnamed", "category": "Reservoir", "area_ha": 5.5, "altitude_m": null }, "geometry": { "type": "Point", "coordinates": [ 4.23731, 45.60579 ] } },
{ "type": "Feature", "properties": { "name": "Unnamed", "category": "Reservoir", "area_ha": 11.3, "altitude_m": null }, "geometry": { "type": "Point", "coordinates": [ 4.12385, 45.64376 ] } },
{ "type": "Feature", "properties": { "name": "Unnamed", "category": "Reservoir", "area_ha": 10.5, "altitude_m": null }, "geometry": { "type": "Point", "coordinates": [ 4.23217, 45.49613 ] } },
{ "type": "Feature", "properties": { "name": "Étang de Vidrieux", "category": "Reservoir", "area_ha": 10.0, "altitude_m": null }, "geometry": { "type": "Point", "coordinates": [ 4.07562, 45.56068 ] } },
{ "type": "Feature", "properties": { "name": "Étangs de Grange Neuve Neuf Cent Vingt", "category": "Reservoir", "area_ha": 8.3, "altitude_m": null }, "geometry": { "type": "Point", "coordinates": [ 4.09613, 45.65736 ] } },
{ "type": "Feature", "properties": { "name": "Savigneux", "category": "Reservoir", "area_ha": 6.4, "altitude_m": null }, "geometry": { "type": "Point", "coordinates": [ 4.12692, 45.63887 ] } },
{ "type": "Feature", "properties": { "name": "Étang Richard", "category": "Reservoir", "area_ha": 7.6, "altitude_m": null }, "geometry": { "type": "Point", "coordinates": [ 4.15924, 45.62889 ] } },
{ "type": "Feature", "properties": { "name": "Étang du Comte", "category": "Reservoir", "area_ha": 6.3, "altitude_m": null }, "geometry": { "type": "Point", "coordinates": [ 4.15498, 45.59513 ] } },
{ "type": "Feature", "properties": { "name": "Étang Neuf", "category": "Reservoir", "area_ha": 20.2, "altitude_m": null }, "geometry": { "type": "Point", "coordinates": [ 4.24144, 45.72148 ] } },
{ "type": "Feature", "properties": { "name": "Unnamed", "category": "Reservoir", "area_ha": 26.2, "altitude_m": null }, "geometry": { "type": "Point", "coordinates": [ 4.244, 45.61102 ] } },
{ "type": "Feature", "properties": { "name": "Unnamed", "category": "Reservoir", "area_ha": 5.1, "altitude_m": null }, "geometry": { "type": "Point", "coordinates": [ 4.24063, 45.59214 ] } },
{ "type": "Feature", "properties": { "name": "Unnamed", "category": "Reservoir", "area_ha": 9.0, "altitude_m": null }, "geometry": { "type": "Point", "coordinates": [ 4.11604, 45.63334 ] } },
{ "type": "Feature", "properties": { "name": "Étang Bailly", "category": "Reservoir", "area_ha": 6.5, "altitude_m": null }, "geometry": { "type": "Point", "coordinates": [ 4.02619, 45.74906 ] } },
{ "type": "Feature", "properties": { "name": "Unnamed", "category": "Reservoir", "area_ha": 7.8, "altitude_m": null }, "geometry": { "type": "Point", "coordinates": [ 4.20155, 45.69034 ] } },
{ "type": "Feature", "properties": { "name": "Unnamed", "category": "Reservoir", "area_ha": 9.3, "altitude_m": null }, "geometry": { "type": "Point", "coordinates": [ 4.1084, 45.65921 ] } },
{ "type": "Feature", "properties": { "name": "Unnamed", "category": "Reservoir", "area_ha": 7.3, "altitude_m": null }, "geometry": { "type": "Point", "coordinates": [ 4.20117, 45.50149 ] } },
{ "type": "Feature", "properties": { "name": "Unnamed", "category": "Reservoir", "area_ha": 7.4, "altitude_m": null }, "geometry": { "type": "Point", "coordinates": [ 4.12383, 45.66668 ] } },
{ "type": "Feature", "properties": { "name": "Étangs des Marquands", "category": "Reservoir", "area_ha": 11.0, "altitude_m": null }, "geometry": { "type": "Point", "coordinates": [ 4.09349, 45.79226 ] } },
{ "type": "Feature", "properties": { "name": "Unnamed", "category": "Reservoir", "area_ha": 5.9, "altitude_m": null }, "geometry": { "type": "Point", "coordinates": [ 4.11911, 45.63544 ] } },
{ "type": "Feature", "properties": { "name": "Étang d'Urfé", "category": "Reservoir", "area_ha": 10.8, "altitude_m": null }, "geometry": { "type": "Point", "coordinates": [ 4.07067, 45.77184 ] } },
{ "type": "Feature", "properties": { "name": "Étang Minguet", "category": "Reservoir", "area_ha": 7.9, "altitude_m": null }, "geometry": { "type": "Point", "coordinates": [ 4.06555, 45.77124 ] } },
{ "type": "Feature", "properties": { "name": "Étang de la Grille", "category": "Reservoir", "area_ha": 10.2, "altitude_m": null }, "geometry": { "type": "Point", "coordinates": [ 4.12161, 45.77978 ] } },
{ "type": "Feature", "properties": { "name": "Étang d'Ormaie", "category": "Reservoir", "area_ha": 23.9, "altitude_m": null }, "geometry": { "type": "Point", "coordinates": [ 4.07721, 45.79945 ] } },
{ "type": "Feature", "properties": { "name": "Étang de la Plagne", "category": "Reservoir", "area_ha": 7.8, "altitude_m": null }, "geometry": { "type": "Point", "coordinates": [ 4.0698, 45.7684 ] } },
{ "type": "Feature", "properties": { "name": "Étang du Palais", "category": "Reservoir", "area_ha": 21.9, "altitude_m": null }, "geometry": { "type": "Point", "coordinates": [ 4.24998, 45.73795 ] } },
{ "type": "Feature", "properties": { "name": "l'Étang Profond", "category": "Reservoir", "area_ha": 7.2, "altitude_m": null }, "geometry": { "type": "Point", "coordinates": [ 4.08049, 45.75667 ] } },
{ "type": "Feature", "properties": { "name": "Étang Pinat", "category": "Reservoir", "area_ha": 10.3, "altitude_m": null }, "geometry": { "type": "Point", "coordinates": [ 4.08816, 45.76215 ] } },
{ "type": "Feature", "properties": { "name": "Étang Mazoyer", "category": "Reservoir", "area_ha": 8.8, "altitude_m": null }, "geometry": { "type": "Point", "coordinates": [ 4.23043, 45.69629 ] } },
{ "type": "Feature", "properties": { "name": "Étang du Désert", "category": "Reservoir", "area_ha": 25.8, "altitude_m": null }, "geometry": { "type": "Point", "coordinates": [ 4.26235, 45.72448 ] } },
{ "type": "Feature", "properties": { "name": "Étang des Gouttes", "category": "Reservoir", "area_ha": 20.0, "altitude_m": null }, "geometry": { "type": "Point", "coordinates": [ 4.24768, 45.7296 ] } },
{ "type": "Feature", "properties": { "name": "Étang des Grands Prévoriaux", "category": "Reservoir", "area_ha": 13.3, "altitude_m": null }, "geometry": { "type": "Point", "coordinates": [ 4.23398, 45.71969 ] } },
{ "type": "Feature", "properties": { "name": "Étang de la Seigle", "category": "Reservoir", "area_ha": 6.6, "altitude_m": null }, "geometry": { "type": "Point", "coordinates": [ 4.14817, 45.70661 ] } },
{ "type": "Feature", "properties": { "name": "Étang Grand Prau", "category": "Reservoir", "area_ha": 13.0, "altitude_m": null }, "geometry": { "type": "Point", "coordinates": [ 4.12109, 45.68619 ] } },
{ "type": "Feature", "properties": { "name": "Étang Tournon", "category": "Reservoir", "area_ha": 12.5, "altitude_m": null }, "geometry": { "type": "Point", "coordinates": [ 4.1204, 45.69009 ] } },
{ "type": "Feature", "properties": { "name": "Étang de la Ronze", "category": "Reservoir", "area_ha": 11.0, "altitude_m": null }, "geometry": { "type": "Point", "coordinates": [ 4.22571, 45.57515 ] } },
{ "type": "Feature", "properties": { "name": "Étang de la Sauzée", "category": "Reservoir", "area_ha": 17.1, "altitude_m": null }, "geometry": { "type": "Point", "coordinates": [ 4.16668, 45.5753 ] } },
{ "type": "Feature", "properties": { "name": "Étang de la Goutte", "category": "Reservoir", "area_ha": 5.4, "altitude_m": null }, "geometry": { "type": "Point", "coordinates": [ 3.78931, 45.85999 ] } },
{ "type": "Feature", "properties": { "name": "Bellevue Cinq Cent Trente", "category": "Reservoir", "area_ha": 12.8, "altitude_m": null }, "geometry": { "type": "Point", "coordinates": [ 4.244, 45.76143 ] } },
{ "type": "Feature", "properties": { "name": "Bellevue Cinq Cent Quarante", "category": "Reservoir", "area_ha": 11.1, "altitude_m": null }, "geometry": { "type": "Point", "coordinates": [ 4.23876, 45.76013 ] } },
{ "type": "Feature", "properties": { "name": "Unnamed", "category": "Reservoir", "area_ha": 5.7, "altitude_m": null }, "geometry": { "type": "Point", "coordinates": [ 4.09531, 45.68975 ] } },
{ "type": "Feature", "properties": { "name": "Étangs de Grange Neuve", "category": "Reservoir", "area_ha": 9.3, "altitude_m": null }, "geometry": { "type": "Point", "coordinates": [ 4.09149, 45.65572 ] } },
{ "type": "Feature", "properties": { "name": "Grand Marais", "category": "Reservoir", "area_ha": 22.3, "altitude_m": null }, "geometry": { "type": "Point", "coordinates": [ 4.09238, 45.69806 ] } },
{ "type": "Feature", "properties": { "name": "Grand Étang de Sury", "category": "Reservoir", "area_ha": 32.5, "altitude_m": null }, "geometry": { "type": "Point", "coordinates": [ 4.28373, 45.69842 ] } },
{ "type": "Feature", "properties": { "name": "Étang des Bruyères", "category": "Reservoir", "area_ha": 11.7, "altitude_m": null }, "geometry": { "type": "Point", "coordinates": [ 4.25018, 45.72055 ] } },
{ "type": "Feature", "properties": { "name": "Étang Motasse", "category": "Reservoir", "area_ha": 15.1, "altitude_m": null }, "geometry": { "type": "Point", "coordinates": [ 4.27179, 45.71317 ] } },
{ "type": "Feature", "properties": { "name": "Étang de Totte", "category": "Reservoir", "area_ha": 26.7, "altitude_m": null }, "geometry": { "type": "Point", "coordinates": [ 4.0702, 45.77761 ] } },
{ "type": "Feature", "properties": { "name": "Unnamed", "category": "Reservoir", "area_ha": 6.1, "altitude_m": null }, "geometry": { "type": "Point", "coordinates": [ 4.17002, 45.68371 ] } },
{ "type": "Feature", "properties": { "name": "Étang Tapée", "category": "Reservoir", "area_ha": 8.2, "altitude_m": null }, "geometry": { "type": "Point", "coordinates": [ 4.11907, 45.69685 ] } },
{ "type": "Feature", "properties": { "name": "Étang Pallotier", "category": "Reservoir", "area_ha": 18.7, "altitude_m": null }, "geometry": { "type": "Point", "coordinates": [ 4.10864, 45.67359 ] } },
{ "type": "Feature", "properties": { "name": "Étang de la Grille", "category": "Reservoir", "area_ha": 7.1, "altitude_m": null }, "geometry": { "type": "Point", "coordinates": [ 4.10773, 45.69261 ] } },
{ "type": "Feature", "properties": { "name": "Étang de Bullieu Neuf Cent Soixante", "category": "Reservoir", "area_ha": 9.6, "altitude_m": null }, "geometry": { "type": "Point", "coordinates": [ 4.11578, 45.64329 ] } },
{ "type": "Feature", "properties": { "name": "Étang de la Beaume", "category": "Reservoir", "area_ha": 10.2, "altitude_m": null }, "geometry": { "type": "Point", "coordinates": [ 4.26287, 45.55154 ] } },
{ "type": "Feature", "properties": { "name": "Étang de la Pelouse", "category": "Dam", "area_ha": 8.0, "altitude_m": null }, "geometry": { "type": "Point", "coordinates": [ 3.86366, 46.2369 ] } },
{ "type": "Feature", "properties": { "name": "Unnamed", "category": "Dam", "area_ha": 20.3, "altitude_m": null }, "geometry": { "type": "Point", "coordinates": [ 3.71716, 45.96741 ] } },
{ "type": "Feature", "properties": { "name": "Étang de Corée", "category": "Dam", "area_ha": 8.7, "altitude_m": null }, "geometry": { "type": "Point", "coordinates": [ 3.90418, 46.18349 ] } },
{ "type": "Feature", "properties": { "name": "Barrage de Cotatay", "category": "Dam", "area_ha": 8.0, "altitude_m": null }, "geometry": { "type": "Point", "coordinates": [ 4.38884, 45.37799 ] } },
{ "type": "Feature", "properties": { "name": "Retenue de Soulages", "category": "Dam", "area_ha": 15.9, "altitude_m": null }, "geometry": { "type": "Point", "coordinates": [ 4.51505, 45.4323 ] } },
{ "type": "Feature", "properties": { "name": "Unnamed", "category": "Dam", "area_ha": 3.0, "altitude_m": null }, "geometry": { "type": "Point", "coordinates": [ 4.33457, 45.61018 ] } },
{ "type": "Feature", "properties": { "name": "Barrage de Pontabouland", "category": "Dam", "area_ha": 2.4, "altitude_m": null }, "geometry": { "type": "Point", "coordinates": [ 3.96982, 45.72023 ] } },
{ "type": "Feature", "properties": { "name": "Unnamed", "category": "Dam", "area_ha": 15.2, "altitude_m": null }, "geometry": { "type": "Point", "coordinates": [ 3.90087, 46.17016 ] } },
{ "type": "Feature", "properties": { "name": "le Pas du Riot", "category": "Dam", "area_ha": 8.8, "altitude_m": null }, "geometry": { "type": "Point", "coordinates": [ 4.45983, 45.37658 ] } },
{ "type": "Feature", "properties": { "name": "Barrage l'Ondenon", "category": "Dam", "area_ha": 3.0, "altitude_m": null }, "geometry": { "type": "Point", "coordinates": [ 4.3875, 45.39489 ] } },
{ "type": "Feature", "properties": { "name": "Barrage de la Tache", "category": "Dam", "area_ha": 20.9, "altitude_m": null }, "geometry": { "type": "Point", "coordinates": [ 3.86223, 46.05145 ] } },
{ "type": "Feature", "properties": { "name": "Retenue du Dorlay", "category": "Dam", "area_ha": 19.6, "altitude_m": null }, "geometry": { "type": "Point", "coordinates": [ 4.57318, 45.44009 ] } },
{ "type": "Feature", "properties": { "name": "Retenue de la Rive", "category": "Dam", "area_ha": 10.8, "altitude_m": null }, "geometry": { "type": "Point", "coordinates": [ 4.51211, 45.42146 ] } },
{ "type": "Feature", "properties": { "name": "Unnamed", "category": "Dam", "area_ha": 2.6, "altitude_m": null }, "geometry": { "type": "Point", "coordinates": [ 3.92249, 45.68845 ] } },
{ "type": "Feature", "properties": { "name": "le Gouffre d'Enfer", "category": "Dam", "area_ha": 7.5, "altitude_m": null }, "geometry": { "type": "Point", "coordinates": [ 4.44653, 45.3893 ] } },
{ "type": "Feature", "properties": { "name": "Lac de Villerest", "category": "Dam", "area_ha": 614.6, "altitude_m": null }, "geometry": { "type": "Point", "coordinates": [ 4.04106, 45.92596 ] } },
{ "type": "Feature", "properties": { "name": "Retenue de Couzon", "category": "Dam", "area_ha": 14.5, "altitude_m": null }, "geometry": { "type": "Point", "coordinates": [ 4.62434, 45.49354 ] } }
]
}
