{
"type": "FeatureCollection",
"name": "dep49.geojson",
"crs": { "type": "name", "properties": { "name": "urn:ogc:def:crs:OGC:1.3:CRS84" } },
"xy_coordinate_resolution": 1e-05,
"features": [
{ "type": "Feature", "properties": { "name": "Unnamed", "category": "Reservoir", "area_ha": 7.2, "altitude_m": null }, "geometry": { "type": "Point", "coordinates": [ -0.61859, 47.42542 ] } },
{ "type": "Feature", "properties": { "name": "Unnamed", "category": "Reservoir", "area_ha": 6.5, "altitude_m": null }, "geometry": { "type": "Point", "coordinates": [ -0.25871, 47.64445 ] } },
{ "type": "Feature", "properties": { "name": "Montbourcher", "category": "Reservoir", "area_ha": 10.0, "altitude_m": null }, "geometry": { "type": "Point", "coordinates": [ -0.70315, 47.68284 ] } },
{ "type": "Feature", "properties": { "name": "Unnamed", "category": "Reservoir", "area_ha": 5.5, "altitude_m": null }, "geometry": { "type": "Point", "coordinates": [ -0.42688, 47.57445 ] } },
{ "type": "Feature", "properties": { "name": "Unnamed", "category": "Reservoir", "area_ha": 5.3, "altitude_m": null }, "geometry": { "type": "Point", "coordinates": [ -1.14757, 47.68854 ] } },
{ "type": "Feature", "properties": { "name": "Étang de Singé", "category": "Reservoir", "area_ha": 7.3, "altitude_m": null }, "geometry": { "type": "Point", "coordinates": [ -0.28345, 47.611 ] } },
{ "type": "Feature", "properties": { "name": "Étang des Noues", "category": "Dam", "area_ha": 32.8, "altitude_m": null }, "geometry": { "type": "Point", "coordinates": [ -0.81103, 47.07105 ] } },
{ "type": "Feature", "properties": { "name": "Unnamed", "category": "Reservoir", "area_ha": 6.5, "altitude_m": null }, "geometry": { "type": "Point", "coordinates": [ -0.52226, 47.61591 ] } },
{ "type": "Feature", "properties": { "name": "Unnamed", "category": "Reservoir", "area_ha": 5.1, "altitude_m": null }, "geometry": { "type": "Point", "coordinates": [ -0.25552, 47.61265 ] } },
{ "type": "Feature", "properties": { "name": "Lac de Verdon", "category": "Dam", "area_ha": 205.9, "altitude_m": null }, "geometry": { "type": "Point", "coordinates": [ -0.81712, 47.01083 ] } },
{ "type": "Feature", "properties": { "name": "Boire de Champtocé", "category": "Reservoir", "area_ha": 39.3, "altitude_m": null }, "geometry": { "type": "Point", "coordinates": [ -0.87284, 47.40879 ] } },
{ "type": "Feature", "properties": { "name": "Lac de Ribou", "category": "Dam", "area_ha": 83.1, "altitude_m": null }, "geometry": { "type": "Point", "coordinates": [ -0.84044, 47.03258 ] } },
{ "type": "Feature", "properties": { "name": "Lac de Maine", "category": "Reservoir", "area_ha": 116.2, "altitude_m": null }, "geometry": { "type": "Point", "coordinates": [ -0.58722, 47.45822 ] } },
{ "type": "Feature", "properties": { "name": "Étang de Saint-Aubin", "category": "Reservoir", "area_ha": 38.6, "altitude_m": null }, "geometry": { "type": "Point", "coordinates": [ -1.18743, 47.75264 ] } },
{ "type": "Feature", "properties": { "name": "Unnamed", "category": "Reservoir", "area_ha": 5.2, "altitude_m": null }, "geometry": { "type": "Point", "coordinates": [ -0.11712, 47.44098 ] } },
{ "type": "Feature", "properties": { "name": "Étang de la Bousselière", "category": "Reservoir", "area_ha": 5.2, "altitude_m": null }, "geometry": { "type": "Point", "coordinates": [ -0.62755, 47.09002 ] } },
{ "type": "Feature", "properties": { "name": "Passavant sur Layon", "category": "Reservoir", "area_ha": 15.3, "altitude_m": null }, "geometry": { "type": "Point", "coordinates": [ -0.395, 47.10072 ] } },
{ "type": "Feature", "properties": { "name": "Unnamed", "category": "Reservoir", "area_ha": 10.4, "altitude_m": null }, "geometry": { "type": "Point", "coordinates": [ -0.5242, 47.61965 ] } },
{ "type": "Feature", "properties": { "name": "Baignade", "category": "Reservoir", "area_ha": 5.3, "altitude_m": null }, "geometry": { "type": "Point", "coordinates": [ -0.29214, 47.55124 ] } },
{ "type": "Feature", "properties": { "name": "Unnamed", "category": "Reservoir", "area_ha": 5.0, "altitude_m": null }, "geometry": { "type": "Point", "coordinates": [ -0.51467, 47.53328 ] } },
{ "type": "Feature", "properties": { "name": "Étang du Fourneau", "category": "Reservoir", "area_ha": 18.5, "altitude_m": null }, "geometry": { "type": "Point", "coordinates": [ -1.18308, 47.72441 ] } },
{ "type": "Feature", "properties": { "name": "Étang de Pouancé", "category": "Reservoir", "area_ha": 7.4, "altitude_m": null }, "geometry": { "type": "Point", "coordinates": [ -1.17961, 47.74447 ] } },
{ "type": "Feature", "properties": { "name": "Étang de Saint-Jacques", "category": "Reservoir", "area_ha": 6.3, "altitude_m": null }, "geometry": { "type": "Point", "coordinates": [ -1.17482, 47.75041 ] } },
{ "type": "Feature", "properties": { "name": "Étang de Saint-Nicolas", "category": "Reservoir", "area_ha": 21.0, "altitude_m": null }, "geometry": { "type": "Point", "coordinates": [ -0.58692, 47.48186 ] } },
{ "type": "Feature", "properties": { "name": "Unnamed", "category": "Reservoir", "area_ha": 7.7, "altitude_m": null }, "geometry": { "type": "Point", "coordinates": [ -0.26784, 47.65391 ] } },
{ "type": "Feature", "properties": { "name": "Unnamed", "category": "Reservoir", "area_ha": 5.6, "altitude_m": null }, "geometry": { "type": "Point", "coordinates": [ -0.45103, 47.33069 ] } },
{ "type": "Feature", "properties": { "name": "Étang de la Godinière", "category": "Reservoir", "area_ha": 5.8, "altitude_m": null }, "geometry": { "type": "Point", "coordinates": [ -0.90765, 47.07045 ] } },
{ "type": "Feature", "properties": { "name": "Fosse de Sorges", "category": "Reservoir", "area_ha": 26.5, "altitude_m": null }, "geometry": { "type": "Point", "coordinates": [ -0.48622, 47.42872 ] } },
{ "type": "Feature", "properties": { "name": "Unnamed", "category": "Reservoir", "area_ha": 7.6, "altitude_m": null }, "geometry": { "type": "Point", "coordinates": [ -0.46532, 47.75733 ] } },
{ "type": "Feature", "properties": { "name": "Étang du Grand Moulin", "category": "Reservoir", "area_ha": 9.1, "altitude_m": null }, "geometry": { "type": "Point", "coordinates": [ -0.97722, 47.5636 ] } },
{ "type": "Feature", "properties": { "name": "Unnamed", "category": "Reservoir", "area_ha": 25.9, "altitude_m": null }, "geometry": { "type": "Point", "coordinates": [ -0.8568, 47.42112 ] } },
{ "type": "Feature", "properties": { "name": "Unnamed", "category": "Reservoir", "area_ha": 5.3, "altitude_m": null }, "geometry": { "type": "Point", "coordinates": [ -0.3896, 47.57968 ] } },
{ "type": "Feature", "properties": { "name": "Unnamed", "category": "Reservoir", "area_ha": 21.2, "altitude_m": null }, "geometry": { "type": "Point", "coordinates": [ -0.0964, 47.28103 ] } },
{ "type": "Feature", "properties": { "name": "Étang de Cunault", "category": "Reservoir", "area_ha": 6.1, "altitude_m": null }, "geometry": { "type": "Point", "coordinates": [ -0.22558, 47.32377 ] } },
{ "type": "Feature", "properties": { "name": "Unnamed", "category": "Reservoir", "area_ha": 5.6, "altitude_m": null }, "geometry": { "type": "Point", "coordinates": [ -0.62526, 47.0172 ] } },
{ "type": "Feature", "properties": { "name": "Unnamed", "category": "Reservoir", "area_ha": 12.3, "altitude_m": null }, "geometry": { "type": "Point", "coordinates": [ -0.4748, 47.43751 ] } },
{ "type": "Feature", "properties": { "name": "Étang des Brûlis", "category": "Reservoir", "area_ha": 6.6, "altitude_m": null }, "geometry": { "type": "Point", "coordinates": [ -0.75792, 47.45473 ] } },
{ "type": "Feature", "properties": { "name": "Étang de la Clémencière", "category": "Reservoir", "area_ha": 15.4, "altitude_m": null }, "geometry": { "type": "Point", "coordinates": [ -0.97007, 47.49704 ] } },
{ "type": "Feature", "properties": { "name": "Étang de Chevigné", "category": "Reservoir", "area_ha": 31.9, "altitude_m": null }, "geometry": { "type": "Point", "coordinates": [ -0.70304, 47.41082 ] } },
{ "type": "Feature", "properties": { "name": "Étang de la Brelaudière", "category": "Reservoir", "area_ha": 25.2, "altitude_m": null }, "geometry": { "type": "Point", "coordinates": [ -0.73033, 47.41768 ] } },
{ "type": "Feature", "properties": { "name": "Étang des Hautes Belles", "category": "Reservoir", "area_ha": 17.1, "altitude_m": null }, "geometry": { "type": "Point", "coordinates": [ 0.04426, 47.34082 ] } },
{ "type": "Feature", "properties": { "name": "Boire de la Nigaudière", "category": "Reservoir", "area_ha": 8.0, "altitude_m": null }, "geometry": { "type": "Point", "coordinates": [ -1.20191, 47.34609 ] } },
{ "type": "Feature", "properties": { "name": "Étang de Marson", "category": "Reservoir", "area_ha": 22.0, "altitude_m": null }, "geometry": { "type": "Point", "coordinates": [ -0.15756, 47.25883 ] } },
{ "type": "Feature", "properties": { "name": "Étang de la Thibaudière", "category": "Reservoir", "area_ha": 6.5, "altitude_m": null }, "geometry": { "type": "Point", "coordinates": [ -0.6299, 47.05525 ] } },
{ "type": "Feature", "properties": { "name": "Unnamed", "category": "Reservoir", "area_ha": 21.8, "altitude_m": null }, "geometry": { "type": "Point", "coordinates": [ -0.12188, 47.43347 ] } },
{ "type": "Feature", "properties": { "name": "Étang de Croix", "category": "Reservoir", "area_ha": 7.1, "altitude_m": null }, "geometry": { "type": "Point", "coordinates": [ -0.67029, 47.05678 ] } },
{ "type": "Feature", "properties": { "name": "Étang de Tressé", "category": "Reservoir", "area_ha": 20.6, "altitude_m": null }, "geometry": { "type": "Point", "coordinates": [ -1.16725, 47.73082 ] } },
{ "type": "Feature", "properties": { "name": "Grand Étang", "category": "Reservoir", "area_ha": 6.8, "altitude_m": null }, "geometry": { "type": "Point", "coordinates": [ -0.74245, 47.45513 ] } },
{ "type": "Feature", "properties": { "name": "Boire de la Bridonnière", "category": "Reservoir", "area_ha": 5.3, "altitude_m": null }, "geometry": { "type": "Point", "coordinates": [ -1.29739, 47.3299 ] } },
{ "type": "Feature", "properties": { "name": "Unnamed", "category": "Reservoir", "area_ha": 9.3, "altitude_m": null }, "geometry": { "type": "Point", "coordinates": [ -0.39958, 47.65762 ] } },
{ "type": "Feature", "properties": { "name": "Étang de Saint-Blaise", "category": "Reservoir", "area_ha": 6.2, "altitude_m": null }, "geometry": { "type": "Point", "coordinates": [ -0.94791, 47.713 ] } },
{ "type": "Feature", "properties": { "name": "Étang de Péronne", "category": "Reservoir", "area_ha": 27.6, "altitude_m": null }, "geometry": { "type": "Point", "coordinates": [ -0.70836, 47.0738 ] } },
{ "type": "Feature", "properties": { "name": "Étang des Rochettes", "category": "Reservoir", "area_ha": 6.1, "altitude_m": null }, "geometry": { "type": "Point", "coordinates": [ -1.17696, 47.70714 ] } },
{ "type": "Feature", "properties": { "name": "Boire Girouard", "category": "Reservoir", "area_ha": 10.0, "altitude_m": null }, "geometry": { "type": "Point", "coordinates": [ -0.78274, 47.38425 ] } },
{ "type": "Feature", "properties": { "name": "Unnamed", "category": "Dam", "area_ha": 1.7, "altitude_m": null }, "geometry": { "type": "Point", "coordinates": [ -0.65568, 47.70182 ] } },
{ "type": "Feature", "properties": { "name": "Unnamed", "category": "Dam", "area_ha": 17.5, "altitude_m": null }, "geometry": { "type": "Point", "coordinates": [ -0.89419, 47.49612 ] } },
{ "type": "Feature", "properties": { "name": "Unnamed", "category": "Dam", "area_ha": 8.0, "altitude_m": null }, "geometry": { "type": "Point", "coordinates": [ -1.18638, 47.69901 ] } },
{ "type": "Feature", "properties": { "name": "Unnamed", "category": "Dam", "area_ha": 6.7, "altitude_m": null }, "geometry": { "type": "Point", "coordinates": [ -0.76752, 47.00163 ] } },
{ "type": "Feature", "properties": { "name": "Étang de la Beuvrière", "category": "Dam", "area_ha": 7.4, "altitude_m": null }, "geometry": { "type": "Point", "coordinates": [ -0.72649, 47.58884 ] } },
{ "type": "Feature", "properties": { "name": "Unnamed", "category": "Dam", "area_ha": 6.0, "altitude_m": null }, "geometry": { "type": "Point", "coordinates": [ -0.17025, 47.26228 ] } },
{ "type": "Feature", "properties": { "name": "Étang de la Gilière", "category": "Dam", "area_ha": 8.4, "altitude_m": null }, "geometry": { "type": "Point", "coordinates": [ -0.86744, 47.27698 ] } },
{ "type": "Feature", "properties": { "name": "Étang du Bois Ham", "category": "Dam", "area_ha": 8.7, "altitude_m": null }, "geometry": { "type": "Point", "coordinates": [ -0.91866, 47.17426 ] } },
{ "type": "Feature", "properties": { "name": "Étang des Loges", "category": "Dam", "area_ha": 8.1, "altitude_m": null }, "geometry": { "type": "Point", "coordinates": [ 0.11373, 47.33655 ] } },
{ "type": "Feature", "properties": { "name": "Étang de la Thévinière", "category": "Dam", "area_ha": 14.6, "altitude_m": null }, "geometry": { "type": "Point", "coordinates": [ -1.08939, 47.15857 ] } },
{ "type": "Feature", "properties": { "name": "Étang de Maubusson", "category": "Dam", "area_ha": 24.1, "altitude_m": null }, "geometry": { "type": "Point", "coordinates": [ -1.16842, 47.66267 ] } },
{ "type": "Feature", "properties": { "name": "Étang du Grip", "category": "Dam", "area_ha": 12.5, "altitude_m": null }, "geometry": { "type": "Point", "coordinates": [ -0.30991, 47.68523 ] } },
{ "type": "Feature", "properties": { "name": "Étang du Pavillon", "category": "Dam", "area_ha": 7.3, "altitude_m": null }, "geometry": { "type": "Point", "coordinates": [ -1.02622, 47.02949 ] } }
]
}
