{
"type": "FeatureCollection",
"name": "dep44.geojson",
"crs": { "type": "name", "properties": { "name": "urn:ogc:def:crs:OGC:1.3:CRS84" } },
"xy_coordinate_resolution": 1e-05,
"features": [
{ "type": "Feature", "properties": { "name": "Étang du Pont de Fer", "category": "Reservoir", "area_ha": 31.5, "altitude_m": null }, "geometry": { "type": "Point", "coordinates": [ -2.42235, 47.46686 ] } },
{ "type": "Feature", "properties": { "name": "Lac de Grand Lieu", "category": "Lake", "area_ha": 3658.0, "altitude_m": null }, "geometry": { "type": "Point", "coordinates": [ -1.68787, 47.09381 ] } },
{ "type": "Feature", "properties": { "name": "Étang Neuf", "category": "Reservoir", "area_ha": 8.1, "altitude_m": null }, "geometry": { "type": "Point", "coordinates": [ -1.38102, 47.658 ] } },
{ "type": "Feature", "properties": { "name": "Unnamed", "category": "Reservoir", "area_ha": 5.3, "altitude_m": null }, "geometry": { "type": "Point", "coordinates": [ -1.47638, 47.22542 ] } },
{ "type": "Feature", "properties": { "name": "Unnamed", "category": "Reservoir", "area_ha": 10.1, "altitude_m": null }, "geometry": { "type": "Point", "coordinates": [ -1.78536, 47.5866 ] } },
{ "type": "Feature", "properties": { "name": "Plan d'Eau de Buhel", "category": "Reservoir", "area_ha": 10.3, "altitude_m": null }, "geometry": { "type": "Point", "coordinates": [ -1.88287, 47.5371 ] } },
{ "type": "Feature", "properties": { "name": "Étang de la Hunaudière", "category": "Reservoir", "area_ha": 22.0, "altitude_m": null }, "geometry": { "type": "Point", "coordinates": [ -1.51864, 47.70719 ] } },
{ "type": "Feature", "properties": { "name": "Unnamed", "category": "Reservoir", "area_ha": 5.2, "altitude_m": null }, "geometry": { "type": "Point", "coordinates": [ -1.14458, 47.50888 ] } },
{ "type": "Feature", "properties": { "name": "Plaine de Mazerolles", "category": "Reservoir", "area_ha": 250.2, "altitude_m": null }, "geometry": { "type": "Point", "coordinates": [ -1.50313, 47.36249 ] } },
{ "type": "Feature", "properties": { "name": "Étang de la Poitevinière", "category": "Reservoir", "area_ha": 65.5, "altitude_m": null }, "geometry": { "type": "Point", "coordinates": [ -1.29672, 47.53678 ] } },
{ "type": "Feature", "properties": { "name": "Grand Réservoir de Vioreau", "category": "Reservoir", "area_ha": 162.1, "altitude_m": null }, "geometry": { "type": "Point", "coordinates": [ -1.42425, 47.52465 ] } },
{ "type": "Feature", "properties": { "name": "Unnamed", "category": "Reservoir", "area_ha": 81.4, "altitude_m": null }, "geometry": { "type": "Point", "coordinates": [ -2.46847, 47.41319 ] } },
{ "type": "Feature", "properties": { "name": "Étang de Choisel", "category": "Reservoir", "area_ha": 5.4, "altitude_m": null }, "geometry": { "type": "Point", "coordinates": [ -1.37994, 47.72779 ] } },
{ "type": "Feature", "properties": { "name": "Unnamed", "category": "Reservoir", "area_ha": 11.5, "altitude_m": null }, "geometry": { "type": "Point", "coordinates": [ -1.77327, 47.16038 ] } },
{ "type": "Feature", "properties": { "name": "Étang de Gruellau", "category": "Reservoir", "area_ha": 31.1, "altitude_m": null }, "geometry": { "type": "Point", "coordinates": [ -1.5314, 47.6011 ] } },
{ "type": "Feature", "properties": { "name": "Unnamed", "category": "Reservoir", "area_ha": 6.3, "altitude_m": null }, "geometry": { "type": "Point", "coordinates": [ -2.01601, 47.26202 ] } },
{ "type": "Feature", "properties": { "name": "Unnamed", "category": "Reservoir", "area_ha": 5.3, "altitude_m": null }, "geometry": { "type": "Point", "coordinates": [ -2.26906, 47.29141 ] } },
{ "type": "Feature", "properties": { "name": "Unnamed", "category": "Reservoir", "area_ha": 5.1, "altitude_m": null }, "geometry": { "type": "Point", "coordinates": [ -1.64493, 46.97017 ] } },
{ "type": "Feature", "properties": { "name": "Unnamed", "category": "Reservoir", "area_ha": 5.8, "altitude_m": null }, "geometry": { "type": "Point", "coordinates": [ -1.63729, 47.20977 ] } },
{ "type": "Feature", "properties": { "name": "Unnamed", "category": "Reservoir", "area_ha": 8.5, "altitude_m": null }, "geometry": { "type": "Point", "coordinates": [ -1.49532, 47.43563 ] } },
{ "type": "Feature", "properties": { "name": "Unnamed", "category": "Reservoir", "area_ha": 5.1, "altitude_m": null }, "geometry": { "type": "Point", "coordinates": [ -2.15553, 47.44196 ] } },
{ "type": "Feature", "properties": { "name": "Étang de la Blisière", "category": "Reservoir", "area_ha": 62.0, "altitude_m": null }, "geometry": { "type": "Point", "coordinates": [ -1.2347, 47.69965 ] } },
{ "type": "Feature", "properties": { "name": "Bassins de Guindref", "category": "Reservoir", "area_ha": 5.9, "altitude_m": null }, "geometry": { "type": "Point", "coordinates": [ -2.23957, 47.28703 ] } },
{ "type": "Feature", "properties": { "name": "Étang du Pin", "category": "Reservoir", "area_ha": 24.1, "altitude_m": null }, "geometry": { "type": "Point", "coordinates": [ -1.15753, 47.60072 ] } },
{ "type": "Feature", "properties": { "name": "Étang de Pioret", "category": "Reservoir", "area_ha": 6.1, "altitude_m": null }, "geometry": { "type": "Point", "coordinates": [ -1.3801, 47.55031 ] } },
{ "type": "Feature", "properties": { "name": "Unnamed", "category": "Reservoir", "area_ha": 11.8, "altitude_m": null }, "geometry": { "type": "Point", "coordinates": [ -1.90364, 47.57311 ] } },
{ "type": "Feature", "properties": { "name": "Unnamed", "category": "Reservoir", "area_ha": 12.7, "altitude_m": null }, "geometry": { "type": "Point", "coordinates": [ -1.54459, 47.55713 ] } },
{ "type": "Feature", "properties": { "name": "Unnamed", "category": "Reservoir", "area_ha": 8.4, "altitude_m": null }, "geometry": { "type": "Point", "coordinates": [ -1.82082, 47.00585 ] } },
{ "type": "Feature", "properties": { "name": "Plan d'Eau du Chêne", "category": "Reservoir", "area_ha": 14.4, "altitude_m": null }, "geometry": { "type": "Point", "coordinates": [ -1.37029, 47.25369 ] } },
{ "type": "Feature", "properties": { "name": "Étang de Gravotel", "category": "Reservoir", "area_ha": 6.7, "altitude_m": null }, "geometry": { "type": "Point", "coordinates": [ -1.37457, 47.62753 ] } },
{ "type": "Feature", "properties": { "name": "Étang de la Nouette", "category": "Reservoir", "area_ha": 7.6, "altitude_m": null }, "geometry": { "type": "Point", "coordinates": [ -2.18461, 47.48562 ] } },
{ "type": "Feature", "properties": { "name": "Lac des Vallées", "category": "Reservoir", "area_ha": 8.5, "altitude_m": null }, "geometry": { "type": "Point", "coordinates": [ -1.4332, 46.96206 ] } },
{ "type": "Feature", "properties": { "name": "Unnamed", "category": "Reservoir", "area_ha": 10.8, "altitude_m": null }, "geometry": { "type": "Point", "coordinates": [ -2.16882, 47.48305 ] } },
{ "type": "Feature", "properties": { "name": "Unnamed", "category": "Reservoir", "area_ha": 5.7, "altitude_m": null }, "geometry": { "type": "Point", "coordinates": [ -1.05591, 47.52564 ] } },
{ "type": "Feature", "properties": { "name": "Lac de la Roche Hervé", "category": "Reservoir", "area_ha": 29.2, "altitude_m": null }, "geometry": { "type": "Point", "coordinates": [ -2.10887, 47.5118 ] } },
{ "type": "Feature", "properties": { "name": "Étang de la Forge Neuve", "category": "Reservoir", "area_ha": 8.0, "altitude_m": null }, "geometry": { "type": "Point", "coordinates": [ -1.34681, 47.59954 ] } },
{ "type": "Feature", "properties": { "name": "Unnamed", "category": "Reservoir", "area_ha": 5.3, "altitude_m": null }, "geometry": { "type": "Point", "coordinates": [ -2.36127, 47.31912 ] } },
{ "type": "Feature", "properties": { "name": "Unnamed", "category": "Reservoir", "area_ha": 8.7, "altitude_m": null }, "geometry": { "type": "Point", "coordinates": [ -1.18259, 47.60903 ] } },
{ "type": "Feature", "properties": { "name": "Étang de la Bourlière", "category": "Reservoir", "area_ha": 9.0, "altitude_m": null }, "geometry": { "type": "Point", "coordinates": [ -1.2218, 47.60083 ] } },
{ "type": "Feature", "properties": { "name": "Étang de la Renoulière", "category": "Reservoir", "area_ha": 19.7, "altitude_m": null }, "geometry": { "type": "Point", "coordinates": [ -1.76503, 47.67217 ] } },
{ "type": "Feature", "properties": { "name": "Étang de Clegreuc", "category": "Reservoir", "area_ha": 30.3, "altitude_m": null }, "geometry": { "type": "Point", "coordinates": [ -1.72978, 47.56113 ] } },
{ "type": "Feature", "properties": { "name": "Étang de Vioreau", "category": "Reservoir", "area_ha": 28.3, "altitude_m": null }, "geometry": { "type": "Point", "coordinates": [ -1.43431, 47.53784 ] } },
{ "type": "Feature", "properties": { "name": "Étang du Bois Joalland", "category": "Reservoir", "area_ha": 46.1, "altitude_m": null }, "geometry": { "type": "Point", "coordinates": [ -2.25423, 47.27719 ] } },
{ "type": "Feature", "properties": { "name": "Lac de Beaulieu", "category": "Dam", "area_ha": 18.9, "altitude_m": null }, "geometry": { "type": "Point", "coordinates": [ -1.69775, 47.22339 ] } },
{ "type": "Feature", "properties": { "name": "Unnamed", "category": "Dam", "area_ha": 5.0, "altitude_m": null }, "geometry": { "type": "Point", "coordinates": [ -2.0039, 47.53364 ] } },
{ "type": "Feature", "properties": { "name": "Unnamed", "category": "Dam", "area_ha": 7.2, "altitude_m": null }, "geometry": { "type": "Point", "coordinates": [ -1.67624, 46.94238 ] } },
{ "type": "Feature", "properties": { "name": "Étang des Gâtineaux", "category": "Dam", "area_ha": 23.1, "altitude_m": null }, "geometry": { "type": "Point", "coordinates": [ -2.13267, 47.16721 ] } },
{ "type": "Feature", "properties": { "name": "Étang de Deil", "category": "Dam", "area_ha": 10.5, "altitude_m": null }, "geometry": { "type": "Point", "coordinates": [ -1.36975, 47.73476 ] } },
{ "type": "Feature", "properties": { "name": "Étang de Chahin", "category": "Dam", "area_ha": 17.8, "altitude_m": null }, "geometry": { "type": "Point", "coordinates": [ -1.52409, 47.73228 ] } },
{ "type": "Feature", "properties": { "name": "Étang de Limèle", "category": "Dam", "area_ha": 9.3, "altitude_m": null }, "geometry": { "type": "Point", "coordinates": [ -1.61168, 47.75462 ] } },
{ "type": "Feature", "properties": { "name": "Unnamed", "category": "Dam", "area_ha": 11.1, "altitude_m": null }, "geometry": { "type": "Point", "coordinates": [ -1.38727, 47.69421 ] } },
{ "type": "Feature", "properties": { "name": "Étang de la Fonte", "category": "Dam", "area_ha": 5.9, "altitude_m": null }, "geometry": { "type": "Point", "coordinates": [ -1.17851, 47.68875 ] } },
{ "type": "Feature", "properties": { "name": "Étang de Beaumont", "category": "Dam", "area_ha": 23.8, "altitude_m": null }, "geometry": { "type": "Point", "coordinates": [ -1.44895, 47.59904 ] } },
{ "type": "Feature", "properties": { "name": "Unnamed", "category": "Dam", "area_ha": 1.1, "altitude_m": null }, "geometry": { "type": "Point", "coordinates": [ -1.41996, 47.31055 ] } },
{ "type": "Feature", "properties": { "name": "Étang Aumée", "category": "Dam", "area_ha": 55.0, "altitude_m": null }, "geometry": { "type": "Point", "coordinates": [ -2.05847, 47.60622 ] } },
{ "type": "Feature", "properties": { "name": "Étang de la Roche", "category": "Dam", "area_ha": 5.7, "altitude_m": null }, "geometry": { "type": "Point", "coordinates": [ -1.71822, 47.59568 ] } },
{ "type": "Feature", "properties": { "name": "Étang du Gué aux Biches", "category": "Dam", "area_ha": 19.3, "altitude_m": null }, "geometry": { "type": "Point", "coordinates": [ -2.0901, 47.50947 ] } },
{ "type": "Feature", "properties": { "name": "Unnamed", "category": "Dam", "area_ha": 17.8, "altitude_m": null }, "geometry": { "type": "Point", "coordinates": [ -2.00137, 47.60695 ] } },
{ "type": "Feature", "properties": { "name": "Étang de la Selle", "category": "Dam", "area_ha": 5.5, "altitude_m": null }, "geometry": { "type": "Point", "coordinates": [ -1.20248, 47.65332 ] } },
{ "type": "Feature", "properties": { "name": "Étang de Courbetière", "category": "Dam", "area_ha": 14.8, "altitude_m": null }, "geometry": { "type": "Point", "coordinates": [ -1.41185, 47.70022 ] } },
{ "type": "Feature", "properties": { "name": "Étang du Val Saint-Martin", "category": "Dam", "area_ha": 5.3, "altitude_m": null }, "geometry": { "type": "Point", "coordinates": [ -2.08916, 47.12386 ] } },
{ "type": "Feature", "properties": { "name": "Retenue du Bout de Bois", "category": "Dam", "area_ha": 16.9, "altitude_m": null }, "geometry": { "type": "Point", "coordinates": [ -1.63066, 47.45996 ] } },
{ "type": "Feature", "properties": { "name": "Étang de la Beusse", "category": "Dam", "area_ha": 13.3, "altitude_m": null }, "geometry": { "type": "Point", "coordinates": [ -1.84414, 47.07287 ] } },
{ "type": "Feature", "properties": { "name": "Lac de la Vallée Mabille", "category": "Dam", "area_ha": 9.0, "altitude_m": null }, "geometry": { "type": "Point", "coordinates": [ -1.92503, 47.3555 ] } },
{ "type": "Feature", "properties": { "name": "Étang du Gros Caillou", "category": "Dam", "area_ha": 14.6, "altitude_m": null }, "geometry": { "type": "Point", "coordinates": [ -2.07187, 47.15284 ] } },
{ "type": "Feature", "properties": { "name": "Étangs de Sandun", "category": "Dam", "area_ha": 27.5, "altitude_m": null }, "geometry": { "type": "Point", "coordinates": [ -2.3556, 47.34535 ] } },
{ "type": "Feature", "properties": { "name": "Étang du Rodoir", "category": "Dam", "area_ha": 13.3, "altitude_m": null }, "geometry": { "type": "Point", "coordinates": [ -2.28534, 47.51283 ] } },
{ "type": "Feature", "properties": { "name": "Étang de la Provostière", "category": "Dam", "area_ha": 65.1, "altitude_m": null }, "geometry": { "type": "Point", "coordinates": [ -1.33668, 47.52705 ] } }
]
}
