{
"type": "FeatureCollection",
"name": "dep43.geojson",
"crs": { "type": "name", "properties": { "name": "urn:ogc:def:crs:OGC:1.3:CRS84" } },
"xy_coordinate_resolution": 1e-05,
"features": [
{ "type": "Feature", "properties": { "name": "Gravières de Bas-en-Basset", "category": "Reservoir", "area_ha": 62.3, "altitude_m": null }, "geometry": { "type": "Point", "coordinates": [ 4.14145, 45.31533 ] } },
{ "type": "Feature", "properties": { "name": "Unnamed", "category": "Reservoir", "area_ha": 6.0, "altitude_m": null }, "geometry": { "type": "Point", "coordinates": [ 4.1166, 45.30872 ] } },
{ "type": "Feature", "properties": { "name": "Retenue de Lavalette", "category": "Dam", "area_ha": 199.0, "altitude_m": null }, "geometry": { "type": "Point", "coordinates": [ 4.223, 45.14942 ] } },
{ "type": "Feature", "properties": { "name": "Lac du Bouchet", "category": "Lake", "area_ha": 43.9, "altitude_m": null }, "geometry": { "type": "Point", "coordinates": [ 3.79038, 44.90902 ] } },
{ "type": "Feature", "properties": { "name": "Lac de Saint-Front", "category": "Lake", "area_ha": 29.8, "altitude_m": null }, "geometry": { "type": "Point", "coordinates": [ 4.16952, 44.98163 ] } },
{ "type": "Feature", "properties": { "name": "Barrage de Poutès", "category": "Dam", "area_ha": 11.7, "altitude_m": null }, "geometry": { "type": "Point", "coordinates": [ 3.67232, 44.94299 ] } },
{ "type": "Feature", "properties": { "name": "Unnamed", "category": "Reservoir", "area_ha": 11.8, "altitude_m": null }, "geometry": { "type": "Point", "coordinates": [ 3.40472, 45.29908 ] } },
{ "type": "Feature", "properties": { "name": "Grand Lac", "category": "Reservoir", "area_ha": 5.1, "altitude_m": null }, "geometry": { "type": "Point", "coordinates": [ 3.81204, 45.12682 ] } },
{ "type": "Feature", "properties": { "name": "Lac de Malaguet", "category": "Reservoir", "area_ha": 21.0, "altitude_m": null }, "geometry": { "type": "Point", "coordinates": [ 3.71225, 45.25048 ] } },
{ "type": "Feature", "properties": { "name": "Unnamed", "category": "Dam", "area_ha": 0.5, "altitude_m": null }, "geometry": { "type": "Point", "coordinates": [ 4.21263, 45.15033 ] } },
{ "type": "Feature", "properties": { "name": "Retenue de Chapelette", "category": "Dam", "area_ha": 5.9, "altitude_m": null }, "geometry": { "type": "Point", "coordinates": [ 4.18522, 45.16514 ] } },
{ "type": "Feature", "properties": { "name": "Barrage de l'Échapre", "category": "Dam", "area_ha": 5.6, "altitude_m": null }, "geometry": { "type": "Point", "coordinates": [ 4.30847, 45.36575 ] } },
{ "type": "Feature", "properties": { "name": "Barrage de la Valette", "category": "Dam", "area_ha": 7.5, "altitude_m": null }, "geometry": { "type": "Point", "coordinates": [ 3.62001, 44.92013 ] } },
{ "type": "Feature", "properties": { "name": "Barrage de Pouzas", "category": "Dam", "area_ha": 1.3, "altitude_m": null }, "geometry": { "type": "Point", "coordinates": [ 3.62452, 44.9322 ] } }
]
}
