{
"type": "FeatureCollection",
"name": "dep41.geojson",
"crs": { "type": "name", "properties": { "name": "urn:ogc:def:crs:OGC:1.3:CRS84" } },
"xy_coordinate_resolution": 1e-05,
"features": [
{ "type": "Feature", "properties": { "name": "Étang Neuf", "category": "Reservoir", "area_ha": 8.3, "altitude_m": null }, "geometry": { "type": "Point", "coordinates": [ 1.85435, 47.40615 ] } },
{ "type": "Feature", "properties": { "name": "Unnamed", "category": "Reservoir", "area_ha": 5.3, "altitude_m": null }, "geometry": { "type": "Point", "coordinates": [ 2.19614, 47.48147 ] } },
{ "type": "Feature", "properties": { "name": "St Laurent des Eaux Neuf Cent Dix", "category": "Reservoir", "area_ha": 21.0, "altitude_m": null }, "geometry": { "type": "Point", "coordinates": [ 1.58222, 47.71326 ] } },
{ "type": "Feature", "properties": { "name": "Étang de la Bourdinière", "category": "Reservoir", "area_ha": 8.2, "altitude_m": null }, "geometry": { "type": "Point", "coordinates": [ 2.04442, 47.47376 ] } },
{ "type": "Feature", "properties": { "name": "Grand Étang", "category": "Reservoir", "area_ha": 10.7, "altitude_m": null }, "geometry": { "type": "Point", "coordinates": [ 1.68338, 47.64818 ] } },
{ "type": "Feature", "properties": { "name": "Étang de Fontenille", "category": "Reservoir", "area_ha": 24.0, "altitude_m": null }, "geometry": { "type": "Point", "coordinates": [ 1.83033, 47.49671 ] } },
{ "type": "Feature", "properties": { "name": "Étang de la Clavalière", "category": "Reservoir", "area_ha": 10.2, "altitude_m": null }, "geometry": { "type": "Point", "coordinates": [ 1.65274, 47.56159 ] } },
{ "type": "Feature", "properties": { "name": "Étang de Bâtarde", "category": "Reservoir", "area_ha": 21.7, "altitude_m": null }, "geometry": { "type": "Point", "coordinates": [ 1.68874, 47.3659 ] } },
{ "type": "Feature", "properties": { "name": "Étang de la Carelle", "category": "Reservoir", "area_ha": 6.2, "altitude_m": null }, "geometry": { "type": "Point", "coordinates": [ 1.6638, 47.55655 ] } },
{ "type": "Feature", "properties": { "name": "Étang de Morlu", "category": "Reservoir", "area_ha": 9.7, "altitude_m": null }, "geometry": { "type": "Point", "coordinates": [ 1.38104, 47.32817 ] } },
{ "type": "Feature", "properties": { "name": "Étang de Villory", "category": "Reservoir", "area_ha": 8.0, "altitude_m": null }, "geometry": { "type": "Point", "coordinates": [ 2.03181, 47.64078 ] } },
{ "type": "Feature", "properties": { "name": "Mare de la Clochette", "category": "Reservoir", "area_ha": 9.2, "altitude_m": null }, "geometry": { "type": "Point", "coordinates": [ 1.58606, 47.87261 ] } },
{ "type": "Feature", "properties": { "name": "Étang Viez", "category": "Reservoir", "area_ha": 8.2, "altitude_m": null }, "geometry": { "type": "Point", "coordinates": [ 1.68289, 47.55638 ] } },
{ "type": "Feature", "properties": { "name": "Étang de la Grenouille", "category": "Reservoir", "area_ha": 5.4, "altitude_m": null }, "geometry": { "type": "Point", "coordinates": [ 2.05377, 47.55018 ] } },
{ "type": "Feature", "properties": { "name": "Étang des Lévrys", "category": "Reservoir", "area_ha": 24.2, "altitude_m": null }, "geometry": { "type": "Point", "coordinates": [ 2.05884, 47.52414 ] } },
{ "type": "Feature", "properties": { "name": "Unnamed", "category": "Reservoir", "area_ha": 6.2, "altitude_m": null }, "geometry": { "type": "Point", "coordinates": [ 1.96183, 47.59588 ] } },
{ "type": "Feature", "properties": { "name": "Unnamed", "category": "Reservoir", "area_ha": 6.7, "altitude_m": null }, "geometry": { "type": "Point", "coordinates": [ 2.20279, 47.46238 ] } },
{ "type": "Feature", "properties": { "name": "Unnamed", "category": "Reservoir", "area_ha": 10.0, "altitude_m": null }, "geometry": { "type": "Point", "coordinates": [ 1.64173, 47.38069 ] } },
{ "type": "Feature", "properties": { "name": "Unnamed", "category": "Reservoir", "area_ha": 6.0, "altitude_m": null }, "geometry": { "type": "Point", "coordinates": [ 1.9394, 47.5306 ] } },
{ "type": "Feature", "properties": { "name": "Étang de la Gadelinière", "category": "Reservoir", "area_ha": 5.6, "altitude_m": null }, "geometry": { "type": "Point", "coordinates": [ 1.80016, 47.55751 ] } },
{ "type": "Feature", "properties": { "name": "Étang des Vallées", "category": "Reservoir", "area_ha": 20.0, "altitude_m": null }, "geometry": { "type": "Point", "coordinates": [ 1.94411, 47.55887 ] } },
{ "type": "Feature", "properties": { "name": "Unnamed", "category": "Reservoir", "area_ha": 5.3, "altitude_m": null }, "geometry": { "type": "Point", "coordinates": [ 1.82994, 47.41589 ] } },
{ "type": "Feature", "properties": { "name": "Unnamed", "category": "Reservoir", "area_ha": 6.5, "altitude_m": null }, "geometry": { "type": "Point", "coordinates": [ 1.22646, 47.90481 ] } },
{ "type": "Feature", "properties": { "name": "Étang Perret", "category": "Reservoir", "area_ha": 34.0, "altitude_m": null }, "geometry": { "type": "Point", "coordinates": [ 1.54258, 47.46247 ] } },
{ "type": "Feature", "properties": { "name": "Étang des Amozins", "category": "Reservoir", "area_ha": 5.6, "altitude_m": null }, "geometry": { "type": "Point", "coordinates": [ 1.98022, 47.37564 ] } },
{ "type": "Feature", "properties": { "name": "Unnamed", "category": "Reservoir", "area_ha": 11.4, "altitude_m": null }, "geometry": { "type": "Point", "coordinates": [ 1.90248, 47.23752 ] } },
{ "type": "Feature", "properties": { "name": "Unnamed", "category": "Reservoir", "area_ha": 5.1, "altitude_m": null }, "geometry": { "type": "Point", "coordinates": [ 1.66667, 47.58271 ] } },
{ "type": "Feature", "properties": { "name": "Étang de Teillay", "category": "Reservoir", "area_ha": 33.0, "altitude_m": null }, "geometry": { "type": "Point", "coordinates": [ 1.72931, 47.46952 ] } },
{ "type": "Feature", "properties": { "name": "Unnamed", "category": "Reservoir", "area_ha": 5.8, "altitude_m": null }, "geometry": { "type": "Point", "coordinates": [ 1.66775, 47.63378 ] } },
{ "type": "Feature", "properties": { "name": "Unnamed", "category": "Reservoir", "area_ha": 5.8, "altitude_m": null }, "geometry": { "type": "Point", "coordinates": [ 1.00553, 47.94174 ] } },
{ "type": "Feature", "properties": { "name": "Étang des Marguilliers", "category": "Reservoir", "area_ha": 18.3, "altitude_m": null }, "geometry": { "type": "Point", "coordinates": [ 1.85242, 47.52374 ] } },
{ "type": "Feature", "properties": { "name": "Unnamed", "category": "Reservoir", "area_ha": 6.3, "altitude_m": null }, "geometry": { "type": "Point", "coordinates": [ 1.95846, 47.31585 ] } },
{ "type": "Feature", "properties": { "name": "Étang de l'Oasis", "category": "Reservoir", "area_ha": 6.0, "altitude_m": null }, "geometry": { "type": "Point", "coordinates": [ 2.094, 47.38871 ] } },
{ "type": "Feature", "properties": { "name": "Étang de la Maison de Dieu", "category": "Reservoir", "area_ha": 7.8, "altitude_m": null }, "geometry": { "type": "Point", "coordinates": [ 1.90396, 47.41827 ] } },
{ "type": "Feature", "properties": { "name": "Unnamed", "category": "Reservoir", "area_ha": 14.3, "altitude_m": null }, "geometry": { "type": "Point", "coordinates": [ 1.59069, 47.38481 ] } },
{ "type": "Feature", "properties": { "name": "Étang du Grand Villaine", "category": "Reservoir", "area_ha": 8.5, "altitude_m": null }, "geometry": { "type": "Point", "coordinates": [ 1.82563, 47.4725 ] } },
{ "type": "Feature", "properties": { "name": "Étang de la Randonnerie", "category": "Reservoir", "area_ha": 9.2, "altitude_m": null }, "geometry": { "type": "Point", "coordinates": [ 1.91804, 47.51037 ] } },
{ "type": "Feature", "properties": { "name": "Étang Neuf", "category": "Reservoir", "area_ha": 5.8, "altitude_m": null }, "geometry": { "type": "Point", "coordinates": [ 1.87197, 47.62603 ] } },
{ "type": "Feature", "properties": { "name": "Étang de la Plaine", "category": "Reservoir", "area_ha": 8.9, "altitude_m": null }, "geometry": { "type": "Point", "coordinates": [ 2.07568, 47.60679 ] } },
{ "type": "Feature", "properties": { "name": "Étang de Saint-Dié", "category": "Reservoir", "area_ha": 5.1, "altitude_m": null }, "geometry": { "type": "Point", "coordinates": [ 1.72225, 47.46908 ] } },
{ "type": "Feature", "properties": { "name": "Étang de la Boîtière", "category": "Reservoir", "area_ha": 6.8, "altitude_m": null }, "geometry": { "type": "Point", "coordinates": [ 1.62656, 47.46476 ] } },
{ "type": "Feature", "properties": { "name": "Étang du Ruchet", "category": "Reservoir", "area_ha": 9.8, "altitude_m": null }, "geometry": { "type": "Point", "coordinates": [ 1.29189, 47.88562 ] } },
{ "type": "Feature", "properties": { "name": "Étang de la Jonchère", "category": "Reservoir", "area_ha": 11.0, "altitude_m": null }, "geometry": { "type": "Point", "coordinates": [ 1.98084, 47.35369 ] } },
{ "type": "Feature", "properties": { "name": "Étang Jean Martin", "category": "Reservoir", "area_ha": 6.7, "altitude_m": null }, "geometry": { "type": "Point", "coordinates": [ 1.97633, 47.52473 ] } },
{ "type": "Feature", "properties": { "name": "Unnamed", "category": "Reservoir", "area_ha": 6.5, "altitude_m": null }, "geometry": { "type": "Point", "coordinates": [ 1.96366, 47.47052 ] } },
{ "type": "Feature", "properties": { "name": "Étang des Barons", "category": "Reservoir", "area_ha": 17.4, "altitude_m": null }, "geometry": { "type": "Point", "coordinates": [ 1.45839, 47.29573 ] } },
{ "type": "Feature", "properties": { "name": "Étang de Courcelles", "category": "Reservoir", "area_ha": 27.7, "altitude_m": null }, "geometry": { "type": "Point", "coordinates": [ 1.89873, 47.47486 ] } },
{ "type": "Feature", "properties": { "name": "Étang de Paris", "category": "Reservoir", "area_ha": 16.8, "altitude_m": null }, "geometry": { "type": "Point", "coordinates": [ 1.64677, 47.36319 ] } },
{ "type": "Feature", "properties": { "name": "Unnamed", "category": "Reservoir", "area_ha": 6.1, "altitude_m": null }, "geometry": { "type": "Point", "coordinates": [ 1.70228, 47.40817 ] } },
{ "type": "Feature", "properties": { "name": "Étang de Bonneuil", "category": "Reservoir", "area_ha": 42.8, "altitude_m": null }, "geometry": { "type": "Point", "coordinates": [ 1.44273, 47.36453 ] } },
{ "type": "Feature", "properties": { "name": "Étang du Soret", "category": "Reservoir", "area_ha": 7.7, "altitude_m": null }, "geometry": { "type": "Point", "coordinates": [ 1.6621, 47.49984 ] } },
{ "type": "Feature", "properties": { "name": "Étang de Fergonnière", "category": "Reservoir", "area_ha": 5.5, "altitude_m": null }, "geometry": { "type": "Point", "coordinates": [ 1.66454, 47.50327 ] } },
{ "type": "Feature", "properties": { "name": "Étang du Grand Gitonneau", "category": "Reservoir", "area_ha": 5.7, "altitude_m": null }, "geometry": { "type": "Point", "coordinates": [ 1.64342, 47.56767 ] } },
{ "type": "Feature", "properties": { "name": "Étang du Joinchet", "category": "Reservoir", "area_ha": 9.2, "altitude_m": null }, "geometry": { "type": "Point", "coordinates": [ 1.65778, 47.69231 ] } },
{ "type": "Feature", "properties": { "name": "Étang Marcou", "category": "Reservoir", "area_ha": 6.9, "altitude_m": null }, "geometry": { "type": "Point", "coordinates": [ 2.18587, 47.61367 ] } },
{ "type": "Feature", "properties": { "name": "Étang des Binoches", "category": "Reservoir", "area_ha": 12.2, "altitude_m": null }, "geometry": { "type": "Point", "coordinates": [ 1.69766, 47.62439 ] } },
{ "type": "Feature", "properties": { "name": "Étang de la Courtilière", "category": "Reservoir", "area_ha": 8.5, "altitude_m": null }, "geometry": { "type": "Point", "coordinates": [ 1.75213, 47.57949 ] } },
{ "type": "Feature", "properties": { "name": "Étang des Réaux", "category": "Reservoir", "area_ha": 5.5, "altitude_m": null }, "geometry": { "type": "Point", "coordinates": [ 1.86814, 47.40711 ] } },
{ "type": "Feature", "properties": { "name": "Étang Ferray", "category": "Reservoir", "area_ha": 6.8, "altitude_m": null }, "geometry": { "type": "Point", "coordinates": [ 1.73572, 47.50992 ] } },
{ "type": "Feature", "properties": { "name": "Unnamed", "category": "Reservoir", "area_ha": 44.8, "altitude_m": null }, "geometry": { "type": "Point", "coordinates": [ 1.2361, 47.49814 ] } },
{ "type": "Feature", "properties": { "name": "Étang de la Noue", "category": "Reservoir", "area_ha": 6.3, "altitude_m": null }, "geometry": { "type": "Point", "coordinates": [ 1.73641, 47.39054 ] } },
{ "type": "Feature", "properties": { "name": "Unnamed", "category": "Reservoir", "area_ha": 6.7, "altitude_m": null }, "geometry": { "type": "Point", "coordinates": [ 2.07883, 47.41817 ] } },
{ "type": "Feature", "properties": { "name": "Étang Pinon", "category": "Reservoir", "area_ha": 12.6, "altitude_m": null }, "geometry": { "type": "Point", "coordinates": [ 1.79381, 47.48549 ] } },
{ "type": "Feature", "properties": { "name": "Étang de Plain Martin", "category": "Reservoir", "area_ha": 9.8, "altitude_m": null }, "geometry": { "type": "Point", "coordinates": [ 1.68535, 47.4829 ] } },
{ "type": "Feature", "properties": { "name": "Étang du Grand Tercy", "category": "Reservoir", "area_ha": 7.0, "altitude_m": null }, "geometry": { "type": "Point", "coordinates": [ 1.75924, 47.47886 ] } },
{ "type": "Feature", "properties": { "name": "Étang de Coinche", "category": "Reservoir", "area_ha": 5.5, "altitude_m": null }, "geometry": { "type": "Point", "coordinates": [ 1.89037, 47.46811 ] } },
{ "type": "Feature", "properties": { "name": "Unnamed", "category": "Reservoir", "area_ha": 8.6, "altitude_m": null }, "geometry": { "type": "Point", "coordinates": [ 2.06383, 47.39282 ] } },
{ "type": "Feature", "properties": { "name": "Étang de Pointiloup", "category": "Reservoir", "area_ha": 5.9, "altitude_m": null }, "geometry": { "type": "Point", "coordinates": [ 1.88057, 47.47858 ] } },
{ "type": "Feature", "properties": { "name": "Étang de Saugouret", "category": "Reservoir", "area_ha": 12.0, "altitude_m": null }, "geometry": { "type": "Point", "coordinates": [ 1.68533, 47.47367 ] } },
{ "type": "Feature", "properties": { "name": "Unnamed", "category": "Reservoir", "area_ha": 19.5, "altitude_m": null }, "geometry": { "type": "Point", "coordinates": [ 1.65244, 47.48075 ] } },
{ "type": "Feature", "properties": { "name": "Unnamed", "category": "Reservoir", "area_ha": 7.6, "altitude_m": null }, "geometry": { "type": "Point", "coordinates": [ 1.94753, 47.47192 ] } },
{ "type": "Feature", "properties": { "name": "Étang de la Gravelle", "category": "Reservoir", "area_ha": 11.0, "altitude_m": null }, "geometry": { "type": "Point", "coordinates": [ 1.87129, 47.48564 ] } },
{ "type": "Feature", "properties": { "name": "Étang Vié", "category": "Reservoir", "area_ha": 5.8, "altitude_m": null }, "geometry": { "type": "Point", "coordinates": [ 1.92263, 47.45167 ] } },
{ "type": "Feature", "properties": { "name": "Étang des Guigneaux", "category": "Reservoir", "area_ha": 10.4, "altitude_m": null }, "geometry": { "type": "Point", "coordinates": [ 1.79997, 47.45389 ] } },
{ "type": "Feature", "properties": { "name": "Étang de Roseraie", "category": "Reservoir", "area_ha": 6.0, "altitude_m": null }, "geometry": { "type": "Point", "coordinates": [ 1.66897, 47.44354 ] } },
{ "type": "Feature", "properties": { "name": "Étang du Souci", "category": "Reservoir", "area_ha": 5.2, "altitude_m": null }, "geometry": { "type": "Point", "coordinates": [ 1.07275, 47.88066 ] } },
{ "type": "Feature", "properties": { "name": "Étang du Lièvre", "category": "Reservoir", "area_ha": 10.3, "altitude_m": null }, "geometry": { "type": "Point", "coordinates": [ 1.66667, 47.41538 ] } },
{ "type": "Feature", "properties": { "name": "Étang de Salais", "category": "Reservoir", "area_ha": 5.2, "altitude_m": null }, "geometry": { "type": "Point", "coordinates": [ 1.33721, 47.40823 ] } },
{ "type": "Feature", "properties": { "name": "Étang du Bas", "category": "Reservoir", "area_ha": 5.7, "altitude_m": null }, "geometry": { "type": "Point", "coordinates": [ 1.83772, 47.39663 ] } },
{ "type": "Feature", "properties": { "name": "Étang de la Garenne", "category": "Reservoir", "area_ha": 5.3, "altitude_m": null }, "geometry": { "type": "Point", "coordinates": [ 1.57683, 47.54498 ] } },
{ "type": "Feature", "properties": { "name": "Unnamed", "category": "Reservoir", "area_ha": 5.4, "altitude_m": null }, "geometry": { "type": "Point", "coordinates": [ 2.07357, 47.45713 ] } },
{ "type": "Feature", "properties": { "name": "Étang du Perrault", "category": "Reservoir", "area_ha": 10.0, "altitude_m": null }, "geometry": { "type": "Point", "coordinates": [ 1.96248, 47.51504 ] } },
{ "type": "Feature", "properties": { "name": "Unnamed", "category": "Reservoir", "area_ha": 8.6, "altitude_m": null }, "geometry": { "type": "Point", "coordinates": [ 1.94583, 47.51736 ] } },
{ "type": "Feature", "properties": { "name": "Unnamed", "category": "Reservoir", "area_ha": 6.7, "altitude_m": null }, "geometry": { "type": "Point", "coordinates": [ 2.07179, 47.45925 ] } },
{ "type": "Feature", "properties": { "name": "Étang de la Chappe", "category": "Reservoir", "area_ha": 6.3, "altitude_m": null }, "geometry": { "type": "Point", "coordinates": [ 1.86522, 47.3968 ] } },
{ "type": "Feature", "properties": { "name": "Unnamed", "category": "Reservoir", "area_ha": 6.0, "altitude_m": null }, "geometry": { "type": "Point", "coordinates": [ 1.10515, 47.84393 ] } },
{ "type": "Feature", "properties": { "name": "Unnamed", "category": "Reservoir", "area_ha": 5.1, "altitude_m": null }, "geometry": { "type": "Point", "coordinates": [ 1.95323, 47.54621 ] } },
{ "type": "Feature", "properties": { "name": "Étang des Rosiers", "category": "Reservoir", "area_ha": 6.2, "altitude_m": null }, "geometry": { "type": "Point", "coordinates": [ 1.69018, 47.47377 ] } },
{ "type": "Feature", "properties": { "name": "Étang de l'Artrée", "category": "Reservoir", "area_ha": 12.9, "altitude_m": null }, "geometry": { "type": "Point", "coordinates": [ 1.97294, 47.52609 ] } },
{ "type": "Feature", "properties": { "name": "Unnamed", "category": "Reservoir", "area_ha": 10.1, "altitude_m": null }, "geometry": { "type": "Point", "coordinates": [ 0.7779, 47.76552 ] } },
{ "type": "Feature", "properties": { "name": "Unnamed", "category": "Reservoir", "area_ha": 7.9, "altitude_m": null }, "geometry": { "type": "Point", "coordinates": [ 1.72029, 47.63422 ] } },
{ "type": "Feature", "properties": { "name": "Étang de l'Épinecay Sept Cent Quatre Vingt Dix", "category": "Reservoir", "area_ha": 11.5, "altitude_m": null }, "geometry": { "type": "Point", "coordinates": [ 1.95644, 47.50408 ] } },
{ "type": "Feature", "properties": { "name": "Unnamed", "category": "Reservoir", "area_ha": 5.7, "altitude_m": null }, "geometry": { "type": "Point", "coordinates": [ 1.69519, 47.30192 ] } },
{ "type": "Feature", "properties": { "name": "Unnamed", "category": "Reservoir", "area_ha": 7.9, "altitude_m": null }, "geometry": { "type": "Point", "coordinates": [ 1.94951, 47.46832 ] } },
{ "type": "Feature", "properties": { "name": "Étang du Lieu", "category": "Reservoir", "area_ha": 20.6, "altitude_m": null }, "geometry": { "type": "Point", "coordinates": [ 1.75375, 47.39378 ] } },
{ "type": "Feature", "properties": { "name": "Grand Étang", "category": "Reservoir", "area_ha": 9.9, "altitude_m": null }, "geometry": { "type": "Point", "coordinates": [ 0.73934, 47.69721 ] } },
{ "type": "Feature", "properties": { "name": "Unnamed", "category": "Reservoir", "area_ha": 5.7, "altitude_m": null }, "geometry": { "type": "Point", "coordinates": [ 1.79742, 47.46671 ] } },
{ "type": "Feature", "properties": { "name": "Étang des Héraudières", "category": "Reservoir", "area_ha": 6.2, "altitude_m": null }, "geometry": { "type": "Point", "coordinates": [ 1.42696, 47.34485 ] } },
{ "type": "Feature", "properties": { "name": "St Laurent des Eaux Neuf Cent Trente", "category": "Reservoir", "area_ha": 7.6, "altitude_m": null }, "geometry": { "type": "Point", "coordinates": [ 1.58719, 47.72293 ] } },
{ "type": "Feature", "properties": { "name": "Unnamed", "category": "Reservoir", "area_ha": 7.0, "altitude_m": null }, "geometry": { "type": "Point", "coordinates": [ 1.75649, 47.40579 ] } },
{ "type": "Feature", "properties": { "name": "Unnamed", "category": "Reservoir", "area_ha": 6.0, "altitude_m": null }, "geometry": { "type": "Point", "coordinates": [ 2.0261, 47.3703 ] } },
{ "type": "Feature", "properties": { "name": "Étang des Chênes", "category": "Reservoir", "area_ha": 5.6, "altitude_m": null }, "geometry": { "type": "Point", "coordinates": [ 2.22206, 47.41606 ] } },
{ "type": "Feature", "properties": { "name": "Unnamed", "category": "Reservoir", "area_ha": 5.7, "altitude_m": null }, "geometry": { "type": "Point", "coordinates": [ 2.01234, 47.42745 ] } },
{ "type": "Feature", "properties": { "name": "Étang des Lumiers", "category": "Reservoir", "area_ha": 5.0, "altitude_m": null }, "geometry": { "type": "Point", "coordinates": [ 1.59852, 47.5083 ] } },
{ "type": "Feature", "properties": { "name": "Unnamed", "category": "Reservoir", "area_ha": 6.2, "altitude_m": null }, "geometry": { "type": "Point", "coordinates": [ 2.05731, 47.3768 ] } },
{ "type": "Feature", "properties": { "name": "Étang de la Noue", "category": "Reservoir", "area_ha": 5.9, "altitude_m": null }, "geometry": { "type": "Point", "coordinates": [ 1.72149, 47.44383 ] } },
{ "type": "Feature", "properties": { "name": "Unnamed", "category": "Reservoir", "area_ha": 5.9, "altitude_m": null }, "geometry": { "type": "Point", "coordinates": [ 1.55025, 47.42894 ] } },
{ "type": "Feature", "properties": { "name": "Étang de Marchézieux", "category": "Reservoir", "area_ha": 5.8, "altitude_m": null }, "geometry": { "type": "Point", "coordinates": [ 1.63985, 47.52195 ] } },
{ "type": "Feature", "properties": { "name": "Étang de Courbanton", "category": "Reservoir", "area_ha": 9.9, "altitude_m": null }, "geometry": { "type": "Point", "coordinates": [ 1.75359, 47.59627 ] } },
{ "type": "Feature", "properties": { "name": "Étang de Blancharbault", "category": "Reservoir", "area_ha": 7.7, "altitude_m": null }, "geometry": { "type": "Point", "coordinates": [ 1.91955, 47.49219 ] } },
{ "type": "Feature", "properties": { "name": "Étang de la Grisonnière", "category": "Reservoir", "area_ha": 6.3, "altitude_m": null }, "geometry": { "type": "Point", "coordinates": [ 1.58794, 47.43645 ] } },
{ "type": "Feature", "properties": { "name": "Étang de Chassay", "category": "Reservoir", "area_ha": 9.1, "altitude_m": null }, "geometry": { "type": "Point", "coordinates": [ 1.9431, 47.47049 ] } },
{ "type": "Feature", "properties": { "name": "Étang de Montousseau", "category": "Reservoir", "area_ha": 5.4, "altitude_m": null }, "geometry": { "type": "Point", "coordinates": [ 1.67973, 47.45362 ] } },
{ "type": "Feature", "properties": { "name": "Étang des Loubardières", "category": "Reservoir", "area_ha": 7.2, "altitude_m": null }, "geometry": { "type": "Point", "coordinates": [ 1.81954, 47.49905 ] } },
{ "type": "Feature", "properties": { "name": "Étang des Plaines", "category": "Reservoir", "area_ha": 15.9, "altitude_m": null }, "geometry": { "type": "Point", "coordinates": [ 1.96311, 47.34757 ] } },
{ "type": "Feature", "properties": { "name": "Étang de la Thibaudière", "category": "Reservoir", "area_ha": 5.7, "altitude_m": null }, "geometry": { "type": "Point", "coordinates": [ 1.58146, 47.61536 ] } },
{ "type": "Feature", "properties": { "name": "Étang des Prés", "category": "Reservoir", "area_ha": 6.1, "altitude_m": null }, "geometry": { "type": "Point", "coordinates": [ 1.53976, 47.44179 ] } },
{ "type": "Feature", "properties": { "name": "Unnamed", "category": "Reservoir", "area_ha": 5.2, "altitude_m": null }, "geometry": { "type": "Point", "coordinates": [ 2.17954, 47.52733 ] } },
{ "type": "Feature", "properties": { "name": "Étang du Riou", "category": "Reservoir", "area_ha": 11.0, "altitude_m": null }, "geometry": { "type": "Point", "coordinates": [ 2.19497, 47.62083 ] } },
{ "type": "Feature", "properties": { "name": "Unnamed", "category": "Reservoir", "area_ha": 7.8, "altitude_m": null }, "geometry": { "type": "Point", "coordinates": [ 2.07945, 47.51845 ] } },
{ "type": "Feature", "properties": { "name": "Étang d'Herbault", "category": "Reservoir", "area_ha": 10.4, "altitude_m": null }, "geometry": { "type": "Point", "coordinates": [ 1.58045, 47.53853 ] } },
{ "type": "Feature", "properties": { "name": "Étang de la Rousselière", "category": "Reservoir", "area_ha": 22.6, "altitude_m": null }, "geometry": { "type": "Point", "coordinates": [ 1.45987, 47.48443 ] } },
{ "type": "Feature", "properties": { "name": "Étang du Glandier", "category": "Reservoir", "area_ha": 5.4, "altitude_m": null }, "geometry": { "type": "Point", "coordinates": [ 1.71919, 47.5562 ] } },
{ "type": "Feature", "properties": { "name": "Étang de Verrière", "category": "Reservoir", "area_ha": 27.6, "altitude_m": null }, "geometry": { "type": "Point", "coordinates": [ 1.84673, 47.49279 ] } },
{ "type": "Feature", "properties": { "name": "Étang du Mouet", "category": "Reservoir", "area_ha": 14.3, "altitude_m": null }, "geometry": { "type": "Point", "coordinates": [ 1.95549, 47.47477 ] } },
{ "type": "Feature", "properties": { "name": "Étang Neuf", "category": "Reservoir", "area_ha": 27.2, "altitude_m": null }, "geometry": { "type": "Point", "coordinates": [ 1.54815, 47.4527 ] } },
{ "type": "Feature", "properties": { "name": "Étang de la Billarderie", "category": "Reservoir", "area_ha": 10.8, "altitude_m": null }, "geometry": { "type": "Point", "coordinates": [ 2.0391, 47.3844 ] } },
{ "type": "Feature", "properties": { "name": "Étang de Maupertuis", "category": "Reservoir", "area_ha": 10.9, "altitude_m": null }, "geometry": { "type": "Point", "coordinates": [ 0.6306, 47.74222 ] } },
{ "type": "Feature", "properties": { "name": "Étang de Chalès", "category": "Reservoir", "area_ha": 37.6, "altitude_m": null }, "geometry": { "type": "Point", "coordinates": [ 1.98637, 47.52972 ] } },
{ "type": "Feature", "properties": { "name": "Étang du Faon", "category": "Reservoir", "area_ha": 5.0, "altitude_m": null }, "geometry": { "type": "Point", "coordinates": [ 1.75988, 47.58754 ] } },
{ "type": "Feature", "properties": { "name": "Étang des Accoublères ou de la Main Ferme", "category": "Reservoir", "area_ha": 14.9, "altitude_m": null }, "geometry": { "type": "Point", "coordinates": [ 1.80249, 47.55317 ] } },
{ "type": "Feature", "properties": { "name": "Étang de Vervière", "category": "Reservoir", "area_ha": 11.2, "altitude_m": null }, "geometry": { "type": "Point", "coordinates": [ 1.87846, 47.42293 ] } },
{ "type": "Feature", "properties": { "name": "Plan d'Eau de Saint-Quentin", "category": "Reservoir", "area_ha": 5.7, "altitude_m": null }, "geometry": { "type": "Point", "coordinates": [ 0.83213, 47.76794 ] } },
{ "type": "Feature", "properties": { "name": "Étang de Bièvre", "category": "Reservoir", "area_ha": 48.2, "altitude_m": null }, "geometry": { "type": "Point", "coordinates": [ 1.86254, 47.49412 ] } },
{ "type": "Feature", "properties": { "name": "le Grand Étang", "category": "Reservoir", "area_ha": 15.2, "altitude_m": null }, "geometry": { "type": "Point", "coordinates": [ 2.11491, 47.35699 ] } },
{ "type": "Feature", "properties": { "name": "Unnamed", "category": "Reservoir", "area_ha": 5.4, "altitude_m": null }, "geometry": { "type": "Point", "coordinates": [ 0.88458, 47.74793 ] } },
{ "type": "Feature", "properties": { "name": "Unnamed", "category": "Reservoir", "area_ha": 5.0, "altitude_m": null }, "geometry": { "type": "Point", "coordinates": [ 1.29773, 47.58552 ] } },
{ "type": "Feature", "properties": { "name": "Étang des Noues", "category": "Reservoir", "area_ha": 8.3, "altitude_m": null }, "geometry": { "type": "Point", "coordinates": [ 1.97936, 47.4803 ] } },
{ "type": "Feature", "properties": { "name": "Étang des Vaux", "category": "Reservoir", "area_ha": 14.7, "altitude_m": null }, "geometry": { "type": "Point", "coordinates": [ 1.69266, 47.42866 ] } },
{ "type": "Feature", "properties": { "name": "Plan d'Eau de la Coudraie", "category": "Reservoir", "area_ha": 8.0, "altitude_m": null }, "geometry": { "type": "Point", "coordinates": [ 0.62597, 47.74763 ] } },
{ "type": "Feature", "properties": { "name": "Étang du Gué", "category": "Reservoir", "area_ha": 6.4, "altitude_m": null }, "geometry": { "type": "Point", "coordinates": [ 2.08078, 47.39751 ] } },
{ "type": "Feature", "properties": { "name": "Étang de Groselay", "category": "Reservoir", "area_ha": 10.6, "altitude_m": null }, "geometry": { "type": "Point", "coordinates": [ 1.66668, 47.51501 ] } },
{ "type": "Feature", "properties": { "name": "Étang du Lyat", "category": "Reservoir", "area_ha": 9.5, "altitude_m": null }, "geometry": { "type": "Point", "coordinates": [ 1.99946, 47.35757 ] } },
{ "type": "Feature", "properties": { "name": "Étang du Vivier", "category": "Reservoir", "area_ha": 5.8, "altitude_m": null }, "geometry": { "type": "Point", "coordinates": [ 1.69678, 47.40244 ] } },
{ "type": "Feature", "properties": { "name": "Étang de la Marmouchère", "category": "Reservoir", "area_ha": 5.9, "altitude_m": null }, "geometry": { "type": "Point", "coordinates": [ 1.55121, 47.53662 ] } },
{ "type": "Feature", "properties": { "name": "Étang du Petit Menou", "category": "Reservoir", "area_ha": 12.9, "altitude_m": null }, "geometry": { "type": "Point", "coordinates": [ 1.59738, 47.49234 ] } },
{ "type": "Feature", "properties": { "name": "Unnamed", "category": "Reservoir", "area_ha": 8.2, "altitude_m": null }, "geometry": { "type": "Point", "coordinates": [ 1.61277, 47.47569 ] } },
{ "type": "Feature", "properties": { "name": "Étang Courtas", "category": "Reservoir", "area_ha": 11.8, "altitude_m": null }, "geometry": { "type": "Point", "coordinates": [ 1.50796, 47.32381 ] } },
{ "type": "Feature", "properties": { "name": "Étang du Plessis", "category": "Reservoir", "area_ha": 6.3, "altitude_m": null }, "geometry": { "type": "Point", "coordinates": [ 2.09511, 47.60077 ] } },
{ "type": "Feature", "properties": { "name": "Étang des Riflards", "category": "Reservoir", "area_ha": 7.0, "altitude_m": null }, "geometry": { "type": "Point", "coordinates": [ 1.75024, 47.64598 ] } },
{ "type": "Feature", "properties": { "name": "Étang de Marcilly", "category": "Reservoir", "area_ha": 21.6, "altitude_m": null }, "geometry": { "type": "Point", "coordinates": [ 1.86208, 47.51154 ] } },
{ "type": "Feature", "properties": { "name": "Étang de Maray", "category": "Reservoir", "area_ha": 14.3, "altitude_m": null }, "geometry": { "type": "Point", "coordinates": [ 1.84004, 47.2401 ] } },
{ "type": "Feature", "properties": { "name": "Unnamed", "category": "Reservoir", "area_ha": 6.3, "altitude_m": null }, "geometry": { "type": "Point", "coordinates": [ 2.19541, 47.66709 ] } },
{ "type": "Feature", "properties": { "name": "Étang Charné", "category": "Reservoir", "area_ha": 5.3, "altitude_m": null }, "geometry": { "type": "Point", "coordinates": [ 1.82654, 47.50203 ] } },
{ "type": "Feature", "properties": { "name": "Étang Bézard", "category": "Reservoir", "area_ha": 47.1, "altitude_m": null }, "geometry": { "type": "Point", "coordinates": [ 1.63395, 47.38587 ] } },
{ "type": "Feature", "properties": { "name": "Étang Hurault", "category": "Reservoir", "area_ha": 9.5, "altitude_m": null }, "geometry": { "type": "Point", "coordinates": [ 1.49737, 47.47141 ] } },
{ "type": "Feature", "properties": { "name": "Étang de la Brosse", "category": "Reservoir", "area_ha": 7.2, "altitude_m": null }, "geometry": { "type": "Point", "coordinates": [ 1.98996, 47.55864 ] } },
{ "type": "Feature", "properties": { "name": "Unnamed", "category": "Reservoir", "area_ha": 5.9, "altitude_m": null }, "geometry": { "type": "Point", "coordinates": [ 1.65582, 47.40906 ] } },
{ "type": "Feature", "properties": { "name": "Unnamed", "category": "Reservoir", "area_ha": 5.7, "altitude_m": null }, "geometry": { "type": "Point", "coordinates": [ 1.81636, 47.30871 ] } },
{ "type": "Feature", "properties": { "name": "Unnamed", "category": "Reservoir", "area_ha": 6.8, "altitude_m": null }, "geometry": { "type": "Point", "coordinates": [ 1.5978, 47.34218 ] } },
{ "type": "Feature", "properties": { "name": "Unnamed", "category": "Reservoir", "area_ha": 16.8, "altitude_m": null }, "geometry": { "type": "Point", "coordinates": [ 1.65258, 47.35302 ] } },
{ "type": "Feature", "properties": { "name": "Étang Ronsard", "category": "Reservoir", "area_ha": 15.7, "altitude_m": null }, "geometry": { "type": "Point", "coordinates": [ 0.65451, 47.75388 ] } },
{ "type": "Feature", "properties": { "name": "Unnamed", "category": "Reservoir", "area_ha": 5.6, "altitude_m": null }, "geometry": { "type": "Point", "coordinates": [ 1.84295, 47.58699 ] } },
{ "type": "Feature", "properties": { "name": "Unnamed", "category": "Reservoir", "area_ha": 10.7, "altitude_m": null }, "geometry": { "type": "Point", "coordinates": [ 2.09634, 47.45549 ] } },
{ "type": "Feature", "properties": { "name": "le Marais", "category": "Reservoir", "area_ha": 16.8, "altitude_m": null }, "geometry": { "type": "Point", "coordinates": [ 1.5531, 47.47745 ] } },
{ "type": "Feature", "properties": { "name": "Étang de la Grande Bretèche", "category": "Reservoir", "area_ha": 5.4, "altitude_m": null }, "geometry": { "type": "Point", "coordinates": [ 1.63238, 47.45305 ] } },
{ "type": "Feature", "properties": { "name": "Unnamed", "category": "Reservoir", "area_ha": 5.4, "altitude_m": null }, "geometry": { "type": "Point", "coordinates": [ 1.06664, 47.54015 ] } },
{ "type": "Feature", "properties": { "name": "Étang d'Auteroche", "category": "Reservoir", "area_ha": 11.7, "altitude_m": null }, "geometry": { "type": "Point", "coordinates": [ 1.98248, 47.50367 ] } },
{ "type": "Feature", "properties": { "name": "Étang de Bois Renault", "category": "Reservoir", "area_ha": 20.7, "altitude_m": null }, "geometry": { "type": "Point", "coordinates": [ 1.93949, 47.51043 ] } },
{ "type": "Feature", "properties": { "name": "Unnamed", "category": "Reservoir", "area_ha": 5.9, "altitude_m": null }, "geometry": { "type": "Point", "coordinates": [ 1.85806, 47.58298 ] } },
{ "type": "Feature", "properties": { "name": "Unnamed", "category": "Reservoir", "area_ha": 8.1, "altitude_m": null }, "geometry": { "type": "Point", "coordinates": [ 1.50056, 47.52885 ] } },
{ "type": "Feature", "properties": { "name": "Unnamed", "category": "Reservoir", "area_ha": 5.1, "altitude_m": null }, "geometry": { "type": "Point", "coordinates": [ 0.98161, 47.94352 ] } },
{ "type": "Feature", "properties": { "name": "Unnamed", "category": "Reservoir", "area_ha": 6.3, "altitude_m": null }, "geometry": { "type": "Point", "coordinates": [ 1.83254, 47.37212 ] } },
{ "type": "Feature", "properties": { "name": "Unnamed", "category": "Reservoir", "area_ha": 5.5, "altitude_m": null }, "geometry": { "type": "Point", "coordinates": [ 2.08756, 47.41938 ] } },
{ "type": "Feature", "properties": { "name": "Étang de la Giraude", "category": "Reservoir", "area_ha": 8.4, "altitude_m": null }, "geometry": { "type": "Point", "coordinates": [ 1.84205, 47.50389 ] } },
{ "type": "Feature", "properties": { "name": "Étang Marais", "category": "Reservoir", "area_ha": 5.2, "altitude_m": null }, "geometry": { "type": "Point", "coordinates": [ 1.5816, 47.40196 ] } },
{ "type": "Feature", "properties": { "name": "Grand Étang de la Colinière", "category": "Reservoir", "area_ha": 9.1, "altitude_m": null }, "geometry": { "type": "Point", "coordinates": [ 1.58611, 47.49978 ] } },
{ "type": "Feature", "properties": { "name": "Étang du Chicandin", "category": "Reservoir", "area_ha": 5.8, "altitude_m": null }, "geometry": { "type": "Point", "coordinates": [ 2.03639, 47.62141 ] } },
{ "type": "Feature", "properties": { "name": "Unnamed", "category": "Reservoir", "area_ha": 5.7, "altitude_m": null }, "geometry": { "type": "Point", "coordinates": [ 1.63786, 47.34514 ] } },
{ "type": "Feature", "properties": { "name": "Unnamed", "category": "Reservoir", "area_ha": 10.2, "altitude_m": null }, "geometry": { "type": "Point", "coordinates": [ 1.28741, 47.68289 ] } },
{ "type": "Feature", "properties": { "name": "Étang de Vilcou", "category": "Reservoir", "area_ha": 8.3, "altitude_m": null }, "geometry": { "type": "Point", "coordinates": [ 1.85617, 47.5752 ] } },
{ "type": "Feature", "properties": { "name": "le Grand Cottereau", "category": "Reservoir", "area_ha": 15.1, "altitude_m": null }, "geometry": { "type": "Point", "coordinates": [ 1.50904, 47.51542 ] } },
{ "type": "Feature", "properties": { "name": "Unnamed", "category": "Reservoir", "area_ha": 17.0, "altitude_m": null }, "geometry": { "type": "Point", "coordinates": [ 0.63097, 47.74883 ] } },
{ "type": "Feature", "properties": { "name": "Étang d'Émery", "category": "Reservoir", "area_ha": 13.8, "altitude_m": null }, "geometry": { "type": "Point", "coordinates": [ 1.78291, 47.41368 ] } },
{ "type": "Feature", "properties": { "name": "Unnamed", "category": "Reservoir", "area_ha": 5.7, "altitude_m": null }, "geometry": { "type": "Point", "coordinates": [ 1.18713, 47.39314 ] } },
{ "type": "Feature", "properties": { "name": "Étang des Coulomières", "category": "Reservoir", "area_ha": 5.5, "altitude_m": null }, "geometry": { "type": "Point", "coordinates": [ 1.61084, 47.38044 ] } },
{ "type": "Feature", "properties": { "name": "Unnamed", "category": "Reservoir", "area_ha": 9.5, "altitude_m": null }, "geometry": { "type": "Point", "coordinates": [ 1.95791, 47.46947 ] } },
{ "type": "Feature", "properties": { "name": "Unnamed", "category": "Reservoir", "area_ha": 29.8, "altitude_m": null }, "geometry": { "type": "Point", "coordinates": [ 2.21371, 47.45913 ] } },
{ "type": "Feature", "properties": { "name": "Unnamed", "category": "Reservoir", "area_ha": 5.7, "altitude_m": null }, "geometry": { "type": "Point", "coordinates": [ 2.19704, 47.67537 ] } },
{ "type": "Feature", "properties": { "name": "Étang de Neuzieux", "category": "Reservoir", "area_ha": 10.0, "altitude_m": null }, "geometry": { "type": "Point", "coordinates": [ 1.95072, 47.56793 ] } },
{ "type": "Feature", "properties": { "name": "Étang des Noues", "category": "Reservoir", "area_ha": 5.1, "altitude_m": null }, "geometry": { "type": "Point", "coordinates": [ 1.92579, 47.48357 ] } },
{ "type": "Feature", "properties": { "name": "Étang des Landes", "category": "Reservoir", "area_ha": 6.9, "altitude_m": null }, "geometry": { "type": "Point", "coordinates": [ 1.96276, 47.47636 ] } },
{ "type": "Feature", "properties": { "name": "Étang de Panama", "category": "Reservoir", "area_ha": 17.4, "altitude_m": null }, "geometry": { "type": "Point", "coordinates": [ 1.80869, 47.50688 ] } },
{ "type": "Feature", "properties": { "name": "Étang du Temple", "category": "Reservoir", "area_ha": 9.0, "altitude_m": null }, "geometry": { "type": "Point", "coordinates": [ 1.68397, 47.62498 ] } },
{ "type": "Feature", "properties": { "name": "Étang de la Pivardière", "category": "Reservoir", "area_ha": 16.8, "altitude_m": null }, "geometry": { "type": "Point", "coordinates": [ 1.74658, 47.499 ] } },
{ "type": "Feature", "properties": { "name": "Étang des Longis", "category": "Reservoir", "area_ha": 14.2, "altitude_m": null }, "geometry": { "type": "Point", "coordinates": [ 1.99011, 47.50879 ] } },
{ "type": "Feature", "properties": { "name": "Étang de la Petite Corbois", "category": "Reservoir", "area_ha": 7.7, "altitude_m": null }, "geometry": { "type": "Point", "coordinates": [ 1.89717, 47.519 ] } },
{ "type": "Feature", "properties": { "name": "Unnamed", "category": "Reservoir", "area_ha": 5.3, "altitude_m": null }, "geometry": { "type": "Point", "coordinates": [ 1.46114, 47.34915 ] } },
{ "type": "Feature", "properties": { "name": "Unnamed", "category": "Reservoir", "area_ha": 7.4, "altitude_m": null }, "geometry": { "type": "Point", "coordinates": [ 1.87002, 47.4997 ] } },
{ "type": "Feature", "properties": { "name": "Étang de la Bassinette", "category": "Reservoir", "area_ha": 6.8, "altitude_m": null }, "geometry": { "type": "Point", "coordinates": [ 2.08004, 47.39011 ] } },
{ "type": "Feature", "properties": { "name": "Étang du Coussin", "category": "Reservoir", "area_ha": 11.0, "altitude_m": null }, "geometry": { "type": "Point", "coordinates": [ 2.09082, 47.4205 ] } },
{ "type": "Feature", "properties": { "name": "Étang de Vallas", "category": "Reservoir", "area_ha": 27.6, "altitude_m": null }, "geometry": { "type": "Point", "coordinates": [ 2.02526, 47.5117 ] } },
{ "type": "Feature", "properties": { "name": "Étang Perreux", "category": "Reservoir", "area_ha": 5.8, "altitude_m": null }, "geometry": { "type": "Point", "coordinates": [ 1.73486, 47.42174 ] } },
{ "type": "Feature", "properties": { "name": "Étang Dernier", "category": "Reservoir", "area_ha": 14.0, "altitude_m": null }, "geometry": { "type": "Point", "coordinates": [ 1.84212, 47.40328 ] } },
{ "type": "Feature", "properties": { "name": "Étang de Rosière", "category": "Reservoir", "area_ha": 6.1, "altitude_m": null }, "geometry": { "type": "Point", "coordinates": [ 1.82715, 47.39216 ] } },
{ "type": "Feature", "properties": { "name": "Unnamed", "category": "Reservoir", "area_ha": 5.2, "altitude_m": null }, "geometry": { "type": "Point", "coordinates": [ 2.00895, 47.40227 ] } },
{ "type": "Feature", "properties": { "name": "Étang Neuf", "category": "Reservoir", "area_ha": 6.5, "altitude_m": null }, "geometry": { "type": "Point", "coordinates": [ 1.89491, 47.52935 ] } },
{ "type": "Feature", "properties": { "name": "Étang de la Ville", "category": "Reservoir", "area_ha": 5.0, "altitude_m": null }, "geometry": { "type": "Point", "coordinates": [ 1.93252, 47.51923 ] } },
{ "type": "Feature", "properties": { "name": "Étang de la Grande Corbois", "category": "Reservoir", "area_ha": 28.5, "altitude_m": null }, "geometry": { "type": "Point", "coordinates": [ 1.90712, 47.51348 ] } },
{ "type": "Feature", "properties": { "name": "Étang de la Motte", "category": "Reservoir", "area_ha": 5.1, "altitude_m": null }, "geometry": { "type": "Point", "coordinates": [ 1.73493, 47.65714 ] } },
{ "type": "Feature", "properties": { "name": "Étang de la Brosse", "category": "Reservoir", "area_ha": 8.5, "altitude_m": null }, "geometry": { "type": "Point", "coordinates": [ 1.67299, 47.56077 ] } },
{ "type": "Feature", "properties": { "name": "Étang du Moulin", "category": "Reservoir", "area_ha": 6.2, "altitude_m": null }, "geometry": { "type": "Point", "coordinates": [ 1.71828, 47.62066 ] } },
{ "type": "Feature", "properties": { "name": "Étang de Villeloup", "category": "Reservoir", "area_ha": 5.8, "altitude_m": null }, "geometry": { "type": "Point", "coordinates": [ 1.88445, 47.4001 ] } },
{ "type": "Feature", "properties": { "name": "Étang de Salmède", "category": "Reservoir", "area_ha": 6.1, "altitude_m": null }, "geometry": { "type": "Point", "coordinates": [ 1.7157, 47.45718 ] } },
{ "type": "Feature", "properties": { "name": "Étang de la Mênerie", "category": "Reservoir", "area_ha": 10.3, "altitude_m": null }, "geometry": { "type": "Point", "coordinates": [ 1.72528, 47.43824 ] } },
{ "type": "Feature", "properties": { "name": "Étang de la Touche", "category": "Reservoir", "area_ha": 6.1, "altitude_m": null }, "geometry": { "type": "Point", "coordinates": [ 1.65615, 47.50525 ] } },
{ "type": "Feature", "properties": { "name": "Unnamed", "category": "Reservoir", "area_ha": 13.7, "altitude_m": null }, "geometry": { "type": "Point", "coordinates": [ 1.31283, 47.73856 ] } },
{ "type": "Feature", "properties": { "name": "Unnamed", "category": "Reservoir", "area_ha": 6.5, "altitude_m": null }, "geometry": { "type": "Point", "coordinates": [ 1.97355, 47.46192 ] } },
{ "type": "Feature", "properties": { "name": "Unnamed", "category": "Reservoir", "area_ha": 16.3, "altitude_m": null }, "geometry": { "type": "Point", "coordinates": [ 1.54028, 47.43752 ] } },
{ "type": "Feature", "properties": { "name": "Étang des Chênes", "category": "Reservoir", "area_ha": 6.5, "altitude_m": null }, "geometry": { "type": "Point", "coordinates": [ 2.20546, 47.41832 ] } },
{ "type": "Feature", "properties": { "name": "Étang des Landes", "category": "Reservoir", "area_ha": 17.1, "altitude_m": null }, "geometry": { "type": "Point", "coordinates": [ 1.93869, 47.34889 ] } },
{ "type": "Feature", "properties": { "name": "Étang des Fourneaux", "category": "Reservoir", "area_ha": 5.5, "altitude_m": null }, "geometry": { "type": "Point", "coordinates": [ 1.78615, 47.40162 ] } },
{ "type": "Feature", "properties": { "name": "Unnamed", "category": "Reservoir", "area_ha": 7.1, "altitude_m": null }, "geometry": { "type": "Point", "coordinates": [ 1.79686, 47.49253 ] } },
{ "type": "Feature", "properties": { "name": "Unnamed", "category": "Reservoir", "area_ha": 11.2, "altitude_m": null }, "geometry": { "type": "Point", "coordinates": [ 1.66029, 47.4884 ] } },
{ "type": "Feature", "properties": { "name": "Unnamed", "category": "Reservoir", "area_ha": 10.6, "altitude_m": null }, "geometry": { "type": "Point", "coordinates": [ 1.60433, 47.39785 ] } },
{ "type": "Feature", "properties": { "name": "Unnamed", "category": "Reservoir", "area_ha": 8.2, "altitude_m": null }, "geometry": { "type": "Point", "coordinates": [ 1.89903, 47.31486 ] } },
{ "type": "Feature", "properties": { "name": "Unnamed", "category": "Reservoir", "area_ha": 8.1, "altitude_m": null }, "geometry": { "type": "Point", "coordinates": [ 1.80763, 47.51324 ] } },
{ "type": "Feature", "properties": { "name": "Unnamed", "category": "Reservoir", "area_ha": 5.4, "altitude_m": null }, "geometry": { "type": "Point", "coordinates": [ 1.55929, 47.39971 ] } },
{ "type": "Feature", "properties": { "name": "Unnamed", "category": "Reservoir", "area_ha": 9.7, "altitude_m": null }, "geometry": { "type": "Point", "coordinates": [ 1.83764, 47.50852 ] } },
{ "type": "Feature", "properties": { "name": "Étang Vié", "category": "Reservoir", "area_ha": 6.9, "altitude_m": null }, "geometry": { "type": "Point", "coordinates": [ 2.11409, 47.54842 ] } },
{ "type": "Feature", "properties": { "name": "Unnamed", "category": "Reservoir", "area_ha": 8.9, "altitude_m": null }, "geometry": { "type": "Point", "coordinates": [ 2.23299, 47.47144 ] } },
{ "type": "Feature", "properties": { "name": "Étang Neuf", "category": "Reservoir", "area_ha": 20.2, "altitude_m": null }, "geometry": { "type": "Point", "coordinates": [ 1.67571, 47.55162 ] } },
{ "type": "Feature", "properties": { "name": "Étang des Villiers", "category": "Reservoir", "area_ha": 5.3, "altitude_m": null }, "geometry": { "type": "Point", "coordinates": [ 1.66912, 47.54758 ] } },
{ "type": "Feature", "properties": { "name": "Étang de Galop", "category": "Reservoir", "area_ha": 16.1, "altitude_m": null }, "geometry": { "type": "Point", "coordinates": [ 1.9528, 47.51244 ] } },
{ "type": "Feature", "properties": { "name": "Étang de la Giraudière", "category": "Reservoir", "area_ha": 28.5, "altitude_m": null }, "geometry": { "type": "Point", "coordinates": [ 1.74914, 47.58248 ] } },
{ "type": "Feature", "properties": { "name": "Étang Périodique de la Gadelinière", "category": "Reservoir", "area_ha": 5.9, "altitude_m": null }, "geometry": { "type": "Point", "coordinates": [ 1.80818, 47.55517 ] } },
{ "type": "Feature", "properties": { "name": "Étang de la Naubière", "category": "Reservoir", "area_ha": 8.2, "altitude_m": null }, "geometry": { "type": "Point", "coordinates": [ 1.76843, 47.37665 ] } },
{ "type": "Feature", "properties": { "name": "Étang de Cornilly", "category": "Reservoir", "area_ha": 8.1, "altitude_m": null }, "geometry": { "type": "Point", "coordinates": [ 1.78039, 47.38517 ] } },
{ "type": "Feature", "properties": { "name": "Étang de Maison Neuve", "category": "Reservoir", "area_ha": 7.1, "altitude_m": null }, "geometry": { "type": "Point", "coordinates": [ 1.6951, 47.51059 ] } },
{ "type": "Feature", "properties": { "name": "Étang de l'Oie", "category": "Reservoir", "area_ha": 6.5, "altitude_m": null }, "geometry": { "type": "Point", "coordinates": [ 1.61131, 47.50985 ] } },
{ "type": "Feature", "properties": { "name": "Étang des Demoiselles", "category": "Reservoir", "area_ha": 5.8, "altitude_m": null }, "geometry": { "type": "Point", "coordinates": [ 1.98552, 47.48639 ] } },
{ "type": "Feature", "properties": { "name": "Étang du Clos Bertier", "category": "Reservoir", "area_ha": 5.5, "altitude_m": null }, "geometry": { "type": "Point", "coordinates": [ 1.89445, 47.66015 ] } },
{ "type": "Feature", "properties": { "name": "Étang des Plantes", "category": "Reservoir", "area_ha": 7.1, "altitude_m": null }, "geometry": { "type": "Point", "coordinates": [ 1.99963, 47.5075 ] } },
{ "type": "Feature", "properties": { "name": "Étang des Trois Seigneurs", "category": "Reservoir", "area_ha": 6.8, "altitude_m": null }, "geometry": { "type": "Point", "coordinates": [ 1.54817, 47.52132 ] } },
{ "type": "Feature", "properties": { "name": "Étang de la Goujonnière", "category": "Reservoir", "area_ha": 9.0, "altitude_m": null }, "geometry": { "type": "Point", "coordinates": [ 1.84948, 47.49816 ] } },
{ "type": "Feature", "properties": { "name": "Étang des Brosses", "category": "Reservoir", "area_ha": 33.0, "altitude_m": null }, "geometry": { "type": "Point", "coordinates": [ 1.91694, 47.50532 ] } },
{ "type": "Feature", "properties": { "name": "Étang de la Chamottière", "category": "Reservoir", "area_ha": 8.3, "altitude_m": null }, "geometry": { "type": "Point", "coordinates": [ 1.89826, 47.50409 ] } },
{ "type": "Feature", "properties": { "name": "Étang du Long Boyau", "category": "Reservoir", "area_ha": 8.2, "altitude_m": null }, "geometry": { "type": "Point", "coordinates": [ 1.7688, 47.57008 ] } },
{ "type": "Feature", "properties": { "name": "Étang Bardin", "category": "Reservoir", "area_ha": 5.3, "altitude_m": null }, "geometry": { "type": "Point", "coordinates": [ 1.6939, 47.49614 ] } },
{ "type": "Feature", "properties": { "name": "Étangs Bouché", "category": "Reservoir", "area_ha": 6.2, "altitude_m": null }, "geometry": { "type": "Point", "coordinates": [ 1.57875, 47.50631 ] } },
{ "type": "Feature", "properties": { "name": "Étang du Grand Menou", "category": "Reservoir", "area_ha": 13.4, "altitude_m": null }, "geometry": { "type": "Point", "coordinates": [ 1.60119, 47.496 ] } },
{ "type": "Feature", "properties": { "name": "Étang de la Grille", "category": "Reservoir", "area_ha": 5.0, "altitude_m": null }, "geometry": { "type": "Point", "coordinates": [ 1.28837, 47.88728 ] } },
{ "type": "Feature", "properties": { "name": "Plan d'Eau de Villiers-sur-Loir", "category": "Reservoir", "area_ha": 16.2, "altitude_m": null }, "geometry": { "type": "Point", "coordinates": [ 0.99035, 47.79821 ] } },
{ "type": "Feature", "properties": { "name": "Étang de la Cordonnière", "category": "Reservoir", "area_ha": 10.3, "altitude_m": null }, "geometry": { "type": "Point", "coordinates": [ 1.90946, 47.66535 ] } },
{ "type": "Feature", "properties": { "name": "Étang des Noues", "category": "Reservoir", "area_ha": 7.8, "altitude_m": null }, "geometry": { "type": "Point", "coordinates": [ 1.91598, 47.65943 ] } },
{ "type": "Feature", "properties": { "name": "Étang des Eaux", "category": "Reservoir", "area_ha": 6.6, "altitude_m": null }, "geometry": { "type": "Point", "coordinates": [ 1.84657, 47.66196 ] } },
{ "type": "Feature", "properties": { "name": "Étang des Thouards", "category": "Reservoir", "area_ha": 5.1, "altitude_m": null }, "geometry": { "type": "Point", "coordinates": [ 1.74803, 47.65267 ] } },
{ "type": "Feature", "properties": { "name": "Étang Biencourt", "category": "Reservoir", "area_ha": 8.6, "altitude_m": null }, "geometry": { "type": "Point", "coordinates": [ 1.90195, 47.64986 ] } },
{ "type": "Feature", "properties": { "name": "Grand Étang de Rhuys", "category": "Reservoir", "area_ha": 9.6, "altitude_m": null }, "geometry": { "type": "Point", "coordinates": [ 1.6739, 47.62915 ] } },
{ "type": "Feature", "properties": { "name": "Étang Neuf", "category": "Reservoir", "area_ha": 6.9, "altitude_m": null }, "geometry": { "type": "Point", "coordinates": [ 2.1878, 47.62138 ] } },
{ "type": "Feature", "properties": { "name": "Étang des Charmaux", "category": "Reservoir", "area_ha": 5.2, "altitude_m": null }, "geometry": { "type": "Point", "coordinates": [ 2.09951, 47.60874 ] } },
{ "type": "Feature", "properties": { "name": "Étang des Veillas", "category": "Reservoir", "area_ha": 5.4, "altitude_m": null }, "geometry": { "type": "Point", "coordinates": [ 1.65599, 47.61181 ] } },
{ "type": "Feature", "properties": { "name": "Étang des Haies", "category": "Reservoir", "area_ha": 7.1, "altitude_m": null }, "geometry": { "type": "Point", "coordinates": [ 2.08212, 47.60863 ] } },
{ "type": "Feature", "properties": { "name": "Étang des Châteaux", "category": "Reservoir", "area_ha": 7.1, "altitude_m": null }, "geometry": { "type": "Point", "coordinates": [ 1.86601, 47.6035 ] } },
{ "type": "Feature", "properties": { "name": "Étang des Oiseaux", "category": "Reservoir", "area_ha": 14.4, "altitude_m": null }, "geometry": { "type": "Point", "coordinates": [ 1.84413, 47.6075 ] } },
{ "type": "Feature", "properties": { "name": "Étang des Bonshommes", "category": "Reservoir", "area_ha": 7.2, "altitude_m": null }, "geometry": { "type": "Point", "coordinates": [ 1.52941, 47.60934 ] } },
{ "type": "Feature", "properties": { "name": "Étangs de la Tombe", "category": "Reservoir", "area_ha": 8.7, "altitude_m": null }, "geometry": { "type": "Point", "coordinates": [ 1.0805, 47.59338 ] } },
{ "type": "Feature", "properties": { "name": "Étang de Ribert", "category": "Reservoir", "area_ha": 9.2, "altitude_m": null }, "geometry": { "type": "Point", "coordinates": [ 1.81849, 47.59094 ] } },
{ "type": "Feature", "properties": { "name": "Étang de Mazères", "category": "Reservoir", "area_ha": 20.6, "altitude_m": null }, "geometry": { "type": "Point", "coordinates": [ 2.02505, 47.48829 ] } },
{ "type": "Feature", "properties": { "name": "Étang Neuf", "category": "Reservoir", "area_ha": 9.1, "altitude_m": null }, "geometry": { "type": "Point", "coordinates": [ 1.93693, 47.59674 ] } },
{ "type": "Feature", "properties": { "name": "Étang d'Ambon", "category": "Reservoir", "area_ha": 8.1, "altitude_m": null }, "geometry": { "type": "Point", "coordinates": [ 1.9176, 47.5942 ] } },
{ "type": "Feature", "properties": { "name": "Étang des Thibergères", "category": "Reservoir", "area_ha": 7.7, "altitude_m": null }, "geometry": { "type": "Point", "coordinates": [ 1.85819, 47.58895 ] } },
{ "type": "Feature", "properties": { "name": "Étang des Chanoines", "category": "Reservoir", "area_ha": 11.9, "altitude_m": null }, "geometry": { "type": "Point", "coordinates": [ 1.93921, 47.56528 ] } },
{ "type": "Feature", "properties": { "name": "Étang de Vernie", "category": "Reservoir", "area_ha": 7.9, "altitude_m": null }, "geometry": { "type": "Point", "coordinates": [ 1.72928, 47.58924 ] } },
{ "type": "Feature", "properties": { "name": "Étang du Châtelier", "category": "Reservoir", "area_ha": 8.6, "altitude_m": null }, "geometry": { "type": "Point", "coordinates": [ 1.81949, 47.56922 ] } },
{ "type": "Feature", "properties": { "name": "Étang du Briou", "category": "Reservoir", "area_ha": 11.7, "altitude_m": null }, "geometry": { "type": "Point", "coordinates": [ 1.87017, 47.49347 ] } },
{ "type": "Feature", "properties": { "name": "Étang d'Auteroche", "category": "Reservoir", "area_ha": 9.0, "altitude_m": null }, "geometry": { "type": "Point", "coordinates": [ 1.91355, 47.58445 ] } },
{ "type": "Feature", "properties": { "name": "Étang de la Chaise", "category": "Reservoir", "area_ha": 5.1, "altitude_m": null }, "geometry": { "type": "Point", "coordinates": [ 1.82197, 47.4844 ] } },
{ "type": "Feature", "properties": { "name": "Étang des Boulaies", "category": "Reservoir", "area_ha": 9.2, "altitude_m": null }, "geometry": { "type": "Point", "coordinates": [ 1.73549, 47.48322 ] } },
{ "type": "Feature", "properties": { "name": "Étang des Chênes", "category": "Reservoir", "area_ha": 8.7, "altitude_m": null }, "geometry": { "type": "Point", "coordinates": [ 1.66728, 47.49408 ] } },
{ "type": "Feature", "properties": { "name": "Étang du Gros Aune", "category": "Reservoir", "area_ha": 18.4, "altitude_m": null }, "geometry": { "type": "Point", "coordinates": [ 1.72337, 47.48879 ] } },
{ "type": "Feature", "properties": { "name": "Étang de Compois", "category": "Reservoir", "area_ha": 9.3, "altitude_m": null }, "geometry": { "type": "Point", "coordinates": [ 1.9729, 47.48059 ] } },
{ "type": "Feature", "properties": { "name": "Étang de Beauregard", "category": "Reservoir", "area_ha": 5.7, "altitude_m": null }, "geometry": { "type": "Point", "coordinates": [ 2.13198, 47.47993 ] } },
{ "type": "Feature", "properties": { "name": "Étang Neuf", "category": "Reservoir", "area_ha": 6.6, "altitude_m": null }, "geometry": { "type": "Point", "coordinates": [ 1.99277, 47.48073 ] } },
{ "type": "Feature", "properties": { "name": "Étang Barbou", "category": "Reservoir", "area_ha": 7.1, "altitude_m": null }, "geometry": { "type": "Point", "coordinates": [ 1.86742, 47.46887 ] } },
{ "type": "Feature", "properties": { "name": "Étang de la Clarinerie", "category": "Reservoir", "area_ha": 5.9, "altitude_m": null }, "geometry": { "type": "Point", "coordinates": [ 1.80151, 47.47713 ] } },
{ "type": "Feature", "properties": { "name": "Étang de Pontbertas", "category": "Reservoir", "area_ha": 14.9, "altitude_m": null }, "geometry": { "type": "Point", "coordinates": [ 1.86318, 47.47211 ] } },
{ "type": "Feature", "properties": { "name": "Étang des Loges", "category": "Reservoir", "area_ha": 18.3, "altitude_m": null }, "geometry": { "type": "Point", "coordinates": [ 1.83884, 47.47001 ] } },
{ "type": "Feature", "properties": { "name": "Étang Beaumont", "category": "Reservoir", "area_ha": 10.5, "altitude_m": null }, "geometry": { "type": "Point", "coordinates": [ 1.78947, 47.47442 ] } },
{ "type": "Feature", "properties": { "name": "Étang de Queue", "category": "Reservoir", "area_ha": 9.0, "altitude_m": null }, "geometry": { "type": "Point", "coordinates": [ 1.68424, 47.46561 ] } },
{ "type": "Feature", "properties": { "name": "Étang de l'Oie", "category": "Reservoir", "area_ha": 7.4, "altitude_m": null }, "geometry": { "type": "Point", "coordinates": [ 1.5728, 47.47381 ] } },
{ "type": "Feature", "properties": { "name": "Étang de Longueville", "category": "Reservoir", "area_ha": 12.6, "altitude_m": null }, "geometry": { "type": "Point", "coordinates": [ 1.94875, 47.45562 ] } },
{ "type": "Feature", "properties": { "name": "Étang de la Grande Bretèche", "category": "Reservoir", "area_ha": 7.6, "altitude_m": null }, "geometry": { "type": "Point", "coordinates": [ 1.63396, 47.45826 ] } },
{ "type": "Feature", "properties": { "name": "Étang du Pâtureau", "category": "Reservoir", "area_ha": 5.2, "altitude_m": null }, "geometry": { "type": "Point", "coordinates": [ 1.55676, 47.43452 ] } },
{ "type": "Feature", "properties": { "name": "Étang de Meuné", "category": "Reservoir", "area_ha": 22.9, "altitude_m": null }, "geometry": { "type": "Point", "coordinates": [ 1.85267, 47.45733 ] } },
{ "type": "Feature", "properties": { "name": "Étang de la Noue", "category": "Reservoir", "area_ha": 16.7, "altitude_m": null }, "geometry": { "type": "Point", "coordinates": [ 1.94982, 47.44575 ] } },
{ "type": "Feature", "properties": { "name": "Étang des Gâts", "category": "Reservoir", "area_ha": 17.9, "altitude_m": null }, "geometry": { "type": "Point", "coordinates": [ 1.85165, 47.44771 ] } },
{ "type": "Feature", "properties": { "name": "Grand Étang", "category": "Reservoir", "area_ha": 20.9, "altitude_m": null }, "geometry": { "type": "Point", "coordinates": [ 1.57541, 47.43469 ] } },
{ "type": "Feature", "properties": { "name": "Étang de la Pingottière", "category": "Reservoir", "area_ha": 6.4, "altitude_m": null }, "geometry": { "type": "Point", "coordinates": [ 1.70992, 47.42918 ] } },
{ "type": "Feature", "properties": { "name": "Étang du Bâtardeau", "category": "Reservoir", "area_ha": 7.3, "altitude_m": null }, "geometry": { "type": "Point", "coordinates": [ 1.53542, 47.43365 ] } },
{ "type": "Feature", "properties": { "name": "Étang de Sudais", "category": "Reservoir", "area_ha": 34.5, "altitude_m": null }, "geometry": { "type": "Point", "coordinates": [ 1.2185, 47.42595 ] } },
{ "type": "Feature", "properties": { "name": "Étang de la Chesnaie", "category": "Reservoir", "area_ha": 5.5, "altitude_m": null }, "geometry": { "type": "Point", "coordinates": [ 2.06471, 47.42015 ] } },
{ "type": "Feature", "properties": { "name": "Étang de Bourdaloue", "category": "Reservoir", "area_ha": 5.3, "altitude_m": null }, "geometry": { "type": "Point", "coordinates": [ 1.94738, 47.41526 ] } },
{ "type": "Feature", "properties": { "name": "Étang des Noues", "category": "Reservoir", "area_ha": 6.9, "altitude_m": null }, "geometry": { "type": "Point", "coordinates": [ 1.8622, 47.40673 ] } },
{ "type": "Feature", "properties": { "name": "Étang des Bergeries", "category": "Reservoir", "area_ha": 6.8, "altitude_m": null }, "geometry": { "type": "Point", "coordinates": [ 2.06619, 47.36837 ] } },
{ "type": "Feature", "properties": { "name": "Étang du Marcassin", "category": "Reservoir", "area_ha": 8.2, "altitude_m": null }, "geometry": { "type": "Point", "coordinates": [ 2.10811, 47.35549 ] } },
{ "type": "Feature", "properties": { "name": "Étang de Morthèze", "category": "Reservoir", "area_ha": 11.6, "altitude_m": null }, "geometry": { "type": "Point", "coordinates": [ 1.4057, 47.34717 ] } },
{ "type": "Feature", "properties": { "name": "Étang Neuf", "category": "Reservoir", "area_ha": 7.4, "altitude_m": null }, "geometry": { "type": "Point", "coordinates": [ 1.64853, 47.35876 ] } },
{ "type": "Feature", "properties": { "name": "Étang de l'Arche", "category": "Reservoir", "area_ha": 49.8, "altitude_m": null }, "geometry": { "type": "Point", "coordinates": [ 1.50693, 47.33928 ] } },
{ "type": "Feature", "properties": { "name": "Étang de la Souchonnerie", "category": "Reservoir", "area_ha": 8.8, "altitude_m": null }, "geometry": { "type": "Point", "coordinates": [ 1.82917, 47.33056 ] } },
{ "type": "Feature", "properties": { "name": "Étang Long", "category": "Reservoir", "area_ha": 16.1, "altitude_m": null }, "geometry": { "type": "Point", "coordinates": [ 1.88634, 47.51897 ] } },
{ "type": "Feature", "properties": { "name": "Unnamed", "category": "Reservoir", "area_ha": 11.4, "altitude_m": null }, "geometry": { "type": "Point", "coordinates": [ 1.77037, 47.25715 ] } },
{ "type": "Feature", "properties": { "name": "Étang de Boisvinet", "category": "Reservoir", "area_ha": 22.0, "altitude_m": null }, "geometry": { "type": "Point", "coordinates": [ 0.88204, 48.07535 ] } },
{ "type": "Feature", "properties": { "name": "Étang du Marchais", "category": "Reservoir", "area_ha": 5.6, "altitude_m": null }, "geometry": { "type": "Point", "coordinates": [ 1.92683, 47.60074 ] } },
{ "type": "Feature", "properties": { "name": "Étang de Pescheux", "category": "Reservoir", "area_ha": 6.8, "altitude_m": null }, "geometry": { "type": "Point", "coordinates": [ 1.15666, 47.5882 ] } },
{ "type": "Feature", "properties": { "name": "Étang de l'Épineçay", "category": "Reservoir", "area_ha": 17.7, "altitude_m": null }, "geometry": { "type": "Point", "coordinates": [ 1.96251, 47.5042 ] } },
{ "type": "Feature", "properties": { "name": "Unnamed", "category": "Reservoir", "area_ha": 5.4, "altitude_m": null }, "geometry": { "type": "Point", "coordinates": [ 2.19741, 47.45809 ] } },
{ "type": "Feature", "properties": { "name": "Étang de la Contensière", "category": "Reservoir", "area_ha": 5.3, "altitude_m": null }, "geometry": { "type": "Point", "coordinates": [ 1.9311, 47.43649 ] } },
{ "type": "Feature", "properties": { "name": "Étang de Jeu", "category": "Reservoir", "area_ha": 6.7, "altitude_m": null }, "geometry": { "type": "Point", "coordinates": [ 1.8877, 47.50997 ] } },
{ "type": "Feature", "properties": { "name": "Étang de l'Épinière", "category": "Reservoir", "area_ha": 9.0, "altitude_m": null }, "geometry": { "type": "Point", "coordinates": [ 1.67419, 47.47639 ] } },
{ "type": "Feature", "properties": { "name": "Étang de l'Île", "category": "Reservoir", "area_ha": 6.7, "altitude_m": null }, "geometry": { "type": "Point", "coordinates": [ 1.64489, 47.53783 ] } },
{ "type": "Feature", "properties": { "name": "Étang Berthier", "category": "Reservoir", "area_ha": 6.0, "altitude_m": null }, "geometry": { "type": "Point", "coordinates": [ 1.9945, 47.47236 ] } },
{ "type": "Feature", "properties": { "name": "Étang de Favelle", "category": "Reservoir", "area_ha": 7.9, "altitude_m": null }, "geometry": { "type": "Point", "coordinates": [ 1.758, 47.41123 ] } },
{ "type": "Feature", "properties": { "name": "l'Étang Neuf", "category": "Reservoir", "area_ha": 5.2, "altitude_m": null }, "geometry": { "type": "Point", "coordinates": [ 1.91047, 47.65554 ] } },
{ "type": "Feature", "properties": { "name": "Étang de Chalendron", "category": "Reservoir", "area_ha": 5.1, "altitude_m": null }, "geometry": { "type": "Point", "coordinates": [ 1.94099, 47.54757 ] } },
{ "type": "Feature", "properties": { "name": "Étang du Moulin le Comte", "category": "Reservoir", "area_ha": 7.7, "altitude_m": null }, "geometry": { "type": "Point", "coordinates": [ 1.37641, 47.31831 ] } },
{ "type": "Feature", "properties": { "name": "Étang de Champ le Roi", "category": "Reservoir", "area_ha": 10.8, "altitude_m": null }, "geometry": { "type": "Point", "coordinates": [ 1.69434, 47.38096 ] } },
{ "type": "Feature", "properties": { "name": "Étang de Soronde", "category": "Reservoir", "area_ha": 7.3, "altitude_m": null }, "geometry": { "type": "Point", "coordinates": [ 1.7346, 47.40831 ] } },
{ "type": "Feature", "properties": { "name": "Étang de la Chapellière", "category": "Reservoir", "area_ha": 5.4, "altitude_m": null }, "geometry": { "type": "Point", "coordinates": [ 1.93286, 47.53821 ] } },
{ "type": "Feature", "properties": { "name": "Étang du Grand Bois au Gué", "category": "Reservoir", "area_ha": 13.2, "altitude_m": null }, "geometry": { "type": "Point", "coordinates": [ 1.70204, 47.7052 ] } },
{ "type": "Feature", "properties": { "name": "Étang de Maître Jean", "category": "Reservoir", "area_ha": 5.5, "altitude_m": null }, "geometry": { "type": "Point", "coordinates": [ 1.91413, 47.60223 ] } },
{ "type": "Feature", "properties": { "name": "Étang du Petit Neuteau", "category": "Reservoir", "area_ha": 12.5, "altitude_m": null }, "geometry": { "type": "Point", "coordinates": [ 1.96918, 47.54449 ] } },
{ "type": "Feature", "properties": { "name": "Étang de Theillay", "category": "Reservoir", "area_ha": 13.5, "altitude_m": null }, "geometry": { "type": "Point", "coordinates": [ 1.9114, 47.48805 ] } },
{ "type": "Feature", "properties": { "name": "Étang de Vaugouin", "category": "Reservoir", "area_ha": 8.1, "altitude_m": null }, "geometry": { "type": "Point", "coordinates": [ 2.01758, 47.52975 ] } },
{ "type": "Feature", "properties": { "name": "Étang d'Omblin", "category": "Reservoir", "area_ha": 15.8, "altitude_m": null }, "geometry": { "type": "Point", "coordinates": [ 1.92991, 47.50801 ] } },
{ "type": "Feature", "properties": { "name": "Petit Étang de la Bourdinière", "category": "Reservoir", "area_ha": 7.0, "altitude_m": null }, "geometry": { "type": "Point", "coordinates": [ 2.04957, 47.47895 ] } },
{ "type": "Feature", "properties": { "name": "Unnamed", "category": "Reservoir", "area_ha": 5.6, "altitude_m": null }, "geometry": { "type": "Point", "coordinates": [ 1.98717, 47.46643 ] } },
{ "type": "Feature", "properties": { "name": "Étang de la Briqueterie", "category": "Reservoir", "area_ha": 10.1, "altitude_m": null }, "geometry": { "type": "Point", "coordinates": [ 1.98183, 47.47086 ] } },
{ "type": "Feature", "properties": { "name": "Étang de Beaumont", "category": "Reservoir", "area_ha": 27.9, "altitude_m": null }, "geometry": { "type": "Point", "coordinates": [ 1.76913, 47.55155 ] } },
{ "type": "Feature", "properties": { "name": "Étang Corboin", "category": "Reservoir", "area_ha": 10.1, "altitude_m": null }, "geometry": { "type": "Point", "coordinates": [ 1.93189, 47.46558 ] } },
{ "type": "Feature", "properties": { "name": "Étang de la Courtellière", "category": "Reservoir", "area_ha": 21.1, "altitude_m": null }, "geometry": { "type": "Point", "coordinates": [ 1.63418, 47.56414 ] } },
{ "type": "Feature", "properties": { "name": "Unnamed", "category": "Reservoir", "area_ha": 6.8, "altitude_m": null }, "geometry": { "type": "Point", "coordinates": [ 1.67563, 47.53265 ] } },
{ "type": "Feature", "properties": { "name": "Unnamed", "category": "Reservoir", "area_ha": 7.3, "altitude_m": null }, "geometry": { "type": "Point", "coordinates": [ 1.7423, 47.57114 ] } },
{ "type": "Feature", "properties": { "name": "Étang du Buisson", "category": "Reservoir", "area_ha": 6.3, "altitude_m": null }, "geometry": { "type": "Point", "coordinates": [ 1.87394, 47.45916 ] } },
{ "type": "Feature", "properties": { "name": "Étang de Marcheval", "category": "Reservoir", "area_ha": 24.9, "altitude_m": null }, "geometry": { "type": "Point", "coordinates": [ 1.78064, 47.48682 ] } },
{ "type": "Feature", "properties": { "name": "Étang de Chemignon", "category": "Reservoir", "area_ha": 7.0, "altitude_m": null }, "geometry": { "type": "Point", "coordinates": [ 1.76033, 47.50238 ] } },
{ "type": "Feature", "properties": { "name": "Étang de la Prée", "category": "Reservoir", "area_ha": 27.7, "altitude_m": null }, "geometry": { "type": "Point", "coordinates": [ 1.85551, 47.45323 ] } },
{ "type": "Feature", "properties": { "name": "Grands Étangs", "category": "Reservoir", "area_ha": 8.7, "altitude_m": null }, "geometry": { "type": "Point", "coordinates": [ 1.76663, 47.45335 ] } },
{ "type": "Feature", "properties": { "name": "Étang de Vilpalé", "category": "Reservoir", "area_ha": 15.8, "altitude_m": null }, "geometry": { "type": "Point", "coordinates": [ 1.63388, 47.48694 ] } },
{ "type": "Feature", "properties": { "name": "Unnamed", "category": "Reservoir", "area_ha": 5.4, "altitude_m": null }, "geometry": { "type": "Point", "coordinates": [ 1.69476, 47.53612 ] } },
{ "type": "Feature", "properties": { "name": "Étang de la Rosa", "category": "Reservoir", "area_ha": 9.5, "altitude_m": null }, "geometry": { "type": "Point", "coordinates": [ 1.84998, 47.6684 ] } },
{ "type": "Feature", "properties": { "name": "Étang de Montperché", "category": "Reservoir", "area_ha": 8.5, "altitude_m": null }, "geometry": { "type": "Point", "coordinates": [ 1.60339, 47.58732 ] } },
{ "type": "Feature", "properties": { "name": "Étang du Rougeray", "category": "Reservoir", "area_ha": 5.1, "altitude_m": null }, "geometry": { "type": "Point", "coordinates": [ 1.61115, 47.44473 ] } },
{ "type": "Feature", "properties": { "name": "Étang de Bauzy", "category": "Reservoir", "area_ha": 6.9, "altitude_m": null }, "geometry": { "type": "Point", "coordinates": [ 1.52424, 47.43615 ] } },
{ "type": "Feature", "properties": { "name": "Lac de Soings", "category": "Reservoir", "area_ha": 21.7, "altitude_m": null }, "geometry": { "type": "Point", "coordinates": [ 1.51298, 47.40983 ] } },
{ "type": "Feature", "properties": { "name": "Unnamed", "category": "Reservoir", "area_ha": 5.1, "altitude_m": null }, "geometry": { "type": "Point", "coordinates": [ 1.52308, 47.45716 ] } },
{ "type": "Feature", "properties": { "name": "Étang des Bâtes", "category": "Reservoir", "area_ha": 5.9, "altitude_m": null }, "geometry": { "type": "Point", "coordinates": [ 2.13981, 47.67446 ] } },
{ "type": "Feature", "properties": { "name": "Étang de la Robinette", "category": "Reservoir", "area_ha": 7.1, "altitude_m": null }, "geometry": { "type": "Point", "coordinates": [ 1.39723, 47.32816 ] } },
{ "type": "Feature", "properties": { "name": "Étang de Riotte", "category": "Reservoir", "area_ha": 14.3, "altitude_m": null }, "geometry": { "type": "Point", "coordinates": [ 0.99651, 47.78834 ] } },
{ "type": "Feature", "properties": { "name": "Unnamed", "category": "Reservoir", "area_ha": 14.8, "altitude_m": null }, "geometry": { "type": "Point", "coordinates": [ 1.16475, 47.8788 ] } },
{ "type": "Feature", "properties": { "name": "Lac de Lépiney", "category": "Reservoir", "area_ha": 10.8, "altitude_m": null }, "geometry": { "type": "Point", "coordinates": [ 1.21871, 47.94288 ] } },
{ "type": "Feature", "properties": { "name": "Étang de Saint-Lubin", "category": "Reservoir", "area_ha": 14.2, "altitude_m": null }, "geometry": { "type": "Point", "coordinates": [ 1.22172, 47.89307 ] } },
{ "type": "Feature", "properties": { "name": "Étang de Villarché", "category": "Reservoir", "area_ha": 5.9, "altitude_m": null }, "geometry": { "type": "Point", "coordinates": [ 1.96109, 47.43358 ] } },
{ "type": "Feature", "properties": { "name": "Étangs de Beaulieu", "category": "Reservoir", "area_ha": 6.2, "altitude_m": null }, "geometry": { "type": "Point", "coordinates": [ 2.1077, 47.60809 ] } },
{ "type": "Feature", "properties": { "name": "Étang du Manil", "category": "Reservoir", "area_ha": 7.6, "altitude_m": null }, "geometry": { "type": "Point", "coordinates": [ 1.77985, 47.49396 ] } },
{ "type": "Feature", "properties": { "name": "Grand Étang", "category": "Reservoir", "area_ha": 7.9, "altitude_m": null }, "geometry": { "type": "Point", "coordinates": [ 1.70828, 47.51525 ] } },
{ "type": "Feature", "properties": { "name": "Étang de Vernou", "category": "Reservoir", "area_ha": 5.4, "altitude_m": null }, "geometry": { "type": "Point", "coordinates": [ 1.90266, 47.61894 ] } },
{ "type": "Feature", "properties": { "name": "Unnamed", "category": "Reservoir", "area_ha": 6.2, "altitude_m": null }, "geometry": { "type": "Point", "coordinates": [ 1.75711, 47.57343 ] } },
{ "type": "Feature", "properties": { "name": "Unnamed", "category": "Reservoir", "area_ha": 16.3, "altitude_m": null }, "geometry": { "type": "Point", "coordinates": [ 1.91205, 47.41248 ] } },
{ "type": "Feature", "properties": { "name": "Étang de Favelle", "category": "Reservoir", "area_ha": 25.6, "altitude_m": null }, "geometry": { "type": "Point", "coordinates": [ 1.87183, 47.51426 ] } },
{ "type": "Feature", "properties": { "name": "Étang de Couloy", "category": "Reservoir", "area_ha": 8.3, "altitude_m": null }, "geometry": { "type": "Point", "coordinates": [ 2.16059, 47.63821 ] } },
{ "type": "Feature", "properties": { "name": "Étang de Malzone", "category": "Reservoir", "area_ha": 31.0, "altitude_m": null }, "geometry": { "type": "Point", "coordinates": [ 1.80936, 47.48618 ] } }
]
}
