{
"type": "FeatureCollection",
"name": "dep40.geojson",
"crs": { "type": "name", "properties": { "name": "urn:ogc:def:crs:OGC:1.3:CRS84" } },
"xy_coordinate_resolution": 1e-05,
"features": [
{ "type": "Feature", "properties": { "name": "Unnamed", "category": "Reservoir", "area_ha": 6.4, "altitude_m": null }, "geometry": { "type": "Point", "coordinates": [ -0.99801, 43.54187 ] } },
{ "type": "Feature", "properties": { "name": "Étang de Léon", "category": "Lake", "area_ha": 330.4, "altitude_m": null }, "geometry": { "type": "Point", "coordinates": [ -1.3205, 43.89466 ] } },
{ "type": "Feature", "properties": { "name": "Étang de Lamoulasse", "category": "Dam", "area_ha": 0.7, "altitude_m": null }, "geometry": { "type": "Point", "coordinates": [ -0.36719, 43.92505 ] } },
{ "type": "Feature", "properties": { "name": "Lac d'Aureilhan", "category": "Lake", "area_ha": 330.7, "altitude_m": null }, "geometry": { "type": "Point", "coordinates": [ -1.21069, 44.22519 ] } },
{ "type": "Feature", "properties": { "name": "Unnamed", "category": "Reservoir", "area_ha": 26.7, "altitude_m": null }, "geometry": { "type": "Point", "coordinates": [ -1.35335, 43.5137 ] } },
{ "type": "Feature", "properties": { "name": "Lac de Commanday", "category": "Reservoir", "area_ha": 101.1, "altitude_m": null }, "geometry": { "type": "Point", "coordinates": [ -0.85214, 44.03887 ] } },
{ "type": "Feature", "properties": { "name": "Lac des Agréous", "category": "Reservoir", "area_ha": 46.5, "altitude_m": null }, "geometry": { "type": "Point", "coordinates": [ -0.85688, 43.98756 ] } },
{ "type": "Feature", "properties": { "name": "Unnamed", "category": "Reservoir", "area_ha": 5.1, "altitude_m": null }, "geometry": { "type": "Point", "coordinates": [ -1.22504, 43.55326 ] } },
{ "type": "Feature", "properties": { "name": "Lac d'Armayans", "category": "Reservoir", "area_ha": 15.3, "altitude_m": null }, "geometry": { "type": "Point", "coordinates": [ -0.85534, 43.98245 ] } },
{ "type": "Feature", "properties": { "name": "Unnamed", "category": "Reservoir", "area_ha": 6.0, "altitude_m": null }, "geometry": { "type": "Point", "coordinates": [ -0.86233, 44.0437 ] } },
{ "type": "Feature", "properties": { "name": "Unnamed", "category": "Dam", "area_ha": 14.3, "altitude_m": null }, "geometry": { "type": "Point", "coordinates": [ -0.18052, 43.94598 ] } },
{ "type": "Feature", "properties": { "name": "Étang de Garros", "category": "Reservoir", "area_ha": 21.5, "altitude_m": null }, "geometry": { "type": "Point", "coordinates": [ -1.46133, 43.55751 ] } },
{ "type": "Feature", "properties": { "name": "Petit Étang", "category": "Lake", "area_ha": 8.6, "altitude_m": null }, "geometry": { "type": "Point", "coordinates": [ -1.19711, 44.30824 ] } },
{ "type": "Feature", "properties": { "name": "Étang d'Hardy", "category": "Reservoir", "area_ha": 45.1, "altitude_m": null }, "geometry": { "type": "Point", "coordinates": [ -1.36573, 43.72016 ] } },
{ "type": "Feature", "properties": { "name": "Lac de la Gioule", "category": "Dam", "area_ha": 74.4, "altitude_m": null }, "geometry": { "type": "Point", "coordinates": [ -0.258, 43.76854 ] } },
{ "type": "Feature", "properties": { "name": "Petit Étang de Biscarrosse", "category": "Lake", "area_ha": 127.4, "altitude_m": null }, "geometry": { "type": "Point", "coordinates": [ -1.17972, 44.40421 ] } },
{ "type": "Feature", "properties": { "name": "Unnamed", "category": "Lake", "area_ha": 12.9, "altitude_m": null }, "geometry": { "type": "Point", "coordinates": [ -1.19231, 44.39069 ] } },
{ "type": "Feature", "properties": { "name": "Lac d'Agès", "category": "Dam", "area_ha": 52.4, "altitude_m": null }, "geometry": { "type": "Point", "coordinates": [ -0.57085, 43.63513 ] } },
{ "type": "Feature", "properties": { "name": "Lac de Morcenx", "category": "Reservoir", "area_ha": 23.2, "altitude_m": null }, "geometry": { "type": "Point", "coordinates": [ -0.87389, 44.00314 ] } },
{ "type": "Feature", "properties": { "name": "Lac des Quatre Cantons", "category": "Reservoir", "area_ha": 87.0, "altitude_m": null }, "geometry": { "type": "Point", "coordinates": [ -0.8741, 43.98281 ] } },
{ "type": "Feature", "properties": { "name": "Lac du Barrage de Tailluret", "category": "Dam", "area_ha": 40.3, "altitude_m": null }, "geometry": { "type": "Point", "coordinates": [ -0.15121, 43.94005 ] } },
{ "type": "Feature", "properties": { "name": "Unnamed", "category": "Reservoir", "area_ha": 9.6, "altitude_m": null }, "geometry": { "type": "Point", "coordinates": [ -0.9058, 43.78866 ] } },
{ "type": "Feature", "properties": { "name": "Lac de Cazaux et Sanguinet", "category": "Lake", "area_ha": 5656.0, "altitude_m": null }, "geometry": { "type": "Point", "coordinates": [ -1.14937, 44.48151 ] } },
{ "type": "Feature", "properties": { "name": "Lac d'Albret", "category": "Lake", "area_ha": 47.9, "altitude_m": null }, "geometry": { "type": "Point", "coordinates": [ -1.41079, 43.77962 ] } },
{ "type": "Feature", "properties": { "name": "Lac de Latrille", "category": "Dam", "area_ha": 39.7, "altitude_m": null }, "geometry": { "type": "Point", "coordinates": [ -0.28164, 43.63616 ] } },
{ "type": "Feature", "properties": { "name": "Lac d'Arjuzanx", "category": "Reservoir", "area_ha": 161.1, "altitude_m": null }, "geometry": { "type": "Point", "coordinates": [ -0.852, 44.02202 ] } },
{ "type": "Feature", "properties": { "name": "Étang de Massy", "category": "Dam", "area_ha": 3.0, "altitude_m": null }, "geometry": { "type": "Point", "coordinates": [ -0.36536, 43.93577 ] } },
{ "type": "Feature", "properties": { "name": "la Laguibe", "category": "Reservoir", "area_ha": 6.5, "altitude_m": null }, "geometry": { "type": "Point", "coordinates": [ -1.43674, 43.56256 ] } },
{ "type": "Feature", "properties": { "name": "Lac de Biscarrosse et de Parentis", "category": "Lake", "area_ha": 3231.4, "altitude_m": null }, "geometry": { "type": "Point", "coordinates": [ -1.16169, 44.35031 ] } },
{ "type": "Feature", "properties": { "name": "Étang de la Forge", "category": "Reservoir", "area_ha": 9.6, "altitude_m": null }, "geometry": { "type": "Point", "coordinates": [ -1.19374, 44.03117 ] } },
{ "type": "Feature", "properties": { "name": "Lac d'Hossegor", "category": "Lake", "area_ha": 64.4, "altitude_m": null }, "geometry": { "type": "Point", "coordinates": [ -1.42931, 43.66876 ] } },
{ "type": "Feature", "properties": { "name": "Lac de Tastoa", "category": "Lake", "area_ha": 15.8, "altitude_m": null }, "geometry": { "type": "Point", "coordinates": [ -0.88872, 43.60896 ] } },
{ "type": "Feature", "properties": { "name": "Lac de Christus", "category": "Lake", "area_ha": 13.8, "altitude_m": null }, "geometry": { "type": "Point", "coordinates": [ -1.06883, 43.72894 ] } },
{ "type": "Feature", "properties": { "name": "Lac de Soustons", "category": "Reservoir", "area_ha": 427.0, "altitude_m": null }, "geometry": { "type": "Point", "coordinates": [ -1.32931, 43.7702 ] } },
{ "type": "Feature", "properties": { "name": "Étang d'Abesse", "category": "Reservoir", "area_ha": 10.2, "altitude_m": null }, "geometry": { "type": "Point", "coordinates": [ -1.10101, 43.75427 ] } },
{ "type": "Feature", "properties": { "name": "Unnamed", "category": "Reservoir", "area_ha": 7.4, "altitude_m": null }, "geometry": { "type": "Point", "coordinates": [ -0.23024, 43.85311 ] } },
{ "type": "Feature", "properties": { "name": "Unnamed", "category": "Reservoir", "area_ha": 13.0, "altitude_m": null }, "geometry": { "type": "Point", "coordinates": [ -0.97292, 43.7761 ] } },
{ "type": "Feature", "properties": { "name": "Étang d'Yrieux", "category": "Reservoir", "area_ha": 57.4, "altitude_m": null }, "geometry": { "type": "Point", "coordinates": [ -1.41566, 43.56602 ] } },
{ "type": "Feature", "properties": { "name": "Unnamed", "category": "Reservoir", "area_ha": 5.9, "altitude_m": null }, "geometry": { "type": "Point", "coordinates": [ -1.04718, 43.7173 ] } },
{ "type": "Feature", "properties": { "name": "Unnamed", "category": "Reservoir", "area_ha": 8.1, "altitude_m": null }, "geometry": { "type": "Point", "coordinates": [ -1.08463, 43.53009 ] } },
{ "type": "Feature", "properties": { "name": "Unnamed", "category": "Reservoir", "area_ha": 5.8, "altitude_m": null }, "geometry": { "type": "Point", "coordinates": [ -0.90158, 43.78699 ] } },
{ "type": "Feature", "properties": { "name": "Unnamed", "category": "Reservoir", "area_ha": 21.5, "altitude_m": null }, "geometry": { "type": "Point", "coordinates": [ -0.44849, 43.84414 ] } },
{ "type": "Feature", "properties": { "name": "Unnamed", "category": "Reservoir", "area_ha": 5.7, "altitude_m": null }, "geometry": { "type": "Point", "coordinates": [ -1.32217, 43.85468 ] } },
{ "type": "Feature", "properties": { "name": "Unnamed", "category": "Reservoir", "area_ha": 7.4, "altitude_m": null }, "geometry": { "type": "Point", "coordinates": [ -0.22277, 43.94353 ] } },
{ "type": "Feature", "properties": { "name": "Unnamed", "category": "Reservoir", "area_ha": 6.4, "altitude_m": null }, "geometry": { "type": "Point", "coordinates": [ -0.64932, 43.62481 ] } },
{ "type": "Feature", "properties": { "name": "Unnamed", "category": "Reservoir", "area_ha": 6.7, "altitude_m": null }, "geometry": { "type": "Point", "coordinates": [ -1.34391, 43.56795 ] } },
{ "type": "Feature", "properties": { "name": "Unnamed", "category": "Reservoir", "area_ha": 21.8, "altitude_m": null }, "geometry": { "type": "Point", "coordinates": [ -0.29496, 43.83538 ] } },
{ "type": "Feature", "properties": { "name": "Étang de Beyres", "category": "Reservoir", "area_ha": 6.2, "altitude_m": null }, "geometry": { "type": "Point", "coordinates": [ -1.42842, 43.56443 ] } },
{ "type": "Feature", "properties": { "name": "Étang de Moïsan", "category": "Reservoir", "area_ha": 6.1, "altitude_m": null }, "geometry": { "type": "Point", "coordinates": [ -1.39563, 43.80993 ] } },
{ "type": "Feature", "properties": { "name": "Étang de Moliets", "category": "Reservoir", "area_ha": 8.9, "altitude_m": null }, "geometry": { "type": "Point", "coordinates": [ -1.36718, 43.84947 ] } },
{ "type": "Feature", "properties": { "name": "Étang de la Prade", "category": "Reservoir", "area_ha": 15.2, "altitude_m": null }, "geometry": { "type": "Point", "coordinates": [ -1.37161, 43.83511 ] } },
{ "type": "Feature", "properties": { "name": "Étang Noir", "category": "Reservoir", "area_ha": 18.4, "altitude_m": null }, "geometry": { "type": "Point", "coordinates": [ -1.36884, 43.6955 ] } },
{ "type": "Feature", "properties": { "name": "Étang du Turc", "category": "Reservoir", "area_ha": 7.3, "altitude_m": null }, "geometry": { "type": "Point", "coordinates": [ -1.45673, 43.56463 ] } },
{ "type": "Feature", "properties": { "name": "Étang de Puntet", "category": "Reservoir", "area_ha": 5.3, "altitude_m": null }, "geometry": { "type": "Point", "coordinates": [ -1.37393, 43.51218 ] } },
{ "type": "Feature", "properties": { "name": "Étang de la Forge", "category": "Reservoir", "area_ha": 5.2, "altitude_m": null }, "geometry": { "type": "Point", "coordinates": [ -1.09051, 44.23307 ] } },
{ "type": "Feature", "properties": { "name": "Plan d'Eau du Parc de Peyre", "category": "Reservoir", "area_ha": 8.9, "altitude_m": null }, "geometry": { "type": "Point", "coordinates": [ -0.91232, 44.20412 ] } },
{ "type": "Feature", "properties": { "name": "Unnamed", "category": "Reservoir", "area_ha": 5.8, "altitude_m": null }, "geometry": { "type": "Point", "coordinates": [ -1.39117, 43.50992 ] } },
{ "type": "Feature", "properties": { "name": "Unnamed", "category": "Reservoir", "area_ha": 6.4, "altitude_m": null }, "geometry": { "type": "Point", "coordinates": [ -1.29629, 43.51006 ] } },
{ "type": "Feature", "properties": { "name": "Lac de Bédorède", "category": "Reservoir", "area_ha": 23.5, "altitude_m": null }, "geometry": { "type": "Point", "coordinates": [ -1.2652, 43.54917 ] } },
{ "type": "Feature", "properties": { "name": "Unnamed", "category": "Reservoir", "area_ha": 6.1, "altitude_m": null }, "geometry": { "type": "Point", "coordinates": [ -0.64644, 43.771 ] } },
{ "type": "Feature", "properties": { "name": "Étang Blanc", "category": "Reservoir", "area_ha": 189.9, "altitude_m": null }, "geometry": { "type": "Point", "coordinates": [ -1.36595, 43.70899 ] } },
{ "type": "Feature", "properties": { "name": "Lac du Lourden", "category": "Dam", "area_ha": 62.6, "altitude_m": null }, "geometry": { "type": "Point", "coordinates": [ -0.31221, 43.69872 ] } },
{ "type": "Feature", "properties": { "name": "Unnamed", "category": "Dam", "area_ha": 10.9, "altitude_m": null }, "geometry": { "type": "Point", "coordinates": [ -0.24439, 43.84837 ] } },
{ "type": "Feature", "properties": { "name": "Étang du Parguet", "category": "Dam", "area_ha": 2.6, "altitude_m": null }, "geometry": { "type": "Point", "coordinates": [ -0.43298, 43.98688 ] } },
{ "type": "Feature", "properties": { "name": "Étang de Pinsolle", "category": "Dam", "area_ha": 6.7, "altitude_m": null }, "geometry": { "type": "Point", "coordinates": [ -1.40727, 43.77192 ] } },
{ "type": "Feature", "properties": { "name": "Lacs d'Halco", "category": "Dam", "area_ha": 1.1, "altitude_m": null }, "geometry": { "type": "Point", "coordinates": [ -0.63353, 43.64059 ] } },
{ "type": "Feature", "properties": { "name": "Unnamed", "category": "Dam", "area_ha": 16.1, "altitude_m": null }, "geometry": { "type": "Point", "coordinates": [ -0.28576, 43.61487 ] } },
{ "type": "Feature", "properties": { "name": "Unnamed", "category": "Dam", "area_ha": 11.4, "altitude_m": null }, "geometry": { "type": "Point", "coordinates": [ -0.4505, 43.6509 ] } },
{ "type": "Feature", "properties": { "name": "Retenue de Renung", "category": "Dam", "area_ha": 25.5, "altitude_m": null }, "geometry": { "type": "Point", "coordinates": [ -0.37001, 43.74105 ] } },
{ "type": "Feature", "properties": { "name": "Retenue de Benquet", "category": "Dam", "area_ha": 42.3, "altitude_m": null }, "geometry": { "type": "Point", "coordinates": [ -0.52683, 43.80455 ] } },
{ "type": "Feature", "properties": { "name": "Lac de Miramont", "category": "Dam", "area_ha": 44.9, "altitude_m": null }, "geometry": { "type": "Point", "coordinates": [ -0.2982, 43.58074 ] } },
{ "type": "Feature", "properties": { "name": "Lac de Jouandet", "category": "Dam", "area_ha": 15.8, "altitude_m": null }, "geometry": { "type": "Point", "coordinates": [ 0.03905, 43.9752 ] } },
{ "type": "Feature", "properties": { "name": "Retenue de Coudures", "category": "Dam", "area_ha": 14.9, "altitude_m": null }, "geometry": { "type": "Point", "coordinates": [ -0.49831, 43.6859 ] } },
{ "type": "Feature", "properties": { "name": "Retenue du Grand Étang", "category": "Dam", "area_ha": 9.7, "altitude_m": null }, "geometry": { "type": "Point", "coordinates": [ -0.27009, 43.82677 ] } },
{ "type": "Feature", "properties": { "name": "Unnamed", "category": "Dam", "area_ha": 6.6, "altitude_m": null }, "geometry": { "type": "Point", "coordinates": [ -0.16879, 43.98482 ] } },
{ "type": "Feature", "properties": { "name": "Unnamed", "category": "Dam", "area_ha": 5.8, "altitude_m": null }, "geometry": { "type": "Point", "coordinates": [ -0.67755, 44.42654 ] } },
{ "type": "Feature", "properties": { "name": "Unnamed", "category": "Dam", "area_ha": 9.8, "altitude_m": null }, "geometry": { "type": "Point", "coordinates": [ 0.00699, 43.92564 ] } },
{ "type": "Feature", "properties": { "name": "Unnamed", "category": "Dam", "area_ha": 5.7, "altitude_m": null }, "geometry": { "type": "Point", "coordinates": [ -0.24295, 43.94961 ] } },
{ "type": "Feature", "properties": { "name": "Unnamed", "category": "Dam", "area_ha": 8.8, "altitude_m": null }, "geometry": { "type": "Point", "coordinates": [ -0.45438, 43.68874 ] } },
{ "type": "Feature", "properties": { "name": "Retenue du Réchou", "category": "Dam", "area_ha": 22.7, "altitude_m": null }, "geometry": { "type": "Point", "coordinates": [ 0.02979, 43.92635 ] } },
{ "type": "Feature", "properties": { "name": "Unnamed", "category": "Dam", "area_ha": 8.2, "altitude_m": null }, "geometry": { "type": "Point", "coordinates": [ -0.2375, 43.84529 ] } },
{ "type": "Feature", "properties": { "name": "Unnamed", "category": "Dam", "area_ha": 3.5, "altitude_m": null }, "geometry": { "type": "Point", "coordinates": [ -0.54258, 44.04406 ] } },
{ "type": "Feature", "properties": { "name": "Retenue d'Arthez-d'Armagnac", "category": "Dam", "area_ha": 16.4, "altitude_m": null }, "geometry": { "type": "Point", "coordinates": [ -0.25279, 43.88699 ] } },
{ "type": "Feature", "properties": { "name": "Unnamed", "category": "Dam", "area_ha": 4.8, "altitude_m": null }, "geometry": { "type": "Point", "coordinates": [ -0.16291, 43.9768 ] } },
{ "type": "Feature", "properties": { "name": "Retenue de Latour", "category": "Dam", "area_ha": 15.1, "altitude_m": null }, "geometry": { "type": "Point", "coordinates": [ -0.09896, 43.97575 ] } },
{ "type": "Feature", "properties": { "name": "Lac de Peyrot", "category": "Dam", "area_ha": 24.5, "altitude_m": null }, "geometry": { "type": "Point", "coordinates": [ -0.38879, 43.79889 ] } },
{ "type": "Feature", "properties": { "name": "Lacs d'Halco", "category": "Dam", "area_ha": 2.8, "altitude_m": null }, "geometry": { "type": "Point", "coordinates": [ -0.63184, 43.63639 ] } },
{ "type": "Feature", "properties": { "name": "Lac de Fargues et Montgaillard", "category": "Dam", "area_ha": 13.1, "altitude_m": null }, "geometry": { "type": "Point", "coordinates": [ -0.47502, 43.73712 ] } },
{ "type": "Feature", "properties": { "name": "Lac du Broussau", "category": "Dam", "area_ha": 33.2, "altitude_m": null }, "geometry": { "type": "Point", "coordinates": [ -0.2856, 43.67712 ] } }
]
}
