{
"type": "FeatureCollection",
"name": "dep47.geojson",
"crs": { "type": "name", "properties": { "name": "urn:ogc:def:crs:OGC:1.3:CRS84" } },
"xy_coordinate_resolution": 1e-05,
"features": [
{ "type": "Feature", "properties": { "name": "Unnamed", "category": "Reservoir", "area_ha": 11.9, "altitude_m": null }, "geometry": { "type": "Point", "coordinates": [ 0.13269, 44.49972 ] } },
{ "type": "Feature", "properties": { "name": "Lac de Passeligne", "category": "Reservoir", "area_ha": 16.0, "altitude_m": null }, "geometry": { "type": "Point", "coordinates": [ 0.62463, 44.17206 ] } },
{ "type": "Feature", "properties": { "name": "Unnamed", "category": "Reservoir", "area_ha": 21.7, "altitude_m": null }, "geometry": { "type": "Point", "coordinates": [ 0.42924, 44.22876 ] } },
{ "type": "Feature", "properties": { "name": "Lac de Lamontjoie", "category": "Reservoir", "area_ha": 12.5, "altitude_m": null }, "geometry": { "type": "Point", "coordinates": [ 0.51502, 44.07405 ] } },
{ "type": "Feature", "properties": { "name": "Unnamed", "category": "Reservoir", "area_ha": 6.9, "altitude_m": null }, "geometry": { "type": "Point", "coordinates": [ 0.17443, 44.31251 ] } },
{ "type": "Feature", "properties": { "name": "Unnamed", "category": "Reservoir", "area_ha": 6.5, "altitude_m": null }, "geometry": { "type": "Point", "coordinates": [ 0.69595, 44.14693 ] } },
{ "type": "Feature", "properties": { "name": "Unnamed", "category": "Reservoir", "area_ha": 17.6, "altitude_m": null }, "geometry": { "type": "Point", "coordinates": [ 0.13978, 44.51946 ] } },
{ "type": "Feature", "properties": { "name": "Lac de Castel Gaillard", "category": "Reservoir", "area_ha": 10.0, "altitude_m": null }, "geometry": { "type": "Point", "coordinates": [ 0.23192, 44.7023 ] } },
{ "type": "Feature", "properties": { "name": "Lac de Néguenou", "category": "Reservoir", "area_ha": 7.5, "altitude_m": null }, "geometry": { "type": "Point", "coordinates": [ 0.54008, 44.29035 ] } },
{ "type": "Feature", "properties": { "name": "Unnamed", "category": "Reservoir", "area_ha": 9.2, "altitude_m": null }, "geometry": { "type": "Point", "coordinates": [ 0.3371, 44.23116 ] } },
{ "type": "Feature", "properties": { "name": "Unnamed", "category": "Reservoir", "area_ha": 5.3, "altitude_m": null }, "geometry": { "type": "Point", "coordinates": [ 0.54385, 44.23291 ] } },
{ "type": "Feature", "properties": { "name": "Unnamed", "category": "Reservoir", "area_ha": 7.0, "altitude_m": null }, "geometry": { "type": "Point", "coordinates": [ 0.62207, 44.57899 ] } },
{ "type": "Feature", "properties": { "name": "Unnamed", "category": "Reservoir", "area_ha": 16.5, "altitude_m": null }, "geometry": { "type": "Point", "coordinates": [ 0.42246, 44.21495 ] } },
{ "type": "Feature", "properties": { "name": "Unnamed", "category": "Reservoir", "area_ha": 6.2, "altitude_m": null }, "geometry": { "type": "Point", "coordinates": [ 0.27646, 44.61281 ] } },
{ "type": "Feature", "properties": { "name": "Unnamed", "category": "Reservoir", "area_ha": 15.3, "altitude_m": null }, "geometry": { "type": "Point", "coordinates": [ 0.47006, 44.33423 ] } },
{ "type": "Feature", "properties": { "name": "Retenue des Tuileries", "category": "Reservoir", "area_ha": 14.5, "altitude_m": null }, "geometry": { "type": "Point", "coordinates": [ 0.14127, 44.36716 ] } },
{ "type": "Feature", "properties": { "name": "Unnamed", "category": "Reservoir", "area_ha": 8.7, "altitude_m": null }, "geometry": { "type": "Point", "coordinates": [ 0.92714, 44.54988 ] } },
{ "type": "Feature", "properties": { "name": "Lac de Ganet", "category": "Reservoir", "area_ha": 14.8, "altitude_m": null }, "geometry": { "type": "Point", "coordinates": [ 0.43051, 44.29057 ] } },
{ "type": "Feature", "properties": { "name": "Unnamed", "category": "Reservoir", "area_ha": 7.3, "altitude_m": null }, "geometry": { "type": "Point", "coordinates": [ 0.38013, 44.22519 ] } },
{ "type": "Feature", "properties": { "name": "Unnamed", "category": "Reservoir", "area_ha": 8.7, "altitude_m": null }, "geometry": { "type": "Point", "coordinates": [ 0.27606, 44.28043 ] } },
{ "type": "Feature", "properties": { "name": "Lac de Bouydron", "category": "Reservoir", "area_ha": 16.5, "altitude_m": null }, "geometry": { "type": "Point", "coordinates": [ 0.17153, 44.31883 ] } },
{ "type": "Feature", "properties": { "name": "Lac de Clarens", "category": "Reservoir", "area_ha": 17.4, "altitude_m": null }, "geometry": { "type": "Point", "coordinates": [ 0.06982, 44.2918 ] } },
{ "type": "Feature", "properties": { "name": "Lac du Saut du Loup", "category": "Reservoir", "area_ha": 9.0, "altitude_m": null }, "geometry": { "type": "Point", "coordinates": [ 0.37565, 44.58643 ] } },
{ "type": "Feature", "properties": { "name": "Unnamed", "category": "Dam", "area_ha": 4.6, "altitude_m": null }, "geometry": { "type": "Point", "coordinates": [ 0.24815, 44.03892 ] } },
{ "type": "Feature", "properties": { "name": "Retenue de l'Aygue Rousse", "category": "Dam", "area_ha": 14.5, "altitude_m": null }, "geometry": { "type": "Point", "coordinates": [ 0.64648, 44.46441 ] } },
{ "type": "Feature", "properties": { "name": "Lac de la Ganne", "category": "Dam", "area_ha": 34.7, "altitude_m": null }, "geometry": { "type": "Point", "coordinates": [ 0.78542, 44.68098 ] } },
{ "type": "Feature", "properties": { "name": "Retenue de Laroque", "category": "Dam", "area_ha": 21.6, "altitude_m": null }, "geometry": { "type": "Point", "coordinates": [ 0.72009, 44.26466 ] } },
{ "type": "Feature", "properties": { "name": "Unnamed", "category": "Dam", "area_ha": 5.3, "altitude_m": null }, "geometry": { "type": "Point", "coordinates": [ 0.04964, 44.33201 ] } },
{ "type": "Feature", "properties": { "name": "Retenue du Bourbon", "category": "Dam", "area_ha": 21.1, "altitude_m": null }, "geometry": { "type": "Point", "coordinates": [ 0.64768, 44.29228 ] } },
{ "type": "Feature", "properties": { "name": "Lac des Graoussettes", "category": "Dam", "area_ha": 35.8, "altitude_m": null }, "geometry": { "type": "Point", "coordinates": [ 0.51033, 44.60733 ] } },
{ "type": "Feature", "properties": { "name": "Lac du Brayssou", "category": "Dam", "area_ha": 55.6, "altitude_m": null }, "geometry": { "type": "Point", "coordinates": [ 0.80313, 44.67186 ] } },
{ "type": "Feature", "properties": { "name": "Retenue de Rastoul", "category": "Dam", "area_ha": 11.6, "altitude_m": null }, "geometry": { "type": "Point", "coordinates": [ 0.66774, 44.35306 ] } },
{ "type": "Feature", "properties": { "name": "Lac de Laubarède", "category": "Dam", "area_ha": 6.7, "altitude_m": null }, "geometry": { "type": "Point", "coordinates": [ 0.497, 44.28883 ] } },
{ "type": "Feature", "properties": { "name": "Retenue de la Brichette", "category": "Dam", "area_ha": 10.2, "altitude_m": null }, "geometry": { "type": "Point", "coordinates": [ 0.76644, 44.22448 ] } },
{ "type": "Feature", "properties": { "name": "Unnamed", "category": "Dam", "area_ha": 4.8, "altitude_m": null }, "geometry": { "type": "Point", "coordinates": [ 0.53071, 44.55669 ] } },
{ "type": "Feature", "properties": { "name": "Unnamed", "category": "Dam", "area_ha": 15.6, "altitude_m": null }, "geometry": { "type": "Point", "coordinates": [ 0.39833, 44.41367 ] } },
{ "type": "Feature", "properties": { "name": "Retenue de Gandaille", "category": "Dam", "area_ha": 16.1, "altitude_m": null }, "geometry": { "type": "Point", "coordinates": [ 0.87939, 44.24557 ] } },
{ "type": "Feature", "properties": { "name": "Unnamed", "category": "Dam", "area_ha": 14.2, "altitude_m": null }, "geometry": { "type": "Point", "coordinates": [ 0.88907, 44.36826 ] } },
{ "type": "Feature", "properties": { "name": "Lac de Salabert", "category": "Dam", "area_ha": 24.8, "altitude_m": null }, "geometry": { "type": "Point", "coordinates": [ 0.46839, 44.312 ] } },
{ "type": "Feature", "properties": { "name": "Lac de Lambronne", "category": "Dam", "area_ha": 32.3, "altitude_m": null }, "geometry": { "type": "Point", "coordinates": [ 0.50393, 44.0739 ] } },
{ "type": "Feature", "properties": { "name": "Lac de Villeneuve de Mézin", "category": "Dam", "area_ha": 17.1, "altitude_m": null }, "geometry": { "type": "Point", "coordinates": [ 0.24819, 44.01454 ] } },
{ "type": "Feature", "properties": { "name": "Lac du Loubet", "category": "Dam", "area_ha": 43.5, "altitude_m": null }, "geometry": { "type": "Point", "coordinates": [ 0.46695, 44.51117 ] } }
]
}
