{
"type": "FeatureCollection",
"name": "dep45.geojson",
"crs": { "type": "name", "properties": { "name": "urn:ogc:def:crs:OGC:1.3:CRS84" } },
"xy_coordinate_resolution": 1e-05,
"features": [
{ "type": "Feature", "properties": { "name": "Plan d'Eau 7 de la Commune de Cepoy", "category": "Reservoir", "area_ha": 34.8, "altitude_m": null }, "geometry": { "type": "Point", "coordinates": [ 2.75186, 48.04927 ] } },
{ "type": "Feature", "properties": { "name": "Étang de la Grande Coinche", "category": "Reservoir", "area_ha": 5.9, "altitude_m": null }, "geometry": { "type": "Point", "coordinates": [ 1.89664, 47.6776 ] } },
{ "type": "Feature", "properties": { "name": "Plan d'Eau 22 de la Commune de Fontenay-sur-Loing", "category": "Reservoir", "area_ha": 10.0, "altitude_m": null }, "geometry": { "type": "Point", "coordinates": [ 2.75833, 48.05811 ] } },
{ "type": "Feature", "properties": { "name": "Unnamed", "category": "Reservoir", "area_ha": 6.8, "altitude_m": null }, "geometry": { "type": "Point", "coordinates": [ 2.2391, 47.88587 ] } },
{ "type": "Feature", "properties": { "name": "Étang d'Ordebrasse", "category": "Reservoir", "area_ha": 5.9, "altitude_m": null }, "geometry": { "type": "Point", "coordinates": [ 2.26989, 48.07433 ] } },
{ "type": "Feature", "properties": { "name": "Étang de Louan", "category": "Reservoir", "area_ha": 10.2, "altitude_m": null }, "geometry": { "type": "Point", "coordinates": [ 2.16808, 47.68027 ] } },
{ "type": "Feature", "properties": { "name": "Plan d'Eau 3 de la Commune de Amilly", "category": "Reservoir", "area_ha": 8.1, "altitude_m": null }, "geometry": { "type": "Point", "coordinates": [ 2.75106, 47.97659 ] } },
{ "type": "Feature", "properties": { "name": "Unnamed", "category": "Reservoir", "area_ha": 5.0, "altitude_m": null }, "geometry": { "type": "Point", "coordinates": [ 2.48904, 47.62291 ] } },
{ "type": "Feature", "properties": { "name": "Étang des Landes", "category": "Reservoir", "area_ha": 6.9, "altitude_m": null }, "geometry": { "type": "Point", "coordinates": [ 1.98614, 47.67562 ] } },
{ "type": "Feature", "properties": { "name": "Étang de Malcharnier", "category": "Reservoir", "area_ha": 5.1, "altitude_m": null }, "geometry": { "type": "Point", "coordinates": [ 1.90633, 47.73334 ] } },
{ "type": "Feature", "properties": { "name": "Étang du Donjon", "category": "Reservoir", "area_ha": 16.9, "altitude_m": null }, "geometry": { "type": "Point", "coordinates": [ 1.99103, 47.6919 ] } },
{ "type": "Feature", "properties": { "name": "Unnamed", "category": "Reservoir", "area_ha": 10.2, "altitude_m": null }, "geometry": { "type": "Point", "coordinates": [ 1.95371, 48.10601 ] } },
{ "type": "Feature", "properties": { "name": "Étang du Crot aux Sablons", "category": "Reservoir", "area_ha": 7.0, "altitude_m": null }, "geometry": { "type": "Point", "coordinates": [ 2.31428, 47.96598 ] } },
{ "type": "Feature", "properties": { "name": "Étang du Pré aux Bœufs", "category": "Reservoir", "area_ha": 5.7, "altitude_m": null }, "geometry": { "type": "Point", "coordinates": [ 2.46618, 47.76915 ] } },
{ "type": "Feature", "properties": { "name": "Étang de la Venotière", "category": "Reservoir", "area_ha": 6.6, "altitude_m": null }, "geometry": { "type": "Point", "coordinates": [ 1.78242, 47.74581 ] } },
{ "type": "Feature", "properties": { "name": "Étang de la Vallottière", "category": "Reservoir", "area_ha": 6.1, "altitude_m": null }, "geometry": { "type": "Point", "coordinates": [ 1.98827, 47.73643 ] } },
{ "type": "Feature", "properties": { "name": "Étang de la Tuilerie", "category": "Reservoir", "area_ha": 7.4, "altitude_m": null }, "geometry": { "type": "Point", "coordinates": [ 2.64477, 47.8151 ] } },
{ "type": "Feature", "properties": { "name": "Étang du Solin", "category": "Reservoir", "area_ha": 6.4, "altitude_m": null }, "geometry": { "type": "Point", "coordinates": [ 2.62405, 47.81942 ] } },
{ "type": "Feature", "properties": { "name": "Étang des Boudinières", "category": "Reservoir", "area_ha": 24.2, "altitude_m": null }, "geometry": { "type": "Point", "coordinates": [ 2.83863, 47.70512 ] } },
{ "type": "Feature", "properties": { "name": "Étang de Marcon", "category": "Reservoir", "area_ha": 6.6, "altitude_m": null }, "geometry": { "type": "Point", "coordinates": [ 2.35181, 47.6628 ] } },
{ "type": "Feature", "properties": { "name": "Étang de Ravoir", "category": "Reservoir", "area_ha": 23.1, "altitude_m": null }, "geometry": { "type": "Point", "coordinates": [ 2.46919, 47.80317 ] } },
{ "type": "Feature", "properties": { "name": "Unnamed", "category": "Reservoir", "area_ha": 11.2, "altitude_m": null }, "geometry": { "type": "Point", "coordinates": [ 2.50846, 47.73122 ] } },
{ "type": "Feature", "properties": { "name": "Étang des Liesses", "category": "Reservoir", "area_ha": 10.5, "altitude_m": null }, "geometry": { "type": "Point", "coordinates": [ 2.29335, 47.97807 ] } },
{ "type": "Feature", "properties": { "name": "Étang de la Noue Mazone", "category": "Reservoir", "area_ha": 26.8, "altitude_m": null }, "geometry": { "type": "Point", "coordinates": [ 2.4325, 47.91262 ] } },
{ "type": "Feature", "properties": { "name": "Étang des Plains", "category": "Reservoir", "area_ha": 5.2, "altitude_m": null }, "geometry": { "type": "Point", "coordinates": [ 2.83872, 47.75808 ] } },
{ "type": "Feature", "properties": { "name": "Étang de la Vallée", "category": "Reservoir", "area_ha": 45.8, "altitude_m": null }, "geometry": { "type": "Point", "coordinates": [ 2.2863, 47.97071 ] } },
{ "type": "Feature", "properties": { "name": "Unnamed", "category": "Reservoir", "area_ha": 5.5, "altitude_m": null }, "geometry": { "type": "Point", "coordinates": [ 2.7464, 47.9818 ] } },
{ "type": "Feature", "properties": { "name": "Étang du Pin", "category": "Reservoir", "area_ha": 9.1, "altitude_m": null }, "geometry": { "type": "Point", "coordinates": [ 2.93204, 48.09638 ] } },
{ "type": "Feature", "properties": { "name": "Étang des Romarins", "category": "Reservoir", "area_ha": 9.0, "altitude_m": null }, "geometry": { "type": "Point", "coordinates": [ 2.92625, 48.0966 ] } },
{ "type": "Feature", "properties": { "name": "Unnamed", "category": "Reservoir", "area_ha": 5.7, "altitude_m": null }, "geometry": { "type": "Point", "coordinates": [ 2.42281, 47.65578 ] } },
{ "type": "Feature", "properties": { "name": "Unnamed", "category": "Reservoir", "area_ha": 7.8, "altitude_m": null }, "geometry": { "type": "Point", "coordinates": [ 2.76509, 48.11291 ] } },
{ "type": "Feature", "properties": { "name": "Unnamed", "category": "Reservoir", "area_ha": 10.5, "altitude_m": null }, "geometry": { "type": "Point", "coordinates": [ 1.81339, 47.71196 ] } },
{ "type": "Feature", "properties": { "name": "Unnamed", "category": "Reservoir", "area_ha": 8.0, "altitude_m": null }, "geometry": { "type": "Point", "coordinates": [ 2.93271, 48.14188 ] } },
{ "type": "Feature", "properties": { "name": "Étang du Bouloy", "category": "Reservoir", "area_ha": 5.3, "altitude_m": null }, "geometry": { "type": "Point", "coordinates": [ 2.1687, 47.67618 ] } },
{ "type": "Feature", "properties": { "name": "Étang Neuf", "category": "Reservoir", "area_ha": 6.8, "altitude_m": null }, "geometry": { "type": "Point", "coordinates": [ 2.06707, 47.68743 ] } },
{ "type": "Feature", "properties": { "name": "Étang de Cormorin", "category": "Reservoir", "area_ha": 6.5, "altitude_m": null }, "geometry": { "type": "Point", "coordinates": [ 2.38111, 47.67008 ] } },
{ "type": "Feature", "properties": { "name": "Unnamed", "category": "Reservoir", "area_ha": 6.9, "altitude_m": null }, "geometry": { "type": "Point", "coordinates": [ 2.74599, 47.75287 ] } },
{ "type": "Feature", "properties": { "name": "Bois Paillard", "category": "Reservoir", "area_ha": 23.3, "altitude_m": null }, "geometry": { "type": "Point", "coordinates": [ 2.75355, 48.13636 ] } },
{ "type": "Feature", "properties": { "name": "Plan d'Eau 5 de la Commune de Fontenay-sur-Loing", "category": "Reservoir", "area_ha": 10.1, "altitude_m": null }, "geometry": { "type": "Point", "coordinates": [ 2.76831, 48.0998 ] } },
{ "type": "Feature", "properties": { "name": "Étang Creux", "category": "Reservoir", "area_ha": 12.7, "altitude_m": null }, "geometry": { "type": "Point", "coordinates": [ 1.75083, 47.68686 ] } },
{ "type": "Feature", "properties": { "name": "la Queue du Gourd", "category": "Reservoir", "area_ha": 44.9, "altitude_m": null }, "geometry": { "type": "Point", "coordinates": [ 2.74885, 48.16005 ] } },
{ "type": "Feature", "properties": { "name": "Plan d'Eau 9 de la Commune de Dordives", "category": "Reservoir", "area_ha": 8.0, "altitude_m": null }, "geometry": { "type": "Point", "coordinates": [ 2.75622, 48.12587 ] } },
{ "type": "Feature", "properties": { "name": "Étang de Maison Rouge", "category": "Reservoir", "area_ha": 6.3, "altitude_m": null }, "geometry": { "type": "Point", "coordinates": [ 2.1655, 47.69163 ] } },
{ "type": "Feature", "properties": { "name": "Étangs de Villaine", "category": "Reservoir", "area_ha": 5.3, "altitude_m": null }, "geometry": { "type": "Point", "coordinates": [ 1.87516, 47.67783 ] } },
{ "type": "Feature", "properties": { "name": "Grand Étang", "category": "Reservoir", "area_ha": 6.7, "altitude_m": null }, "geometry": { "type": "Point", "coordinates": [ 2.20307, 48.01079 ] } },
{ "type": "Feature", "properties": { "name": "la Grande Noue", "category": "Reservoir", "area_ha": 7.6, "altitude_m": null }, "geometry": { "type": "Point", "coordinates": [ 2.58337, 47.87788 ] } },
{ "type": "Feature", "properties": { "name": "Étang Bleu", "category": "Reservoir", "area_ha": 5.3, "altitude_m": null }, "geometry": { "type": "Point", "coordinates": [ 2.99958, 48.12063 ] } },
{ "type": "Feature", "properties": { "name": "Étang de Villiers", "category": "Reservoir", "area_ha": 5.2, "altitude_m": null }, "geometry": { "type": "Point", "coordinates": [ 2.02871, 47.6825 ] } },
{ "type": "Feature", "properties": { "name": "Mare aux Oies", "category": "Reservoir", "area_ha": 5.5, "altitude_m": null }, "geometry": { "type": "Point", "coordinates": [ 1.8229, 47.7691 ] } },
{ "type": "Feature", "properties": { "name": "Étang des Œillys", "category": "Reservoir", "area_ha": 6.7, "altitude_m": null }, "geometry": { "type": "Point", "coordinates": [ 2.12079, 47.71469 ] } },
{ "type": "Feature", "properties": { "name": "Étang de Cannefoucher", "category": "Reservoir", "area_ha": 7.8, "altitude_m": null }, "geometry": { "type": "Point", "coordinates": [ 1.99525, 47.68834 ] } },
{ "type": "Feature", "properties": { "name": "Unnamed", "category": "Reservoir", "area_ha": 5.8, "altitude_m": null }, "geometry": { "type": "Point", "coordinates": [ 2.65655, 47.77419 ] } },
{ "type": "Feature", "properties": { "name": "les Marais", "category": "Reservoir", "area_ha": 5.9, "altitude_m": null }, "geometry": { "type": "Point", "coordinates": [ 2.64237, 47.95403 ] } },
{ "type": "Feature", "properties": { "name": "Étang du May", "category": "Reservoir", "area_ha": 11.2, "altitude_m": null }, "geometry": { "type": "Point", "coordinates": [ 2.49796, 47.92447 ] } },
{ "type": "Feature", "properties": { "name": "Unnamed", "category": "Reservoir", "area_ha": 16.8, "altitude_m": null }, "geometry": { "type": "Point", "coordinates": [ 2.85265, 47.64291 ] } },
{ "type": "Feature", "properties": { "name": "Unnamed", "category": "Reservoir", "area_ha": 8.8, "altitude_m": null }, "geometry": { "type": "Point", "coordinates": [ 1.75233, 48.00585 ] } },
{ "type": "Feature", "properties": { "name": "Plan d'Eau 18 de la Commune de Fontenay-sur-Loing", "category": "Reservoir", "area_ha": 5.2, "altitude_m": null }, "geometry": { "type": "Point", "coordinates": [ 2.75509, 48.06366 ] } },
{ "type": "Feature", "properties": { "name": "Unnamed", "category": "Reservoir", "area_ha": 12.5, "altitude_m": null }, "geometry": { "type": "Point", "coordinates": [ 1.95824, 48.10809 ] } },
{ "type": "Feature", "properties": { "name": "Unnamed", "category": "Reservoir", "area_ha": 6.8, "altitude_m": null }, "geometry": { "type": "Point", "coordinates": [ 2.98433, 48.05239 ] } },
{ "type": "Feature", "properties": { "name": "le Lac", "category": "Reservoir", "area_ha": 7.8, "altitude_m": null }, "geometry": { "type": "Point", "coordinates": [ 1.92659, 47.82406 ] } },
{ "type": "Feature", "properties": { "name": "Unnamed", "category": "Reservoir", "area_ha": 7.5, "altitude_m": null }, "geometry": { "type": "Point", "coordinates": [ 2.14005, 47.87972 ] } },
{ "type": "Feature", "properties": { "name": "Grand Lancy", "category": "Reservoir", "area_ha": 18.9, "altitude_m": null }, "geometry": { "type": "Point", "coordinates": [ 2.72681, 48.0273 ] } },
{ "type": "Feature", "properties": { "name": "Étang de Villaudet", "category": "Reservoir", "area_ha": 10.3, "altitude_m": null }, "geometry": { "type": "Point", "coordinates": [ 2.18695, 47.67817 ] } },
{ "type": "Feature", "properties": { "name": "Plan d'Eau 3 de la Commune de Dordives", "category": "Reservoir", "area_ha": 14.9, "altitude_m": null }, "geometry": { "type": "Point", "coordinates": [ 2.75816, 48.142 ] } },
{ "type": "Feature", "properties": { "name": "Étang de Machau", "category": "Reservoir", "area_ha": 5.0, "altitude_m": null }, "geometry": { "type": "Point", "coordinates": [ 2.63383, 47.73061 ] } },
{ "type": "Feature", "properties": { "name": "Étang des Vicomtes", "category": "Reservoir", "area_ha": 11.7, "altitude_m": null }, "geometry": { "type": "Point", "coordinates": [ 2.06292, 47.70552 ] } },
{ "type": "Feature", "properties": { "name": "Étang Gaillard", "category": "Reservoir", "area_ha": 8.0, "altitude_m": null }, "geometry": { "type": "Point", "coordinates": [ 1.78516, 47.65082 ] } },
{ "type": "Feature", "properties": { "name": "Étang de la Pillardière", "category": "Reservoir", "area_ha": 6.2, "altitude_m": null }, "geometry": { "type": "Point", "coordinates": [ 2.05689, 47.69029 ] } },
{ "type": "Feature", "properties": { "name": "Étang des Sauteriaux", "category": "Reservoir", "area_ha": 11.3, "altitude_m": null }, "geometry": { "type": "Point", "coordinates": [ 2.05211, 47.7046 ] } },
{ "type": "Feature", "properties": { "name": "Plan d'Eau 1 de la Commune de Foucherolles", "category": "Reservoir", "area_ha": 5.5, "altitude_m": null }, "geometry": { "type": "Point", "coordinates": [ 3.01732, 48.11417 ] } },
{ "type": "Feature", "properties": { "name": "Plan d'Eau 4 de la Commune de Courtenay", "category": "Reservoir", "area_ha": 5.3, "altitude_m": null }, "geometry": { "type": "Point", "coordinates": [ 3.08738, 48.00287 ] } },
{ "type": "Feature", "properties": { "name": "Étang de Vieux Maisons", "category": "Reservoir", "area_ha": 9.8, "altitude_m": null }, "geometry": { "type": "Point", "coordinates": [ 1.81683, 47.65798 ] } },
{ "type": "Feature", "properties": { "name": "Étang du Chesnoy", "category": "Reservoir", "area_ha": 14.4, "altitude_m": null }, "geometry": { "type": "Point", "coordinates": [ 2.85112, 47.6973 ] } },
{ "type": "Feature", "properties": { "name": "Étang de la Vallottière", "category": "Reservoir", "area_ha": 9.0, "altitude_m": null }, "geometry": { "type": "Point", "coordinates": [ 1.98685, 47.729 ] } },
{ "type": "Feature", "properties": { "name": "Étang Ribault", "category": "Reservoir", "area_ha": 5.2, "altitude_m": null }, "geometry": { "type": "Point", "coordinates": [ 1.75945, 47.72724 ] } },
{ "type": "Feature", "properties": { "name": "Étang des Châteliers", "category": "Reservoir", "area_ha": 9.1, "altitude_m": null }, "geometry": { "type": "Point", "coordinates": [ 2.36512, 47.60355 ] } },
{ "type": "Feature", "properties": { "name": "Étang de la Papinière", "category": "Reservoir", "area_ha": 5.4, "altitude_m": null }, "geometry": { "type": "Point", "coordinates": [ 1.9162, 47.69577 ] } },
{ "type": "Feature", "properties": { "name": "Étang Minet", "category": "Reservoir", "area_ha": 9.1, "altitude_m": null }, "geometry": { "type": "Point", "coordinates": [ 2.23248, 47.71347 ] } },
{ "type": "Feature", "properties": { "name": "Étangs des Grands Bois", "category": "Reservoir", "area_ha": 5.1, "altitude_m": null }, "geometry": { "type": "Point", "coordinates": [ 2.05098, 47.72979 ] } },
{ "type": "Feature", "properties": { "name": "Unnamed", "category": "Reservoir", "area_ha": 5.6, "altitude_m": null }, "geometry": { "type": "Point", "coordinates": [ 1.78769, 47.75717 ] } },
{ "type": "Feature", "properties": { "name": "Unnamed", "category": "Reservoir", "area_ha": 8.0, "altitude_m": null }, "geometry": { "type": "Point", "coordinates": [ 2.00827, 47.87989 ] } },
{ "type": "Feature", "properties": { "name": "Unnamed", "category": "Reservoir", "area_ha": 10.1, "altitude_m": null }, "geometry": { "type": "Point", "coordinates": [ 2.57582, 47.74932 ] } },
{ "type": "Feature", "properties": { "name": "Plan d'Eau 13 de la Commune de Fontenay-sur-Loing", "category": "Reservoir", "area_ha": 19.0, "altitude_m": null }, "geometry": { "type": "Point", "coordinates": [ 2.75457, 48.06751 ] } },
{ "type": "Feature", "properties": { "name": "Étang de Bordebuse", "category": "Reservoir", "area_ha": 9.4, "altitude_m": null }, "geometry": { "type": "Point", "coordinates": [ 1.74627, 47.72363 ] } },
{ "type": "Feature", "properties": { "name": "Plan d'Eau 3 de la Commune de Fontenay-sur-Loing", "category": "Reservoir", "area_ha": 9.2, "altitude_m": null }, "geometry": { "type": "Point", "coordinates": [ 2.76859, 48.10387 ] } },
{ "type": "Feature", "properties": { "name": "Étang des Hautes Sœurs", "category": "Reservoir", "area_ha": 13.6, "altitude_m": null }, "geometry": { "type": "Point", "coordinates": [ 2.46762, 47.98067 ] } },
{ "type": "Feature", "properties": { "name": "Étang du Gué l'Évêque", "category": "Reservoir", "area_ha": 24.4, "altitude_m": null }, "geometry": { "type": "Point", "coordinates": [ 2.53282, 47.84334 ] } },
{ "type": "Feature", "properties": { "name": "Plan d'Eau 4 de la Commune de Fontenay-sur-Loing", "category": "Reservoir", "area_ha": 7.3, "altitude_m": null }, "geometry": { "type": "Point", "coordinates": [ 2.76585, 48.09564 ] } },
{ "type": "Feature", "properties": { "name": "Plan d'Eau 2 de la Commune de Cepoy", "category": "Reservoir", "area_ha": 11.6, "altitude_m": null }, "geometry": { "type": "Point", "coordinates": [ 2.75154, 48.05359 ] } },
{ "type": "Feature", "properties": { "name": "Unnamed", "category": "Reservoir", "area_ha": 6.4, "altitude_m": null }, "geometry": { "type": "Point", "coordinates": [ 2.38754, 47.8097 ] } },
{ "type": "Feature", "properties": { "name": "Plan d'Eau 1 de la Commune des Choux", "category": "Reservoir", "area_ha": 5.2, "altitude_m": null }, "geometry": { "type": "Point", "coordinates": [ 2.6229, 47.77335 ] } },
{ "type": "Feature", "properties": { "name": "Étang de Boucherot", "category": "Reservoir", "area_ha": 6.0, "altitude_m": null }, "geometry": { "type": "Point", "coordinates": [ 2.6917, 47.73713 ] } },
{ "type": "Feature", "properties": { "name": "Plan d'Eau 21 de la Commune de Fontenay-sur-Loing", "category": "Reservoir", "area_ha": 7.0, "altitude_m": null }, "geometry": { "type": "Point", "coordinates": [ 2.75489, 48.05967 ] } },
{ "type": "Feature", "properties": { "name": "Unnamed", "category": "Reservoir", "area_ha": 6.2, "altitude_m": null }, "geometry": { "type": "Point", "coordinates": [ 2.22855, 47.72876 ] } },
{ "type": "Feature", "properties": { "name": "Étang de Montabon", "category": "Reservoir", "area_ha": 10.4, "altitude_m": null }, "geometry": { "type": "Point", "coordinates": [ 2.7542, 48.07261 ] } },
{ "type": "Feature", "properties": { "name": "Étang Potelard", "category": "Reservoir", "area_ha": 6.9, "altitude_m": null }, "geometry": { "type": "Point", "coordinates": [ 2.17836, 47.67529 ] } },
{ "type": "Feature", "properties": { "name": "Étang des Seigneurs", "category": "Reservoir", "area_ha": 14.9, "altitude_m": null }, "geometry": { "type": "Point", "coordinates": [ 2.05242, 47.70973 ] } },
{ "type": "Feature", "properties": { "name": "Plan d'Eau 3 de la Commune de Foucherolles", "category": "Reservoir", "area_ha": 11.8, "altitude_m": null }, "geometry": { "type": "Point", "coordinates": [ 3.02041, 48.09073 ] } },
{ "type": "Feature", "properties": { "name": "Bois des Aulnois", "category": "Reservoir", "area_ha": 14.9, "altitude_m": null }, "geometry": { "type": "Point", "coordinates": [ 2.76009, 48.13589 ] } },
{ "type": "Feature", "properties": { "name": "Petite Ferme", "category": "Reservoir", "area_ha": 9.6, "altitude_m": null }, "geometry": { "type": "Point", "coordinates": [ 2.76632, 48.09109 ] } },
{ "type": "Feature", "properties": { "name": "Unnamed", "category": "Reservoir", "area_ha": 8.9, "altitude_m": null }, "geometry": { "type": "Point", "coordinates": [ 2.74192, 47.8389 ] } },
{ "type": "Feature", "properties": { "name": "Unnamed", "category": "Reservoir", "area_ha": 6.5, "altitude_m": null }, "geometry": { "type": "Point", "coordinates": [ 2.05489, 47.80746 ] } },
{ "type": "Feature", "properties": { "name": "Plan d'Eau 8 de la Commune de Fontenay-sur-Loing", "category": "Reservoir", "area_ha": 6.5, "altitude_m": null }, "geometry": { "type": "Point", "coordinates": [ 2.75435, 48.07753 ] } },
{ "type": "Feature", "properties": { "name": "Unnamed", "category": "Reservoir", "area_ha": 9.1, "altitude_m": null }, "geometry": { "type": "Point", "coordinates": [ 2.2791, 47.70275 ] } },
{ "type": "Feature", "properties": { "name": "Plan d'Eau 7 de la Commune de Fontenay-sur-Loing", "category": "Reservoir", "area_ha": 6.1, "altitude_m": null }, "geometry": { "type": "Point", "coordinates": [ 2.76201, 48.08518 ] } },
{ "type": "Feature", "properties": { "name": "Unnamed", "category": "Reservoir", "area_ha": 6.1, "altitude_m": null }, "geometry": { "type": "Point", "coordinates": [ 2.19502, 47.78141 ] } },
{ "type": "Feature", "properties": { "name": "Unnamed", "category": "Reservoir", "area_ha": 10.4, "altitude_m": null }, "geometry": { "type": "Point", "coordinates": [ 2.0983, 47.74404 ] } },
{ "type": "Feature", "properties": { "name": "Unnamed", "category": "Reservoir", "area_ha": 6.0, "altitude_m": null }, "geometry": { "type": "Point", "coordinates": [ 2.58594, 47.90779 ] } },
{ "type": "Feature", "properties": { "name": "Unnamed", "category": "Reservoir", "area_ha": 6.1, "altitude_m": null }, "geometry": { "type": "Point", "coordinates": [ 2.387, 47.60875 ] } },
{ "type": "Feature", "properties": { "name": "Étang Neuf", "category": "Reservoir", "area_ha": 7.8, "altitude_m": null }, "geometry": { "type": "Point", "coordinates": [ 2.30201, 47.97366 ] } },
{ "type": "Feature", "properties": { "name": "Lac des Closiers", "category": "Reservoir", "area_ha": 11.0, "altitude_m": null }, "geometry": { "type": "Point", "coordinates": [ 2.73899, 47.99228 ] } },
{ "type": "Feature", "properties": { "name": "Étang Neuf de Centimaisons", "category": "Reservoir", "area_ha": 8.6, "altitude_m": null }, "geometry": { "type": "Point", "coordinates": [ 2.2402, 47.97329 ] } },
{ "type": "Feature", "properties": { "name": "Étang Moulin", "category": "Reservoir", "area_ha": 5.4, "altitude_m": null }, "geometry": { "type": "Point", "coordinates": [ 2.17475, 47.88364 ] } },
{ "type": "Feature", "properties": { "name": "Étang des Bois", "category": "Reservoir", "area_ha": 12.8, "altitude_m": null }, "geometry": { "type": "Point", "coordinates": [ 2.44182, 47.87124 ] } },
{ "type": "Feature", "properties": { "name": "Étang des Buffières", "category": "Reservoir", "area_ha": 8.4, "altitude_m": null }, "geometry": { "type": "Point", "coordinates": [ 2.04315, 47.7907 ] } },
{ "type": "Feature", "properties": { "name": "Petit Étang", "category": "Reservoir", "area_ha": 5.8, "altitude_m": null }, "geometry": { "type": "Point", "coordinates": [ 2.36575, 47.86878 ] } },
{ "type": "Feature", "properties": { "name": "Étang de Beaumont", "category": "Reservoir", "area_ha": 6.5, "altitude_m": null }, "geometry": { "type": "Point", "coordinates": [ 2.78537, 47.80116 ] } },
{ "type": "Feature", "properties": { "name": "Étang de Molandon", "category": "Reservoir", "area_ha": 10.6, "altitude_m": null }, "geometry": { "type": "Point", "coordinates": [ 2.56604, 47.7687 ] } },
{ "type": "Feature", "properties": { "name": "Étang Neuf", "category": "Reservoir", "area_ha": 5.2, "altitude_m": null }, "geometry": { "type": "Point", "coordinates": [ 1.90968, 47.76706 ] } },
{ "type": "Feature", "properties": { "name": "Étang de la Grande Brosse", "category": "Reservoir", "area_ha": 9.5, "altitude_m": null }, "geometry": { "type": "Point", "coordinates": [ 2.59229, 47.72932 ] } },
{ "type": "Feature", "properties": { "name": "Étang de la Beuvrière", "category": "Reservoir", "area_ha": 6.2, "altitude_m": null }, "geometry": { "type": "Point", "coordinates": [ 2.48638, 47.7085 ] } },
{ "type": "Feature", "properties": { "name": "Grand Étang", "category": "Reservoir", "area_ha": 9.9, "altitude_m": null }, "geometry": { "type": "Point", "coordinates": [ 2.24537, 47.70657 ] } },
{ "type": "Feature", "properties": { "name": "Étang Neuf", "category": "Reservoir", "area_ha": 7.6, "altitude_m": null }, "geometry": { "type": "Point", "coordinates": [ 2.76323, 47.70054 ] } },
{ "type": "Feature", "properties": { "name": "Étang Vié", "category": "Reservoir", "area_ha": 7.6, "altitude_m": null }, "geometry": { "type": "Point", "coordinates": [ 2.20392, 47.68977 ] } },
{ "type": "Feature", "properties": { "name": "Étang de la Ramellière", "category": "Reservoir", "area_ha": 12.8, "altitude_m": null }, "geometry": { "type": "Point", "coordinates": [ 2.25553, 47.69799 ] } },
{ "type": "Feature", "properties": { "name": "Étang du Boulat", "category": "Reservoir", "area_ha": 8.2, "altitude_m": null }, "geometry": { "type": "Point", "coordinates": [ 2.33096, 47.67987 ] } },
{ "type": "Feature", "properties": { "name": "Étang d'Oussoy", "category": "Reservoir", "area_ha": 7.0, "altitude_m": null }, "geometry": { "type": "Point", "coordinates": [ 2.32649, 47.67485 ] } },
{ "type": "Feature", "properties": { "name": "Étang des Chalans", "category": "Reservoir", "area_ha": 6.0, "altitude_m": null }, "geometry": { "type": "Point", "coordinates": [ 2.31772, 47.6544 ] } },
{ "type": "Feature", "properties": { "name": "Étang des Bonneaux", "category": "Reservoir", "area_ha": 5.4, "altitude_m": null }, "geometry": { "type": "Point", "coordinates": [ 2.53895, 47.87725 ] } },
{ "type": "Feature", "properties": { "name": "Étang l'Évêque", "category": "Reservoir", "area_ha": 8.8, "altitude_m": null }, "geometry": { "type": "Point", "coordinates": [ 2.19614, 47.8919 ] } },
{ "type": "Feature", "properties": { "name": "Étang du Gué des Cens", "category": "Reservoir", "area_ha": 7.5, "altitude_m": null }, "geometry": { "type": "Point", "coordinates": [ 2.44272, 47.9012 ] } },
{ "type": "Feature", "properties": { "name": "Étang des Pointes", "category": "Reservoir", "area_ha": 10.5, "altitude_m": null }, "geometry": { "type": "Point", "coordinates": [ 2.05834, 47.78886 ] } },
{ "type": "Feature", "properties": { "name": "Étang du Grand Vau", "category": "Reservoir", "area_ha": 7.2, "altitude_m": null }, "geometry": { "type": "Point", "coordinates": [ 2.1571, 48.03867 ] } },
{ "type": "Feature", "properties": { "name": "Étang de l'Aquiaulne", "category": "Reservoir", "area_ha": 6.9, "altitude_m": null }, "geometry": { "type": "Point", "coordinates": [ 2.49432, 47.65128 ] } },
{ "type": "Feature", "properties": { "name": "Étang des Noues", "category": "Reservoir", "area_ha": 7.3, "altitude_m": null }, "geometry": { "type": "Point", "coordinates": [ 2.95699, 48.11334 ] } },
{ "type": "Feature", "properties": { "name": "Grand Étang", "category": "Reservoir", "area_ha": 6.8, "altitude_m": null }, "geometry": { "type": "Point", "coordinates": [ 2.04446, 47.67807 ] } },
{ "type": "Feature", "properties": { "name": "Plan d'Eau de la Mitonnerie", "category": "Reservoir", "area_ha": 7.3, "altitude_m": null }, "geometry": { "type": "Point", "coordinates": [ 2.33183, 47.81688 ] } },
{ "type": "Feature", "properties": { "name": "Étang de Nonfourche", "category": "Reservoir", "area_ha": 9.9, "altitude_m": null }, "geometry": { "type": "Point", "coordinates": [ 2.29858, 47.94224 ] } },
{ "type": "Feature", "properties": { "name": "Unnamed", "category": "Reservoir", "area_ha": 7.5, "altitude_m": null }, "geometry": { "type": "Point", "coordinates": [ 2.1983, 47.67923 ] } },
{ "type": "Feature", "properties": { "name": "Étang du Bondon", "category": "Reservoir", "area_ha": 11.1, "altitude_m": null }, "geometry": { "type": "Point", "coordinates": [ 2.82566, 47.73492 ] } },
{ "type": "Feature", "properties": { "name": "Étang des Planches", "category": "Reservoir", "area_ha": 7.3, "altitude_m": null }, "geometry": { "type": "Point", "coordinates": [ 2.34151, 47.85701 ] } },
{ "type": "Feature", "properties": { "name": "Étang du Pré Bouzy", "category": "Reservoir", "area_ha": 8.7, "altitude_m": null }, "geometry": { "type": "Point", "coordinates": [ 2.60435, 47.75002 ] } },
{ "type": "Feature", "properties": { "name": "Étang de la Gazonne", "category": "Reservoir", "area_ha": 19.5, "altitude_m": null }, "geometry": { "type": "Point", "coordinates": [ 2.84555, 47.70238 ] } },
{ "type": "Feature", "properties": { "name": "Unnamed", "category": "Reservoir", "area_ha": 7.3, "altitude_m": null }, "geometry": { "type": "Point", "coordinates": [ 2.41476, 47.84026 ] } },
{ "type": "Feature", "properties": { "name": "Grand Étang de la Tranchée", "category": "Reservoir", "area_ha": 5.1, "altitude_m": null }, "geometry": { "type": "Point", "coordinates": [ 1.94697, 47.66577 ] } },
{ "type": "Feature", "properties": { "name": "Grand Étang", "category": "Reservoir", "area_ha": 6.0, "altitude_m": null }, "geometry": { "type": "Point", "coordinates": [ 2.14983, 47.74188 ] } },
{ "type": "Feature", "properties": { "name": "Étang du Ruet", "category": "Reservoir", "area_ha": 11.8, "altitude_m": null }, "geometry": { "type": "Point", "coordinates": [ 2.0032, 47.94207 ] } },
{ "type": "Feature", "properties": { "name": "Étang de Prépinson", "category": "Reservoir", "area_ha": 7.9, "altitude_m": null }, "geometry": { "type": "Point", "coordinates": [ 2.195, 47.72201 ] } },
{ "type": "Feature", "properties": { "name": "Grand Étang", "category": "Reservoir", "area_ha": 14.5, "altitude_m": null }, "geometry": { "type": "Point", "coordinates": [ 2.32731, 47.84968 ] } },
{ "type": "Feature", "properties": { "name": "Étang de Morche", "category": "Reservoir", "area_ha": 13.4, "altitude_m": null }, "geometry": { "type": "Point", "coordinates": [ 2.22062, 47.94329 ] } },
{ "type": "Feature", "properties": { "name": "Étang de Cénant", "category": "Reservoir", "area_ha": 7.4, "altitude_m": null }, "geometry": { "type": "Point", "coordinates": [ 2.96148, 48.0859 ] } },
{ "type": "Feature", "properties": { "name": "Étang de Sainte-Rose", "category": "Reservoir", "area_ha": 6.4, "altitude_m": null }, "geometry": { "type": "Point", "coordinates": [ 2.99293, 48.10611 ] } },
{ "type": "Feature", "properties": { "name": "Étang du Parc Thierry", "category": "Reservoir", "area_ha": 6.3, "altitude_m": null }, "geometry": { "type": "Point", "coordinates": [ 3.01291, 48.105 ] } },
{ "type": "Feature", "properties": { "name": "Étang des Bois", "category": "Reservoir", "area_ha": 10.1, "altitude_m": null }, "geometry": { "type": "Point", "coordinates": [ 2.81866, 47.64313 ] } },
{ "type": "Feature", "properties": { "name": "Étang Angot", "category": "Reservoir", "area_ha": 5.8, "altitude_m": null }, "geometry": { "type": "Point", "coordinates": [ 2.20257, 47.72938 ] } },
{ "type": "Feature", "properties": { "name": "Étang de Tourne Boyau", "category": "Reservoir", "area_ha": 14.1, "altitude_m": null }, "geometry": { "type": "Point", "coordinates": [ 2.5893, 47.74402 ] } },
{ "type": "Feature", "properties": { "name": "Étang de la Fontaine", "category": "Reservoir", "area_ha": 6.6, "altitude_m": null }, "geometry": { "type": "Point", "coordinates": [ 2.83162, 47.60182 ] } },
{ "type": "Feature", "properties": { "name": "Étang des Chêneaux", "category": "Reservoir", "area_ha": 5.4, "altitude_m": null }, "geometry": { "type": "Point", "coordinates": [ 2.20662, 47.68419 ] } },
{ "type": "Feature", "properties": { "name": "Étang de Pont Chevron", "category": "Reservoir", "area_ha": 19.9, "altitude_m": null }, "geometry": { "type": "Point", "coordinates": [ 2.77025, 47.69702 ] } },
{ "type": "Feature", "properties": { "name": "Étang de la Vauvrille Cinq Cent Quatre Vingt", "category": "Reservoir", "area_ha": 5.4, "altitude_m": null }, "geometry": { "type": "Point", "coordinates": [ 2.86554, 47.66152 ] } },
{ "type": "Feature", "properties": { "name": "Étang de Corcambon", "category": "Reservoir", "area_ha": 52.4, "altitude_m": null }, "geometry": { "type": "Point", "coordinates": [ 2.54521, 47.78806 ] } },
{ "type": "Feature", "properties": { "name": "Unnamed", "category": "Reservoir", "area_ha": 7.5, "altitude_m": null }, "geometry": { "type": "Point", "coordinates": [ 2.37636, 47.76725 ] } },
{ "type": "Feature", "properties": { "name": "Étang du Bourg", "category": "Reservoir", "area_ha": 17.5, "altitude_m": null }, "geometry": { "type": "Point", "coordinates": [ 2.51379, 47.7609 ] } },
{ "type": "Feature", "properties": { "name": "Étang d'Orléans", "category": "Reservoir", "area_ha": 31.6, "altitude_m": null }, "geometry": { "type": "Point", "coordinates": [ 2.43674, 47.85889 ] } },
{ "type": "Feature", "properties": { "name": "Étang de la Binoche", "category": "Reservoir", "area_ha": 8.7, "altitude_m": null }, "geometry": { "type": "Point", "coordinates": [ 2.22988, 47.97176 ] } },
{ "type": "Feature", "properties": { "name": "Étang des Moines", "category": "Reservoir", "area_ha": 7.9, "altitude_m": null }, "geometry": { "type": "Point", "coordinates": [ 2.28656, 47.69214 ] } },
{ "type": "Feature", "properties": { "name": "Étang de Beaugenceau", "category": "Reservoir", "area_ha": 7.4, "altitude_m": null }, "geometry": { "type": "Point", "coordinates": [ 2.18897, 47.71621 ] } },
{ "type": "Feature", "properties": { "name": "Étang de Cendray", "category": "Reservoir", "area_ha": 15.1, "altitude_m": null }, "geometry": { "type": "Point", "coordinates": [ 1.79759, 47.7535 ] } },
{ "type": "Feature", "properties": { "name": "Étang Neuf", "category": "Reservoir", "area_ha": 5.2, "altitude_m": null }, "geometry": { "type": "Point", "coordinates": [ 1.75369, 47.72348 ] } },
{ "type": "Feature", "properties": { "name": "Étang Roulé", "category": "Reservoir", "area_ha": 5.9, "altitude_m": null }, "geometry": { "type": "Point", "coordinates": [ 1.72135, 47.73094 ] } },
{ "type": "Feature", "properties": { "name": "Étang du Chêne", "category": "Reservoir", "area_ha": 6.4, "altitude_m": null }, "geometry": { "type": "Point", "coordinates": [ 1.80766, 47.66161 ] } },
{ "type": "Feature", "properties": { "name": "Grand Étang de la Motte", "category": "Reservoir", "area_ha": 18.0, "altitude_m": null }, "geometry": { "type": "Point", "coordinates": [ 1.99173, 47.73079 ] } },
{ "type": "Feature", "properties": { "name": "Étang de la Boirie", "category": "Dam", "area_ha": 6.0, "altitude_m": null }, "geometry": { "type": "Point", "coordinates": [ 2.48333, 47.935 ] } },
{ "type": "Feature", "properties": { "name": "Étang de la Grande Rue", "category": "Dam", "area_ha": 111.8, "altitude_m": null }, "geometry": { "type": "Point", "coordinates": [ 2.87194, 47.69676 ] } },
{ "type": "Feature", "properties": { "name": "Unnamed", "category": "Dam", "area_ha": 6.0, "altitude_m": null }, "geometry": { "type": "Point", "coordinates": [ 2.74486, 47.7467 ] } },
{ "type": "Feature", "properties": { "name": "Étang de la Tuilerie", "category": "Dam", "area_ha": 75.9, "altitude_m": null }, "geometry": { "type": "Point", "coordinates": [ 2.90432, 47.66023 ] } },
{ "type": "Feature", "properties": { "name": "Étang de Piquereau", "category": "Dam", "area_ha": 12.0, "altitude_m": null }, "geometry": { "type": "Point", "coordinates": [ 2.50502, 47.93832 ] } },
{ "type": "Feature", "properties": { "name": "Étang du Puits", "category": "Dam", "area_ha": 116.0, "altitude_m": null }, "geometry": { "type": "Point", "coordinates": [ 2.37821, 47.59099 ] } },
{ "type": "Feature", "properties": { "name": "Étang de Romerie", "category": "Dam", "area_ha": 6.8, "altitude_m": null }, "geometry": { "type": "Point", "coordinates": [ 3.11978, 47.9698 ] } }
]
}
