{
"type": "FeatureCollection",
"name": "dep59.geojson",
"crs": { "type": "name", "properties": { "name": "urn:ogc:def:crs:OGC:1.3:CRS84" } },
"xy_coordinate_resolution": 1e-05,
"features": [
{ "type": "Feature", "properties": { "name": "Mare à Goriaux", "category": "Reservoir", "area_ha": 75.6, "altitude_m": null }, "geometry": { "type": "Point", "coordinates": [ 3.43977, 50.39729 ] } },
{ "type": "Feature", "properties": { "name": "Unnamed", "category": "Reservoir", "area_ha": 5.3, "altitude_m": null }, "geometry": { "type": "Point", "coordinates": [ 3.12648, 50.36465 ] } },
{ "type": "Feature", "properties": { "name": "Unnamed", "category": "Reservoir", "area_ha": 7.6, "altitude_m": null }, "geometry": { "type": "Point", "coordinates": [ 3.27071, 50.21025 ] } },
{ "type": "Feature", "properties": { "name": "Unnamed", "category": "Reservoir", "area_ha": 12.0, "altitude_m": null }, "geometry": { "type": "Point", "coordinates": [ 2.08051, 51.00686 ] } },
{ "type": "Feature", "properties": { "name": "Unnamed", "category": "Reservoir", "area_ha": 27.4, "altitude_m": null }, "geometry": { "type": "Point", "coordinates": [ 2.2782, 50.99828 ] } },
{ "type": "Feature", "properties": { "name": "Étang du Hayon", "category": "Reservoir", "area_ha": 19.8, "altitude_m": null }, "geometry": { "type": "Point", "coordinates": [ 4.11132, 50.06917 ] } },
{ "type": "Feature", "properties": { "name": "Étang de Neuve Forge", "category": "Reservoir", "area_ha": 8.9, "altitude_m": null }, "geometry": { "type": "Point", "coordinates": [ 4.12422, 49.97488 ] } },
{ "type": "Feature", "properties": { "name": "Unnamed", "category": "Reservoir", "area_ha": 7.8, "altitude_m": null }, "geometry": { "type": "Point", "coordinates": [ 3.27634, 50.21012 ] } },
{ "type": "Feature", "properties": { "name": "Plan d'Eau du Petit Denna", "category": "Reservoir", "area_ha": 8.7, "altitude_m": null }, "geometry": { "type": "Point", "coordinates": [ 2.18503, 50.99422 ] } },
{ "type": "Feature", "properties": { "name": "Étang de la Galoperie", "category": "Reservoir", "area_ha": 6.6, "altitude_m": null }, "geometry": { "type": "Point", "coordinates": [ 4.13057, 50.00673 ] } },
{ "type": "Feature", "properties": { "name": "Unnamed", "category": "Reservoir", "area_ha": 5.4, "altitude_m": null }, "geometry": { "type": "Point", "coordinates": [ 2.3621, 51.03404 ] } },
{ "type": "Feature", "properties": { "name": "Étang du Pont Rouge", "category": "Reservoir", "area_ha": 13.5, "altitude_m": null }, "geometry": { "type": "Point", "coordinates": [ 3.64193, 50.24287 ] } },
{ "type": "Feature", "properties": { "name": "Étang Chabaud-Latour", "category": "Reservoir", "area_ha": 105.0, "altitude_m": null }, "geometry": { "type": "Point", "coordinates": [ 3.59825, 50.45563 ] } },
{ "type": "Feature", "properties": { "name": "Unnamed", "category": "Reservoir", "area_ha": 8.7, "altitude_m": null }, "geometry": { "type": "Point", "coordinates": [ 2.261, 50.999 ] } },
{ "type": "Feature", "properties": { "name": "Étang des Cheminots", "category": "Reservoir", "area_ha": 14.8, "altitude_m": null }, "geometry": { "type": "Point", "coordinates": [ 3.54005, 50.38202 ] } },
{ "type": "Feature", "properties": { "name": "Marais Chantraine", "category": "Reservoir", "area_ha": 23.1, "altitude_m": null }, "geometry": { "type": "Point", "coordinates": [ 3.26897, 50.26312 ] } },
{ "type": "Feature", "properties": { "name": "Lac d'Armbouts Cappel", "category": "Reservoir", "area_ha": 17.1, "altitude_m": null }, "geometry": { "type": "Point", "coordinates": [ 2.33952, 50.99489 ] } },
{ "type": "Feature", "properties": { "name": "Unnamed", "category": "Reservoir", "area_ha": 5.8, "altitude_m": null }, "geometry": { "type": "Point", "coordinates": [ 3.27225, 50.20607 ] } },
{ "type": "Feature", "properties": { "name": "Unnamed", "category": "Reservoir", "area_ha": 5.4, "altitude_m": null }, "geometry": { "type": "Point", "coordinates": [ 3.29256, 50.27649 ] } },
{ "type": "Feature", "properties": { "name": "Unnamed", "category": "Reservoir", "area_ha": 5.7, "altitude_m": null }, "geometry": { "type": "Point", "coordinates": [ 2.54197, 51.06087 ] } },
{ "type": "Feature", "properties": { "name": "Unnamed", "category": "Reservoir", "area_ha": 13.6, "altitude_m": null }, "geometry": { "type": "Point", "coordinates": [ 3.08252, 50.41547 ] } },
{ "type": "Feature", "properties": { "name": "Lac du Héron", "category": "Reservoir", "area_ha": 31.8, "altitude_m": null }, "geometry": { "type": "Point", "coordinates": [ 3.17101, 50.63463 ] } },
{ "type": "Feature", "properties": { "name": "Lac du Val Joly", "category": "Dam", "area_ha": 149.8, "altitude_m": null }, "geometry": { "type": "Point", "coordinates": [ 4.13982, 50.11508 ] } },
{ "type": "Feature", "properties": { "name": "Unnamed", "category": "Reservoir", "area_ha": 5.0, "altitude_m": null }, "geometry": { "type": "Point", "coordinates": [ 4.09282, 50.28501 ] } },
{ "type": "Feature", "properties": { "name": "Unnamed", "category": "Reservoir", "area_ha": 5.5, "altitude_m": null }, "geometry": { "type": "Point", "coordinates": [ 3.55332, 50.46008 ] } },
{ "type": "Feature", "properties": { "name": "Unnamed", "category": "Reservoir", "area_ha": 32.8, "altitude_m": null }, "geometry": { "type": "Point", "coordinates": [ 3.11327, 50.31788 ] } },
{ "type": "Feature", "properties": { "name": "Unnamed", "category": "Reservoir", "area_ha": 11.8, "altitude_m": null }, "geometry": { "type": "Point", "coordinates": [ 3.29504, 50.25325 ] } },
{ "type": "Feature", "properties": { "name": "Étang de la Digue Noire", "category": "Reservoir", "area_ha": 18.8, "altitude_m": null }, "geometry": { "type": "Point", "coordinates": [ 3.61176, 50.46449 ] } },
{ "type": "Feature", "properties": { "name": "Unnamed", "category": "Reservoir", "area_ha": 6.8, "altitude_m": null }, "geometry": { "type": "Point", "coordinates": [ 3.26763, 50.2023 ] } },
{ "type": "Feature", "properties": { "name": "Unnamed", "category": "Reservoir", "area_ha": 5.6, "altitude_m": null }, "geometry": { "type": "Point", "coordinates": [ 4.04423, 50.0672 ] } },
{ "type": "Feature", "properties": { "name": "Unnamed", "category": "Reservoir", "area_ha": 7.0, "altitude_m": null }, "geometry": { "type": "Point", "coordinates": [ 3.27042, 50.20204 ] } },
{ "type": "Feature", "properties": { "name": "Unnamed", "category": "Reservoir", "area_ha": 9.2, "altitude_m": null }, "geometry": { "type": "Point", "coordinates": [ 3.12605, 50.36268 ] } },
{ "type": "Feature", "properties": { "name": "Grand Étang", "category": "Reservoir", "area_ha": 5.1, "altitude_m": null }, "geometry": { "type": "Point", "coordinates": [ 4.07272, 50.10457 ] } },
{ "type": "Feature", "properties": { "name": "Unnamed", "category": "Reservoir", "area_ha": 34.9, "altitude_m": null }, "geometry": { "type": "Point", "coordinates": [ 2.43721, 51.03652 ] } },
{ "type": "Feature", "properties": { "name": "Étang du Pré du Hem", "category": "Reservoir", "area_ha": 43.0, "altitude_m": null }, "geometry": { "type": "Point", "coordinates": [ 2.87603, 50.69927 ] } },
{ "type": "Feature", "properties": { "name": "Étang d'Amaury", "category": "Reservoir", "area_ha": 62.7, "altitude_m": null }, "geometry": { "type": "Point", "coordinates": [ 3.54482, 50.46228 ] } },
{ "type": "Feature", "properties": { "name": "Étang de la Folie", "category": "Reservoir", "area_ha": 32.2, "altitude_m": null }, "geometry": { "type": "Point", "coordinates": [ 4.15051, 50.06777 ] } },
{ "type": "Feature", "properties": { "name": "Étang du Vignoble", "category": "Reservoir", "area_ha": 55.1, "altitude_m": null }, "geometry": { "type": "Point", "coordinates": [ 3.49955, 50.34505 ] } },
{ "type": "Feature", "properties": { "name": "Unnamed", "category": "Reservoir", "area_ha": 7.1, "altitude_m": null }, "geometry": { "type": "Point", "coordinates": [ 3.33268, 50.41743 ] } },
{ "type": "Feature", "properties": { "name": "le Puchoie", "category": "Reservoir", "area_ha": 9.0, "altitude_m": null }, "geometry": { "type": "Point", "coordinates": [ 3.42506, 50.42806 ] } },
{ "type": "Feature", "properties": { "name": "Étang de Romelaere", "category": "Reservoir", "area_ha": 25.5, "altitude_m": null }, "geometry": { "type": "Point", "coordinates": [ 2.28872, 50.78077 ] } },
{ "type": "Feature", "properties": { "name": "Étang de Milourd", "category": "Dam", "area_ha": 3.8, "altitude_m": null }, "geometry": { "type": "Point", "coordinates": [ 4.10252, 49.97604 ] } }
]
}
