{
"type": "FeatureCollection",
"name": "dep50.geojson",
"crs": { "type": "name", "properties": { "name": "urn:ogc:def:crs:OGC:1.3:CRS84" } },
"xy_coordinate_resolution": 1e-05,
"features": [
{ "type": "Feature", "properties": { "name": "Plan d'Eau 1 de la Commune de Saint-Jores", "category": "Reservoir", "area_ha": 7.0, "altitude_m": null }, "geometry": { "type": "Point", "coordinates": [ -1.37744, 49.30173 ] } },
{ "type": "Feature", "properties": { "name": "Grand Étang", "category": "Reservoir", "area_ha": 5.6, "altitude_m": null }, "geometry": { "type": "Point", "coordinates": [ -0.97392, 49.03208 ] } },
{ "type": "Feature", "properties": { "name": "Marais de Cap", "category": "Reservoir", "area_ha": 5.2, "altitude_m": null }, "geometry": { "type": "Point", "coordinates": [ -1.21655, 49.28221 ] } },
{ "type": "Feature", "properties": { "name": "le Grand Fossé", "category": "Reservoir", "area_ha": 5.9, "altitude_m": null }, "geometry": { "type": "Point", "coordinates": [ -1.25167, 49.27112 ] } },
{ "type": "Feature", "properties": { "name": "Plan d'Eau 1 de la Commune des Veys", "category": "Reservoir", "area_ha": 8.2, "altitude_m": null }, "geometry": { "type": "Point", "coordinates": [ -1.14067, 49.29397 ] } },
{ "type": "Feature", "properties": { "name": "le Marais de Donville", "category": "Reservoir", "area_ha": 5.3, "altitude_m": null }, "geometry": { "type": "Point", "coordinates": [ -1.29269, 49.31409 ] } },
{ "type": "Feature", "properties": { "name": "Lac des Bruyères", "category": "Reservoir", "area_ha": 9.4, "altitude_m": null }, "geometry": { "type": "Point", "coordinates": [ -1.46785, 49.21763 ] } },
{ "type": "Feature", "properties": { "name": "le Broc", "category": "Reservoir", "area_ha": 8.2, "altitude_m": null }, "geometry": { "type": "Point", "coordinates": [ -1.57539, 49.19253 ] } },
{ "type": "Feature", "properties": { "name": "Géosite de Fresville", "category": "Reservoir", "area_ha": 9.5, "altitude_m": null }, "geometry": { "type": "Point", "coordinates": [ -1.383, 49.44102 ] } },
{ "type": "Feature", "properties": { "name": "Étang de Gattemare", "category": "Reservoir", "area_ha": 17.2, "altitude_m": null }, "geometry": { "type": "Point", "coordinates": [ -1.29664, 49.6912 ] } },
{ "type": "Feature", "properties": { "name": "le Hable", "category": "Reservoir", "area_ha": 24.0, "altitude_m": null }, "geometry": { "type": "Point", "coordinates": [ -1.39672, 49.70084 ] } },
{ "type": "Feature", "properties": { "name": "Lac des Moulinets", "category": "Dam", "area_ha": 4.6, "altitude_m": null }, "geometry": { "type": "Point", "coordinates": [ -1.89831, 49.66931 ] } },
{ "type": "Feature", "properties": { "name": "Étang de Morette", "category": "Dam", "area_ha": 22.8, "altitude_m": null }, "geometry": { "type": "Point", "coordinates": [ -0.84233, 48.52434 ] } },
{ "type": "Feature", "properties": { "name": "Petit Lac", "category": "Dam", "area_ha": 26.4, "altitude_m": null }, "geometry": { "type": "Point", "coordinates": [ -1.24685, 48.59324 ] } }
]
}
