{
"type": "FeatureCollection",
"name": "dep51.geojson",
"crs": { "type": "name", "properties": { "name": "urn:ogc:def:crs:OGC:1.3:CRS84" } },
"xy_coordinate_resolution": 1e-05,
"features": [
{ "type": "Feature", "properties": { "name": "Étang de Roussi Pré", "category": "Reservoir", "area_ha": 20.5, "altitude_m": null }, "geometry": { "type": "Point", "coordinates": [ 4.85026, 48.96702 ] } },
{ "type": "Feature", "properties": { "name": "Étang de Givry", "category": "Reservoir", "area_ha": 14.7, "altitude_m": null }, "geometry": { "type": "Point", "coordinates": [ 4.8885, 48.94542 ] } },
{ "type": "Feature", "properties": { "name": "Étang de Marenge", "category": "Reservoir", "area_ha": 11.9, "altitude_m": null }, "geometry": { "type": "Point", "coordinates": [ 4.80008, 48.85265 ] } },
{ "type": "Feature", "properties": { "name": "Étang des Aubépines", "category": "Reservoir", "area_ha": 15.4, "altitude_m": null }, "geometry": { "type": "Point", "coordinates": [ 3.76777, 48.99235 ] } },
{ "type": "Feature", "properties": { "name": "Étang de la Lieue", "category": "Reservoir", "area_ha": 12.4, "altitude_m": null }, "geometry": { "type": "Point", "coordinates": [ 4.84878, 48.94048 ] } },
{ "type": "Feature", "properties": { "name": "Étang de la Petite Malneaue", "category": "Reservoir", "area_ha": 7.1, "altitude_m": null }, "geometry": { "type": "Point", "coordinates": [ 3.77203, 49.00377 ] } },
{ "type": "Feature", "properties": { "name": "Étang d'Orléans", "category": "Reservoir", "area_ha": 19.9, "altitude_m": null }, "geometry": { "type": "Point", "coordinates": [ 3.86876, 49.03942 ] } },
{ "type": "Feature", "properties": { "name": "Étang des Herbins", "category": "Reservoir", "area_ha": 6.7, "altitude_m": null }, "geometry": { "type": "Point", "coordinates": [ 4.54939, 48.66331 ] } },
{ "type": "Feature", "properties": { "name": "Unnamed", "category": "Reservoir", "area_ha": 5.0, "altitude_m": null }, "geometry": { "type": "Point", "coordinates": [ 4.25497, 49.00328 ] } },
{ "type": "Feature", "properties": { "name": "Étang Neuf", "category": "Reservoir", "area_ha": 31.1, "altitude_m": null }, "geometry": { "type": "Point", "coordinates": [ 4.78607, 48.8422 ] } },
{ "type": "Feature", "properties": { "name": "Unnamed", "category": "Reservoir", "area_ha": 20.0, "altitude_m": null }, "geometry": { "type": "Point", "coordinates": [ 4.96005, 49.01771 ] } },
{ "type": "Feature", "properties": { "name": "Étang du Vivier", "category": "Reservoir", "area_ha": 5.8, "altitude_m": null }, "geometry": { "type": "Point", "coordinates": [ 3.69219, 49.01624 ] } },
{ "type": "Feature", "properties": { "name": "Sablière 2 de la Petite Épinée", "category": "Reservoir", "area_ha": 6.3, "altitude_m": null }, "geometry": { "type": "Point", "coordinates": [ 4.72137, 48.63021 ] } },
{ "type": "Feature", "properties": { "name": "Étang des Fosses", "category": "Reservoir", "area_ha": 31.4, "altitude_m": null }, "geometry": { "type": "Point", "coordinates": [ 4.8616, 48.96305 ] } },
{ "type": "Feature", "properties": { "name": "Étang des Basses", "category": "Reservoir", "area_ha": 5.2, "altitude_m": null }, "geometry": { "type": "Point", "coordinates": [ 4.64587, 48.5713 ] } },
{ "type": "Feature", "properties": { "name": "la Grevière", "category": "Reservoir", "area_ha": 10.3, "altitude_m": null }, "geometry": { "type": "Point", "coordinates": [ 3.82117, 49.07507 ] } },
{ "type": "Feature", "properties": { "name": "Étang des Landres", "category": "Reservoir", "area_ha": 76.6, "altitude_m": null }, "geometry": { "type": "Point", "coordinates": [ 4.68616, 48.57639 ] } },
{ "type": "Feature", "properties": { "name": "Étang de la Grande Rouillie", "category": "Reservoir", "area_ha": 15.7, "altitude_m": null }, "geometry": { "type": "Point", "coordinates": [ 4.95869, 49.03619 ] } },
{ "type": "Feature", "properties": { "name": "Étang d'Anglure", "category": "Reservoir", "area_ha": 8.8, "altitude_m": null }, "geometry": { "type": "Point", "coordinates": [ 3.84497, 49.02955 ] } },
{ "type": "Feature", "properties": { "name": "Étang du Gris Mansard", "category": "Reservoir", "area_ha": 8.0, "altitude_m": null }, "geometry": { "type": "Point", "coordinates": [ 4.85448, 48.70183 ] } },
{ "type": "Feature", "properties": { "name": "Plan d'Eau 2 du Bois de Bussy", "category": "Reservoir", "area_ha": 14.5, "altitude_m": null }, "geometry": { "type": "Point", "coordinates": [ 4.60639, 48.60977 ] } },
{ "type": "Feature", "properties": { "name": "Étang de la Noue Allard", "category": "Reservoir", "area_ha": 5.1, "altitude_m": null }, "geometry": { "type": "Point", "coordinates": [ 4.60459, 48.6022 ] } },
{ "type": "Feature", "properties": { "name": "Étang", "category": "Reservoir", "area_ha": 5.2, "altitude_m": null }, "geometry": { "type": "Point", "coordinates": [ 3.73213, 48.75115 ] } },
{ "type": "Feature", "properties": { "name": "Lac du Der-Chantecoq", "category": "Dam", "area_ha": 4170.0, "altitude_m": null }, "geometry": { "type": "Point", "coordinates": [ 4.73927, 48.58047 ] } },
{ "type": "Feature", "properties": { "name": "Étang Neuf", "category": "Reservoir", "area_ha": 5.1, "altitude_m": null }, "geometry": { "type": "Point", "coordinates": [ 4.92521, 48.95147 ] } },
{ "type": "Feature", "properties": { "name": "Gravière 2 du Bas d'Omey", "category": "Reservoir", "area_ha": 5.8, "altitude_m": null }, "geometry": { "type": "Point", "coordinates": [ 4.48029, 48.84691 ] } },
{ "type": "Feature", "properties": { "name": "l'Oseraie Brunot", "category": "Reservoir", "area_ha": 5.7, "altitude_m": null }, "geometry": { "type": "Point", "coordinates": [ 4.51396, 48.81117 ] } },
{ "type": "Feature", "properties": { "name": "Étang des Pâtis", "category": "Reservoir", "area_ha": 11.5, "altitude_m": null }, "geometry": { "type": "Point", "coordinates": [ 3.82469, 49.04753 ] } },
{ "type": "Feature", "properties": { "name": "Marnière", "category": "Reservoir", "area_ha": 7.0, "altitude_m": null }, "geometry": { "type": "Point", "coordinates": [ 3.46207, 48.64337 ] } },
{ "type": "Feature", "properties": { "name": "Étang Requigny", "category": "Reservoir", "area_ha": 11.4, "altitude_m": null }, "geometry": { "type": "Point", "coordinates": [ 4.95735, 48.99153 ] } },
{ "type": "Feature", "properties": { "name": "Unnamed", "category": "Reservoir", "area_ha": 6.2, "altitude_m": null }, "geometry": { "type": "Point", "coordinates": [ 4.45896, 48.86696 ] } },
{ "type": "Feature", "properties": { "name": "Étang l'Harouchêne", "category": "Reservoir", "area_ha": 22.4, "altitude_m": null }, "geometry": { "type": "Point", "coordinates": [ 4.81329, 48.87669 ] } },
{ "type": "Feature", "properties": { "name": "Étang de Maucreux", "category": "Reservoir", "area_ha": 5.2, "altitude_m": null }, "geometry": { "type": "Point", "coordinates": [ 3.74476, 48.93873 ] } },
{ "type": "Feature", "properties": { "name": "Étang des Noues", "category": "Reservoir", "area_ha": 10.7, "altitude_m": null }, "geometry": { "type": "Point", "coordinates": [ 4.80897, 48.86077 ] } },
{ "type": "Feature", "properties": { "name": "Étang du Hallet", "category": "Reservoir", "area_ha": 12.1, "altitude_m": null }, "geometry": { "type": "Point", "coordinates": [ 3.72546, 49.00228 ] } },
{ "type": "Feature", "properties": { "name": "Étang de Prot", "category": "Reservoir", "area_ha": 6.4, "altitude_m": null }, "geometry": { "type": "Point", "coordinates": [ 3.78547, 49.02428 ] } },
{ "type": "Feature", "properties": { "name": "Étang des Soulottes", "category": "Reservoir", "area_ha": 5.9, "altitude_m": null }, "geometry": { "type": "Point", "coordinates": [ 3.72461, 48.99125 ] } },
{ "type": "Feature", "properties": { "name": "Étang du Bas", "category": "Reservoir", "area_ha": 7.0, "altitude_m": null }, "geometry": { "type": "Point", "coordinates": [ 3.7478, 48.97668 ] } },
{ "type": "Feature", "properties": { "name": "Étang de Russon", "category": "Reservoir", "area_ha": 6.7, "altitude_m": null }, "geometry": { "type": "Point", "coordinates": [ 3.88898, 48.90329 ] } },
{ "type": "Feature", "properties": { "name": "Étang Brûlé", "category": "Reservoir", "area_ha": 8.2, "altitude_m": null }, "geometry": { "type": "Point", "coordinates": [ 4.60793, 48.61882 ] } },
{ "type": "Feature", "properties": { "name": "Vieil Étang", "category": "Reservoir", "area_ha": 14.2, "altitude_m": null }, "geometry": { "type": "Point", "coordinates": [ 4.8186, 48.82428 ] } },
{ "type": "Feature", "properties": { "name": "Plan d'Eau du Bois de Vauréal", "category": "Reservoir", "area_ha": 9.0, "altitude_m": null }, "geometry": { "type": "Point", "coordinates": [ 4.96018, 48.96057 ] } },
{ "type": "Feature", "properties": { "name": "Étangs des Sentelles", "category": "Reservoir", "area_ha": 8.8, "altitude_m": null }, "geometry": { "type": "Point", "coordinates": [ 3.94026, 49.10155 ] } },
{ "type": "Feature", "properties": { "name": "Étang Renaudin", "category": "Reservoir", "area_ha": 9.6, "altitude_m": null }, "geometry": { "type": "Point", "coordinates": [ 4.32912, 48.97536 ] } },
{ "type": "Feature", "properties": { "name": "Étang des Franches Soles", "category": "Reservoir", "area_ha": 16.3, "altitude_m": null }, "geometry": { "type": "Point", "coordinates": [ 4.95404, 48.98697 ] } },
{ "type": "Feature", "properties": { "name": "Étang des Grands Grès", "category": "Reservoir", "area_ha": 12.4, "altitude_m": null }, "geometry": { "type": "Point", "coordinates": [ 3.81982, 48.88622 ] } },
{ "type": "Feature", "properties": { "name": "Étang de la Grande Malneaue", "category": "Reservoir", "area_ha": 25.5, "altitude_m": null }, "geometry": { "type": "Point", "coordinates": [ 3.79291, 49.00184 ] } },
{ "type": "Feature", "properties": { "name": "Étang de Naubacon", "category": "Reservoir", "area_ha": 10.3, "altitude_m": null }, "geometry": { "type": "Point", "coordinates": [ 3.8389, 49.03334 ] } },
{ "type": "Feature", "properties": { "name": "Unnamed", "category": "Reservoir", "area_ha": 6.3, "altitude_m": null }, "geometry": { "type": "Point", "coordinates": [ 4.76763, 48.99651 ] } },
{ "type": "Feature", "properties": { "name": "Étang Bossard", "category": "Reservoir", "area_ha": 6.0, "altitude_m": null }, "geometry": { "type": "Point", "coordinates": [ 4.8973, 48.91588 ] } },
{ "type": "Feature", "properties": { "name": "l'Étang Millet", "category": "Reservoir", "area_ha": 19.9, "altitude_m": null }, "geometry": { "type": "Point", "coordinates": [ 4.95938, 48.99897 ] } },
{ "type": "Feature", "properties": { "name": "Grand Étang du Roi", "category": "Reservoir", "area_ha": 39.0, "altitude_m": null }, "geometry": { "type": "Point", "coordinates": [ 3.74751, 49.011 ] } },
{ "type": "Feature", "properties": { "name": "Étang de Poligny", "category": "Reservoir", "area_ha": 5.6, "altitude_m": null }, "geometry": { "type": "Point", "coordinates": [ 4.89223, 49.25677 ] } },
{ "type": "Feature", "properties": { "name": "Étang des Usages", "category": "Reservoir", "area_ha": 7.8, "altitude_m": null }, "geometry": { "type": "Point", "coordinates": [ 4.969, 49.03328 ] } },
{ "type": "Feature", "properties": { "name": "Étang de Givry", "category": "Reservoir", "area_ha": 11.1, "altitude_m": null }, "geometry": { "type": "Point", "coordinates": [ 3.85567, 49.03578 ] } },
{ "type": "Feature", "properties": { "name": "Étang des Grandes Couées", "category": "Reservoir", "area_ha": 12.0, "altitude_m": null }, "geometry": { "type": "Point", "coordinates": [ 4.59119, 48.55163 ] } },
{ "type": "Feature", "properties": { "name": "Grand Étang de la Coudre", "category": "Reservoir", "area_ha": 16.0, "altitude_m": null }, "geometry": { "type": "Point", "coordinates": [ 3.73255, 49.01483 ] } },
{ "type": "Feature", "properties": { "name": "Étangs de la Noquette", "category": "Reservoir", "area_ha": 27.9, "altitude_m": null }, "geometry": { "type": "Point", "coordinates": [ 3.77371, 48.82221 ] } },
{ "type": "Feature", "properties": { "name": "Étang de Morfontaine", "category": "Reservoir", "area_ha": 15.5, "altitude_m": null }, "geometry": { "type": "Point", "coordinates": [ 3.69696, 49.00457 ] } },
{ "type": "Feature", "properties": { "name": "la Grande Rivière", "category": "Reservoir", "area_ha": 5.3, "altitude_m": null }, "geometry": { "type": "Point", "coordinates": [ 3.8993, 48.81894 ] } },
{ "type": "Feature", "properties": { "name": "les Étangs", "category": "Reservoir", "area_ha": 6.4, "altitude_m": null }, "geometry": { "type": "Point", "coordinates": [ 4.80493, 48.63055 ] } },
{ "type": "Feature", "properties": { "name": "Étang de la Forêt", "category": "Reservoir", "area_ha": 44.5, "altitude_m": null }, "geometry": { "type": "Point", "coordinates": [ 4.68856, 48.55607 ] } },
{ "type": "Feature", "properties": { "name": "Étang Nicoulée", "category": "Reservoir", "area_ha": 7.6, "altitude_m": null }, "geometry": { "type": "Point", "coordinates": [ 4.76078, 48.82471 ] } },
{ "type": "Feature", "properties": { "name": "Étang du Frêne", "category": "Reservoir", "area_ha": 5.9, "altitude_m": null }, "geometry": { "type": "Point", "coordinates": [ 4.82616, 48.71697 ] } },
{ "type": "Feature", "properties": { "name": "Unnamed", "category": "Reservoir", "area_ha": 5.0, "altitude_m": null }, "geometry": { "type": "Point", "coordinates": [ 4.52638, 49.17617 ] } },
{ "type": "Feature", "properties": { "name": "Plan d'Eau 1 du Marais de Vendière", "category": "Reservoir", "area_ha": 9.9, "altitude_m": null }, "geometry": { "type": "Point", "coordinates": [ 3.74809, 49.31179 ] } },
{ "type": "Feature", "properties": { "name": "Unnamed", "category": "Reservoir", "area_ha": 8.4, "altitude_m": null }, "geometry": { "type": "Point", "coordinates": [ 4.87737, 48.97805 ] } },
{ "type": "Feature", "properties": { "name": "Étang de Trunval", "category": "Reservoir", "area_ha": 11.8, "altitude_m": null }, "geometry": { "type": "Point", "coordinates": [ 4.85054, 49.05793 ] } },
{ "type": "Feature", "properties": { "name": "le Paquis des Fées", "category": "Reservoir", "area_ha": 14.7, "altitude_m": null }, "geometry": { "type": "Point", "coordinates": [ 4.74607, 48.631 ] } },
{ "type": "Feature", "properties": { "name": "Petit Étang du Roi", "category": "Reservoir", "area_ha": 12.2, "altitude_m": null }, "geometry": { "type": "Point", "coordinates": [ 3.76215, 49.01589 ] } },
{ "type": "Feature", "properties": { "name": "Étang de la Putefin", "category": "Reservoir", "area_ha": 7.1, "altitude_m": null }, "geometry": { "type": "Point", "coordinates": [ 4.96329, 48.94127 ] } },
{ "type": "Feature", "properties": { "name": "Étang de Profondon", "category": "Reservoir", "area_ha": 5.4, "altitude_m": null }, "geometry": { "type": "Point", "coordinates": [ 4.89564, 48.9484 ] } },
{ "type": "Feature", "properties": { "name": "Étang des Laires", "category": "Reservoir", "area_ha": 9.1, "altitude_m": null }, "geometry": { "type": "Point", "coordinates": [ 4.57456, 48.56792 ] } },
{ "type": "Feature", "properties": { "name": "Étang le Roi", "category": "Reservoir", "area_ha": 34.4, "altitude_m": null }, "geometry": { "type": "Point", "coordinates": [ 4.83419, 49.08099 ] } },
{ "type": "Feature", "properties": { "name": "Unnamed", "category": "Reservoir", "area_ha": 5.2, "altitude_m": null }, "geometry": { "type": "Point", "coordinates": [ 4.532, 48.7776 ] } },
{ "type": "Feature", "properties": { "name": "Étang de la Petite Rouillie", "category": "Reservoir", "area_ha": 6.5, "altitude_m": null }, "geometry": { "type": "Point", "coordinates": [ 4.91513, 48.93328 ] } },
{ "type": "Feature", "properties": { "name": "la Mare Millet", "category": "Reservoir", "area_ha": 6.2, "altitude_m": null }, "geometry": { "type": "Point", "coordinates": [ 4.95821, 49.00556 ] } },
{ "type": "Feature", "properties": { "name": "Étang de Belval", "category": "Reservoir", "area_ha": 57.2, "altitude_m": null }, "geometry": { "type": "Point", "coordinates": [ 4.97697, 48.94767 ] } },
{ "type": "Feature", "properties": { "name": "Étang d'Oie", "category": "Reservoir", "area_ha": 27.4, "altitude_m": null }, "geometry": { "type": "Point", "coordinates": [ 4.86104, 48.95588 ] } },
{ "type": "Feature", "properties": { "name": "Étang de la Place aux Puits", "category": "Reservoir", "area_ha": 9.1, "altitude_m": null }, "geometry": { "type": "Point", "coordinates": [ 3.81847, 49.01025 ] } },
{ "type": "Feature", "properties": { "name": "la Haute Voie", "category": "Reservoir", "area_ha": 6.9, "altitude_m": null }, "geometry": { "type": "Point", "coordinates": [ 4.60779, 48.60639 ] } },
{ "type": "Feature", "properties": { "name": "Étang d'Argers", "category": "Reservoir", "area_ha": 18.4, "altitude_m": null }, "geometry": { "type": "Point", "coordinates": [ 4.85657, 49.06412 ] } },
{ "type": "Feature", "properties": { "name": "l'Étang d'Élise", "category": "Reservoir", "area_ha": 20.3, "altitude_m": null }, "geometry": { "type": "Point", "coordinates": [ 4.85571, 49.04868 ] } },
{ "type": "Feature", "properties": { "name": "Étang d'Haniquet", "category": "Reservoir", "area_ha": 10.7, "altitude_m": null }, "geometry": { "type": "Point", "coordinates": [ 3.80049, 49.02499 ] } },
{ "type": "Feature", "properties": { "name": "Unnamed", "category": "Reservoir", "area_ha": 12.9, "altitude_m": null }, "geometry": { "type": "Point", "coordinates": [ 4.26401, 49.01021 ] } },
{ "type": "Feature", "properties": { "name": "Joguenette", "category": "Reservoir", "area_ha": 7.7, "altitude_m": null }, "geometry": { "type": "Point", "coordinates": [ 4.95266, 48.98311 ] } },
{ "type": "Feature", "properties": { "name": "Unnamed", "category": "Reservoir", "area_ha": 6.3, "altitude_m": null }, "geometry": { "type": "Point", "coordinates": [ 3.89481, 49.06709 ] } },
{ "type": "Feature", "properties": { "name": "Étang du Petit Pinard", "category": "Reservoir", "area_ha": 5.2, "altitude_m": null }, "geometry": { "type": "Point", "coordinates": [ 3.79391, 48.99512 ] } },
{ "type": "Feature", "properties": { "name": "Unnamed", "category": "Reservoir", "area_ha": 9.2, "altitude_m": null }, "geometry": { "type": "Point", "coordinates": [ 4.50873, 48.82701 ] } },
{ "type": "Feature", "properties": { "name": "Unnamed", "category": "Reservoir", "area_ha": 5.3, "altitude_m": null }, "geometry": { "type": "Point", "coordinates": [ 4.71884, 49.03142 ] } },
{ "type": "Feature", "properties": { "name": "Étang de Braux Forêt", "category": "Reservoir", "area_ha": 11.0, "altitude_m": null }, "geometry": { "type": "Point", "coordinates": [ 4.9416, 48.94738 ] } },
{ "type": "Feature", "properties": { "name": "Étang de Nanteuil", "category": "Reservoir", "area_ha": 16.7, "altitude_m": null }, "geometry": { "type": "Point", "coordinates": [ 3.95979, 49.11083 ] } },
{ "type": "Feature", "properties": { "name": "le Grand Étang", "category": "Reservoir", "area_ha": 8.3, "altitude_m": null }, "geometry": { "type": "Point", "coordinates": [ 4.00125, 49.09397 ] } },
{ "type": "Feature", "properties": { "name": "Étang de Noire Fontaine", "category": "Reservoir", "area_ha": 6.5, "altitude_m": null }, "geometry": { "type": "Point", "coordinates": [ 3.84232, 49.02429 ] } },
{ "type": "Feature", "properties": { "name": "Étang Neuf", "category": "Reservoir", "area_ha": 9.3, "altitude_m": null }, "geometry": { "type": "Point", "coordinates": [ 4.9681, 49.04225 ] } },
{ "type": "Feature", "properties": { "name": "Étang Neuf", "category": "Reservoir", "area_ha": 19.5, "altitude_m": null }, "geometry": { "type": "Point", "coordinates": [ 3.79184, 48.98869 ] } },
{ "type": "Feature", "properties": { "name": "Étang de la Grande Folie", "category": "Reservoir", "area_ha": 11.2, "altitude_m": null }, "geometry": { "type": "Point", "coordinates": [ 3.85632, 48.94111 ] } },
{ "type": "Feature", "properties": { "name": "Étang Prestat", "category": "Reservoir", "area_ha": 5.2, "altitude_m": null }, "geometry": { "type": "Point", "coordinates": [ 3.83935, 48.93886 ] } },
{ "type": "Feature", "properties": { "name": "Étang de Mareuil", "category": "Reservoir", "area_ha": 9.5, "altitude_m": null }, "geometry": { "type": "Point", "coordinates": [ 3.75747, 48.96898 ] } },
{ "type": "Feature", "properties": { "name": "Étang des Olivats", "category": "Reservoir", "area_ha": 13.7, "altitude_m": null }, "geometry": { "type": "Point", "coordinates": [ 3.7667, 48.97204 ] } },
{ "type": "Feature", "properties": { "name": "Étang des Machefers", "category": "Reservoir", "area_ha": 11.3, "altitude_m": null }, "geometry": { "type": "Point", "coordinates": [ 3.84949, 48.90167 ] } },
{ "type": "Feature", "properties": { "name": "Étang de la Grande Tournelle", "category": "Reservoir", "area_ha": 10.4, "altitude_m": null }, "geometry": { "type": "Point", "coordinates": [ 3.84059, 48.90589 ] } },
{ "type": "Feature", "properties": { "name": "Étang de Corrée", "category": "Reservoir", "area_ha": 7.9, "altitude_m": null }, "geometry": { "type": "Point", "coordinates": [ 4.6276, 48.62647 ] } },
{ "type": "Feature", "properties": { "name": "Étang Requigny", "category": "Reservoir", "area_ha": 7.8, "altitude_m": null }, "geometry": { "type": "Point", "coordinates": [ 4.95868, 48.99348 ] } },
{ "type": "Feature", "properties": { "name": "Plan d'Eau 3 du Bois de Bussy", "category": "Reservoir", "area_ha": 12.9, "altitude_m": null }, "geometry": { "type": "Point", "coordinates": [ 4.61348, 48.61056 ] } },
{ "type": "Feature", "properties": { "name": "Étang de la Martinique", "category": "Reservoir", "area_ha": 19.5, "altitude_m": null }, "geometry": { "type": "Point", "coordinates": [ 4.96017, 48.96914 ] } },
{ "type": "Feature", "properties": { "name": "Étang Leriche", "category": "Reservoir", "area_ha": 8.0, "altitude_m": null }, "geometry": { "type": "Point", "coordinates": [ 4.60951, 48.64285 ] } },
{ "type": "Feature", "properties": { "name": "Étang de la Hotte", "category": "Reservoir", "area_ha": 6.9, "altitude_m": null }, "geometry": { "type": "Point", "coordinates": [ 4.90356, 49.02116 ] } },
{ "type": "Feature", "properties": { "name": "Étang du Crible", "category": "Reservoir", "area_ha": 5.3, "altitude_m": null }, "geometry": { "type": "Point", "coordinates": [ 4.82118, 48.873 ] } },
{ "type": "Feature", "properties": { "name": "Plan d'Eau 1 du Bois de la Hache", "category": "Reservoir", "area_ha": 6.1, "altitude_m": null }, "geometry": { "type": "Point", "coordinates": [ 4.81859, 49.206 ] } },
{ "type": "Feature", "properties": { "name": "le Mont Herme", "category": "Reservoir", "area_ha": 8.9, "altitude_m": null }, "geometry": { "type": "Point", "coordinates": [ 4.21089, 49.02054 ] } },
{ "type": "Feature", "properties": { "name": "Étang des Épinettes", "category": "Reservoir", "area_ha": 5.5, "altitude_m": null }, "geometry": { "type": "Point", "coordinates": [ 4.96409, 48.9634 ] } },
{ "type": "Feature", "properties": { "name": "Étang de Ville", "category": "Reservoir", "area_ha": 15.2, "altitude_m": null }, "geometry": { "type": "Point", "coordinates": [ 4.78837, 49.19944 ] } },
{ "type": "Feature", "properties": { "name": "Ancien Étang du Petit Coulon", "category": "Reservoir", "area_ha": 5.9, "altitude_m": null }, "geometry": { "type": "Point", "coordinates": [ 4.69561, 48.56149 ] } },
{ "type": "Feature", "properties": { "name": "Pré la Hoche", "category": "Reservoir", "area_ha": 6.1, "altitude_m": null }, "geometry": { "type": "Point", "coordinates": [ 4.97827, 48.98881 ] } },
{ "type": "Feature", "properties": { "name": "Étang Neuf", "category": "Reservoir", "area_ha": 7.9, "altitude_m": null }, "geometry": { "type": "Point", "coordinates": [ 3.88383, 49.04079 ] } },
{ "type": "Feature", "properties": { "name": "Étang du Grand Loupy", "category": "Reservoir", "area_ha": 13.8, "altitude_m": null }, "geometry": { "type": "Point", "coordinates": [ 3.84968, 49.0435 ] } },
{ "type": "Feature", "properties": { "name": "Étang de Collard", "category": "Reservoir", "area_ha": 6.9, "altitude_m": null }, "geometry": { "type": "Point", "coordinates": [ 3.73889, 49.01918 ] } },
{ "type": "Feature", "properties": { "name": "Étang de Terre-Neuve", "category": "Reservoir", "area_ha": 7.8, "altitude_m": null }, "geometry": { "type": "Point", "coordinates": [ 3.85216, 48.97284 ] } },
{ "type": "Feature", "properties": { "name": "Étang de la Pierre", "category": "Reservoir", "area_ha": 5.1, "altitude_m": null }, "geometry": { "type": "Point", "coordinates": [ 4.67252, 48.57449 ] } },
{ "type": "Feature", "properties": { "name": "Étang Ruisseau", "category": "Reservoir", "area_ha": 10.3, "altitude_m": null }, "geometry": { "type": "Point", "coordinates": [ 4.55442, 48.56032 ] } },
{ "type": "Feature", "properties": { "name": "Étang de Bignemont", "category": "Reservoir", "area_ha": 5.4, "altitude_m": null }, "geometry": { "type": "Point", "coordinates": [ 4.80115, 48.85572 ] } },
{ "type": "Feature", "properties": { "name": "Étang des Bois", "category": "Reservoir", "area_ha": 8.2, "altitude_m": null }, "geometry": { "type": "Point", "coordinates": [ 4.57194, 48.55581 ] } },
{ "type": "Feature", "properties": { "name": "Étang du Grand Coulon", "category": "Reservoir", "area_ha": 44.4, "altitude_m": null }, "geometry": { "type": "Point", "coordinates": [ 4.68675, 48.56578 ] } },
{ "type": "Feature", "properties": { "name": "Étang de la Fosse aux Bois", "category": "Reservoir", "area_ha": 32.4, "altitude_m": null }, "geometry": { "type": "Point", "coordinates": [ 4.54425, 48.57594 ] } },
{ "type": "Feature", "properties": { "name": "Étang du Grand Brugny", "category": "Reservoir", "area_ha": 13.0, "altitude_m": null }, "geometry": { "type": "Point", "coordinates": [ 3.8239, 48.9751 ] } },
{ "type": "Feature", "properties": { "name": "Étang de Belval", "category": "Reservoir", "area_ha": 73.5, "altitude_m": null }, "geometry": { "type": "Point", "coordinates": [ 4.98695, 48.95013 ] } },
{ "type": "Feature", "properties": { "name": "Étang d'Étoges", "category": "Reservoir", "area_ha": 10.9, "altitude_m": null }, "geometry": { "type": "Point", "coordinates": [ 4.98813, 48.95824 ] } },
{ "type": "Feature", "properties": { "name": "Étang de la Grande Rouillie", "category": "Reservoir", "area_ha": 37.9, "altitude_m": null }, "geometry": { "type": "Point", "coordinates": [ 4.92881, 48.94004 ] } },
{ "type": "Feature", "properties": { "name": "Étang de Noirlieu", "category": "Reservoir", "area_ha": 34.5, "altitude_m": null }, "geometry": { "type": "Point", "coordinates": [ 4.80802, 48.94487 ] } }
]
}
