{
"type": "FeatureCollection",
"name": "dep56.geojson",
"crs": { "type": "name", "properties": { "name": "urn:ogc:def:crs:OGC:1.3:CRS84" } },
"xy_coordinate_resolution": 1e-05,
"features": [
{ "type": "Feature", "properties": { "name": "Étangs du Ter", "category": "Reservoir", "area_ha": 47.7, "altitude_m": null }, "geometry": { "type": "Point", "coordinates": [ -3.39797, 47.73307 ] } },
{ "type": "Feature", "properties": { "name": "Étang au Duc", "category": "Reservoir", "area_ha": 207.7, "altitude_m": null }, "geometry": { "type": "Point", "coordinates": [ -2.4128, 47.95811 ] } },
{ "type": "Feature", "properties": { "name": "Unnamed", "category": "Reservoir", "area_ha": 11.9, "altitude_m": null }, "geometry": { "type": "Point", "coordinates": [ -2.96267, 47.564 ] } },
{ "type": "Feature", "properties": { "name": "Étang de Rodes", "category": "Reservoir", "area_ha": 5.9, "altitude_m": null }, "geometry": { "type": "Point", "coordinates": [ -3.20027, 47.74815 ] } },
{ "type": "Feature", "properties": { "name": "er Varquez", "category": "Reservoir", "area_ha": 7.3, "altitude_m": null }, "geometry": { "type": "Point", "coordinates": [ -3.12416, 47.62936 ] } },
{ "type": "Feature", "properties": { "name": "Étang de Coët Courzo", "category": "Reservoir", "area_ha": 7.8, "altitude_m": null }, "geometry": { "type": "Point", "coordinates": [ -2.96629, 47.58774 ] } },
{ "type": "Feature", "properties": { "name": "Étang de Kerpont", "category": "Reservoir", "area_ha": 18.6, "altitude_m": null }, "geometry": { "type": "Point", "coordinates": [ -2.83928, 47.52013 ] } },
{ "type": "Feature", "properties": { "name": "Unnamed", "category": "Reservoir", "area_ha": 27.5, "altitude_m": null }, "geometry": { "type": "Point", "coordinates": [ -2.68646, 47.5349 ] } },
{ "type": "Feature", "properties": { "name": "Unnamed", "category": "Reservoir", "area_ha": 5.2, "altitude_m": null }, "geometry": { "type": "Point", "coordinates": [ -2.91302, 48.0793 ] } },
{ "type": "Feature", "properties": { "name": "Unnamed", "category": "Reservoir", "area_ha": 25.9, "altitude_m": null }, "geometry": { "type": "Point", "coordinates": [ -2.69679, 47.50205 ] } },
{ "type": "Feature", "properties": { "name": "Étang du Moulin Neuf", "category": "Reservoir", "area_ha": 15.9, "altitude_m": null }, "geometry": { "type": "Point", "coordinates": [ -2.35484, 47.6901 ] } },
{ "type": "Feature", "properties": { "name": "Étang de Pen Mur", "category": "Reservoir", "area_ha": 34.4, "altitude_m": null }, "geometry": { "type": "Point", "coordinates": [ -2.49512, 47.57253 ] } },
{ "type": "Feature", "properties": { "name": "Étang aux Grèbes", "category": "Dam", "area_ha": 8.8, "altitude_m": null }, "geometry": { "type": "Point", "coordinates": [ -2.83953, 48.08624 ] } },
{ "type": "Feature", "properties": { "name": "Étang du Château", "category": "Dam", "area_ha": 5.3, "altitude_m": null }, "geometry": { "type": "Point", "coordinates": [ -2.8331, 48.09146 ] } },
{ "type": "Feature", "properties": { "name": "Étang de Carcado", "category": "Reservoir", "area_ha": 5.1, "altitude_m": null }, "geometry": { "type": "Point", "coordinates": [ -2.83031, 48.14352 ] } },
{ "type": "Feature", "properties": { "name": "Unnamed", "category": "Reservoir", "area_ha": 8.0, "altitude_m": null }, "geometry": { "type": "Point", "coordinates": [ -3.4981, 47.74091 ] } },
{ "type": "Feature", "properties": { "name": "Étang du Fourneau", "category": "Reservoir", "area_ha": 11.9, "altitude_m": null }, "geometry": { "type": "Point", "coordinates": [ -3.12992, 48.1961 ] } },
{ "type": "Feature", "properties": { "name": "Étang de Roc'h Du", "category": "Reservoir", "area_ha": 24.5, "altitude_m": null }, "geometry": { "type": "Point", "coordinates": [ -2.97568, 47.60736 ] } },
{ "type": "Feature", "properties": { "name": "Unnamed", "category": "Dam", "area_ha": 2.1, "altitude_m": null }, "geometry": { "type": "Point", "coordinates": [ -3.4738, 47.64578 ] } },
{ "type": "Feature", "properties": { "name": "Étang de Coëtrivas", "category": "Reservoir", "area_ha": 10.7, "altitude_m": null }, "geometry": { "type": "Point", "coordinates": [ -3.20327, 47.77721 ] } },
{ "type": "Feature", "properties": { "name": "Étang du Vaulaurent", "category": "Reservoir", "area_ha": 11.1, "altitude_m": null }, "geometry": { "type": "Point", "coordinates": [ -2.25002, 47.7627 ] } },
{ "type": "Feature", "properties": { "name": "Unnamed", "category": "Reservoir", "area_ha": 29.6, "altitude_m": null }, "geometry": { "type": "Point", "coordinates": [ -2.68342, 47.52491 ] } },
{ "type": "Feature", "properties": { "name": "Vieil Étang", "category": "Reservoir", "area_ha": 6.4, "altitude_m": null }, "geometry": { "type": "Point", "coordinates": [ -2.21577, 47.94292 ] } },
{ "type": "Feature", "properties": { "name": "Étang du Sac'h", "category": "Reservoir", "area_ha": 7.2, "altitude_m": null }, "geometry": { "type": "Point", "coordinates": [ -3.18525, 47.65805 ] } },
{ "type": "Feature", "properties": { "name": "Étang du Dordu", "category": "Reservoir", "area_ha": 11.3, "altitude_m": null }, "geometry": { "type": "Point", "coordinates": [ -3.23041, 48.12401 ] } },
{ "type": "Feature", "properties": { "name": "Étang Fleuri", "category": "Reservoir", "area_ha": 5.5, "altitude_m": null }, "geometry": { "type": "Point", "coordinates": [ -3.16896, 48.0001 ] } },
{ "type": "Feature", "properties": { "name": "Étang de Kervilio", "category": "Reservoir", "area_ha": 5.1, "altitude_m": null }, "geometry": { "type": "Point", "coordinates": [ -2.93048, 47.64737 ] } },
{ "type": "Feature", "properties": { "name": "Unnamed", "category": "Reservoir", "area_ha": 15.0, "altitude_m": null }, "geometry": { "type": "Point", "coordinates": [ -3.08149, 47.57562 ] } },
{ "type": "Feature", "properties": { "name": "Unnamed", "category": "Reservoir", "area_ha": 5.7, "altitude_m": null }, "geometry": { "type": "Point", "coordinates": [ -3.08365, 47.91278 ] } },
{ "type": "Feature", "properties": { "name": "Unnamed", "category": "Reservoir", "area_ha": 5.5, "altitude_m": null }, "geometry": { "type": "Point", "coordinates": [ -2.16623, 47.50433 ] } },
{ "type": "Feature", "properties": { "name": "Étang de Langonnet", "category": "Reservoir", "area_ha": 6.2, "altitude_m": null }, "geometry": { "type": "Point", "coordinates": [ -3.47743, 48.10633 ] } },
{ "type": "Feature", "properties": { "name": "Lac du Bel-Air", "category": "Reservoir", "area_ha": 41.0, "altitude_m": null }, "geometry": { "type": "Point", "coordinates": [ -3.41857, 48.06224 ] } },
{ "type": "Feature", "properties": { "name": "Étang de la Forêt", "category": "Reservoir", "area_ha": 9.7, "altitude_m": null }, "geometry": { "type": "Point", "coordinates": [ -2.91724, 47.79478 ] } },
{ "type": "Feature", "properties": { "name": "Étang de Calzac", "category": "Reservoir", "area_ha": 11.8, "altitude_m": null }, "geometry": { "type": "Point", "coordinates": [ -2.75407, 47.51305 ] } },
{ "type": "Feature", "properties": { "name": "Étang du Bois Vert", "category": "Reservoir", "area_ha": 5.3, "altitude_m": null }, "geometry": { "type": "Point", "coordinates": [ -2.13681, 47.8148 ] } },
{ "type": "Feature", "properties": { "name": "Étang au Duc", "category": "Reservoir", "area_ha": 9.3, "altitude_m": null }, "geometry": { "type": "Point", "coordinates": [ -2.74765, 47.6614 ] } },
{ "type": "Feature", "properties": { "name": "Unnamed", "category": "Reservoir", "area_ha": 7.7, "altitude_m": null }, "geometry": { "type": "Point", "coordinates": [ -3.39553, 47.86555 ] } },
{ "type": "Feature", "properties": { "name": "Étang de Roc'h Du", "category": "Reservoir", "area_ha": 7.4, "altitude_m": null }, "geometry": { "type": "Point", "coordinates": [ -2.97974, 47.60958 ] } },
{ "type": "Feature", "properties": { "name": "Étang du Hézo", "category": "Reservoir", "area_ha": 5.3, "altitude_m": null }, "geometry": { "type": "Point", "coordinates": [ -2.70129, 47.58181 ] } },
{ "type": "Feature", "properties": { "name": "Étang de Saint-Malo", "category": "Reservoir", "area_ha": 6.8, "altitude_m": null }, "geometry": { "type": "Point", "coordinates": [ -2.1519, 47.96128 ] } },
{ "type": "Feature", "properties": { "name": "le Petit Loch", "category": "Reservoir", "area_ha": 5.5, "altitude_m": null }, "geometry": { "type": "Point", "coordinates": [ -3.51009, 47.75508 ] } },
{ "type": "Feature", "properties": { "name": "Unnamed", "category": "Reservoir", "area_ha": 8.6, "altitude_m": null }, "geometry": { "type": "Point", "coordinates": [ -2.74955, 47.96981 ] } },
{ "type": "Feature", "properties": { "name": "Étang de Château Trô", "category": "Reservoir", "area_ha": 21.2, "altitude_m": null }, "geometry": { "type": "Point", "coordinates": [ -2.4415, 48.04563 ] } },
{ "type": "Feature", "properties": { "name": "Étang de Kergroix", "category": "Reservoir", "area_ha": 5.9, "altitude_m": null }, "geometry": { "type": "Point", "coordinates": [ -2.87564, 47.94846 ] } },
{ "type": "Feature", "properties": { "name": "Unnamed", "category": "Reservoir", "area_ha": 42.7, "altitude_m": null }, "geometry": { "type": "Point", "coordinates": [ -3.12336, 47.70038 ] } },
{ "type": "Feature", "properties": { "name": "Unnamed", "category": "Reservoir", "area_ha": 8.4, "altitude_m": null }, "geometry": { "type": "Point", "coordinates": [ -2.74137, 47.88217 ] } },
{ "type": "Feature", "properties": { "name": "Étang de Ludré", "category": "Reservoir", "area_ha": 28.2, "altitude_m": null }, "geometry": { "type": "Point", "coordinates": [ -2.725, 47.55889 ] } },
{ "type": "Feature", "properties": { "name": "Unnamed", "category": "Reservoir", "area_ha": 6.4, "altitude_m": null }, "geometry": { "type": "Point", "coordinates": [ -3.30995, 48.12792 ] } },
{ "type": "Feature", "properties": { "name": "Étang de Lannénec", "category": "Reservoir", "area_ha": 44.5, "altitude_m": null }, "geometry": { "type": "Point", "coordinates": [ -3.48512, 47.74524 ] } },
{ "type": "Feature", "properties": { "name": "Étang du Rocher", "category": "Reservoir", "area_ha": 15.6, "altitude_m": null }, "geometry": { "type": "Point", "coordinates": [ -2.10738, 47.54377 ] } },
{ "type": "Feature", "properties": { "name": "Étang du Crannic", "category": "Reservoir", "area_ha": 40.9, "altitude_m": null }, "geometry": { "type": "Point", "coordinates": [ -3.05885, 47.72242 ] } },
{ "type": "Feature", "properties": { "name": "Unnamed", "category": "Reservoir", "area_ha": 16.7, "altitude_m": null }, "geometry": { "type": "Point", "coordinates": [ -2.12264, 47.53188 ] } },
{ "type": "Feature", "properties": { "name": "Unnamed", "category": "Reservoir", "area_ha": 5.1, "altitude_m": null }, "geometry": { "type": "Point", "coordinates": [ -3.22323, 47.65267 ] } },
{ "type": "Feature", "properties": { "name": "Unnamed", "category": "Reservoir", "area_ha": 21.1, "altitude_m": null }, "geometry": { "type": "Point", "coordinates": [ -3.47946, 47.7386 ] } },
{ "type": "Feature", "properties": { "name": "Unnamed", "category": "Reservoir", "area_ha": 6.0, "altitude_m": null }, "geometry": { "type": "Point", "coordinates": [ -2.20457, 47.55789 ] } },
{ "type": "Feature", "properties": { "name": "Étang de Berringue", "category": "Reservoir", "area_ha": 6.4, "altitude_m": null }, "geometry": { "type": "Point", "coordinates": [ -3.19711, 47.70593 ] } },
{ "type": "Feature", "properties": { "name": "Étang de Comper", "category": "Reservoir", "area_ha": 22.3, "altitude_m": null }, "geometry": { "type": "Point", "coordinates": [ -2.17044, 48.06586 ] } },
{ "type": "Feature", "properties": { "name": "Étang de Tréauray", "category": "Reservoir", "area_ha": 24.5, "altitude_m": null }, "geometry": { "type": "Point", "coordinates": [ -2.98921, 47.71149 ] } },
{ "type": "Feature", "properties": { "name": "Unnamed", "category": "Reservoir", "area_ha": 17.9, "altitude_m": null }, "geometry": { "type": "Point", "coordinates": [ -2.13576, 47.71691 ] } },
{ "type": "Feature", "properties": { "name": "Unnamed", "category": "Dam", "area_ha": 1.8, "altitude_m": null }, "geometry": { "type": "Point", "coordinates": [ -2.33941, 47.64496 ] } },
{ "type": "Feature", "properties": { "name": "Étang de Kernicole", "category": "Dam", "area_ha": 44.3, "altitude_m": null }, "geometry": { "type": "Point", "coordinates": [ -2.66145, 47.61732 ] } },
{ "type": "Feature", "properties": { "name": "Étang de Noyalo", "category": "Dam", "area_ha": 80.8, "altitude_m": null }, "geometry": { "type": "Point", "coordinates": [ -2.66378, 47.60837 ] } },
{ "type": "Feature", "properties": { "name": "Unnamed", "category": "Dam", "area_ha": 3.5, "altitude_m": null }, "geometry": { "type": "Point", "coordinates": [ -2.18413, 47.54014 ] } },
{ "type": "Feature", "properties": { "name": "Étang de Beauché", "category": "Dam", "area_ha": 9.8, "altitude_m": null }, "geometry": { "type": "Point", "coordinates": [ -2.13958, 47.82192 ] } },
{ "type": "Feature", "properties": { "name": "Unnamed", "category": "Dam", "area_ha": 6.3, "altitude_m": null }, "geometry": { "type": "Point", "coordinates": [ -2.67107, 47.88942 ] } },
{ "type": "Feature", "properties": { "name": "Unnamed", "category": "Dam", "area_ha": 10.6, "altitude_m": null }, "geometry": { "type": "Point", "coordinates": [ -2.63291, 47.67194 ] } },
{ "type": "Feature", "properties": { "name": "Unnamed", "category": "Dam", "area_ha": 6.4, "altitude_m": null }, "geometry": { "type": "Point", "coordinates": [ -3.51979, 47.78822 ] } },
{ "type": "Feature", "properties": { "name": "Étang de Kernevy", "category": "Dam", "area_ha": 8.1, "altitude_m": null }, "geometry": { "type": "Point", "coordinates": [ -2.17137, 47.49931 ] } },
{ "type": "Feature", "properties": { "name": "l'Étang du Val", "category": "Dam", "area_ha": 10.6, "altitude_m": null }, "geometry": { "type": "Point", "coordinates": [ -2.18761, 47.82472 ] } },
{ "type": "Feature", "properties": { "name": "Étang du Grand Gournava", "category": "Dam", "area_ha": 25.8, "altitude_m": null }, "geometry": { "type": "Point", "coordinates": [ -2.39669, 47.74479 ] } },
{ "type": "Feature", "properties": { "name": "Unnamed", "category": "Dam", "area_ha": 13.5, "altitude_m": null }, "geometry": { "type": "Point", "coordinates": [ -3.01836, 48.19002 ] } },
{ "type": "Feature", "properties": { "name": "Unnamed", "category": "Dam", "area_ha": 4.7, "altitude_m": null }, "geometry": { "type": "Point", "coordinates": [ -2.79767, 47.64855 ] } }
]
}
