{
"type": "FeatureCollection",
"name": "dep55.geojson",
"crs": { "type": "name", "properties": { "name": "urn:ogc:def:crs:OGC:1.3:CRS84" } },
"xy_coordinate_resolution": 1e-05,
"features": [
{ "type": "Feature", "properties": { "name": "Lac de Madine", "category": "Dam", "area_ha": 1007.5, "altitude_m": null }, "geometry": { "type": "Point", "coordinates": [ 5.74873, 48.91622 ] } },
{ "type": "Feature", "properties": { "name": "Étang de la Mosée", "category": "Reservoir", "area_ha": 30.2, "altitude_m": null }, "geometry": { "type": "Point", "coordinates": [ 5.75872, 48.78834 ] } },
{ "type": "Feature", "properties": { "name": "Étang Nigricollis", "category": "Reservoir", "area_ha": 5.1, "altitude_m": null }, "geometry": { "type": "Point", "coordinates": [ 5.36905, 49.17269 ] } },
{ "type": "Feature", "properties": { "name": "la Ballastière", "category": "Reservoir", "area_ha": 5.4, "altitude_m": null }, "geometry": { "type": "Point", "coordinates": [ 4.94346, 48.80444 ] } },
{ "type": "Feature", "properties": { "name": "Étang debat", "category": "Reservoir", "area_ha": 10.4, "altitude_m": null }, "geometry": { "type": "Point", "coordinates": [ 5.52934, 49.2694 ] } },
{ "type": "Feature", "properties": { "name": "le Neuf Étang", "category": "Reservoir", "area_ha": 20.8, "altitude_m": null }, "geometry": { "type": "Point", "coordinates": [ 5.73854, 48.7782 ] } },
{ "type": "Feature", "properties": { "name": "Étang de Blonnaux", "category": "Reservoir", "area_ha": 21.0, "altitude_m": null }, "geometry": { "type": "Point", "coordinates": [ 5.71275, 48.80606 ] } },
{ "type": "Feature", "properties": { "name": "Étang Comé", "category": "Reservoir", "area_ha": 11.7, "altitude_m": null }, "geometry": { "type": "Point", "coordinates": [ 5.78251, 49.01429 ] } },
{ "type": "Feature", "properties": { "name": "Étang du Haut Fourneau", "category": "Reservoir", "area_ha": 82.4, "altitude_m": null }, "geometry": { "type": "Point", "coordinates": [ 5.51811, 49.31682 ] } },
{ "type": "Feature", "properties": { "name": "Étang de Lachaussée", "category": "Reservoir", "area_ha": 232.1, "altitude_m": null }, "geometry": { "type": "Point", "coordinates": [ 5.8011, 49.02766 ] } },
{ "type": "Feature", "properties": { "name": "Étang du Haut Chemin", "category": "Dam", "area_ha": 12.5, "altitude_m": null }, "geometry": { "type": "Point", "coordinates": [ 5.7114, 48.93366 ] } },
{ "type": "Feature", "properties": { "name": "le Breuil", "category": "Reservoir", "area_ha": 7.0, "altitude_m": null }, "geometry": { "type": "Point", "coordinates": [ 5.20054, 49.40199 ] } },
{ "type": "Feature", "properties": { "name": "Étang Boutonneau", "category": "Reservoir", "area_ha": 5.5, "altitude_m": null }, "geometry": { "type": "Point", "coordinates": [ 5.76841, 49.00509 ] } },
{ "type": "Feature", "properties": { "name": "Étang de la Grange en Woëvre", "category": "Reservoir", "area_ha": 6.0, "altitude_m": null }, "geometry": { "type": "Point", "coordinates": [ 5.77232, 48.79499 ] } },
{ "type": "Feature", "properties": { "name": "Étang de Courantceuil", "category": "Reservoir", "area_ha": 5.5, "altitude_m": null }, "geometry": { "type": "Point", "coordinates": [ 5.74486, 48.79668 ] } },
{ "type": "Feature", "properties": { "name": "Étang des Deux Busines", "category": "Reservoir", "area_ha": 5.9, "altitude_m": null }, "geometry": { "type": "Point", "coordinates": [ 5.0294, 49.03964 ] } },
{ "type": "Feature", "properties": { "name": "Lac Vert", "category": "Reservoir", "area_ha": 5.1, "altitude_m": null }, "geometry": { "type": "Point", "coordinates": [ 5.17992, 49.38163 ] } },
{ "type": "Feature", "properties": { "name": "Étang de Ractel", "category": "Reservoir", "area_ha": 9.5, "altitude_m": null }, "geometry": { "type": "Point", "coordinates": [ 5.50526, 49.34358 ] } },
{ "type": "Feature", "properties": { "name": "Étang Gérard Sas", "category": "Reservoir", "area_ha": 16.3, "altitude_m": null }, "geometry": { "type": "Point", "coordinates": [ 5.74197, 48.78684 ] } },
{ "type": "Feature", "properties": { "name": "Étang d'Afrique", "category": "Reservoir", "area_ha": 13.6, "altitude_m": null }, "geometry": { "type": "Point", "coordinates": [ 5.7986, 48.9969 ] } },
{ "type": "Feature", "properties": { "name": "Étang de Maux la Chèvre", "category": "Reservoir", "area_ha": 9.7, "altitude_m": null }, "geometry": { "type": "Point", "coordinates": [ 5.72464, 48.83337 ] } },
{ "type": "Feature", "properties": { "name": "la Grande Brunessaux", "category": "Reservoir", "area_ha": 9.3, "altitude_m": null }, "geometry": { "type": "Point", "coordinates": [ 5.75064, 48.78215 ] } },
{ "type": "Feature", "properties": { "name": "le Grand Morinval", "category": "Reservoir", "area_ha": 70.9, "altitude_m": null }, "geometry": { "type": "Point", "coordinates": [ 5.02842, 48.87418 ] } },
{ "type": "Feature", "properties": { "name": "Étang des Bercettes", "category": "Reservoir", "area_ha": 9.1, "altitude_m": null }, "geometry": { "type": "Point", "coordinates": [ 5.03815, 49.15306 ] } },
{ "type": "Feature", "properties": { "name": "Étangs de Chappe", "category": "Reservoir", "area_ha": 5.4, "altitude_m": null }, "geometry": { "type": "Point", "coordinates": [ 5.47906, 49.25504 ] } },
{ "type": "Feature", "properties": { "name": "Étang des Crocs", "category": "Reservoir", "area_ha": 7.4, "altitude_m": null }, "geometry": { "type": "Point", "coordinates": [ 5.53521, 49.2735 ] } },
{ "type": "Feature", "properties": { "name": "Queue du Grand Étang", "category": "Reservoir", "area_ha": 17.0, "altitude_m": null }, "geometry": { "type": "Point", "coordinates": [ 5.79246, 49.01084 ] } },
{ "type": "Feature", "properties": { "name": "Étang de Refure", "category": "Reservoir", "area_ha": 21.9, "altitude_m": null }, "geometry": { "type": "Point", "coordinates": [ 5.69961, 48.84087 ] } },
{ "type": "Feature", "properties": { "name": "Étang Beugné", "category": "Reservoir", "area_ha": 20.2, "altitude_m": null }, "geometry": { "type": "Point", "coordinates": [ 5.76416, 49.00928 ] } },
{ "type": "Feature", "properties": { "name": "Étang des Anceviennes", "category": "Reservoir", "area_ha": 6.4, "altitude_m": null }, "geometry": { "type": "Point", "coordinates": [ 5.7812, 48.99419 ] } },
{ "type": "Feature", "properties": { "name": "Étang du Moulin de Sommeilles", "category": "Reservoir", "area_ha": 8.4, "altitude_m": null }, "geometry": { "type": "Point", "coordinates": [ 4.93458, 48.89783 ] } },
{ "type": "Feature", "properties": { "name": "Étang Picard", "category": "Reservoir", "area_ha": 7.9, "altitude_m": null }, "geometry": { "type": "Point", "coordinates": [ 5.79262, 49.01612 ] } },
{ "type": "Feature", "properties": { "name": "Étang des Grandes Parois", "category": "Reservoir", "area_ha": 21.5, "altitude_m": null }, "geometry": { "type": "Point", "coordinates": [ 5.7746, 49.03869 ] } },
{ "type": "Feature", "properties": { "name": "Étang du Cheminel", "category": "Reservoir", "area_ha": 5.5, "altitude_m": null }, "geometry": { "type": "Point", "coordinates": [ 5.0272, 48.94619 ] } },
{ "type": "Feature", "properties": { "name": "Étang de Nonsard", "category": "Reservoir", "area_ha": 13.8, "altitude_m": null }, "geometry": { "type": "Point", "coordinates": [ 5.7547, 48.94364 ] } },
{ "type": "Feature", "properties": { "name": "Étang de Vigneulles", "category": "Reservoir", "area_ha": 19.8, "altitude_m": null }, "geometry": { "type": "Point", "coordinates": [ 5.76826, 48.97953 ] } },
{ "type": "Feature", "properties": { "name": "Étang de Coubreuil", "category": "Reservoir", "area_ha": 12.3, "altitude_m": null }, "geometry": { "type": "Point", "coordinates": [ 5.05305, 48.96295 ] } },
{ "type": "Feature", "properties": { "name": "Étang des Brauzes", "category": "Reservoir", "area_ha": 24.6, "altitude_m": null }, "geometry": { "type": "Point", "coordinates": [ 5.02799, 48.93577 ] } },
{ "type": "Feature", "properties": { "name": "Étang de Wargévaux", "category": "Reservoir", "area_ha": 55.9, "altitude_m": null }, "geometry": { "type": "Point", "coordinates": [ 5.69535, 48.85488 ] } },
{ "type": "Feature", "properties": { "name": "Étang du Petit Moulin", "category": "Reservoir", "area_ha": 7.1, "altitude_m": null }, "geometry": { "type": "Point", "coordinates": [ 5.41381, 48.45336 ] } },
{ "type": "Feature", "properties": { "name": "Grand Étang", "category": "Reservoir", "area_ha": 16.0, "altitude_m": null }, "geometry": { "type": "Point", "coordinates": [ 5.70935, 49.06089 ] } },
{ "type": "Feature", "properties": { "name": "Étang de Parois", "category": "Reservoir", "area_ha": 5.6, "altitude_m": null }, "geometry": { "type": "Point", "coordinates": [ 5.10894, 49.04909 ] } },
{ "type": "Feature", "properties": { "name": "Étang de la Grande Croix", "category": "Reservoir", "area_ha": 6.4, "altitude_m": null }, "geometry": { "type": "Point", "coordinates": [ 5.7198, 48.86568 ] } },
{ "type": "Feature", "properties": { "name": "Étang du Fourneau", "category": "Reservoir", "area_ha": 7.7, "altitude_m": null }, "geometry": { "type": "Point", "coordinates": [ 5.4203, 48.45368 ] } },
{ "type": "Feature", "properties": { "name": "Étang du Grand Monfaucon", "category": "Reservoir", "area_ha": 17.9, "altitude_m": null }, "geometry": { "type": "Point", "coordinates": [ 5.71735, 48.94735 ] } },
{ "type": "Feature", "properties": { "name": "Étang de la Perche", "category": "Reservoir", "area_ha": 24.2, "altitude_m": null }, "geometry": { "type": "Point", "coordinates": [ 5.69141, 48.89441 ] } },
{ "type": "Feature", "properties": { "name": "Neuf Étang", "category": "Reservoir", "area_ha": 42.4, "altitude_m": null }, "geometry": { "type": "Point", "coordinates": [ 5.77124, 48.80957 ] } },
{ "type": "Feature", "properties": { "name": "Étang de Perroi", "category": "Reservoir", "area_ha": 26.9, "altitude_m": null }, "geometry": { "type": "Point", "coordinates": [ 5.58478, 49.19645 ] } }
]
}
