{
"type": "FeatureCollection",
"name": "dep53.geojson",
"crs": { "type": "name", "properties": { "name": "urn:ogc:def:crs:OGC:1.3:CRS84" } },
"xy_coordinate_resolution": 1e-05,
"features": [
{ "type": "Feature", "properties": { "name": "Retenue de Saint-Fraimbault", "category": "Dam", "area_ha": 111.7, "altitude_m": null }, "geometry": { "type": "Point", "coordinates": [ -0.58903, 48.38055 ] } },
{ "type": "Feature", "properties": { "name": "Plan d'Eau du Port", "category": "Reservoir", "area_ha": 9.7, "altitude_m": null }, "geometry": { "type": "Point", "coordinates": [ -0.78253, 48.10259 ] } },
{ "type": "Feature", "properties": { "name": "Étang de Mortry", "category": "Reservoir", "area_ha": 7.3, "altitude_m": null }, "geometry": { "type": "Point", "coordinates": [ -0.47464, 48.1938 ] } },
{ "type": "Feature", "properties": { "name": "Étang de Neuvillette", "category": "Reservoir", "area_ha": 9.4, "altitude_m": null }, "geometry": { "type": "Point", "coordinates": [ -0.51241, 48.24004 ] } },
{ "type": "Feature", "properties": { "name": "Étang de la Grande Métairie", "category": "Dam", "area_ha": 37.2, "altitude_m": null }, "geometry": { "type": "Point", "coordinates": [ -0.52345, 48.22488 ] } },
{ "type": "Feature", "properties": { "name": "Étang de la Cosnuère", "category": "Reservoir", "area_ha": 7.0, "altitude_m": null }, "geometry": { "type": "Point", "coordinates": [ -0.44966, 48.21025 ] } },
{ "type": "Feature", "properties": { "name": "Étang de Malvoisine", "category": "Reservoir", "area_ha": 5.8, "altitude_m": null }, "geometry": { "type": "Point", "coordinates": [ -0.74652, 48.22252 ] } },
{ "type": "Feature", "properties": { "name": "Étang de Beaucoudray", "category": "Reservoir", "area_ha": 57.9, "altitude_m": null }, "geometry": { "type": "Point", "coordinates": [ -0.52667, 48.29229 ] } },
{ "type": "Feature", "properties": { "name": "Plan d'Eau de la Haute Vilaine", "category": "Dam", "area_ha": 135.3, "altitude_m": null }, "geometry": { "type": "Point", "coordinates": [ -1.07336, 48.16093 ] } },
{ "type": "Feature", "properties": { "name": "Étang du Grand Moulin", "category": "Reservoir", "area_ha": 7.6, "altitude_m": null }, "geometry": { "type": "Point", "coordinates": [ -1.01192, 48.0438 ] } },
{ "type": "Feature", "properties": { "name": "Étang Neuf", "category": "Reservoir", "area_ha": 36.1, "altitude_m": null }, "geometry": { "type": "Point", "coordinates": [ -1.00447, 48.23408 ] } },
{ "type": "Feature", "properties": { "name": "Étang du Moulin Neuf", "category": "Dam", "area_ha": 5.2, "altitude_m": null }, "geometry": { "type": "Point", "coordinates": [ -1.04354, 48.0959 ] } },
{ "type": "Feature", "properties": { "name": "Étang de la Chevalière", "category": "Reservoir", "area_ha": 5.2, "altitude_m": null }, "geometry": { "type": "Point", "coordinates": [ -0.41974, 48.20334 ] } },
{ "type": "Feature", "properties": { "name": "Étang du Gué des Pierres", "category": "Dam", "area_ha": 8.0, "altitude_m": null }, "geometry": { "type": "Point", "coordinates": [ -0.47505, 48.1068 ] } },
{ "type": "Feature", "properties": { "name": "Étang de Terchant", "category": "Dam", "area_ha": 5.1, "altitude_m": null }, "geometry": { "type": "Point", "coordinates": [ -0.99958, 48.06203 ] } },
{ "type": "Feature", "properties": { "name": "Plan d'Eau de la Chesnaie", "category": "Reservoir", "area_ha": 10.6, "altitude_m": null }, "geometry": { "type": "Point", "coordinates": [ -0.53319, 47.96428 ] } },
{ "type": "Feature", "properties": { "name": "Unnamed", "category": "Reservoir", "area_ha": 8.7, "altitude_m": null }, "geometry": { "type": "Point", "coordinates": [ -0.62738, 47.98545 ] } },
{ "type": "Feature", "properties": { "name": "Étang de Barbé", "category": "Reservoir", "area_ha": 6.0, "altitude_m": null }, "geometry": { "type": "Point", "coordinates": [ -0.73429, 48.07546 ] } },
{ "type": "Feature", "properties": { "name": "Unnamed", "category": "Reservoir", "area_ha": 6.0, "altitude_m": null }, "geometry": { "type": "Point", "coordinates": [ -0.6603, 47.99013 ] } },
{ "type": "Feature", "properties": { "name": "Étang de Goué", "category": "Reservoir", "area_ha": 8.4, "altitude_m": null }, "geometry": { "type": "Point", "coordinates": [ -0.96226, 48.47012 ] } },
{ "type": "Feature", "properties": { "name": "Étang de la Forge", "category": "Reservoir", "area_ha": 38.4, "altitude_m": null }, "geometry": { "type": "Point", "coordinates": [ -0.98189, 48.1141 ] } },
{ "type": "Feature", "properties": { "name": "Étang de la Forge", "category": "Reservoir", "area_ha": 8.3, "altitude_m": null }, "geometry": { "type": "Point", "coordinates": [ -0.54057, 48.2886 ] } },
{ "type": "Feature", "properties": { "name": "Unnamed", "category": "Reservoir", "area_ha": 5.9, "altitude_m": null }, "geometry": { "type": "Point", "coordinates": [ -0.59413, 48.1626 ] } },
{ "type": "Feature", "properties": { "name": "Étang de la Forge", "category": "Reservoir", "area_ha": 13.2, "altitude_m": null }, "geometry": { "type": "Point", "coordinates": [ -0.55581, 48.29105 ] } },
{ "type": "Feature", "properties": { "name": "Étang de la Rincerie", "category": "Reservoir", "area_ha": 44.5, "altitude_m": null }, "geometry": { "type": "Point", "coordinates": [ -1.0656, 47.86667 ] } },
{ "type": "Feature", "properties": { "name": "Unnamed", "category": "Reservoir", "area_ha": 11.7, "altitude_m": null }, "geometry": { "type": "Point", "coordinates": [ -0.62184, 47.98153 ] } },
{ "type": "Feature", "properties": { "name": "Étang de Vézins", "category": "Reservoir", "area_ha": 9.9, "altitude_m": null }, "geometry": { "type": "Point", "coordinates": [ -1.07932, 48.29407 ] } },
{ "type": "Feature", "properties": { "name": "Étang de Fontaine Daniel", "category": "Reservoir", "area_ha": 8.7, "altitude_m": null }, "geometry": { "type": "Point", "coordinates": [ -0.66954, 48.28345 ] } },
{ "type": "Feature", "properties": { "name": "Étang de la Chaîne", "category": "Reservoir", "area_ha": 13.3, "altitude_m": null }, "geometry": { "type": "Point", "coordinates": [ -0.9473, 48.15232 ] } },
{ "type": "Feature", "properties": { "name": "Plan d'Eau d'Argentré", "category": "Reservoir", "area_ha": 5.6, "altitude_m": null }, "geometry": { "type": "Point", "coordinates": [ -0.63871, 48.07685 ] } },
{ "type": "Feature", "properties": { "name": "Plan d'Eau de la Courbe", "category": "Reservoir", "area_ha": 9.2, "altitude_m": null }, "geometry": { "type": "Point", "coordinates": [ -0.72729, 47.96894 ] } },
{ "type": "Feature", "properties": { "name": "Étang des Landes", "category": "Reservoir", "area_ha": 20.2, "altitude_m": null }, "geometry": { "type": "Point", "coordinates": [ -0.39709, 48.10236 ] } },
{ "type": "Feature", "properties": { "name": "Étang du Président", "category": "Reservoir", "area_ha": 5.5, "altitude_m": null }, "geometry": { "type": "Point", "coordinates": [ -0.4406, 48.15013 ] } },
{ "type": "Feature", "properties": { "name": "Unnamed", "category": "Reservoir", "area_ha": 11.0, "altitude_m": null }, "geometry": { "type": "Point", "coordinates": [ -0.92934, 48.06366 ] } },
{ "type": "Feature", "properties": { "name": "Montflaux", "category": "Reservoir", "area_ha": 7.2, "altitude_m": null }, "geometry": { "type": "Point", "coordinates": [ -0.89027, 48.35289 ] } },
{ "type": "Feature", "properties": { "name": "Gouillat", "category": "Dam", "area_ha": 7.7, "altitude_m": null }, "geometry": { "type": "Point", "coordinates": [ -0.86283, 48.03505 ] } },
{ "type": "Feature", "properties": { "name": "Étang de Pontpierre", "category": "Dam", "area_ha": 8.0, "altitude_m": null }, "geometry": { "type": "Point", "coordinates": [ -0.91064, 48.453 ] } },
{ "type": "Feature", "properties": { "name": "Étang de Bréon", "category": "Dam", "area_ha": 5.2, "altitude_m": null }, "geometry": { "type": "Point", "coordinates": [ -0.79814, 47.87262 ] } },
{ "type": "Feature", "properties": { "name": "Étang de la Guiardière", "category": "Dam", "area_ha": 14.1, "altitude_m": null }, "geometry": { "type": "Point", "coordinates": [ -1.14468, 47.8356 ] } },
{ "type": "Feature", "properties": { "name": "Unnamed", "category": "Dam", "area_ha": 7.4, "altitude_m": null }, "geometry": { "type": "Point", "coordinates": [ -0.83909, 48.0257 ] } },
{ "type": "Feature", "properties": { "name": "Étang de la Fenderie", "category": "Dam", "area_ha": 6.1, "altitude_m": null }, "geometry": { "type": "Point", "coordinates": [ -0.51738, 48.20449 ] } },
{ "type": "Feature", "properties": { "name": "Étang d'Olivet", "category": "Dam", "area_ha": 20.3, "altitude_m": null }, "geometry": { "type": "Point", "coordinates": [ -0.91026, 48.12244 ] } },
{ "type": "Feature", "properties": { "name": "Étang de Gué de Selle", "category": "Dam", "area_ha": 40.2, "altitude_m": null }, "geometry": { "type": "Point", "coordinates": [ -0.42912, 48.20305 ] } },
{ "type": "Feature", "properties": { "name": "Unnamed", "category": "Dam", "area_ha": 5.6, "altitude_m": null }, "geometry": { "type": "Point", "coordinates": [ -0.46936, 47.83838 ] } },
{ "type": "Feature", "properties": { "name": "Étang du Bas des Bois", "category": "Dam", "area_ha": 8.9, "altitude_m": null }, "geometry": { "type": "Point", "coordinates": [ -0.50916, 48.10273 ] } },
{ "type": "Feature", "properties": { "name": "Étang du Château", "category": "Dam", "area_ha": 23.6, "altitude_m": null }, "geometry": { "type": "Point", "coordinates": [ -0.91522, 48.00519 ] } },
{ "type": "Feature", "properties": { "name": "Étang des Alleux", "category": "Dam", "area_ha": 14.1, "altitude_m": null }, "geometry": { "type": "Point", "coordinates": [ -0.61913, 48.14225 ] } },
{ "type": "Feature", "properties": { "name": "Étang de Villiers", "category": "Dam", "area_ha": 8.8, "altitude_m": null }, "geometry": { "type": "Point", "coordinates": [ -1.00271, 48.13862 ] } },
{ "type": "Feature", "properties": { "name": "Étang de Clermont", "category": "Dam", "area_ha": 6.0, "altitude_m": null }, "geometry": { "type": "Point", "coordinates": [ -0.93499, 48.10138 ] } },
{ "type": "Feature", "properties": { "name": "Étang du Moulin Neuf", "category": "Dam", "area_ha": 19.4, "altitude_m": null }, "geometry": { "type": "Point", "coordinates": [ -0.9959, 48.10435 ] } },
{ "type": "Feature", "properties": { "name": "Étang de Cornesse", "category": "Dam", "area_ha": 5.0, "altitude_m": null }, "geometry": { "type": "Point", "coordinates": [ -1.00516, 48.09298 ] } },
{ "type": "Feature", "properties": { "name": "Étang de la Guéhardière", "category": "Dam", "area_ha": 13.3, "altitude_m": null }, "geometry": { "type": "Point", "coordinates": [ -0.969, 47.98488 ] } },
{ "type": "Feature", "properties": { "name": "Étang de Vassé", "category": "Dam", "area_ha": 6.0, "altitude_m": null }, "geometry": { "type": "Point", "coordinates": [ -0.60094, 47.9662 ] } },
{ "type": "Feature", "properties": { "name": "Étang de Curécy", "category": "Dam", "area_ha": 16.5, "altitude_m": null }, "geometry": { "type": "Point", "coordinates": [ -0.45399, 47.88994 ] } },
{ "type": "Feature", "properties": { "name": "Étang des Roseraies", "category": "Dam", "area_ha": 9.3, "altitude_m": null }, "geometry": { "type": "Point", "coordinates": [ -0.76212, 47.80743 ] } },
{ "type": "Feature", "properties": { "name": "Plan d'Eau de la Morinière", "category": "Dam", "area_ha": 9.6, "altitude_m": null }, "geometry": { "type": "Point", "coordinates": [ -0.45363, 47.79248 ] } },
{ "type": "Feature", "properties": { "name": "Étang des Perles", "category": "Dam", "area_ha": 5.1, "altitude_m": null }, "geometry": { "type": "Point", "coordinates": [ -0.24673, 48.34621 ] } },
{ "type": "Feature", "properties": { "name": "Unnamed", "category": "Dam", "area_ha": 8.8, "altitude_m": null }, "geometry": { "type": "Point", "coordinates": [ -0.99816, 48.12884 ] } },
{ "type": "Feature", "properties": { "name": "Unnamed", "category": "Dam", "area_ha": 6.3, "altitude_m": null }, "geometry": { "type": "Point", "coordinates": [ -0.57439, 48.18156 ] } },
{ "type": "Feature", "properties": { "name": "Unnamed", "category": "Dam", "area_ha": 10.5, "altitude_m": null }, "geometry": { "type": "Point", "coordinates": [ -0.44535, 48.22845 ] } }
]
}
