{
"type": "FeatureCollection",
"name": "dep58.geojson",
"crs": { "type": "name", "properties": { "name": "urn:ogc:def:crs:OGC:1.3:CRS84" } },
"xy_coordinate_resolution": 1e-05,
"features": [
{ "type": "Feature", "properties": { "name": "Réservoir de Chaumeçon", "category": "Dam", "area_ha": 133.1, "altitude_m": null }, "geometry": { "type": "Point", "coordinates": [ 3.9126, 47.28393 ] } },
{ "type": "Feature", "properties": { "name": "Étang de Dornant", "category": "Reservoir", "area_ha": 5.0, "altitude_m": null }, "geometry": { "type": "Point", "coordinates": [ 3.54317, 46.79754 ] } },
{ "type": "Feature", "properties": { "name": "Lac des Settons", "category": "Dam", "area_ha": 329.4, "altitude_m": null }, "geometry": { "type": "Point", "coordinates": [ 4.06642, 47.18245 ] } },
{ "type": "Feature", "properties": { "name": "Unnamed", "category": "Reservoir", "area_ha": 5.9, "altitude_m": null }, "geometry": { "type": "Point", "coordinates": [ 3.20369, 46.8425 ] } },
{ "type": "Feature", "properties": { "name": "Réservoir du Crescent", "category": "Dam", "area_ha": 123.7, "altitude_m": null }, "geometry": { "type": "Point", "coordinates": [ 3.90924, 47.37095 ] } },
{ "type": "Feature", "properties": { "name": "Grand Étang de Vaux", "category": "Reservoir", "area_ha": 146.6, "altitude_m": null }, "geometry": { "type": "Point", "coordinates": [ 3.60302, 47.18323 ] } },
{ "type": "Feature", "properties": { "name": "Unnamed", "category": "Reservoir", "area_ha": 6.6, "altitude_m": null }, "geometry": { "type": "Point", "coordinates": [ 4.1153, 47.22158 ] } },
{ "type": "Feature", "properties": { "name": "Étang de la Creuse", "category": "Reservoir", "area_ha": 5.2, "altitude_m": null }, "geometry": { "type": "Point", "coordinates": [ 3.99574, 47.27761 ] } },
{ "type": "Feature", "properties": { "name": "Étang de la Chevrée", "category": "Reservoir", "area_ha": 5.6, "altitude_m": null }, "geometry": { "type": "Point", "coordinates": [ 4.0994, 47.31629 ] } },
{ "type": "Feature", "properties": { "name": "Étang de la Chapelle", "category": "Reservoir", "area_ha": 12.1, "altitude_m": null }, "geometry": { "type": "Point", "coordinates": [ 3.28611, 46.75297 ] } },
{ "type": "Feature", "properties": { "name": "Unnamed", "category": "Reservoir", "area_ha": 6.6, "altitude_m": null }, "geometry": { "type": "Point", "coordinates": [ 4.11955, 47.31903 ] } },
{ "type": "Feature", "properties": { "name": "le Grand Étang", "category": "Reservoir", "area_ha": 5.9, "altitude_m": null }, "geometry": { "type": "Point", "coordinates": [ 3.77022, 46.83436 ] } },
{ "type": "Feature", "properties": { "name": "Étang Neuf", "category": "Reservoir", "area_ha": 5.2, "altitude_m": null }, "geometry": { "type": "Point", "coordinates": [ 3.49977, 47.08107 ] } },
{ "type": "Feature", "properties": { "name": "Unnamed", "category": "Reservoir", "area_ha": 5.6, "altitude_m": null }, "geometry": { "type": "Point", "coordinates": [ 3.35632, 46.99985 ] } },
{ "type": "Feature", "properties": { "name": "Réservoir de Pannecière-Chaumard", "category": "Dam", "area_ha": 439.6, "altitude_m": null }, "geometry": { "type": "Point", "coordinates": [ 3.90913, 47.1403 ] } },
{ "type": "Feature", "properties": { "name": "Lac de Saint-Agnan", "category": "Dam", "area_ha": 120.8, "altitude_m": null }, "geometry": { "type": "Point", "coordinates": [ 4.09114, 47.32732 ] } },
{ "type": "Feature", "properties": { "name": "Unnamed", "category": "Reservoir", "area_ha": 5.6, "altitude_m": null }, "geometry": { "type": "Point", "coordinates": [ 3.35008, 46.86259 ] } },
{ "type": "Feature", "properties": { "name": "Étang de Fleury la Tour", "category": "Reservoir", "area_ha": 50.9, "altitude_m": null }, "geometry": { "type": "Point", "coordinates": [ 3.55857, 46.99915 ] } },
{ "type": "Feature", "properties": { "name": "Unnamed", "category": "Reservoir", "area_ha": 5.6, "altitude_m": null }, "geometry": { "type": "Point", "coordinates": [ 3.73044, 46.76091 ] } },
{ "type": "Feature", "properties": { "name": "Unnamed", "category": "Reservoir", "area_ha": 7.5, "altitude_m": null }, "geometry": { "type": "Point", "coordinates": [ 3.18173, 47.09594 ] } },
{ "type": "Feature", "properties": { "name": "Étang de Cognières", "category": "Reservoir", "area_ha": 5.3, "altitude_m": null }, "geometry": { "type": "Point", "coordinates": [ 4.07049, 46.88495 ] } },
{ "type": "Feature", "properties": { "name": "Étang du Goulot", "category": "Reservoir", "area_ha": 8.2, "altitude_m": null }, "geometry": { "type": "Point", "coordinates": [ 3.824, 47.2807 ] } },
{ "type": "Feature", "properties": { "name": "Étang Guillon", "category": "Reservoir", "area_ha": 5.1, "altitude_m": null }, "geometry": { "type": "Point", "coordinates": [ 3.55017, 46.7249 ] } },
{ "type": "Feature", "properties": { "name": "Étang du Merle", "category": "Reservoir", "area_ha": 15.1, "altitude_m": null }, "geometry": { "type": "Point", "coordinates": [ 3.49731, 47.13442 ] } },
{ "type": "Feature", "properties": { "name": "Étang de la Forge", "category": "Reservoir", "area_ha": 12.6, "altitude_m": null }, "geometry": { "type": "Point", "coordinates": [ 3.06145, 47.52401 ] } },
{ "type": "Feature", "properties": { "name": "Unnamed", "category": "Reservoir", "area_ha": 5.2, "altitude_m": null }, "geometry": { "type": "Point", "coordinates": [ 3.49662, 46.69193 ] } },
{ "type": "Feature", "properties": { "name": "Étang de Pain", "category": "Reservoir", "area_ha": 5.5, "altitude_m": null }, "geometry": { "type": "Point", "coordinates": [ 3.19263, 46.82262 ] } },
{ "type": "Feature", "properties": { "name": "Étang de Neuilly", "category": "Reservoir", "area_ha": 8.1, "altitude_m": null }, "geometry": { "type": "Point", "coordinates": [ 3.23025, 46.76147 ] } },
{ "type": "Feature", "properties": { "name": "Étang de Ligny", "category": "Reservoir", "area_ha": 5.7, "altitude_m": null }, "geometry": { "type": "Point", "coordinates": [ 3.48071, 47.14857 ] } },
{ "type": "Feature", "properties": { "name": "Étang de Baye", "category": "Reservoir", "area_ha": 74.4, "altitude_m": null }, "geometry": { "type": "Point", "coordinates": [ 3.61735, 47.17217 ] } },
{ "type": "Feature", "properties": { "name": "Étang des Perriaux", "category": "Reservoir", "area_ha": 7.7, "altitude_m": null }, "geometry": { "type": "Point", "coordinates": [ 3.67115, 47.16052 ] } },
{ "type": "Feature", "properties": { "name": "Petit Étang de Vaux", "category": "Reservoir", "area_ha": 20.2, "altitude_m": null }, "geometry": { "type": "Point", "coordinates": [ 3.61526, 47.19665 ] } },
{ "type": "Feature", "properties": { "name": "Étang le Marnant", "category": "Reservoir", "area_ha": 16.7, "altitude_m": null }, "geometry": { "type": "Point", "coordinates": [ 3.77517, 46.77144 ] } },
{ "type": "Feature", "properties": { "name": "Unnamed", "category": "Reservoir", "area_ha": 11.3, "altitude_m": null }, "geometry": { "type": "Point", "coordinates": [ 3.76743, 46.95498 ] } },
{ "type": "Feature", "properties": { "name": "Étang de Marvy", "category": "Reservoir", "area_ha": 8.0, "altitude_m": null }, "geometry": { "type": "Point", "coordinates": [ 2.9038, 47.51586 ] } },
{ "type": "Feature", "properties": { "name": "Étang du Loup", "category": "Reservoir", "area_ha": 6.7, "altitude_m": null }, "geometry": { "type": "Point", "coordinates": [ 3.77271, 46.99962 ] } },
{ "type": "Feature", "properties": { "name": "Unnamed", "category": "Reservoir", "area_ha": 7.3, "altitude_m": null }, "geometry": { "type": "Point", "coordinates": [ 3.18712, 47.06072 ] } },
{ "type": "Feature", "properties": { "name": "Étang Gouffier", "category": "Reservoir", "area_ha": 13.8, "altitude_m": null }, "geometry": { "type": "Point", "coordinates": [ 3.64006, 47.18472 ] } },
{ "type": "Feature", "properties": { "name": "Étang d'Aron", "category": "Reservoir", "area_ha": 14.9, "altitude_m": null }, "geometry": { "type": "Point", "coordinates": [ 3.5031, 47.17965 ] } },
{ "type": "Feature", "properties": { "name": "Étang de Ranceau", "category": "Reservoir", "area_ha": 5.9, "altitude_m": null }, "geometry": { "type": "Point", "coordinates": [ 3.51964, 47.09307 ] } },
{ "type": "Feature", "properties": { "name": "Unnamed", "category": "Reservoir", "area_ha": 16.8, "altitude_m": null }, "geometry": { "type": "Point", "coordinates": [ 3.5614, 47.24229 ] } },
{ "type": "Feature", "properties": { "name": "Unnamed", "category": "Reservoir", "area_ha": 7.2, "altitude_m": null }, "geometry": { "type": "Point", "coordinates": [ 3.16146, 47.20335 ] } },
{ "type": "Feature", "properties": { "name": "Unnamed", "category": "Reservoir", "area_ha": 5.2, "altitude_m": null }, "geometry": { "type": "Point", "coordinates": [ 3.33443, 46.70654 ] } },
{ "type": "Feature", "properties": { "name": "Étang de la Tanche", "category": "Reservoir", "area_ha": 5.1, "altitude_m": null }, "geometry": { "type": "Point", "coordinates": [ 3.28686, 46.91792 ] } },
{ "type": "Feature", "properties": { "name": "Étang du Maupas", "category": "Reservoir", "area_ha": 5.6, "altitude_m": null }, "geometry": { "type": "Point", "coordinates": [ 3.49346, 47.13882 ] } },
{ "type": "Feature", "properties": { "name": "Étang de Pinet", "category": "Reservoir", "area_ha": 10.8, "altitude_m": null }, "geometry": { "type": "Point", "coordinates": [ 3.22867, 46.77827 ] } },
{ "type": "Feature", "properties": { "name": "Étang des Bruyères", "category": "Reservoir", "area_ha": 11.2, "altitude_m": null }, "geometry": { "type": "Point", "coordinates": [ 3.26607, 46.74177 ] } },
{ "type": "Feature", "properties": { "name": "Étang de la Brosse", "category": "Reservoir", "area_ha": 15.3, "altitude_m": null }, "geometry": { "type": "Point", "coordinates": [ 3.26823, 46.74705 ] } },
{ "type": "Feature", "properties": { "name": "Étang Poitreau", "category": "Reservoir", "area_ha": 6.2, "altitude_m": null }, "geometry": { "type": "Point", "coordinates": [ 3.94709, 47.29161 ] } },
{ "type": "Feature", "properties": { "name": "Étang Bouquin", "category": "Reservoir", "area_ha": 7.8, "altitude_m": null }, "geometry": { "type": "Point", "coordinates": [ 4.01973, 47.25398 ] } },
{ "type": "Feature", "properties": { "name": "Étang Neuf", "category": "Reservoir", "area_ha": 7.3, "altitude_m": null }, "geometry": { "type": "Point", "coordinates": [ 3.47861, 46.85071 ] } },
{ "type": "Feature", "properties": { "name": "Étang de la Bouille", "category": "Reservoir", "area_ha": 9.4, "altitude_m": null }, "geometry": { "type": "Point", "coordinates": [ 3.47593, 47.22462 ] } },
{ "type": "Feature", "properties": { "name": "Étang du Fourneau", "category": "Reservoir", "area_ha": 5.7, "altitude_m": null }, "geometry": { "type": "Point", "coordinates": [ 3.42599, 46.94462 ] } },
{ "type": "Feature", "properties": { "name": "Étang des Marauds", "category": "Reservoir", "area_ha": 6.4, "altitude_m": null }, "geometry": { "type": "Point", "coordinates": [ 4.01939, 46.86788 ] } },
{ "type": "Feature", "properties": { "name": "Étang de la Loure", "category": "Reservoir", "area_ha": 5.3, "altitude_m": null }, "geometry": { "type": "Point", "coordinates": [ 3.27773, 46.73692 ] } },
{ "type": "Feature", "properties": { "name": "Étang Taureau", "category": "Reservoir", "area_ha": 10.4, "altitude_m": null }, "geometry": { "type": "Point", "coordinates": [ 4.09518, 47.27256 ] } },
{ "type": "Feature", "properties": { "name": "Étang du Crot de Savigny", "category": "Reservoir", "area_ha": 10.7, "altitude_m": null }, "geometry": { "type": "Point", "coordinates": [ 3.19529, 46.96269 ] } },
{ "type": "Feature", "properties": { "name": "Unnamed", "category": "Reservoir", "area_ha": 6.1, "altitude_m": null }, "geometry": { "type": "Point", "coordinates": [ 3.07443, 47.00894 ] } },
{ "type": "Feature", "properties": { "name": "Étang Trémigny", "category": "Reservoir", "area_ha": 6.9, "altitude_m": null }, "geometry": { "type": "Point", "coordinates": [ 3.06803, 46.92869 ] } },
{ "type": "Feature", "properties": { "name": "Étang des Hâtes", "category": "Reservoir", "area_ha": 12.3, "altitude_m": null }, "geometry": { "type": "Point", "coordinates": [ 2.90717, 47.32715 ] } },
{ "type": "Feature", "properties": { "name": "Étang de Chausselage", "category": "Reservoir", "area_ha": 6.3, "altitude_m": null }, "geometry": { "type": "Point", "coordinates": [ 3.4886, 47.17485 ] } },
{ "type": "Feature", "properties": { "name": "Étang Neuf", "category": "Reservoir", "area_ha": 30.7, "altitude_m": null }, "geometry": { "type": "Point", "coordinates": [ 3.63133, 47.1929 ] } },
{ "type": "Feature", "properties": { "name": "Étang Neuf", "category": "Dam", "area_ha": 10.8, "altitude_m": null }, "geometry": { "type": "Point", "coordinates": [ 3.48105, 47.22124 ] } },
{ "type": "Feature", "properties": { "name": "Bassin de Compensation de Pannecière", "category": "Dam", "area_ha": 24.6, "altitude_m": null }, "geometry": { "type": "Point", "coordinates": [ 3.85719, 47.16455 ] } },
{ "type": "Feature", "properties": { "name": "Étang de Chèvres", "category": "Dam", "area_ha": 25.8, "altitude_m": null }, "geometry": { "type": "Point", "coordinates": [ 3.79063, 46.89524 ] } },
{ "type": "Feature", "properties": { "name": "Unnamed", "category": "Dam", "area_ha": 11.8, "altitude_m": null }, "geometry": { "type": "Point", "coordinates": [ 3.64996, 46.76027 ] } },
{ "type": "Feature", "properties": { "name": "Étang de Rangère", "category": "Dam", "area_ha": 7.3, "altitude_m": null }, "geometry": { "type": "Point", "coordinates": [ 3.98727, 46.94547 ] } },
{ "type": "Feature", "properties": { "name": "Étang Donjon", "category": "Dam", "area_ha": 23.2, "altitude_m": null }, "geometry": { "type": "Point", "coordinates": [ 3.69418, 46.79562 ] } },
{ "type": "Feature", "properties": { "name": "Étang Perdriat", "category": "Dam", "area_ha": 10.8, "altitude_m": null }, "geometry": { "type": "Point", "coordinates": [ 3.66312, 46.76828 ] } },
{ "type": "Feature", "properties": { "name": "Étang du Moulin", "category": "Dam", "area_ha": 5.3, "altitude_m": null }, "geometry": { "type": "Point", "coordinates": [ 3.68539, 46.77288 ] } },
{ "type": "Feature", "properties": { "name": "Étang du Perray", "category": "Dam", "area_ha": 14.1, "altitude_m": null }, "geometry": { "type": "Point", "coordinates": [ 3.24707, 46.74854 ] } },
{ "type": "Feature", "properties": { "name": "Unnamed", "category": "Dam", "area_ha": 18.3, "altitude_m": null }, "geometry": { "type": "Point", "coordinates": [ 3.66263, 46.80665 ] } }
]
}
