{
"type": "FeatureCollection",
"name": "dep57.geojson",
"crs": { "type": "name", "properties": { "name": "urn:ogc:def:crs:OGC:1.3:CRS84" } },
"xy_coordinate_resolution": 1e-05,
"features": [
{ "type": "Feature", "properties": { "name": "Étang de Bischwald", "category": "Reservoir", "area_ha": 202.3, "altitude_m": null }, "geometry": { "type": "Point", "coordinates": [ 6.69226, 48.9968 ] } },
{ "type": "Feature", "properties": { "name": "Étang du Stock", "category": "Reservoir", "area_ha": 506.1, "altitude_m": null }, "geometry": { "type": "Point", "coordinates": [ 6.90345, 48.75632 ] } },
{ "type": "Feature", "properties": { "name": "Grosser Grafenweiher", "category": "Reservoir", "area_ha": 8.2, "altitude_m": null }, "geometry": { "type": "Point", "coordinates": [ 6.95066, 48.87954 ] } },
{ "type": "Feature", "properties": { "name": "Lac Symphonie", "category": "Reservoir", "area_ha": 5.0, "altitude_m": null }, "geometry": { "type": "Point", "coordinates": [ 6.21803, 49.10352 ] } },
{ "type": "Feature", "properties": { "name": "Grand Étang", "category": "Reservoir", "area_ha": 6.2, "altitude_m": null }, "geometry": { "type": "Point", "coordinates": [ 6.81954, 48.89782 ] } },
{ "type": "Feature", "properties": { "name": "l'Étang Pré", "category": "Reservoir", "area_ha": 6.1, "altitude_m": null }, "geometry": { "type": "Point", "coordinates": [ 6.33259, 49.01866 ] } },
{ "type": "Feature", "properties": { "name": "Moorweiher", "category": "Reservoir", "area_ha": 10.6, "altitude_m": null }, "geometry": { "type": "Point", "coordinates": [ 6.87842, 48.87578 ] } },
{ "type": "Feature", "properties": { "name": "Haut Weyer", "category": "Reservoir", "area_ha": 15.6, "altitude_m": null }, "geometry": { "type": "Point", "coordinates": [ 6.84795, 48.79666 ] } },
{ "type": "Feature", "properties": { "name": "Étang Harmand", "category": "Reservoir", "area_ha": 7.4, "altitude_m": null }, "geometry": { "type": "Point", "coordinates": [ 6.75564, 48.74243 ] } },
{ "type": "Feature", "properties": { "name": "Plan d'Eau du Saulcy", "category": "Reservoir", "area_ha": 11.7, "altitude_m": null }, "geometry": { "type": "Point", "coordinates": [ 6.16428, 49.11696 ] } },
{ "type": "Feature", "properties": { "name": "Étang des Dames", "category": "Reservoir", "area_ha": 6.0, "altitude_m": null }, "geometry": { "type": "Point", "coordinates": [ 6.76872, 48.82647 ] } },
{ "type": "Feature", "properties": { "name": "Étang de Bisping", "category": "Reservoir", "area_ha": 7.7, "altitude_m": null }, "geometry": { "type": "Point", "coordinates": [ 6.88732, 48.79684 ] } },
{ "type": "Feature", "properties": { "name": "Étang des Prairettes", "category": "Reservoir", "area_ha": 5.3, "altitude_m": null }, "geometry": { "type": "Point", "coordinates": [ 5.97028, 49.34226 ] } },
{ "type": "Feature", "properties": { "name": "la Grande Frade", "category": "Reservoir", "area_ha": 32.6, "altitude_m": null }, "geometry": { "type": "Point", "coordinates": [ 6.90808, 48.66693 ] } },
{ "type": "Feature", "properties": { "name": "Étang de Gondrexange", "category": "Reservoir", "area_ha": 337.8, "altitude_m": null }, "geometry": { "type": "Point", "coordinates": [ 6.90654, 48.71099 ] } },
{ "type": "Feature", "properties": { "name": "Étang des Jésuites", "category": "Reservoir", "area_ha": 11.5, "altitude_m": null }, "geometry": { "type": "Point", "coordinates": [ 6.14077, 49.10927 ] } },
{ "type": "Feature", "properties": { "name": "Étang de Diefenbach", "category": "Dam", "area_ha": 59.7, "altitude_m": null }, "geometry": { "type": "Point", "coordinates": [ 6.89054, 49.04405 ] } },
{ "type": "Feature", "properties": { "name": "Roter Weiher", "category": "Reservoir", "area_ha": 68.7, "altitude_m": null }, "geometry": { "type": "Point", "coordinates": [ 6.91521, 48.90135 ] } },
{ "type": "Feature", "properties": { "name": "Étang du Lansquenet", "category": "Reservoir", "area_ha": 34.7, "altitude_m": null }, "geometry": { "type": "Point", "coordinates": [ 6.8303, 48.82647 ] } },
{ "type": "Feature", "properties": { "name": "Lang Weiher", "category": "Dam", "area_ha": 43.5, "altitude_m": null }, "geometry": { "type": "Point", "coordinates": [ 7.00273, 48.86644 ] } },
{ "type": "Feature", "properties": { "name": "Muehlweiher", "category": "Dam", "area_ha": 51.9, "altitude_m": null }, "geometry": { "type": "Point", "coordinates": [ 6.90793, 48.88357 ] } },
{ "type": "Feature", "properties": { "name": "Étang de Wuisse", "category": "Reservoir", "area_ha": 18.6, "altitude_m": null }, "geometry": { "type": "Point", "coordinates": [ 6.6401, 48.84728 ] } },
{ "type": "Feature", "properties": { "name": "Lac du Mirgenbach", "category": "Dam", "area_ha": 93.8, "altitude_m": null }, "geometry": { "type": "Point", "coordinates": [ 6.23671, 49.42352 ] } },
{ "type": "Feature", "properties": { "name": "Étang du Stock", "category": "Reservoir", "area_ha": 98.2, "altitude_m": null }, "geometry": { "type": "Point", "coordinates": [ 6.94659, 48.7563 ] } },
{ "type": "Feature", "properties": { "name": "Étang de Réchicourt", "category": "Reservoir", "area_ha": 48.2, "altitude_m": null }, "geometry": { "type": "Point", "coordinates": [ 6.82388, 48.68691 ] } },
{ "type": "Feature", "properties": { "name": "Étang d'Hoste Bas", "category": "Reservoir", "area_ha": 13.8, "altitude_m": null }, "geometry": { "type": "Point", "coordinates": [ 6.8844, 49.06631 ] } },
{ "type": "Feature", "properties": { "name": "Étang de la Mutche", "category": "Reservoir", "area_ha": 76.0, "altitude_m": null }, "geometry": { "type": "Point", "coordinates": [ 6.64425, 48.95267 ] } },
{ "type": "Feature", "properties": { "name": "Étang de Lindre", "category": "Reservoir", "area_ha": 599.2, "altitude_m": null }, "geometry": { "type": "Point", "coordinates": [ 6.75804, 48.79713 ] } },
{ "type": "Feature", "properties": { "name": "Cornée de Réchicourt", "category": "Reservoir", "area_ha": 122.6, "altitude_m": null }, "geometry": { "type": "Point", "coordinates": [ 6.89093, 48.69888 ] } },
{ "type": "Feature", "properties": { "name": "Étang d'Ommeray", "category": "Reservoir", "area_ha": 32.3, "altitude_m": null }, "geometry": { "type": "Point", "coordinates": [ 6.70778, 48.71858 ] } },
{ "type": "Feature", "properties": { "name": "Grand Étang", "category": "Reservoir", "area_ha": 15.0, "altitude_m": null }, "geometry": { "type": "Point", "coordinates": [ 6.33722, 48.97172 ] } },
{ "type": "Feature", "properties": { "name": "Grand Étang de Mittersheim dit le Lac Vert", "category": "Dam", "area_ha": 125.9, "altitude_m": null }, "geometry": { "type": "Point", "coordinates": [ 6.92894, 48.84326 ] } },
{ "type": "Feature", "properties": { "name": "Étang d'Holacourt", "category": "Reservoir", "area_ha": 20.5, "altitude_m": null }, "geometry": { "type": "Point", "coordinates": [ 6.51079, 48.98179 ] } },
{ "type": "Feature", "properties": { "name": "Kleinchierweiher", "category": "Dam", "area_ha": 3.4, "altitude_m": null }, "geometry": { "type": "Point", "coordinates": [ 6.94609, 48.81816 ] } },
{ "type": "Feature", "properties": { "name": "Finstereck", "category": "Dam", "area_ha": 1.1, "altitude_m": null }, "geometry": { "type": "Point", "coordinates": [ 6.92853, 48.84993 ] } },
{ "type": "Feature", "properties": { "name": "Étang de Zommange", "category": "Reservoir", "area_ha": 61.0, "altitude_m": null }, "geometry": { "type": "Point", "coordinates": [ 6.80665, 48.82219 ] } },
{ "type": "Feature", "properties": { "name": "Ludwigs Weiher", "category": "Dam", "area_ha": 10.2, "altitude_m": null }, "geometry": { "type": "Point", "coordinates": [ 6.94886, 48.80017 ] } },
{ "type": "Feature", "properties": { "name": "Étang de la Tuilerie", "category": "Reservoir", "area_ha": 7.7, "altitude_m": null }, "geometry": { "type": "Point", "coordinates": [ 7.13753, 48.76755 ] } },
{ "type": "Feature", "properties": { "name": "Gemein Weiher", "category": "Dam", "area_ha": 14.4, "altitude_m": null }, "geometry": { "type": "Point", "coordinates": [ 6.99291, 48.85801 ] } },
{ "type": "Feature", "properties": { "name": "Étang des Moines", "category": "Reservoir", "area_ha": 20.1, "altitude_m": null }, "geometry": { "type": "Point", "coordinates": [ 6.74816, 48.7494 ] } },
{ "type": "Feature", "properties": { "name": "Étang Saint-Vit", "category": "Reservoir", "area_ha": 7.3, "altitude_m": null }, "geometry": { "type": "Point", "coordinates": [ 7.04939, 49.08021 ] } },
{ "type": "Feature", "properties": { "name": "Étang de Hanau", "category": "Reservoir", "area_ha": 13.6, "altitude_m": null }, "geometry": { "type": "Point", "coordinates": [ 7.53702, 49.01032 ] } },
{ "type": "Feature", "properties": { "name": "Étang du Moulin", "category": "Reservoir", "area_ha": 31.7, "altitude_m": null }, "geometry": { "type": "Point", "coordinates": [ 6.6513, 48.90955 ] } },
{ "type": "Feature", "properties": { "name": "Étang du Grand Pâtural", "category": "Reservoir", "area_ha": 5.1, "altitude_m": null }, "geometry": { "type": "Point", "coordinates": [ 6.42257, 48.96863 ] } },
{ "type": "Feature", "properties": { "name": "Étang de Réchicourt", "category": "Reservoir", "area_ha": 22.5, "altitude_m": null }, "geometry": { "type": "Point", "coordinates": [ 6.83346, 48.68598 ] } },
{ "type": "Feature", "properties": { "name": "Étang d'Haspelschiedt", "category": "Reservoir", "area_ha": 29.7, "altitude_m": null }, "geometry": { "type": "Point", "coordinates": [ 7.50102, 49.08145 ] } },
{ "type": "Feature", "properties": { "name": "Étang de Faux", "category": "Reservoir", "area_ha": 5.3, "altitude_m": null }, "geometry": { "type": "Point", "coordinates": [ 6.47531, 49.03631 ] } },
{ "type": "Feature", "properties": { "name": "Étang de Tiergarten", "category": "Reservoir", "area_ha": 6.6, "altitude_m": null }, "geometry": { "type": "Point", "coordinates": [ 6.90925, 49.05983 ] } },
{ "type": "Feature", "properties": { "name": "Niederster Weiher", "category": "Reservoir", "area_ha": 21.8, "altitude_m": null }, "geometry": { "type": "Point", "coordinates": [ 6.8657, 48.84266 ] } },
{ "type": "Feature", "properties": { "name": "Étang de Sailly", "category": "Reservoir", "area_ha": 20.1, "altitude_m": null }, "geometry": { "type": "Point", "coordinates": [ 6.29427, 48.93322 ] } },
{ "type": "Feature", "properties": { "name": "Étangs de Dain", "category": "Reservoir", "area_ha": 8.8, "altitude_m": null }, "geometry": { "type": "Point", "coordinates": [ 6.34854, 49.00664 ] } },
{ "type": "Feature", "properties": { "name": "Étang de Frau Wiese", "category": "Reservoir", "area_ha": 8.5, "altitude_m": null }, "geometry": { "type": "Point", "coordinates": [ 6.5078, 48.99195 ] } },
{ "type": "Feature", "properties": { "name": "Étang des Essarts", "category": "Reservoir", "area_ha": 8.6, "altitude_m": null }, "geometry": { "type": "Point", "coordinates": [ 6.71489, 48.79727 ] } },
{ "type": "Feature", "properties": { "name": "Étang de Nolweyer", "category": "Reservoir", "area_ha": 32.4, "altitude_m": null }, "geometry": { "type": "Point", "coordinates": [ 6.85049, 48.80303 ] } },
{ "type": "Feature", "properties": { "name": "Gros Étang", "category": "Reservoir", "area_ha": 7.1, "altitude_m": null }, "geometry": { "type": "Point", "coordinates": [ 6.90317, 48.74814 ] } },
{ "type": "Feature", "properties": { "name": "Neuf Étang", "category": "Reservoir", "area_ha": 11.1, "altitude_m": null }, "geometry": { "type": "Point", "coordinates": [ 6.90375, 48.6773 ] } },
{ "type": "Feature", "properties": { "name": "Étang de la Grande Creusière", "category": "Reservoir", "area_ha": 7.1, "altitude_m": null }, "geometry": { "type": "Point", "coordinates": [ 6.93997, 48.72718 ] } },
{ "type": "Feature", "properties": { "name": "Étang des Femmes", "category": "Reservoir", "area_ha": 26.3, "altitude_m": null }, "geometry": { "type": "Point", "coordinates": [ 6.94618, 48.76267 ] } },
{ "type": "Feature", "properties": { "name": "Port d'Illange", "category": "Reservoir", "area_ha": 21.9, "altitude_m": null }, "geometry": { "type": "Point", "coordinates": [ 6.1584, 49.32442 ] } },
{ "type": "Feature", "properties": { "name": "Étangs de Ratzenhausen", "category": "Reservoir", "area_ha": 6.3, "altitude_m": null }, "geometry": { "type": "Point", "coordinates": [ 6.94625, 49.06522 ] } },
{ "type": "Feature", "properties": { "name": "Étang des Souches", "category": "Reservoir", "area_ha": 11.3, "altitude_m": null }, "geometry": { "type": "Point", "coordinates": [ 6.91321, 48.77666 ] } },
{ "type": "Feature", "properties": { "name": "Étangs de la Tensch", "category": "Reservoir", "area_ha": 18.2, "altitude_m": null }, "geometry": { "type": "Point", "coordinates": [ 6.7715, 48.96402 ] } },
{ "type": "Feature", "properties": { "name": "Étang de Videlange", "category": "Reservoir", "area_ha": 38.8, "altitude_m": null }, "geometry": { "type": "Point", "coordinates": [ 6.75941, 48.75161 ] } },
{ "type": "Feature", "properties": { "name": "Osterweiher", "category": "Reservoir", "area_ha": 6.3, "altitude_m": null }, "geometry": { "type": "Point", "coordinates": [ 6.73061, 48.78515 ] } },
{ "type": "Feature", "properties": { "name": "Étang de Villers", "category": "Reservoir", "area_ha": 12.7, "altitude_m": null }, "geometry": { "type": "Point", "coordinates": [ 6.82578, 48.76593 ] } },
{ "type": "Feature", "properties": { "name": "Étang d'Axin", "category": "Reservoir", "area_ha": 12.9, "altitude_m": null }, "geometry": { "type": "Point", "coordinates": [ 6.73163, 48.75592 ] } },
{ "type": "Feature", "properties": { "name": "Étang de Milberg", "category": "Reservoir", "area_ha": 7.1, "altitude_m": null }, "geometry": { "type": "Point", "coordinates": [ 6.84883, 48.7243 ] } },
{ "type": "Feature", "properties": { "name": "Étang de Merbette", "category": "Reservoir", "area_ha": 7.8, "altitude_m": null }, "geometry": { "type": "Point", "coordinates": [ 6.67513, 49.12079 ] } },
{ "type": "Feature", "properties": { "name": "Petit Étang", "category": "Reservoir", "area_ha": 5.9, "altitude_m": null }, "geometry": { "type": "Point", "coordinates": [ 6.74159, 48.74446 ] } },
{ "type": "Feature", "properties": { "name": "Étang de Bouligny", "category": "Reservoir", "area_ha": 43.4, "altitude_m": null }, "geometry": { "type": "Point", "coordinates": [ 6.52185, 48.99127 ] } },
{ "type": "Feature", "properties": { "name": "Étang de Vallerange", "category": "Reservoir", "area_ha": 40.8, "altitude_m": null }, "geometry": { "type": "Point", "coordinates": [ 6.70053, 48.94534 ] } },
{ "type": "Feature", "properties": { "name": "Étang de Marimont", "category": "Reservoir", "area_ha": 5.1, "altitude_m": null }, "geometry": { "type": "Point", "coordinates": [ 6.7141, 48.74203 ] } },
{ "type": "Feature", "properties": { "name": "Étang du Moulin", "category": "Reservoir", "area_ha": 19.7, "altitude_m": null }, "geometry": { "type": "Point", "coordinates": [ 6.72617, 48.84501 ] } },
{ "type": "Feature", "properties": { "name": "Étang de Brihoff", "category": "Reservoir", "area_ha": 9.7, "altitude_m": null }, "geometry": { "type": "Point", "coordinates": [ 6.79404, 48.69226 ] } },
{ "type": "Feature", "properties": { "name": "Étang Neuf", "category": "Reservoir", "area_ha": 6.0, "altitude_m": null }, "geometry": { "type": "Point", "coordinates": [ 6.77012, 48.8354 ] } },
{ "type": "Feature", "properties": { "name": "Étang de Guémelbruch", "category": "Reservoir", "area_ha": 6.7, "altitude_m": null }, "geometry": { "type": "Point", "coordinates": [ 6.78844, 48.80024 ] } },
{ "type": "Feature", "properties": { "name": "Étang de devant", "category": "Reservoir", "area_ha": 22.5, "altitude_m": null }, "geometry": { "type": "Point", "coordinates": [ 6.76775, 48.91559 ] } },
{ "type": "Feature", "properties": { "name": "Étang de Besville", "category": "Reservoir", "area_ha": 13.7, "altitude_m": null }, "geometry": { "type": "Point", "coordinates": [ 6.76926, 48.93109 ] } },
{ "type": "Feature", "properties": { "name": "Étang de Moussey", "category": "Reservoir", "area_ha": 8.1, "altitude_m": null }, "geometry": { "type": "Point", "coordinates": [ 6.78969, 48.6678 ] } },
{ "type": "Feature", "properties": { "name": "Étang de la Laixière", "category": "Reservoir", "area_ha": 28.6, "altitude_m": null }, "geometry": { "type": "Point", "coordinates": [ 6.8032, 48.69374 ] } },
{ "type": "Feature", "properties": { "name": "Étang de Ketzing", "category": "Reservoir", "area_ha": 10.0, "altitude_m": null }, "geometry": { "type": "Point", "coordinates": [ 6.88081, 48.68637 ] } },
{ "type": "Feature", "properties": { "name": "Étang de Hattigny", "category": "Reservoir", "area_ha": 20.7, "altitude_m": null }, "geometry": { "type": "Point", "coordinates": [ 6.95244, 48.62157 ] } },
{ "type": "Feature", "properties": { "name": "Grand Étang", "category": "Reservoir", "area_ha": 6.4, "altitude_m": null }, "geometry": { "type": "Point", "coordinates": [ 7.44558, 48.98488 ] } },
{ "type": "Feature", "properties": { "name": "Étang de Baerenthal", "category": "Reservoir", "area_ha": 11.3, "altitude_m": null }, "geometry": { "type": "Point", "coordinates": [ 7.50112, 48.98207 ] } },
{ "type": "Feature", "properties": { "name": "Étang de Bourgaltroff", "category": "Reservoir", "area_ha": 10.0, "altitude_m": null }, "geometry": { "type": "Point", "coordinates": [ 6.75734, 48.87597 ] } },
{ "type": "Feature", "properties": { "name": "Étang de Escherbruch", "category": "Reservoir", "area_ha": 38.2, "altitude_m": null }, "geometry": { "type": "Point", "coordinates": [ 6.64825, 49.17056 ] } },
{ "type": "Feature", "properties": { "name": "Étang de Rodalbe", "category": "Reservoir", "area_ha": 16.8, "altitude_m": null }, "geometry": { "type": "Point", "coordinates": [ 6.72287, 48.91854 ] } },
{ "type": "Feature", "properties": { "name": "Étang de la Heide", "category": "Reservoir", "area_ha": 29.8, "altitude_m": null }, "geometry": { "type": "Point", "coordinates": [ 6.66972, 49.18477 ] } },
{ "type": "Feature", "properties": { "name": "Étang de Brû", "category": "Reservoir", "area_ha": 31.6, "altitude_m": null }, "geometry": { "type": "Point", "coordinates": [ 6.70527, 48.74727 ] } },
{ "type": "Feature", "properties": { "name": "Étang de Gélucourt", "category": "Reservoir", "area_ha": 19.1, "altitude_m": null }, "geometry": { "type": "Point", "coordinates": [ 6.73274, 48.76201 ] } },
{ "type": "Feature", "properties": { "name": "Neuf Étang", "category": "Reservoir", "area_ha": 22.1, "altitude_m": null }, "geometry": { "type": "Point", "coordinates": [ 6.84842, 48.78567 ] } },
{ "type": "Feature", "properties": { "name": "Étang Peigneux", "category": "Reservoir", "area_ha": 6.4, "altitude_m": null }, "geometry": { "type": "Point", "coordinates": [ 6.23057, 49.0561 ] } },
{ "type": "Feature", "properties": { "name": "Grand Étang", "category": "Reservoir", "area_ha": 7.3, "altitude_m": null }, "geometry": { "type": "Point", "coordinates": [ 6.42564, 48.98178 ] } },
{ "type": "Feature", "properties": { "name": "Neuf Étang", "category": "Reservoir", "area_ha": 8.5, "altitude_m": null }, "geometry": { "type": "Point", "coordinates": [ 6.84628, 48.82495 ] } },
{ "type": "Feature", "properties": { "name": "Neuf Étang", "category": "Reservoir", "area_ha": 15.1, "altitude_m": null }, "geometry": { "type": "Point", "coordinates": [ 6.93233, 48.66315 ] } },
{ "type": "Feature", "properties": { "name": "Petit Étang", "category": "Reservoir", "area_ha": 63.9, "altitude_m": null }, "geometry": { "type": "Point", "coordinates": [ 6.91595, 48.69522 ] } },
{ "type": "Feature", "properties": { "name": "Cornée de Ketzing", "category": "Reservoir", "area_ha": 7.2, "altitude_m": null }, "geometry": { "type": "Point", "coordinates": [ 6.90618, 48.69633 ] } },
{ "type": "Feature", "properties": { "name": "Étang de derrière", "category": "Reservoir", "area_ha": 27.5, "altitude_m": null }, "geometry": { "type": "Point", "coordinates": [ 6.75298, 48.91616 ] } },
{ "type": "Feature", "properties": { "name": "le Rohrweiher", "category": "Reservoir", "area_ha": 24.3, "altitude_m": null }, "geometry": { "type": "Point", "coordinates": [ 6.86335, 48.71238 ] } },
{ "type": "Feature", "properties": { "name": "Étang de Foulcrey", "category": "Reservoir", "area_ha": 13.5, "altitude_m": null }, "geometry": { "type": "Point", "coordinates": [ 6.87601, 48.65428 ] } },
{ "type": "Feature", "properties": { "name": "Gross Schwarzweiher", "category": "Dam", "area_ha": 5.0, "altitude_m": null }, "geometry": { "type": "Point", "coordinates": [ 6.98344, 48.8855 ] } },
{ "type": "Feature", "properties": { "name": "l'Étang de Rinting", "category": "Dam", "area_ha": 5.4, "altitude_m": null }, "geometry": { "type": "Point", "coordinates": [ 6.9922, 48.72265 ] } },
{ "type": "Feature", "properties": { "name": "Glockenweiher", "category": "Dam", "area_ha": 2.7, "altitude_m": null }, "geometry": { "type": "Point", "coordinates": [ 6.99863, 48.85025 ] } },
{ "type": "Feature", "properties": { "name": "Vogelsweiher", "category": "Dam", "area_ha": 7.7, "altitude_m": null }, "geometry": { "type": "Point", "coordinates": [ 6.9772, 48.79142 ] } },
{ "type": "Feature", "properties": { "name": "Mittelschirweiher", "category": "Dam", "area_ha": 6.4, "altitude_m": null }, "geometry": { "type": "Point", "coordinates": [ 6.94261, 48.82316 ] } },
{ "type": "Feature", "properties": { "name": "Étang Solvay", "category": "Dam", "area_ha": 10.2, "altitude_m": null }, "geometry": { "type": "Point", "coordinates": [ 7.03393, 49.0154 ] } },
{ "type": "Feature", "properties": { "name": "Hirschweyer", "category": "Dam", "area_ha": 10.6, "altitude_m": null }, "geometry": { "type": "Point", "coordinates": [ 6.94107, 48.85521 ] } },
{ "type": "Feature", "properties": { "name": "Cornée de Lorraine", "category": "Dam", "area_ha": 18.0, "altitude_m": null }, "geometry": { "type": "Point", "coordinates": [ 6.92073, 48.83405 ] } },
{ "type": "Feature", "properties": { "name": "Étang Saint-Hubert", "category": "Dam", "area_ha": 12.2, "altitude_m": null }, "geometry": { "type": "Point", "coordinates": [ 7.01491, 49.05255 ] } },
{ "type": "Feature", "properties": { "name": "Silberweiher", "category": "Dam", "area_ha": 13.4, "altitude_m": null }, "geometry": { "type": "Point", "coordinates": [ 6.93954, 48.84871 ] } },
{ "type": "Feature", "properties": { "name": "Étang des Marais", "category": "Dam", "area_ha": 39.9, "altitude_m": null }, "geometry": { "type": "Point", "coordinates": [ 6.91903, 49.02841 ] } },
{ "type": "Feature", "properties": { "name": "Étang de Welschhof", "category": "Dam", "area_ha": 42.6, "altitude_m": null }, "geometry": { "type": "Point", "coordinates": [ 6.94861, 49.05095 ] } },
{ "type": "Feature", "properties": { "name": "Ersteneck", "category": "Dam", "area_ha": 3.0, "altitude_m": null }, "geometry": { "type": "Point", "coordinates": [ 6.92784, 48.8525 ] } },
{ "type": "Feature", "properties": { "name": "Cornée Sombre", "category": "Dam", "area_ha": 3.2, "altitude_m": null }, "geometry": { "type": "Point", "coordinates": [ 6.92439, 48.84256 ] } },
{ "type": "Feature", "properties": { "name": "Étang le Wirbelscheid", "category": "Dam", "area_ha": 6.8, "altitude_m": null }, "geometry": { "type": "Point", "coordinates": [ 7.00747, 49.01315 ] } },
{ "type": "Feature", "properties": { "name": "Mare aux Serpents", "category": "Dam", "area_ha": 8.8, "altitude_m": null }, "geometry": { "type": "Point", "coordinates": [ 6.92196, 48.84612 ] } },
{ "type": "Feature", "properties": { "name": "Grand Schirweiher", "category": "Dam", "area_ha": 14.3, "altitude_m": null }, "geometry": { "type": "Point", "coordinates": [ 6.92942, 48.82736 ] } },
{ "type": "Feature", "properties": { "name": "Gross Wackenweiher", "category": "Dam", "area_ha": 7.6, "altitude_m": null }, "geometry": { "type": "Point", "coordinates": [ 6.98005, 48.84142 ] } },
{ "type": "Feature", "properties": { "name": "Étang d'Hoste Haut", "category": "Dam", "area_ha": 20.9, "altitude_m": null }, "geometry": { "type": "Point", "coordinates": [ 6.86955, 49.06703 ] } },
{ "type": "Feature", "properties": { "name": "Étang de Hirbach", "category": "Dam", "area_ha": 45.0, "altitude_m": null }, "geometry": { "type": "Point", "coordinates": [ 6.9484, 49.01091 ] } }
]
}
