{
"type": "FeatureCollection",
"name": "dep62.geojson",
"crs": { "type": "name", "properties": { "name": "urn:ogc:def:crs:OGC:1.3:CRS84" } },
"xy_coordinate_resolution": 1e-05,
"features": [
{ "type": "Feature", "properties": { "name": "Unnamed", "category": "Reservoir", "area_ha": 23.7, "altitude_m": null }, "geometry": { "type": "Point", "coordinates": [ 3.07185, 50.24552 ] } },
{ "type": "Feature", "properties": { "name": "Unnamed", "category": "Reservoir", "area_ha": 6.1, "altitude_m": null }, "geometry": { "type": "Point", "coordinates": [ 1.95768, 50.89448 ] } },
{ "type": "Feature", "properties": { "name": "Unnamed", "category": "Reservoir", "area_ha": 13.9, "altitude_m": null }, "geometry": { "type": "Point", "coordinates": [ 2.51937, 50.56273 ] } },
{ "type": "Feature", "properties": { "name": "Étang de la Sauvagine", "category": "Reservoir", "area_ha": 7.4, "altitude_m": null }, "geometry": { "type": "Point", "coordinates": [ 2.31854, 50.64131 ] } },
{ "type": "Feature", "properties": { "name": "Étang d'Ardres", "category": "Reservoir", "area_ha": 59.6, "altitude_m": null }, "geometry": { "type": "Point", "coordinates": [ 1.9768, 50.86564 ] } },
{ "type": "Feature", "properties": { "name": "Unnamed", "category": "Reservoir", "area_ha": 10.2, "altitude_m": null }, "geometry": { "type": "Point", "coordinates": [ 1.78975, 50.51087 ] } },
{ "type": "Feature", "properties": { "name": "Unnamed", "category": "Reservoir", "area_ha": 6.1, "altitude_m": null }, "geometry": { "type": "Point", "coordinates": [ 1.95951, 50.89162 ] } },
{ "type": "Feature", "properties": { "name": "les Étiais", "category": "Reservoir", "area_ha": 9.5, "altitude_m": null }, "geometry": { "type": "Point", "coordinates": [ 2.30376, 50.64102 ] } },
{ "type": "Feature", "properties": { "name": "Unnamed", "category": "Reservoir", "area_ha": 9.7, "altitude_m": null }, "geometry": { "type": "Point", "coordinates": [ 2.73875, 50.19439 ] } },
{ "type": "Feature", "properties": { "name": "Unnamed", "category": "Reservoir", "area_ha": 17.0, "altitude_m": null }, "geometry": { "type": "Point", "coordinates": [ 3.03212, 50.32042 ] } },
{ "type": "Feature", "properties": { "name": "Lacs d'Amour", "category": "Reservoir", "area_ha": 5.5, "altitude_m": null }, "geometry": { "type": "Point", "coordinates": [ 1.82088, 50.56177 ] } },
{ "type": "Feature", "properties": { "name": "Unnamed", "category": "Reservoir", "area_ha": 7.8, "altitude_m": null }, "geometry": { "type": "Point", "coordinates": [ 1.95548, 50.89251 ] } },
{ "type": "Feature", "properties": { "name": "Unnamed", "category": "Reservoir", "area_ha": 16.8, "altitude_m": null }, "geometry": { "type": "Point", "coordinates": [ 1.90511, 50.93246 ] } },
{ "type": "Feature", "properties": { "name": "Unnamed", "category": "Reservoir", "area_ha": 11.6, "altitude_m": null }, "geometry": { "type": "Point", "coordinates": [ 2.40187, 50.66 ] } },
{ "type": "Feature", "properties": { "name": "Unnamed", "category": "Reservoir", "area_ha": 24.7, "altitude_m": null }, "geometry": { "type": "Point", "coordinates": [ 1.94088, 50.98572 ] } },
{ "type": "Feature", "properties": { "name": "Étang de Brêmes", "category": "Reservoir", "area_ha": 28.7, "altitude_m": null }, "geometry": { "type": "Point", "coordinates": [ 1.96033, 50.86649 ] } },
{ "type": "Feature", "properties": { "name": "Étang de Batavia", "category": "Reservoir", "area_ha": 8.4, "altitude_m": null }, "geometry": { "type": "Point", "coordinates": [ 2.30025, 50.72216 ] } },
{ "type": "Feature", "properties": { "name": "Unnamed", "category": "Reservoir", "area_ha": 5.8, "altitude_m": null }, "geometry": { "type": "Point", "coordinates": [ 1.96108, 50.89334 ] } },
{ "type": "Feature", "properties": { "name": "Unnamed", "category": "Reservoir", "area_ha": 6.2, "altitude_m": null }, "geometry": { "type": "Point", "coordinates": [ 1.84828, 50.44256 ] } },
{ "type": "Feature", "properties": { "name": "Unnamed", "category": "Reservoir", "area_ha": 13.3, "altitude_m": null }, "geometry": { "type": "Point", "coordinates": [ 2.51062, 50.56407 ] } },
{ "type": "Feature", "properties": { "name": "Unnamed", "category": "Reservoir", "area_ha": 18.2, "altitude_m": null }, "geometry": { "type": "Point", "coordinates": [ 1.84227, 50.44403 ] } },
{ "type": "Feature", "properties": { "name": "Unnamed", "category": "Reservoir", "area_ha": 15.6, "altitude_m": null }, "geometry": { "type": "Point", "coordinates": [ 2.50474, 50.5638 ] } },
{ "type": "Feature", "properties": { "name": "Unnamed", "category": "Reservoir", "area_ha": 5.6, "altitude_m": null }, "geometry": { "type": "Point", "coordinates": [ 3.02843, 50.42522 ] } },
{ "type": "Feature", "properties": { "name": "Unnamed", "category": "Reservoir", "area_ha": 10.3, "altitude_m": null }, "geometry": { "type": "Point", "coordinates": [ 2.5184, 50.56612 ] } },
{ "type": "Feature", "properties": { "name": "Unnamed", "category": "Reservoir", "area_ha": 5.1, "altitude_m": null }, "geometry": { "type": "Point", "coordinates": [ 2.73535, 50.18941 ] } },
{ "type": "Feature", "properties": { "name": "Marais d'Annay", "category": "Reservoir", "area_ha": 7.2, "altitude_m": null }, "geometry": { "type": "Point", "coordinates": [ 2.88108, 50.46796 ] } },
{ "type": "Feature", "properties": { "name": "Étang des Ballastières", "category": "Reservoir", "area_ha": 5.4, "altitude_m": null }, "geometry": { "type": "Point", "coordinates": [ 2.40391, 50.64958 ] } },
{ "type": "Feature", "properties": { "name": "Unnamed", "category": "Reservoir", "area_ha": 8.9, "altitude_m": null }, "geometry": { "type": "Point", "coordinates": [ 2.88932, 50.43663 ] } },
{ "type": "Feature", "properties": { "name": "Unnamed", "category": "Reservoir", "area_ha": 5.3, "altitude_m": null }, "geometry": { "type": "Point", "coordinates": [ 2.88465, 50.29244 ] } },
{ "type": "Feature", "properties": { "name": "Unnamed", "category": "Reservoir", "area_ha": 9.7, "altitude_m": null }, "geometry": { "type": "Point", "coordinates": [ 1.65559, 50.87783 ] } },
{ "type": "Feature", "properties": { "name": "Unnamed", "category": "Reservoir", "area_ha": 14.1, "altitude_m": null }, "geometry": { "type": "Point", "coordinates": [ 1.65041, 50.62583 ] } },
{ "type": "Feature", "properties": { "name": "Unnamed", "category": "Reservoir", "area_ha": 9.0, "altitude_m": null }, "geometry": { "type": "Point", "coordinates": [ 3.03846, 50.32636 ] } },
{ "type": "Feature", "properties": { "name": "Unnamed", "category": "Reservoir", "area_ha": 6.9, "altitude_m": null }, "geometry": { "type": "Point", "coordinates": [ 3.033, 50.32256 ] } },
{ "type": "Feature", "properties": { "name": "Unnamed", "category": "Reservoir", "area_ha": 9.2, "altitude_m": null }, "geometry": { "type": "Point", "coordinates": [ 2.883, 50.50162 ] } },
{ "type": "Feature", "properties": { "name": "Unnamed", "category": "Reservoir", "area_ha": 11.0, "altitude_m": null }, "geometry": { "type": "Point", "coordinates": [ 2.86232, 50.29507 ] } },
{ "type": "Feature", "properties": { "name": "Unnamed", "category": "Reservoir", "area_ha": 5.4, "altitude_m": null }, "geometry": { "type": "Point", "coordinates": [ 2.82699, 50.41875 ] } },
{ "type": "Feature", "properties": { "name": "Unnamed", "category": "Reservoir", "area_ha": 6.3, "altitude_m": null }, "geometry": { "type": "Point", "coordinates": [ 1.84964, 50.44143 ] } },
{ "type": "Feature", "properties": { "name": "Unnamed", "category": "Reservoir", "area_ha": 7.6, "altitude_m": null }, "geometry": { "type": "Point", "coordinates": [ 2.67417, 50.49465 ] } },
{ "type": "Feature", "properties": { "name": "Bassin des Chasses", "category": "Reservoir", "area_ha": 5.9, "altitude_m": null }, "geometry": { "type": "Point", "coordinates": [ 1.83775, 50.96071 ] } },
{ "type": "Feature", "properties": { "name": "Unnamed", "category": "Reservoir", "area_ha": 5.8, "altitude_m": null }, "geometry": { "type": "Point", "coordinates": [ 2.98535, 50.48211 ] } },
{ "type": "Feature", "properties": { "name": "le Grand Marais", "category": "Reservoir", "area_ha": 10.7, "altitude_m": null }, "geometry": { "type": "Point", "coordinates": [ 3.06497, 50.20967 ] } },
{ "type": "Feature", "properties": { "name": "Étang de Malhove", "category": "Reservoir", "area_ha": 12.6, "altitude_m": null }, "geometry": { "type": "Point", "coordinates": [ 2.30256, 50.75011 ] } },
{ "type": "Feature", "properties": { "name": "Étang Beauséjour", "category": "Reservoir", "area_ha": 9.4, "altitude_m": null }, "geometry": { "type": "Point", "coordinates": [ 2.30195, 50.74532 ] } },
{ "type": "Feature", "properties": { "name": "Marais de Biache-Saint-Vaast", "category": "Reservoir", "area_ha": 9.0, "altitude_m": null }, "geometry": { "type": "Point", "coordinates": [ 2.93701, 50.3061 ] } },
{ "type": "Feature", "properties": { "name": "Marais du Pont", "category": "Reservoir", "area_ha": 16.4, "altitude_m": null }, "geometry": { "type": "Point", "coordinates": [ 2.89286, 50.28963 ] } },
{ "type": "Feature", "properties": { "name": "Marais de Becquerel", "category": "Reservoir", "area_ha": 7.8, "altitude_m": null }, "geometry": { "type": "Point", "coordinates": [ 3.0906, 50.25642 ] } },
{ "type": "Feature", "properties": { "name": "Unnamed", "category": "Reservoir", "area_ha": 11.5, "altitude_m": null }, "geometry": { "type": "Point", "coordinates": [ 1.93388, 50.95795 ] } },
{ "type": "Feature", "properties": { "name": "Unnamed", "category": "Reservoir", "area_ha": 10.3, "altitude_m": null }, "geometry": { "type": "Point", "coordinates": [ 2.73152, 50.51913 ] } },
{ "type": "Feature", "properties": { "name": "Lac Bleu", "category": "Reservoir", "area_ha": 14.1, "altitude_m": null }, "geometry": { "type": "Point", "coordinates": [ 2.91461, 50.2986 ] } },
{ "type": "Feature", "properties": { "name": "Unnamed", "category": "Reservoir", "area_ha": 5.5, "altitude_m": null }, "geometry": { "type": "Point", "coordinates": [ 1.94706, 50.41248 ] } },
{ "type": "Feature", "properties": { "name": "Plan d'Eau de la Gravière", "category": "Reservoir", "area_ha": 21.8, "altitude_m": null }, "geometry": { "type": "Point", "coordinates": [ 1.8012, 50.95102 ] } },
{ "type": "Feature", "properties": { "name": "Unnamed", "category": "Reservoir", "area_ha": 9.0, "altitude_m": null }, "geometry": { "type": "Point", "coordinates": [ 2.87506, 50.50733 ] } },
{ "type": "Feature", "properties": { "name": "Unnamed", "category": "Reservoir", "area_ha": 7.9, "altitude_m": null }, "geometry": { "type": "Point", "coordinates": [ 2.65706, 50.53426 ] } }
]
}
