{
"type": "FeatureCollection",
"name": "dep63.geojson",
"crs": { "type": "name", "properties": { "name": "urn:ogc:def:crs:OGC:1.3:CRS84" } },
"xy_coordinate_resolution": 1e-05,
"features": [
{ "type": "Feature", "properties": { "name": "Étang de Montmazot", "category": "Reservoir", "area_ha": 6.3, "altitude_m": null }, "geometry": { "type": "Point", "coordinates": [ 2.77136, 46.19085 ] } },
{ "type": "Feature", "properties": { "name": "Unnamed", "category": "Reservoir", "area_ha": 6.8, "altitude_m": null }, "geometry": { "type": "Point", "coordinates": [ 3.26019, 45.81434 ] } },
{ "type": "Feature", "properties": { "name": "Étang de Marchaud", "category": "Reservoir", "area_ha": 11.2, "altitude_m": null }, "geometry": { "type": "Point", "coordinates": [ 3.57801, 45.43772 ] } },
{ "type": "Feature", "properties": { "name": "Unnamed", "category": "Reservoir", "area_ha": 5.3, "altitude_m": null }, "geometry": { "type": "Point", "coordinates": [ 3.48598, 45.85861 ] } },
{ "type": "Feature", "properties": { "name": "Lac Pavin", "category": "Lake", "area_ha": 44.7, "altitude_m": null }, "geometry": { "type": "Point", "coordinates": [ 2.88789, 45.49588 ] } },
{ "type": "Feature", "properties": { "name": "Étang de Riols", "category": "Reservoir", "area_ha": 16.6, "altitude_m": null }, "geometry": { "type": "Point", "coordinates": [ 3.71306, 45.46547 ] } },
{ "type": "Feature", "properties": { "name": "Unnamed", "category": "Reservoir", "area_ha": 7.3, "altitude_m": null }, "geometry": { "type": "Point", "coordinates": [ 2.56219, 45.84323 ] } },
{ "type": "Feature", "properties": { "name": "Unnamed", "category": "Reservoir", "area_ha": 7.8, "altitude_m": null }, "geometry": { "type": "Point", "coordinates": [ 3.47499, 45.88214 ] } },
{ "type": "Feature", "properties": { "name": "Étang de Tyx", "category": "Reservoir", "area_ha": 64.2, "altitude_m": null }, "geometry": { "type": "Point", "coordinates": [ 2.50379, 45.853 ] } },
{ "type": "Feature", "properties": { "name": "Lac Chambon", "category": "Lake", "area_ha": 50.4, "altitude_m": null }, "geometry": { "type": "Point", "coordinates": [ 2.92192, 45.57066 ] } },
{ "type": "Feature", "properties": { "name": "Retenue des Fades Besserve", "category": "Dam", "area_ha": 327.7, "altitude_m": null }, "geometry": { "type": "Point", "coordinates": [ 2.77799, 45.94208 ] } },
{ "type": "Feature", "properties": { "name": "Lac d'Aydat", "category": "Lake", "area_ha": 59.5, "altitude_m": null }, "geometry": { "type": "Point", "coordinates": [ 2.98581, 45.6651 ] } },
{ "type": "Feature", "properties": { "name": "Lac de l'Esclauze", "category": "Reservoir", "area_ha": 24.9, "altitude_m": null }, "geometry": { "type": "Point", "coordinates": [ 2.77589, 45.39317 ] } },
{ "type": "Feature", "properties": { "name": "Unnamed", "category": "Reservoir", "area_ha": 13.3, "altitude_m": null }, "geometry": { "type": "Point", "coordinates": [ 3.28189, 45.8247 ] } },
{ "type": "Feature", "properties": { "name": "Unnamed", "category": "Reservoir", "area_ha": 6.0, "altitude_m": null }, "geometry": { "type": "Point", "coordinates": [ 3.14953, 45.79594 ] } },
{ "type": "Feature", "properties": { "name": "Lac de Servières", "category": "Lake", "area_ha": 16.3, "altitude_m": null }, "geometry": { "type": "Point", "coordinates": [ 2.85935, 45.64552 ] } },
{ "type": "Feature", "properties": { "name": "Étang de Luzeau", "category": "Reservoir", "area_ha": 5.2, "altitude_m": null }, "geometry": { "type": "Point", "coordinates": [ 2.40746, 45.8329 ] } },
{ "type": "Feature", "properties": { "name": "Barrage des Pradeaux", "category": "Dam", "area_ha": 23.3, "altitude_m": null }, "geometry": { "type": "Point", "coordinates": [ 3.8461, 45.5423 ] } },
{ "type": "Feature", "properties": { "name": "Lac des Bordes", "category": "Reservoir", "area_ha": 13.7, "altitude_m": null }, "geometry": { "type": "Point", "coordinates": [ 2.97217, 45.42296 ] } },
{ "type": "Feature", "properties": { "name": "Unnamed", "category": "Reservoir", "area_ha": 6.6, "altitude_m": null }, "geometry": { "type": "Point", "coordinates": [ 3.2937, 45.84553 ] } },
{ "type": "Feature", "properties": { "name": "Unnamed", "category": "Reservoir", "area_ha": 5.6, "altitude_m": null }, "geometry": { "type": "Point", "coordinates": [ 3.16299, 45.40319 ] } },
{ "type": "Feature", "properties": { "name": "Lac Chauvet", "category": "Lake", "area_ha": 52.3, "altitude_m": null }, "geometry": { "type": "Point", "coordinates": [ 2.83077, 45.45955 ] } },
{ "type": "Feature", "properties": { "name": "Lac de Montcineyre", "category": "Lake", "area_ha": 40.7, "altitude_m": null }, "geometry": { "type": "Point", "coordinates": [ 2.8959, 45.45884 ] } },
{ "type": "Feature", "properties": { "name": "Unnamed", "category": "Reservoir", "area_ha": 6.8, "altitude_m": null }, "geometry": { "type": "Point", "coordinates": [ 3.48579, 45.86809 ] } },
{ "type": "Feature", "properties": { "name": "le Plan d'Eau", "category": "Reservoir", "area_ha": 16.8, "altitude_m": null }, "geometry": { "type": "Point", "coordinates": [ 2.83393, 46.15472 ] } },
{ "type": "Feature", "properties": { "name": "Étang des Maures", "category": "Reservoir", "area_ha": 7.3, "altitude_m": null }, "geometry": { "type": "Point", "coordinates": [ 3.36601, 45.66754 ] } },
{ "type": "Feature", "properties": { "name": "Unnamed", "category": "Reservoir", "area_ha": 5.6, "altitude_m": null }, "geometry": { "type": "Point", "coordinates": [ 2.89245, 45.41684 ] } },
{ "type": "Feature", "properties": { "name": "Unnamed", "category": "Reservoir", "area_ha": 6.8, "altitude_m": null }, "geometry": { "type": "Point", "coordinates": [ 2.43237, 45.83387 ] } },
{ "type": "Feature", "properties": { "name": "Étang de la Fargette", "category": "Reservoir", "area_ha": 5.3, "altitude_m": null }, "geometry": { "type": "Point", "coordinates": [ 3.5567, 45.46498 ] } },
{ "type": "Feature", "properties": { "name": "Unnamed", "category": "Reservoir", "area_ha": 7.8, "altitude_m": null }, "geometry": { "type": "Point", "coordinates": [ 2.91117, 45.43957 ] } },
{ "type": "Feature", "properties": { "name": "Unnamed", "category": "Reservoir", "area_ha": 8.9, "altitude_m": null }, "geometry": { "type": "Point", "coordinates": [ 3.48104, 45.88295 ] } },
{ "type": "Feature", "properties": { "name": "Unnamed", "category": "Reservoir", "area_ha": 23.1, "altitude_m": null }, "geometry": { "type": "Point", "coordinates": [ 3.26729, 45.81896 ] } },
{ "type": "Feature", "properties": { "name": "Plan d'Eau des Couleyras", "category": "Reservoir", "area_ha": 18.7, "altitude_m": null }, "geometry": { "type": "Point", "coordinates": [ 3.29829, 45.84969 ] } },
{ "type": "Feature", "properties": { "name": "Étang Grand", "category": "Reservoir", "area_ha": 14.6, "altitude_m": null }, "geometry": { "type": "Point", "coordinates": [ 2.9173, 45.89171 ] } },
{ "type": "Feature", "properties": { "name": "Unnamed", "category": "Reservoir", "area_ha": 7.1, "altitude_m": null }, "geometry": { "type": "Point", "coordinates": [ 3.27608, 45.55112 ] } },
{ "type": "Feature", "properties": { "name": "Unnamed", "category": "Reservoir", "area_ha": 9.6, "altitude_m": null }, "geometry": { "type": "Point", "coordinates": [ 2.90863, 45.4195 ] } },
{ "type": "Feature", "properties": { "name": "Unnamed", "category": "Reservoir", "area_ha": 13.6, "altitude_m": null }, "geometry": { "type": "Point", "coordinates": [ 2.62343, 45.45943 ] } },
{ "type": "Feature", "properties": { "name": "Unnamed", "category": "Reservoir", "area_ha": 7.6, "altitude_m": null }, "geometry": { "type": "Point", "coordinates": [ 2.889, 45.41561 ] } },
{ "type": "Feature", "properties": { "name": "Unnamed", "category": "Reservoir", "area_ha": 8.8, "altitude_m": null }, "geometry": { "type": "Point", "coordinates": [ 2.93674, 46.14002 ] } },
{ "type": "Feature", "properties": { "name": "Unnamed", "category": "Reservoir", "area_ha": 11.1, "altitude_m": null }, "geometry": { "type": "Point", "coordinates": [ 2.88581, 46.22211 ] } },
{ "type": "Feature", "properties": { "name": "Étang de Colombière Cinq Cent Vingt", "category": "Reservoir", "area_ha": 5.8, "altitude_m": null }, "geometry": { "type": "Point", "coordinates": [ 3.55567, 45.50548 ] } },
{ "type": "Feature", "properties": { "name": "Unnamed", "category": "Reservoir", "area_ha": 5.3, "altitude_m": null }, "geometry": { "type": "Point", "coordinates": [ 3.41504, 45.68222 ] } },
{ "type": "Feature", "properties": { "name": "Unnamed", "category": "Reservoir", "area_ha": 9.3, "altitude_m": null }, "geometry": { "type": "Point", "coordinates": [ 2.51738, 45.84653 ] } },
{ "type": "Feature", "properties": { "name": "Unnamed", "category": "Reservoir", "area_ha": 5.2, "altitude_m": null }, "geometry": { "type": "Point", "coordinates": [ 3.46787, 46.04041 ] } },
{ "type": "Feature", "properties": { "name": "Unnamed", "category": "Reservoir", "area_ha": 5.3, "altitude_m": null }, "geometry": { "type": "Point", "coordinates": [ 3.45797, 45.83808 ] } },
{ "type": "Feature", "properties": { "name": "Étang de Durat", "category": "Reservoir", "area_ha": 7.3, "altitude_m": null }, "geometry": { "type": "Point", "coordinates": [ 2.70046, 46.10307 ] } },
{ "type": "Feature", "properties": { "name": "Unnamed", "category": "Reservoir", "area_ha": 5.5, "altitude_m": null }, "geometry": { "type": "Point", "coordinates": [ 3.48855, 45.85344 ] } },
{ "type": "Feature", "properties": { "name": "Lac de Bourdouze", "category": "Reservoir", "area_ha": 38.8, "altitude_m": null }, "geometry": { "type": "Point", "coordinates": [ 2.92592, 45.46788 ] } },
{ "type": "Feature", "properties": { "name": "Lac de la Cassière", "category": "Reservoir", "area_ha": 13.5, "altitude_m": null }, "geometry": { "type": "Point", "coordinates": [ 2.99734, 45.68756 ] } },
{ "type": "Feature", "properties": { "name": "Unnamed", "category": "Reservoir", "area_ha": 5.5, "altitude_m": null }, "geometry": { "type": "Point", "coordinates": [ 2.42483, 45.82229 ] } },
{ "type": "Feature", "properties": { "name": "Étang de Chancelade", "category": "Reservoir", "area_ha": 98.6, "altitude_m": null }, "geometry": { "type": "Point", "coordinates": [ 2.61912, 45.96188 ] } },
{ "type": "Feature", "properties": { "name": "Étang de la Corre", "category": "Reservoir", "area_ha": 9.4, "altitude_m": null }, "geometry": { "type": "Point", "coordinates": [ 2.82045, 46.23619 ] } },
{ "type": "Feature", "properties": { "name": "Étang de Gelines", "category": "Reservoir", "area_ha": 7.3, "altitude_m": null }, "geometry": { "type": "Point", "coordinates": [ 2.70958, 46.16837 ] } },
{ "type": "Feature", "properties": { "name": "Étang de Lachamp", "category": "Reservoir", "area_ha": 5.4, "altitude_m": null }, "geometry": { "type": "Point", "coordinates": [ 2.94978, 45.92982 ] } },
{ "type": "Feature", "properties": { "name": "Étang de Giat", "category": "Reservoir", "area_ha": 6.7, "altitude_m": null }, "geometry": { "type": "Point", "coordinates": [ 3.14676, 46.04936 ] } },
{ "type": "Feature", "properties": { "name": "Gour de Tazenat", "category": "Reservoir", "area_ha": 33.6, "altitude_m": null }, "geometry": { "type": "Point", "coordinates": [ 2.99099, 45.98055 ] } },
{ "type": "Feature", "properties": { "name": "Étang de Vergne-Labouesse", "category": "Reservoir", "area_ha": 7.9, "altitude_m": null }, "geometry": { "type": "Point", "coordinates": [ 2.62012, 45.93201 ] } },
{ "type": "Feature", "properties": { "name": "Étang Philippe", "category": "Reservoir", "area_ha": 10.4, "altitude_m": null }, "geometry": { "type": "Point", "coordinates": [ 2.81429, 46.03862 ] } },
{ "type": "Feature", "properties": { "name": "Étang de la Siauve", "category": "Reservoir", "area_ha": 8.1, "altitude_m": null }, "geometry": { "type": "Point", "coordinates": [ 2.58871, 45.87771 ] } },
{ "type": "Feature", "properties": { "name": "Étang de la Moulade", "category": "Reservoir", "area_ha": 6.6, "altitude_m": null }, "geometry": { "type": "Point", "coordinates": [ 2.40627, 45.82374 ] } },
{ "type": "Feature", "properties": { "name": "Étang Gasserot", "category": "Reservoir", "area_ha": 10.2, "altitude_m": null }, "geometry": { "type": "Point", "coordinates": [ 2.50575, 45.86394 ] } },
{ "type": "Feature", "properties": { "name": "Étang des Agadis", "category": "Reservoir", "area_ha": 5.1, "altitude_m": null }, "geometry": { "type": "Point", "coordinates": [ 2.42126, 45.82625 ] } },
{ "type": "Feature", "properties": { "name": "Étang de Fayat", "category": "Reservoir", "area_ha": 8.9, "altitude_m": null }, "geometry": { "type": "Point", "coordinates": [ 2.50957, 45.74063 ] } },
{ "type": "Feature", "properties": { "name": "Lac de Guéry", "category": "Reservoir", "area_ha": 26.3, "altitude_m": null }, "geometry": { "type": "Point", "coordinates": [ 2.82213, 45.61535 ] } },
{ "type": "Feature", "properties": { "name": "Lac de Saint-Alyre", "category": "Reservoir", "area_ha": 8.2, "altitude_m": null }, "geometry": { "type": "Point", "coordinates": [ 2.94655, 45.37638 ] } },
{ "type": "Feature", "properties": { "name": "Lac d'en haut", "category": "Reservoir", "area_ha": 14.5, "altitude_m": null }, "geometry": { "type": "Point", "coordinates": [ 2.91665, 45.38723 ] } },
{ "type": "Feature", "properties": { "name": "Étang des Martailles", "category": "Reservoir", "area_ha": 20.4, "altitude_m": null }, "geometry": { "type": "Point", "coordinates": [ 3.28659, 45.83492 ] } },
{ "type": "Feature", "properties": { "name": "Unnamed", "category": "Reservoir", "area_ha": 8.5, "altitude_m": null }, "geometry": { "type": "Point", "coordinates": [ 3.25973, 45.80667 ] } },
{ "type": "Feature", "properties": { "name": "Unnamed", "category": "Reservoir", "area_ha": 7.6, "altitude_m": null }, "geometry": { "type": "Point", "coordinates": [ 3.27681, 45.51892 ] } },
{ "type": "Feature", "properties": { "name": "Unnamed", "category": "Reservoir", "area_ha": 7.7, "altitude_m": null }, "geometry": { "type": "Point", "coordinates": [ 2.89864, 45.42747 ] } },
{ "type": "Feature", "properties": { "name": "Étang de Malganne", "category": "Reservoir", "area_ha": 13.5, "altitude_m": null }, "geometry": { "type": "Point", "coordinates": [ 2.50969, 45.76938 ] } },
{ "type": "Feature", "properties": { "name": "Étang de Farges", "category": "Reservoir", "area_ha": 10.9, "altitude_m": null }, "geometry": { "type": "Point", "coordinates": [ 2.54329, 45.7251 ] } },
{ "type": "Feature", "properties": { "name": "Lac d'en bas", "category": "Reservoir", "area_ha": 12.3, "altitude_m": null }, "geometry": { "type": "Point", "coordinates": [ 2.92547, 45.38537 ] } },
{ "type": "Feature", "properties": { "name": "Lac de la Landie", "category": "Reservoir", "area_ha": 26.2, "altitude_m": null }, "geometry": { "type": "Point", "coordinates": [ 2.76599, 45.42119 ] } },
{ "type": "Feature", "properties": { "name": "Barrage de Queuille", "category": "Dam", "area_ha": 51.6, "altitude_m": null }, "geometry": { "type": "Point", "coordinates": [ 2.84231, 45.98507 ] } },
{ "type": "Feature", "properties": { "name": "Unnamed", "category": "Dam", "area_ha": 2.3, "altitude_m": null }, "geometry": { "type": "Point", "coordinates": [ 3.65625, 45.92673 ] } },
{ "type": "Feature", "properties": { "name": "Unnamed", "category": "Dam", "area_ha": 32.7, "altitude_m": null }, "geometry": { "type": "Point", "coordinates": [ 3.01766, 46.0332 ] } },
{ "type": "Feature", "properties": { "name": "Unnamed", "category": "Dam", "area_ha": 9.8, "altitude_m": null }, "geometry": { "type": "Point", "coordinates": [ 2.62952, 45.46108 ] } },
{ "type": "Feature", "properties": { "name": "Unnamed", "category": "Dam", "area_ha": 2.9, "altitude_m": null }, "geometry": { "type": "Point", "coordinates": [ 2.73092, 45.3903 ] } },
{ "type": "Feature", "properties": { "name": "Barrage de Montaigut", "category": "Dam", "area_ha": 3.2, "altitude_m": null }, "geometry": { "type": "Point", "coordinates": [ 2.81922, 46.17226 ] } },
{ "type": "Feature", "properties": { "name": "Lac des Hermines", "category": "Dam", "area_ha": 8.8, "altitude_m": null }, "geometry": { "type": "Point", "coordinates": [ 2.85609, 45.50784 ] } },
{ "type": "Feature", "properties": { "name": "Retenue d'Anchald", "category": "Dam", "area_ha": 17.1, "altitude_m": null }, "geometry": { "type": "Point", "coordinates": [ 2.84081, 45.84325 ] } },
{ "type": "Feature", "properties": { "name": "Unnamed", "category": "Dam", "area_ha": 2.4, "altitude_m": null }, "geometry": { "type": "Point", "coordinates": [ 2.84348, 46.1424 ] } },
{ "type": "Feature", "properties": { "name": "Unnamed", "category": "Dam", "area_ha": 26.2, "altitude_m": null }, "geometry": { "type": "Point", "coordinates": [ 3.60797, 45.7476 ] } },
{ "type": "Feature", "properties": { "name": "Unnamed", "category": "Dam", "area_ha": 4.8, "altitude_m": null }, "geometry": { "type": "Point", "coordinates": [ 3.52537, 45.71061 ] } },
{ "type": "Feature", "properties": { "name": "Lac de Saint-Rémy-sur-Durolle", "category": "Dam", "area_ha": 10.3, "altitude_m": null }, "geometry": { "type": "Point", "coordinates": [ 3.60074, 45.89522 ] } }
]
}
