{
"type": "FeatureCollection",
"name": "dep60.geojson",
"crs": { "type": "name", "properties": { "name": "urn:ogc:def:crs:OGC:1.3:CRS84" } },
"xy_coordinate_resolution": 1e-05,
"features": [
{ "type": "Feature", "properties": { "name": "Ancienne Sablière de la Maladrerie", "category": "Reservoir", "area_ha": 6.3, "altitude_m": null }, "geometry": { "type": "Point", "coordinates": [ 2.42202, 49.25324 ] } },
{ "type": "Feature", "properties": { "name": "Sablière 5 de la Pâture de Campdeville", "category": "Reservoir", "area_ha": 6.2, "altitude_m": null }, "geometry": { "type": "Point", "coordinates": [ 2.02422, 49.47988 ] } },
{ "type": "Feature", "properties": { "name": "Sablière 4 de la Pâture de Campdeville", "category": "Reservoir", "area_ha": 8.6, "altitude_m": null }, "geometry": { "type": "Point", "coordinates": [ 2.02774, 49.47973 ] } },
{ "type": "Feature", "properties": { "name": "Sablière du Barrage", "category": "Reservoir", "area_ha": 14.9, "altitude_m": null }, "geometry": { "type": "Point", "coordinates": [ 2.72823, 49.3232 ] } },
{ "type": "Feature", "properties": { "name": "Sablière 3 des Champs Rouges", "category": "Reservoir", "area_ha": 9.2, "altitude_m": null }, "geometry": { "type": "Point", "coordinates": [ 2.65965, 49.3177 ] } },
{ "type": "Feature", "properties": { "name": "Plan d'Eau 1 du Marais du Bout d'Amont", "category": "Reservoir", "area_ha": 14.0, "altitude_m": null }, "geometry": { "type": "Point", "coordinates": [ 2.68938, 49.33615 ] } },
{ "type": "Feature", "properties": { "name": "Tourbière du Ru de la Fontaine Froide", "category": "Reservoir", "area_ha": 5.2, "altitude_m": null }, "geometry": { "type": "Point", "coordinates": [ 2.58208, 49.33955 ] } },
{ "type": "Feature", "properties": { "name": "Plan d'Eau 1 de la Commune d'Angy", "category": "Reservoir", "area_ha": 8.3, "altitude_m": null }, "geometry": { "type": "Point", "coordinates": [ 2.32075, 49.32958 ] } },
{ "type": "Feature", "properties": { "name": "Sablière 2 des Ruminées", "category": "Reservoir", "area_ha": 12.6, "altitude_m": null }, "geometry": { "type": "Point", "coordinates": [ 2.71885, 49.32788 ] } },
{ "type": "Feature", "properties": { "name": "Plan d'Eau 2 du Petit Muid", "category": "Reservoir", "area_ha": 11.8, "altitude_m": null }, "geometry": { "type": "Point", "coordinates": [ 2.72243, 49.33642 ] } },
{ "type": "Feature", "properties": { "name": "Plan d'Eau 1 du Bois de la Mineuse", "category": "Reservoir", "area_ha": 6.5, "altitude_m": null }, "geometry": { "type": "Point", "coordinates": [ 2.69671, 49.33605 ] } },
{ "type": "Feature", "properties": { "name": "Sablière 1 de la Plaine d'Herneuse", "category": "Reservoir", "area_ha": 8.2, "altitude_m": null }, "geometry": { "type": "Point", "coordinates": [ 2.74577, 49.33659 ] } },
{ "type": "Feature", "properties": { "name": "Unnamed", "category": "Reservoir", "area_ha": 11.4, "altitude_m": null }, "geometry": { "type": "Point", "coordinates": [ 3.07413, 49.56568 ] } },
{ "type": "Feature", "properties": { "name": "Étang de l'Épine", "category": "Reservoir", "area_ha": 34.1, "altitude_m": null }, "geometry": { "type": "Point", "coordinates": [ 2.6144, 49.12647 ] } },
{ "type": "Feature", "properties": { "name": "la Nacelle", "category": "Reservoir", "area_ha": 8.7, "altitude_m": null }, "geometry": { "type": "Point", "coordinates": [ 2.40244, 49.20669 ] } },
{ "type": "Feature", "properties": { "name": "Plan d'Eau 2 du Grand Marais", "category": "Reservoir", "area_ha": 6.5, "altitude_m": null }, "geometry": { "type": "Point", "coordinates": [ 2.05117, 49.46617 ] } },
{ "type": "Feature", "properties": { "name": "Sablière 3 du Bois de la Joie", "category": "Reservoir", "area_ha": 6.1, "altitude_m": null }, "geometry": { "type": "Point", "coordinates": [ 2.51655, 49.28564 ] } },
{ "type": "Feature", "properties": { "name": "Sablière 4 de la Plaine d'Herneuse", "category": "Reservoir", "area_ha": 5.5, "altitude_m": null }, "geometry": { "type": "Point", "coordinates": [ 2.73982, 49.32967 ] } },
{ "type": "Feature", "properties": { "name": "Sablière 1 de la Pâture de Campdeville", "category": "Reservoir", "area_ha": 6.8, "altitude_m": null }, "geometry": { "type": "Point", "coordinates": [ 2.03126, 49.47983 ] } },
{ "type": "Feature", "properties": { "name": "Étang de Toutevoie", "category": "Reservoir", "area_ha": 12.8, "altitude_m": null }, "geometry": { "type": "Point", "coordinates": [ 2.39408, 49.19973 ] } },
{ "type": "Feature", "properties": { "name": "Sablière 1 du Bois Harlé", "category": "Reservoir", "area_ha": 11.5, "altitude_m": null }, "geometry": { "type": "Point", "coordinates": [ 2.71551, 49.33996 ] } },
{ "type": "Feature", "properties": { "name": "Plan d'Eau de Chantraine", "category": "Reservoir", "area_ha": 16.8, "altitude_m": null }, "geometry": { "type": "Point", "coordinates": [ 2.38596, 49.26265 ] } },
{ "type": "Feature", "properties": { "name": "Plan d'Eau 3 de la Nacelle", "category": "Reservoir", "area_ha": 6.1, "altitude_m": null }, "geometry": { "type": "Point", "coordinates": [ 2.41516, 49.21092 ] } },
{ "type": "Feature", "properties": { "name": "le Champ d'Ourscamps", "category": "Reservoir", "area_ha": 6.0, "altitude_m": null }, "geometry": { "type": "Point", "coordinates": [ 2.96321, 49.53256 ] } },
{ "type": "Feature", "properties": { "name": "Sablière 1 des Ormelets", "category": "Reservoir", "area_ha": 17.6, "altitude_m": null }, "geometry": { "type": "Point", "coordinates": [ 2.72356, 49.3223 ] } },
{ "type": "Feature", "properties": { "name": "Sablière de la Remise d'Herneuse", "category": "Reservoir", "area_ha": 6.9, "altitude_m": null }, "geometry": { "type": "Point", "coordinates": [ 2.74257, 49.32532 ] } },
{ "type": "Feature", "properties": { "name": "les Halbrans", "category": "Reservoir", "area_ha": 11.4, "altitude_m": null }, "geometry": { "type": "Point", "coordinates": [ 2.36576, 49.2777 ] } },
{ "type": "Feature", "properties": { "name": "Plan d'Eau 2 de la Plaine du Marais", "category": "Reservoir", "area_ha": 5.3, "altitude_m": null }, "geometry": { "type": "Point", "coordinates": [ 2.67658, 49.33263 ] } },
{ "type": "Feature", "properties": { "name": "Unnamed", "category": "Reservoir", "area_ha": 13.5, "altitude_m": null }, "geometry": { "type": "Point", "coordinates": [ 3.0681, 49.56131 ] } },
{ "type": "Feature", "properties": { "name": "Sablière 3 de Terre Hennequin", "category": "Reservoir", "area_ha": 15.1, "altitude_m": null }, "geometry": { "type": "Point", "coordinates": [ 2.64395, 49.31737 ] } },
{ "type": "Feature", "properties": { "name": "Sablière 3 de la Plaine d'Herneuse", "category": "Reservoir", "area_ha": 7.2, "altitude_m": null }, "geometry": { "type": "Point", "coordinates": [ 2.74384, 49.32942 ] } },
{ "type": "Feature", "properties": { "name": "Plan d'Eau 3 du Grand Marais", "category": "Reservoir", "area_ha": 9.3, "altitude_m": null }, "geometry": { "type": "Point", "coordinates": [ 2.37012, 49.2641 ] } },
{ "type": "Feature", "properties": { "name": "Plan d'Eau du Château de Chantilly", "category": "Reservoir", "area_ha": 5.8, "altitude_m": null }, "geometry": { "type": "Point", "coordinates": [ 2.48475, 49.19239 ] } },
{ "type": "Feature", "properties": { "name": "Unnamed", "category": "Reservoir", "area_ha": 10.7, "altitude_m": null }, "geometry": { "type": "Point", "coordinates": [ 3.04141, 49.55863 ] } },
{ "type": "Feature", "properties": { "name": "Plan d'Eau du Canada", "category": "Reservoir", "area_ha": 36.4, "altitude_m": null }, "geometry": { "type": "Point", "coordinates": [ 2.05768, 49.45212 ] } },
{ "type": "Feature", "properties": { "name": "Plan d'Eau de la Commune de Varesnes", "category": "Reservoir", "area_ha": 13.2, "altitude_m": null }, "geometry": { "type": "Point", "coordinates": [ 3.08165, 49.56747 ] } },
{ "type": "Feature", "properties": { "name": "Unnamed", "category": "Reservoir", "area_ha": 6.6, "altitude_m": null }, "geometry": { "type": "Point", "coordinates": [ 2.88076, 49.46451 ] } },
{ "type": "Feature", "properties": { "name": "Plan d'Eau 1 du Marais de Rosoy", "category": "Reservoir", "area_ha": 6.3, "altitude_m": null }, "geometry": { "type": "Point", "coordinates": [ 2.52047, 49.34585 ] } },
{ "type": "Feature", "properties": { "name": "Sablière 2 du Bois Harlé", "category": "Reservoir", "area_ha": 15.0, "altitude_m": null }, "geometry": { "type": "Point", "coordinates": [ 2.70926, 49.33725 ] } },
{ "type": "Feature", "properties": { "name": "Sablière 1 de Pont Gabriel", "category": "Reservoir", "area_ha": 10.1, "altitude_m": null }, "geometry": { "type": "Point", "coordinates": [ 2.53344, 49.29201 ] } },
{ "type": "Feature", "properties": { "name": "Plan d'Eau 1 de la Plaine du Marais", "category": "Reservoir", "area_ha": 7.9, "altitude_m": null }, "geometry": { "type": "Point", "coordinates": [ 2.68154, 49.33189 ] } },
{ "type": "Feature", "properties": { "name": "Sablière 3 de l'Abbaye", "category": "Reservoir", "area_ha": 7.6, "altitude_m": null }, "geometry": { "type": "Point", "coordinates": [ 2.7132, 49.33042 ] } },
{ "type": "Feature", "properties": { "name": "Sablière des Gats", "category": "Reservoir", "area_ha": 35.5, "altitude_m": null }, "geometry": { "type": "Point", "coordinates": [ 2.74897, 49.32993 ] } },
{ "type": "Feature", "properties": { "name": "les Ecazieux", "category": "Reservoir", "area_ha": 11.7, "altitude_m": null }, "geometry": { "type": "Point", "coordinates": [ 2.95755, 49.53009 ] } },
{ "type": "Feature", "properties": { "name": "Plan d'Eau de la Source aux Cochons", "category": "Reservoir", "area_ha": 12.7, "altitude_m": null }, "geometry": { "type": "Point", "coordinates": [ 1.90904, 49.19325 ] } },
{ "type": "Feature", "properties": { "name": "Unnamed", "category": "Reservoir", "area_ha": 8.1, "altitude_m": null }, "geometry": { "type": "Point", "coordinates": [ 3.0388, 49.56375 ] } },
{ "type": "Feature", "properties": { "name": "Étang de Saint-Pierre", "category": "Reservoir", "area_ha": 13.3, "altitude_m": null }, "geometry": { "type": "Point", "coordinates": [ 2.96705, 49.37732 ] } },
{ "type": "Feature", "properties": { "name": "Plan d'Eau du Moulin de Villeteint", "category": "Reservoir", "area_ha": 8.7, "altitude_m": null }, "geometry": { "type": "Point", "coordinates": [ 2.35224, 49.28865 ] } },
{ "type": "Feature", "properties": { "name": "Plan d'Eau du Vivier Madame", "category": "Reservoir", "area_ha": 5.8, "altitude_m": null }, "geometry": { "type": "Point", "coordinates": [ 2.38654, 49.19913 ] } },
{ "type": "Feature", "properties": { "name": "Sablière 3 du Bois Harlé", "category": "Reservoir", "area_ha": 8.9, "altitude_m": null }, "geometry": { "type": "Point", "coordinates": [ 2.71152, 49.33475 ] } },
{ "type": "Feature", "properties": { "name": "le Champ d'Ourscamps", "category": "Reservoir", "area_ha": 8.6, "altitude_m": null }, "geometry": { "type": "Point", "coordinates": [ 2.9636, 49.52497 ] } },
{ "type": "Feature", "properties": { "name": "Sablière 2 du Bois à Bouleaux", "category": "Reservoir", "area_ha": 5.9, "altitude_m": null }, "geometry": { "type": "Point", "coordinates": [ 2.70595, 49.33102 ] } },
{ "type": "Feature", "properties": { "name": "Plan d'Eau du Berne", "category": "Reservoir", "area_ha": 5.6, "altitude_m": null }, "geometry": { "type": "Point", "coordinates": [ 2.89939, 49.42654 ] } },
{ "type": "Feature", "properties": { "name": "Plan d'Eau 2 du Boissy", "category": "Reservoir", "area_ha": 5.2, "altitude_m": null }, "geometry": { "type": "Point", "coordinates": [ 2.56916, 49.31119 ] } },
{ "type": "Feature", "properties": { "name": "Plan d'Eau 4 du Marais de Rosoy", "category": "Reservoir", "area_ha": 8.8, "altitude_m": null }, "geometry": { "type": "Point", "coordinates": [ 2.52628, 49.3408 ] } },
{ "type": "Feature", "properties": { "name": "Plan d'Eau 1 du Moulin de Monceaux", "category": "Reservoir", "area_ha": 5.4, "altitude_m": null }, "geometry": { "type": "Point", "coordinates": [ 1.99736, 49.51867 ] } },
{ "type": "Feature", "properties": { "name": "le Champ d'Ourscamps", "category": "Reservoir", "area_ha": 12.5, "altitude_m": null }, "geometry": { "type": "Point", "coordinates": [ 2.96679, 49.5231 ] } },
{ "type": "Feature", "properties": { "name": "le Champ d'Ourscamps", "category": "Reservoir", "area_ha": 11.2, "altitude_m": null }, "geometry": { "type": "Point", "coordinates": [ 2.96296, 49.52908 ] } },
{ "type": "Feature", "properties": { "name": "Plan d'Eau 2 de la Commune de Beaurepaire", "category": "Reservoir", "area_ha": 5.3, "altitude_m": null }, "geometry": { "type": "Point", "coordinates": [ 2.57867, 49.29566 ] } },
{ "type": "Feature", "properties": { "name": "Sablière 2 de la Plaine d'Herneuse", "category": "Reservoir", "area_ha": 8.9, "altitude_m": null }, "geometry": { "type": "Point", "coordinates": [ 2.7461, 49.33479 ] } },
{ "type": "Feature", "properties": { "name": "Plan d'Eau de Messie", "category": "Reservoir", "area_ha": 11.0, "altitude_m": null }, "geometry": { "type": "Point", "coordinates": [ 2.37754, 49.26476 ] } },
{ "type": "Feature", "properties": { "name": "Sablière 1 du Bois de la Joie", "category": "Reservoir", "area_ha": 6.8, "altitude_m": null }, "geometry": { "type": "Point", "coordinates": [ 2.51836, 49.29005 ] } },
{ "type": "Feature", "properties": { "name": "Sablière de la Corroie", "category": "Reservoir", "area_ha": 8.5, "altitude_m": null }, "geometry": { "type": "Point", "coordinates": [ 2.737, 49.32338 ] } },
{ "type": "Feature", "properties": { "name": "Plan d'Eau 2 du Moulin de Monceaux", "category": "Reservoir", "area_ha": 8.9, "altitude_m": null }, "geometry": { "type": "Point", "coordinates": [ 1.99597, 49.52444 ] } },
{ "type": "Feature", "properties": { "name": "Unnamed", "category": "Reservoir", "area_ha": 6.5, "altitude_m": null }, "geometry": { "type": "Point", "coordinates": [ 3.08341, 49.5652 ] } },
{ "type": "Feature", "properties": { "name": "Plan d'Eau 2 de Bracheux", "category": "Reservoir", "area_ha": 9.1, "altitude_m": null }, "geometry": { "type": "Point", "coordinates": [ 2.03266, 49.47693 ] } },
{ "type": "Feature", "properties": { "name": "Sablière 1 des Ruminées", "category": "Reservoir", "area_ha": 12.9, "altitude_m": null }, "geometry": { "type": "Point", "coordinates": [ 2.7142, 49.3234 ] } },
{ "type": "Feature", "properties": { "name": "Sablière 4 du Bois Harlé", "category": "Reservoir", "area_ha": 7.6, "altitude_m": null }, "geometry": { "type": "Point", "coordinates": [ 2.70467, 49.33509 ] } },
{ "type": "Feature", "properties": { "name": "Sablière de l'Évêché", "category": "Reservoir", "area_ha": 9.8, "altitude_m": null }, "geometry": { "type": "Point", "coordinates": [ 2.63556, 49.32031 ] } },
{ "type": "Feature", "properties": { "name": "Sablière 1 du Fond de Rambourg", "category": "Reservoir", "area_ha": 6.0, "altitude_m": null }, "geometry": { "type": "Point", "coordinates": [ 2.63764, 49.31282 ] } },
{ "type": "Feature", "properties": { "name": "Plan d'Eau 2 du Bois de la Mineuse", "category": "Reservoir", "area_ha": 15.4, "altitude_m": null }, "geometry": { "type": "Point", "coordinates": [ 2.69743, 49.33085 ] } },
{ "type": "Feature", "properties": { "name": "Unnamed", "category": "Reservoir", "area_ha": 5.1, "altitude_m": null }, "geometry": { "type": "Point", "coordinates": [ 3.0769, 49.56439 ] } },
{ "type": "Feature", "properties": { "name": "Plan d'Eau 2 de la Joyette", "category": "Reservoir", "area_ha": 9.0, "altitude_m": null }, "geometry": { "type": "Point", "coordinates": [ 2.92192, 49.4167 ] } },
{ "type": "Feature", "properties": { "name": "Plan d'Eau 3 des Trente Arpents", "category": "Reservoir", "area_ha": 7.0, "altitude_m": null }, "geometry": { "type": "Point", "coordinates": [ 2.65495, 49.32877 ] } },
{ "type": "Feature", "properties": { "name": "Base de Loisirs", "category": "Reservoir", "area_ha": 10.0, "altitude_m": null }, "geometry": { "type": "Point", "coordinates": [ 2.95334, 49.52595 ] } },
{ "type": "Feature", "properties": { "name": "Sablière de la Jouquoire", "category": "Reservoir", "area_ha": 31.0, "altitude_m": null }, "geometry": { "type": "Point", "coordinates": [ 2.64416, 49.32329 ] } },
{ "type": "Feature", "properties": { "name": "Sablière du Colombier", "category": "Reservoir", "area_ha": 5.3, "altitude_m": null }, "geometry": { "type": "Point", "coordinates": [ 2.54204, 49.29744 ] } },
{ "type": "Feature", "properties": { "name": "Plan d'Eau 2 de la Nacelle", "category": "Reservoir", "area_ha": 16.1, "altitude_m": null }, "geometry": { "type": "Point", "coordinates": [ 2.40889, 49.20855 ] } },
{ "type": "Feature", "properties": { "name": "Sablière 2 du Quénoy", "category": "Reservoir", "area_ha": 11.4, "altitude_m": null }, "geometry": { "type": "Point", "coordinates": [ 2.64896, 49.32091 ] } },
{ "type": "Feature", "properties": { "name": "Sablière du Rivage", "category": "Reservoir", "area_ha": 47.7, "altitude_m": null }, "geometry": { "type": "Point", "coordinates": [ 2.53337, 49.29554 ] } },
{ "type": "Feature", "properties": { "name": "Sablière 1 des Grandes Malmères", "category": "Reservoir", "area_ha": 21.1, "altitude_m": null }, "geometry": { "type": "Point", "coordinates": [ 2.70903, 49.32241 ] } },
{ "type": "Feature", "properties": { "name": "Sablière 1 du Bois à Bouleaux", "category": "Reservoir", "area_ha": 11.2, "altitude_m": null }, "geometry": { "type": "Point", "coordinates": [ 2.71083, 49.33227 ] } },
{ "type": "Feature", "properties": { "name": "Étangs de Milly", "category": "Reservoir", "area_ha": 8.5, "altitude_m": null }, "geometry": { "type": "Point", "coordinates": [ 2.00142, 49.49202 ] } },
{ "type": "Feature", "properties": { "name": "Étangs de Milly", "category": "Reservoir", "area_ha": 15.8, "altitude_m": null }, "geometry": { "type": "Point", "coordinates": [ 2.00981, 49.4931 ] } },
{ "type": "Feature", "properties": { "name": "Étang de Carandeau", "category": "Reservoir", "area_ha": 5.5, "altitude_m": null }, "geometry": { "type": "Point", "coordinates": [ 2.8955, 49.42874 ] } },
{ "type": "Feature", "properties": { "name": "Étang de Mello", "category": "Reservoir", "area_ha": 7.8, "altitude_m": null }, "geometry": { "type": "Point", "coordinates": [ 2.36685, 49.28159 ] } },
{ "type": "Feature", "properties": { "name": "Étang du Désert", "category": "Reservoir", "area_ha": 11.5, "altitude_m": null }, "geometry": { "type": "Point", "coordinates": [ 2.68794, 49.1323 ] } },
{ "type": "Feature", "properties": { "name": "Étangs de Comelle", "category": "Reservoir", "area_ha": 29.7, "altitude_m": null }, "geometry": { "type": "Point", "coordinates": [ 2.49037, 49.15751 ] } },
{ "type": "Feature", "properties": { "name": "les Étangs", "category": "Reservoir", "area_ha": 12.1, "altitude_m": null }, "geometry": { "type": "Point", "coordinates": [ 2.68877, 49.14399 ] } },
{ "type": "Feature", "properties": { "name": "Étang de Vallière", "category": "Reservoir", "area_ha": 8.5, "altitude_m": null }, "geometry": { "type": "Point", "coordinates": [ 2.60429, 49.11756 ] } },
{ "type": "Feature", "properties": { "name": "Plan d'Eau du Mont de Sable", "category": "Reservoir", "area_ha": 12.1, "altitude_m": null }, "geometry": { "type": "Point", "coordinates": [ 2.2694, 49.3995 ] } },
{ "type": "Feature", "properties": { "name": "Plan d'Eau 2 des Hauts Prés", "category": "Reservoir", "area_ha": 16.9, "altitude_m": null }, "geometry": { "type": "Point", "coordinates": [ 2.33978, 49.44216 ] } },
{ "type": "Feature", "properties": { "name": "Sablière 1 de Terre Hennequin", "category": "Reservoir", "area_ha": 41.9, "altitude_m": null }, "geometry": { "type": "Point", "coordinates": [ 2.65163, 49.31574 ] } },
{ "type": "Feature", "properties": { "name": "Sablière du Grand Bosquet", "category": "Reservoir", "area_ha": 21.1, "altitude_m": null }, "geometry": { "type": "Point", "coordinates": [ 2.63441, 49.32387 ] } },
{ "type": "Feature", "properties": { "name": "le Marais de la Place", "category": "Reservoir", "area_ha": 6.4, "altitude_m": null }, "geometry": { "type": "Point", "coordinates": [ 2.36612, 49.26576 ] } },
{ "type": "Feature", "properties": { "name": "Sablière 1 des Frayers", "category": "Reservoir", "area_ha": 20.4, "altitude_m": null }, "geometry": { "type": "Point", "coordinates": [ 2.63636, 49.3158 ] } },
{ "type": "Feature", "properties": { "name": "Sablière 3 de Pont Gabriel", "category": "Reservoir", "area_ha": 20.7, "altitude_m": null }, "geometry": { "type": "Point", "coordinates": [ 2.52375, 49.29258 ] } }
]
}
