{
"type": "FeatureCollection",
"name": "dep64.geojson",
"crs": { "type": "name", "properties": { "name": "urn:ogc:def:crs:OGC:1.3:CRS84" } },
"xy_coordinate_resolution": 1e-05,
"features": [
{ "type": "Feature", "properties": { "name": "Lac du Peilhou", "category": "Dam", "area_ha": 1.4, "altitude_m": null }, "geometry": { "type": "Point", "coordinates": [ -0.55858, 42.82793 ] } },
{ "type": "Feature", "properties": { "name": "Lac de Saint-Armou ou Lac d'Anos", "category": "Lake", "area_ha": 14.5, "altitude_m": null }, "geometry": { "type": "Point", "coordinates": [ -0.29727, 43.39851 ] } },
{ "type": "Feature", "properties": { "name": "Lac de Mouriscot", "category": "Lake", "area_ha": 21.4, "altitude_m": null }, "geometry": { "type": "Point", "coordinates": [ -1.55939, 43.45587 ] } },
{ "type": "Feature", "properties": { "name": "Unnamed", "category": "Dam", "area_ha": 1.4, "altitude_m": null }, "geometry": { "type": "Point", "coordinates": [ -0.16385, 43.47951 ] } },
{ "type": "Feature", "properties": { "name": "Unnamed", "category": "Dam", "area_ha": 2.5, "altitude_m": null }, "geometry": { "type": "Point", "coordinates": [ -1.63141, 43.3731 ] } },
{ "type": "Feature", "properties": { "name": "Étang de Brindos", "category": "Lake", "area_ha": 10.0, "altitude_m": null }, "geometry": { "type": "Point", "coordinates": [ -1.52782, 43.46135 ] } },
{ "type": "Feature", "properties": { "name": "Lac de Fabrèges", "category": "Dam", "area_ha": 40.8, "altitude_m": null }, "geometry": { "type": "Point", "coordinates": [ -0.39675, 42.87581 ] } },
{ "type": "Feature", "properties": { "name": "Lacs d'Arrémoulit", "category": "Lake", "area_ha": 9.2, "altitude_m": null }, "geometry": { "type": "Point", "coordinates": [ -0.32858, 42.84422 ] } },
{ "type": "Feature", "properties": { "name": "Unnamed", "category": "Reservoir", "area_ha": 6.6, "altitude_m": null }, "geometry": { "type": "Point", "coordinates": [ -0.94858, 43.52293 ] } },
{ "type": "Feature", "properties": { "name": "Lac d'Isabe", "category": "Lake", "area_ha": 7.1, "altitude_m": null }, "geometry": { "type": "Point", "coordinates": [ -0.50018, 42.93099 ] } },
{ "type": "Feature", "properties": { "name": "Unnamed", "category": "Reservoir", "area_ha": 11.5, "altitude_m": null }, "geometry": { "type": "Point", "coordinates": [ -0.7372, 43.47269 ] } },
{ "type": "Feature", "properties": { "name": "Unnamed", "category": "Dam", "area_ha": 7.3, "altitude_m": null }, "geometry": { "type": "Point", "coordinates": [ -0.05428, 43.2891 ] } },
{ "type": "Feature", "properties": { "name": "Lac d'Anglus", "category": "Dam", "area_ha": 1.7, "altitude_m": null }, "geometry": { "type": "Point", "coordinates": [ -0.55644, 42.80824 ] } },
{ "type": "Feature", "properties": { "name": "Unnamed", "category": "Dam", "area_ha": 0.8, "altitude_m": null }, "geometry": { "type": "Point", "coordinates": [ -0.41328, 42.88691 ] } },
{ "type": "Feature", "properties": { "name": "Lac de Barou", "category": "Lake", "area_ha": 5.1, "altitude_m": null }, "geometry": { "type": "Point", "coordinates": [ -1.02109, 43.45793 ] } },
{ "type": "Feature", "properties": { "name": "Lac de Dumirail", "category": "Lake", "area_ha": 10.6, "altitude_m": null }, "geometry": { "type": "Point", "coordinates": [ -1.02129, 43.46166 ] } },
{ "type": "Feature", "properties": { "name": "Lac du Grec", "category": "Lake", "area_ha": 8.4, "altitude_m": null }, "geometry": { "type": "Point", "coordinates": [ -0.76872, 43.49782 ] } },
{ "type": "Feature", "properties": { "name": "Lac d'Uzious", "category": "Lake", "area_ha": 6.7, "altitude_m": null }, "geometry": { "type": "Point", "coordinates": [ -0.31653, 42.92542 ] } },
{ "type": "Feature", "properties": { "name": "Lac Roumassot", "category": "Lake", "area_ha": 5.2, "altitude_m": null }, "geometry": { "type": "Point", "coordinates": [ -0.47918, 42.84806 ] } },
{ "type": "Feature", "properties": { "name": "Lac Bersau", "category": "Lake", "area_ha": 12.8, "altitude_m": null }, "geometry": { "type": "Point", "coordinates": [ -0.49566, 42.8392 ] } },
{ "type": "Feature", "properties": { "name": "Lac Gentau", "category": "Lake", "area_ha": 8.6, "altitude_m": null }, "geometry": { "type": "Point", "coordinates": [ -0.48778, 42.84815 ] } },
{ "type": "Feature", "properties": { "name": "Lac de Saint-Pée", "category": "Lake", "area_ha": 9.6, "altitude_m": null }, "geometry": { "type": "Point", "coordinates": [ -1.52068, 43.34677 ] } },
{ "type": "Feature", "properties": { "name": "Lac d'Orthez", "category": "Reservoir", "area_ha": 36.2, "altitude_m": null }, "geometry": { "type": "Point", "coordinates": [ -0.75124, 43.47306 ] } },
{ "type": "Feature", "properties": { "name": "Lac d'Uzein", "category": "Reservoir", "area_ha": 10.6, "altitude_m": null }, "geometry": { "type": "Point", "coordinates": [ -0.43735, 43.37812 ] } },
{ "type": "Feature", "properties": { "name": "Unnamed", "category": "Dam", "area_ha": 0.6, "altitude_m": null }, "geometry": { "type": "Point", "coordinates": [ -0.84038, 42.99786 ] } },
{ "type": "Feature", "properties": { "name": "Unnamed", "category": "Dam", "area_ha": 2.1, "altitude_m": null }, "geometry": { "type": "Point", "coordinates": [ -0.8465, 43.00227 ] } },
{ "type": "Feature", "properties": { "name": "Lac d'Arzacq", "category": "Dam", "area_ha": 12.5, "altitude_m": null }, "geometry": { "type": "Point", "coordinates": [ -0.41695, 43.53285 ] } },
{ "type": "Feature", "properties": { "name": "Retenue du Petit Lées", "category": "Dam", "area_ha": 19.1, "altitude_m": null }, "geometry": { "type": "Point", "coordinates": [ -0.09137, 43.39599 ] } },
{ "type": "Feature", "properties": { "name": "Lac de Lembeye-Corbères", "category": "Dam", "area_ha": 27.6, "altitude_m": null }, "geometry": { "type": "Point", "coordinates": [ -0.08607, 43.46015 ] } },
{ "type": "Feature", "properties": { "name": "Retenue de l'Arriutort", "category": "Dam", "area_ha": 19.7, "altitude_m": null }, "geometry": { "type": "Point", "coordinates": [ -0.33007, 43.5457 ] } },
{ "type": "Feature", "properties": { "name": "Lac de Doazon", "category": "Dam", "area_ha": 33.5, "altitude_m": null }, "geometry": { "type": "Point", "coordinates": [ -0.55221, 43.44432 ] } },
{ "type": "Feature", "properties": { "name": "Unnamed", "category": "Dam", "area_ha": 15.0, "altitude_m": null }, "geometry": { "type": "Point", "coordinates": [ -0.41925, 43.07066 ] } },
{ "type": "Feature", "properties": { "name": "Lac de Bious Artigues", "category": "Dam", "area_ha": 31.3, "altitude_m": null }, "geometry": { "type": "Point", "coordinates": [ -0.45424, 42.866 ] } },
{ "type": "Feature", "properties": { "name": "Retenue de Beiterech", "category": "Dam", "area_ha": 16.6, "altitude_m": null }, "geometry": { "type": "Point", "coordinates": [ -0.94112, 43.32899 ] } },
{ "type": "Feature", "properties": { "name": "Unnamed", "category": "Dam", "area_ha": 11.5, "altitude_m": null }, "geometry": { "type": "Point", "coordinates": [ -1.70798, 43.32091 ] } },
{ "type": "Feature", "properties": { "name": "Retenue de Camou", "category": "Dam", "area_ha": 14.1, "altitude_m": null }, "geometry": { "type": "Point", "coordinates": [ -1.00966, 43.35819 ] } },
{ "type": "Feature", "properties": { "name": "Retenue du Laâ", "category": "Dam", "area_ha": 19.8, "altitude_m": null }, "geometry": { "type": "Point", "coordinates": [ -0.68419, 43.33774 ] } },
{ "type": "Feature", "properties": { "name": "Lac du Balaing", "category": "Dam", "area_ha": 41.6, "altitude_m": null }, "geometry": { "type": "Point", "coordinates": [ -0.35187, 43.43912 ] } },
{ "type": "Feature", "properties": { "name": "Lac de Castillon", "category": "Dam", "area_ha": 7.7, "altitude_m": null }, "geometry": { "type": "Point", "coordinates": [ -0.1265, 43.48716 ] } },
{ "type": "Feature", "properties": { "name": "Lac de Cadillon", "category": "Dam", "area_ha": 15.4, "altitude_m": null }, "geometry": { "type": "Point", "coordinates": [ -0.14587, 43.51449 ] } },
{ "type": "Feature", "properties": { "name": "Lac du Gabassot ou de Garlin", "category": "Dam", "area_ha": 39.8, "altitude_m": null }, "geometry": { "type": "Point", "coordinates": [ -0.26623, 43.54529 ] } },
{ "type": "Feature", "properties": { "name": "Lac de Bassillon-Vauzé", "category": "Dam", "area_ha": 44.5, "altitude_m": null }, "geometry": { "type": "Point", "coordinates": [ -0.06477, 43.45734 ] } },
{ "type": "Feature", "properties": { "name": "Lac de l'Aigue Longue", "category": "Dam", "area_ha": 56.1, "altitude_m": null }, "geometry": { "type": "Point", "coordinates": [ -0.4612, 43.42652 ] } },
{ "type": "Feature", "properties": { "name": "Lac de Serres-Castet", "category": "Dam", "area_ha": 26.4, "altitude_m": null }, "geometry": { "type": "Point", "coordinates": [ -0.34032, 43.39018 ] } },
{ "type": "Feature", "properties": { "name": "Lac d'Artouste", "category": "Dam", "area_ha": 56.6, "altitude_m": null }, "geometry": { "type": "Point", "coordinates": [ -0.33178, 42.85825 ] } }
]
}
