{
"type": "FeatureCollection",
"name": "dep65.geojson",
"crs": { "type": "name", "properties": { "name": "urn:ogc:def:crs:OGC:1.3:CRS84" } },
"xy_coordinate_resolution": 1e-05,
"features": [
{ "type": "Feature", "properties": { "name": "Lac de Litouèse", "category": "Lake", "area_ha": 6.6, "altitude_m": null }, "geometry": { "type": "Point", "coordinates": [ -0.02541, 42.81686 ] } },
{ "type": "Feature", "properties": { "name": "Lac des Isclots", "category": "Lake", "area_ha": 6.2, "altitude_m": null }, "geometry": { "type": "Point", "coordinates": [ 0.45905, 42.71293 ] } },
{ "type": "Feature", "properties": { "name": "Lac du Pourtet", "category": "Lake", "area_ha": 6.1, "altitude_m": null }, "geometry": { "type": "Point", "coordinates": [ 0.08581, 42.83758 ] } },
{ "type": "Feature", "properties": { "name": "Lac de Labas", "category": "Lake", "area_ha": 5.7, "altitude_m": null }, "geometry": { "type": "Point", "coordinates": [ -0.09796, 42.78783 ] } },
{ "type": "Feature", "properties": { "name": "Lac d'Estom", "category": "Lake", "area_ha": 5.8, "altitude_m": null }, "geometry": { "type": "Point", "coordinates": [ -0.10019, 42.8062 ] } },
{ "type": "Feature", "properties": { "name": "Lac des Oulettes d'Estom Soubiran", "category": "Lake", "area_ha": 7.4, "altitude_m": null }, "geometry": { "type": "Point", "coordinates": [ -0.09274, 42.78833 ] } },
{ "type": "Feature", "properties": { "name": "Lac d'Arratille", "category": "Lake", "area_ha": 5.9, "altitude_m": null }, "geometry": { "type": "Point", "coordinates": [ -0.17458, 42.80116 ] } },
{ "type": "Feature", "properties": { "name": "Lacs de Nère", "category": "Lake", "area_ha": 6.5, "altitude_m": null }, "geometry": { "type": "Point", "coordinates": [ 0.45386, 42.7394 ] } },
{ "type": "Feature", "properties": { "name": "Lac de Clarabide", "category": "Lake", "area_ha": 8.8, "altitude_m": null }, "geometry": { "type": "Point", "coordinates": [ 0.46228, 42.69664 ] } },
{ "type": "Feature", "properties": { "name": "Unnamed", "category": "Reservoir", "area_ha": 6.7, "altitude_m": null }, "geometry": { "type": "Point", "coordinates": [ 0.41739, 43.28266 ] } },
{ "type": "Feature", "properties": { "name": "Lacs d'Estibe Aute", "category": "Lake", "area_ha": 11.2, "altitude_m": null }, "geometry": { "type": "Point", "coordinates": [ -0.11745, 42.81262 ] } },
{ "type": "Feature", "properties": { "name": "Lac de l'Arrêt darré", "category": "Dam", "area_ha": 106.8, "altitude_m": null }, "geometry": { "type": "Point", "coordinates": [ 0.19305, 43.22318 ] } },
{ "type": "Feature", "properties": { "name": "les Laquettes", "category": "Reservoir", "area_ha": 9.4, "altitude_m": null }, "geometry": { "type": "Point", "coordinates": [ 0.14693, 42.83445 ] } },
{ "type": "Feature", "properties": { "name": "Lac de Cap de Long", "category": "Dam", "area_ha": 118.3, "altitude_m": null }, "geometry": { "type": "Point", "coordinates": [ 0.13048, 42.82365 ] } },
{ "type": "Feature", "properties": { "name": "Lac de Caillauas", "category": "Dam", "area_ha": 45.6, "altitude_m": null }, "geometry": { "type": "Point", "coordinates": [ 0.44833, 42.72146 ] } },
{ "type": "Feature", "properties": { "name": "Lac Tourrat", "category": "Lake", "area_ha": 9.8, "altitude_m": null }, "geometry": { "type": "Point", "coordinates": [ 0.09849, 42.80851 ] } },
{ "type": "Feature", "properties": { "name": "Unnamed", "category": "Reservoir", "area_ha": 11.5, "altitude_m": null }, "geometry": { "type": "Point", "coordinates": [ 0.08503, 43.28567 ] } },
{ "type": "Feature", "properties": { "name": "Lac d'Oncet", "category": "Lake", "area_ha": 7.0, "altitude_m": null }, "geometry": { "type": "Point", "coordinates": [ 0.13475, 42.92914 ] } },
{ "type": "Feature", "properties": { "name": "Unnamed", "category": "Reservoir", "area_ha": 8.1, "altitude_m": null }, "geometry": { "type": "Point", "coordinates": [ -0.11164, 42.98768 ] } },
{ "type": "Feature", "properties": { "name": "Lac d'Estaing", "category": "Lake", "area_ha": 11.6, "altitude_m": null }, "geometry": { "type": "Point", "coordinates": [ -0.20693, 42.90741 ] } },
{ "type": "Feature", "properties": { "name": "Lac du Gabas", "category": "Dam", "area_ha": 180.2, "altitude_m": null }, "geometry": { "type": "Point", "coordinates": [ -0.131, 43.27982 ] } },
{ "type": "Feature", "properties": { "name": "Lac de Lassiédouat", "category": "Dam", "area_ha": 2.7, "altitude_m": null }, "geometry": { "type": "Point", "coordinates": [ -0.29238, 42.88518 ] } },
{ "type": "Feature", "properties": { "name": "Lac Nère", "category": "Lake", "area_ha": 5.9, "altitude_m": null }, "geometry": { "type": "Point", "coordinates": [ 0.121, 42.86368 ] } },
{ "type": "Feature", "properties": { "name": "Lacs de Batcrabère", "category": "Lake", "area_ha": 6.7, "altitude_m": null }, "geometry": { "type": "Point", "coordinates": [ -0.29996, 42.85093 ] } },
{ "type": "Feature", "properties": { "name": "Lac Glacé", "category": "Lake", "area_ha": 6.6, "altitude_m": null }, "geometry": { "type": "Point", "coordinates": [ -0.09, 42.77711 ] } },
{ "type": "Feature", "properties": { "name": "Lac de Peyrelade", "category": "Lake", "area_ha": 8.8, "altitude_m": null }, "geometry": { "type": "Point", "coordinates": [ 0.11489, 42.94293 ] } },
{ "type": "Feature", "properties": { "name": "Lac d'Isaby", "category": "Lake", "area_ha": 5.5, "altitude_m": null }, "geometry": { "type": "Point", "coordinates": [ 0.02218, 42.95169 ] } },
{ "type": "Feature", "properties": { "name": "Lacs de Barroude", "category": "Lake", "area_ha": 9.6, "altitude_m": null }, "geometry": { "type": "Point", "coordinates": [ 0.144, 42.73114 ] } },
{ "type": "Feature", "properties": { "name": "Lac de Pouey Laun", "category": "Lake", "area_ha": 6.4, "altitude_m": null }, "geometry": { "type": "Point", "coordinates": [ -0.30578, 42.89794 ] } },
{ "type": "Feature", "properties": { "name": "Lac de Bastan ou de Port Bielh", "category": "Lake", "area_ha": 16.1, "altitude_m": null }, "geometry": { "type": "Point", "coordinates": [ 0.18701, 42.87274 ] } },
{ "type": "Feature", "properties": { "name": "Lac du Campana", "category": "Lake", "area_ha": 8.3, "altitude_m": null }, "geometry": { "type": "Point", "coordinates": [ 0.20267, 42.88105 ] } },
{ "type": "Feature", "properties": { "name": "Unnamed", "category": "Dam", "area_ha": 5.1, "altitude_m": null }, "geometry": { "type": "Point", "coordinates": [ 0.1868, 43.35309 ] } },
{ "type": "Feature", "properties": { "name": "Lac de Bordères ou de Bareilles", "category": "Lake", "area_ha": 6.5, "altitude_m": null }, "geometry": { "type": "Point", "coordinates": [ 0.46012, 42.8601 ] } },
{ "type": "Feature", "properties": { "name": "Lac d'Aubert", "category": "Dam", "area_ha": 44.9, "altitude_m": null }, "geometry": { "type": "Point", "coordinates": [ 0.14021, 42.84257 ] } },
{ "type": "Feature", "properties": { "name": "Lacs de Bastan", "category": "Lake", "area_ha": 14.1, "altitude_m": null }, "geometry": { "type": "Point", "coordinates": [ 0.21077, 42.857 ] } },
{ "type": "Feature", "properties": { "name": "Lac de Lourdes", "category": "Lake", "area_ha": 63.1, "altitude_m": null }, "geometry": { "type": "Point", "coordinates": [ -0.08909, 43.10906 ] } },
{ "type": "Feature", "properties": { "name": "Lac Bleu", "category": "Lake", "area_ha": 53.4, "altitude_m": null }, "geometry": { "type": "Point", "coordinates": [ 0.08039, 42.9352 ] } },
{ "type": "Feature", "properties": { "name": "Lac det Mail", "category": "Lake", "area_ha": 5.3, "altitude_m": null }, "geometry": { "type": "Point", "coordinates": [ 0.1007, 42.85044 ] } },
{ "type": "Feature", "properties": { "name": "Lac d'Ilhéou ou Lac Bleu", "category": "Lake", "area_ha": 11.7, "altitude_m": null }, "geometry": { "type": "Point", "coordinates": [ -0.17675, 42.86355 ] } },
{ "type": "Feature", "properties": { "name": "Lac du Pourtet", "category": "Lake", "area_ha": 6.0, "altitude_m": null }, "geometry": { "type": "Point", "coordinates": [ -0.20321, 42.84308 ] } },
{ "type": "Feature", "properties": { "name": "Lac de la Badéte", "category": "Lake", "area_ha": 7.0, "altitude_m": null }, "geometry": { "type": "Point", "coordinates": [ -0.18228, 42.79385 ] } },
{ "type": "Feature", "properties": { "name": "Lacs d'Ardiden", "category": "Lake", "area_ha": 14.3, "altitude_m": null }, "geometry": { "type": "Point", "coordinates": [ -0.06696, 42.84588 ] } },
{ "type": "Feature", "properties": { "name": "Unnamed", "category": "Reservoir", "area_ha": 9.4, "altitude_m": null }, "geometry": { "type": "Point", "coordinates": [ 0.0869, 43.27237 ] } },
{ "type": "Feature", "properties": { "name": "Unnamed", "category": "Reservoir", "area_ha": 6.8, "altitude_m": null }, "geometry": { "type": "Point", "coordinates": [ 0.08904, 43.37961 ] } },
{ "type": "Feature", "properties": { "name": "Lac du Tech", "category": "Dam", "area_ha": 14.0, "altitude_m": null }, "geometry": { "type": "Point", "coordinates": [ -0.25676, 42.91357 ] } },
{ "type": "Feature", "properties": { "name": "Lac de Payolle", "category": "Dam", "area_ha": 10.8, "altitude_m": null }, "geometry": { "type": "Point", "coordinates": [ 0.29714, 42.93499 ] } },
{ "type": "Feature", "properties": { "name": "Réservoir de Magnoac", "category": "Dam", "area_ha": 68.0, "altitude_m": null }, "geometry": { "type": "Point", "coordinates": [ 0.50345, 43.30216 ] } },
{ "type": "Feature", "properties": { "name": "Lac dets Coubous", "category": "Dam", "area_ha": 10.5, "altitude_m": null }, "geometry": { "type": "Point", "coordinates": [ 0.11552, 42.87589 ] } },
{ "type": "Feature", "properties": { "name": "Lac de Génos-Loudenvielle", "category": "Dam", "area_ha": 30.2, "altitude_m": null }, "geometry": { "type": "Point", "coordinates": [ 0.40793, 42.80655 ] } },
{ "type": "Feature", "properties": { "name": "Lac de Gaube", "category": "Dam", "area_ha": 18.7, "altitude_m": null }, "geometry": { "type": "Point", "coordinates": [ -0.1397, 42.83148 ] } },
{ "type": "Feature", "properties": { "name": "Unnamed", "category": "Dam", "area_ha": 5.6, "altitude_m": null }, "geometry": { "type": "Point", "coordinates": [ 0.26833, 43.327 ] } },
{ "type": "Feature", "properties": { "name": "Lac des Gloriettes", "category": "Dam", "area_ha": 11.4, "altitude_m": null }, "geometry": { "type": "Point", "coordinates": [ 0.04964, 42.75127 ] } },
{ "type": "Feature", "properties": { "name": "Retenue du Bouès", "category": "Dam", "area_ha": 38.0, "altitude_m": null }, "geometry": { "type": "Point", "coordinates": [ 0.30067, 43.26514 ] } },
{ "type": "Feature", "properties": { "name": "Lac de Migouélou", "category": "Dam", "area_ha": 47.9, "altitude_m": null }, "geometry": { "type": "Point", "coordinates": [ -0.30313, 42.88421 ] } },
{ "type": "Feature", "properties": { "name": "Unnamed", "category": "Dam", "area_ha": 1.0, "altitude_m": null }, "geometry": { "type": "Point", "coordinates": [ 0.18914, 42.91992 ] } },
{ "type": "Feature", "properties": { "name": "Lac du Gabas Amont", "category": "Dam", "area_ha": 25.1, "altitude_m": null }, "geometry": { "type": "Point", "coordinates": [ -0.10887, 43.26855 ] } },
{ "type": "Feature", "properties": { "name": "Retenue du Milieu", "category": "Dam", "area_ha": 10.3, "altitude_m": null }, "geometry": { "type": "Point", "coordinates": [ 0.28817, 43.33589 ] } },
{ "type": "Feature", "properties": { "name": "Unnamed", "category": "Dam", "area_ha": 1.9, "altitude_m": null }, "geometry": { "type": "Point", "coordinates": [ -0.09714, 42.7575 ] } },
{ "type": "Feature", "properties": { "name": "Lac du Louet", "category": "Dam", "area_ha": 43.5, "altitude_m": null }, "geometry": { "type": "Point", "coordinates": [ -0.0655, 43.33917 ] } },
{ "type": "Feature", "properties": { "name": "Réservoir des Laquets", "category": "Dam", "area_ha": 6.3, "altitude_m": null }, "geometry": { "type": "Point", "coordinates": [ 0.20052, 42.89511 ] } },
{ "type": "Feature", "properties": { "name": "Lac de Pouchergues", "category": "Dam", "area_ha": 9.4, "altitude_m": null }, "geometry": { "type": "Point", "coordinates": [ 0.44795, 42.7052 ] } },
{ "type": "Feature", "properties": { "name": "Lac de Gréziolles", "category": "Dam", "area_ha": 22.0, "altitude_m": null }, "geometry": { "type": "Point", "coordinates": [ 0.19977, 42.88894 ] } },
{ "type": "Feature", "properties": { "name": "Lac de Suyen", "category": "Dam", "area_ha": 3.3, "altitude_m": null }, "geometry": { "type": "Point", "coordinates": [ -0.26702, 42.87451 ] } },
{ "type": "Feature", "properties": { "name": "Lac d'Aumar", "category": "Dam", "area_ha": 26.1, "altitude_m": null }, "geometry": { "type": "Point", "coordinates": [ 0.1492, 42.84261 ] } },
{ "type": "Feature", "properties": { "name": "Lac de l'Oule", "category": "Dam", "area_ha": 60.4, "altitude_m": null }, "geometry": { "type": "Point", "coordinates": [ 0.20075, 42.83238 ] } },
{ "type": "Feature", "properties": { "name": "Lac d'Orédon", "category": "Dam", "area_ha": 44.4, "altitude_m": null }, "geometry": { "type": "Point", "coordinates": [ 0.1625, 42.82551 ] } },
{ "type": "Feature", "properties": { "name": "Réservoir du Lizon", "category": "Dam", "area_ha": 20.4, "altitude_m": null }, "geometry": { "type": "Point", "coordinates": [ 0.31623, 43.23383 ] } },
{ "type": "Feature", "properties": { "name": "Lac de Puydarrieux", "category": "Dam", "area_ha": 176.2, "altitude_m": null }, "geometry": { "type": "Point", "coordinates": [ 0.42269, 43.28467 ] } },
{ "type": "Feature", "properties": { "name": "Lac des Gaves", "category": "Dam", "area_ha": 18.3, "altitude_m": null }, "geometry": { "type": "Point", "coordinates": [ -0.07448, 42.98631 ] } }
]
}
