{
"type": "FeatureCollection",
"name": "dep61.geojson",
"crs": { "type": "name", "properties": { "name": "urn:ogc:def:crs:OGC:1.3:CRS84" } },
"xy_coordinate_resolution": 1e-05,
"features": [
{ "type": "Feature", "properties": { "name": "Unnamed", "category": "Dam", "area_ha": 1.3, "altitude_m": null }, "geometry": { "type": "Point", "coordinates": [ -0.24594, 48.60061 ] } },
{ "type": "Feature", "properties": { "name": "Étang des Gars", "category": "Reservoir", "area_ha": 5.2, "altitude_m": null }, "geometry": { "type": "Point", "coordinates": [ 0.81029, 48.54189 ] } },
{ "type": "Feature", "properties": { "name": "Barrage de Saint-Philbert", "category": "Dam", "area_ha": 25.7, "altitude_m": null }, "geometry": { "type": "Point", "coordinates": [ -0.36349, 48.83353 ] } },
{ "type": "Feature", "properties": { "name": "Unnamed", "category": "Dam", "area_ha": 4.1, "altitude_m": null }, "geometry": { "type": "Point", "coordinates": [ -0.21336, 48.62145 ] } },
{ "type": "Feature", "properties": { "name": "Étang des Saints-Pères", "category": "Reservoir", "area_ha": 6.8, "altitude_m": null }, "geometry": { "type": "Point", "coordinates": [ 0.46571, 48.78947 ] } },
{ "type": "Feature", "properties": { "name": "Étang du Petit Jard", "category": "Reservoir", "area_ha": 19.6, "altitude_m": null }, "geometry": { "type": "Point", "coordinates": [ -0.26784, 48.54171 ] } },
{ "type": "Feature", "properties": { "name": "Étang de la Croix Lamirault", "category": "Reservoir", "area_ha": 5.6, "altitude_m": null }, "geometry": { "type": "Point", "coordinates": [ 0.60081, 48.75519 ] } },
{ "type": "Feature", "properties": { "name": "Étang de la Fendrie", "category": "Reservoir", "area_ha": 8.8, "altitude_m": null }, "geometry": { "type": "Point", "coordinates": [ -0.20777, 48.60314 ] } },
{ "type": "Feature", "properties": { "name": "Étang du Bouillon", "category": "Reservoir", "area_ha": 44.1, "altitude_m": null }, "geometry": { "type": "Point", "coordinates": [ 0.81587, 48.55966 ] } },
{ "type": "Feature", "properties": { "name": "Étang Neuf", "category": "Reservoir", "area_ha": 7.5, "altitude_m": null }, "geometry": { "type": "Point", "coordinates": [ 0.84714, 48.60348 ] } },
{ "type": "Feature", "properties": { "name": "Étang de Charentonne", "category": "Reservoir", "area_ha": 8.9, "altitude_m": null }, "geometry": { "type": "Point", "coordinates": [ 0.45349, 48.78343 ] } },
{ "type": "Feature", "properties": { "name": "Étang de Vrigny", "category": "Reservoir", "area_ha": 29.0, "altitude_m": null }, "geometry": { "type": "Point", "coordinates": [ -0.02669, 48.6531 ] } },
{ "type": "Feature", "properties": { "name": "Étang de la Motte Rouge", "category": "Reservoir", "area_ha": 8.8, "altitude_m": null }, "geometry": { "type": "Point", "coordinates": [ 0.70631, 48.63927 ] } },
{ "type": "Feature", "properties": { "name": "Étang de Bois Roger", "category": "Reservoir", "area_ha": 10.8, "altitude_m": null }, "geometry": { "type": "Point", "coordinates": [ 0.17943, 48.55706 ] } },
{ "type": "Feature", "properties": { "name": "Étang de Rudelande", "category": "Reservoir", "area_ha": 5.6, "altitude_m": null }, "geometry": { "type": "Point", "coordinates": [ 0.69821, 48.63351 ] } },
{ "type": "Feature", "properties": { "name": "Étang du Haut Plan", "category": "Reservoir", "area_ha": 20.2, "altitude_m": null }, "geometry": { "type": "Point", "coordinates": [ 0.80613, 48.61887 ] } },
{ "type": "Feature", "properties": { "name": "Étang de Chaumont", "category": "Reservoir", "area_ha": 11.8, "altitude_m": null }, "geometry": { "type": "Point", "coordinates": [ 0.58119, 48.63257 ] } },
{ "type": "Feature", "properties": { "name": "Étang Dais", "category": "Reservoir", "area_ha": 7.2, "altitude_m": null }, "geometry": { "type": "Point", "coordinates": [ 0.58448, 48.62833 ] } },
{ "type": "Feature", "properties": { "name": "Étang de Rumien", "category": "Reservoir", "area_ha": 10.6, "altitude_m": null }, "geometry": { "type": "Point", "coordinates": [ 0.83665, 48.56978 ] } },
{ "type": "Feature", "properties": { "name": "Étang du Belloy", "category": "Reservoir", "area_ha": 21.1, "altitude_m": null }, "geometry": { "type": "Point", "coordinates": [ 0.78358, 48.61012 ] } },
{ "type": "Feature", "properties": { "name": "Étang de la Fonte", "category": "Reservoir", "area_ha": 7.1, "altitude_m": null }, "geometry": { "type": "Point", "coordinates": [ 0.83025, 48.55046 ] } },
{ "type": "Feature", "properties": { "name": "Étang du Chevreuil", "category": "Reservoir", "area_ha": 18.6, "altitude_m": null }, "geometry": { "type": "Point", "coordinates": [ 0.80461, 48.54969 ] } },
{ "type": "Feature", "properties": { "name": "Étang de Pesnelle", "category": "Reservoir", "area_ha": 10.3, "altitude_m": null }, "geometry": { "type": "Point", "coordinates": [ 0.15991, 48.54148 ] } },
{ "type": "Feature", "properties": { "name": "Étang des Noës", "category": "Reservoir", "area_ha": 13.8, "altitude_m": null }, "geometry": { "type": "Point", "coordinates": [ -0.16295, 48.54134 ] } },
{ "type": "Feature", "properties": { "name": "Étang des Personnes", "category": "Reservoir", "area_ha": 27.5, "altitude_m": null }, "geometry": { "type": "Point", "coordinates": [ 0.84635, 48.53134 ] } },
{ "type": "Feature", "properties": { "name": "Étang du Fourneau", "category": "Reservoir", "area_ha": 6.6, "altitude_m": null }, "geometry": { "type": "Point", "coordinates": [ 0.65016, 48.64235 ] } },
{ "type": "Feature", "properties": { "name": "Étang de la Fenderie", "category": "Reservoir", "area_ha": 7.5, "altitude_m": null }, "geometry": { "type": "Point", "coordinates": [ 0.63974, 48.64216 ] } },
{ "type": "Feature", "properties": { "name": "Barrage le Petit Moulin", "category": "Dam", "area_ha": 0.9, "altitude_m": null }, "geometry": { "type": "Point", "coordinates": [ -0.20739, 48.62494 ] } },
{ "type": "Feature", "properties": { "name": "Étang le Mêle-sur-Sarthe", "category": "Reservoir", "area_ha": 14.9, "altitude_m": null }, "geometry": { "type": "Point", "coordinates": [ 0.36107, 48.51149 ] } },
{ "type": "Feature", "properties": { "name": "Retenue de Rabodanges", "category": "Dam", "area_ha": 79.2, "altitude_m": null }, "geometry": { "type": "Point", "coordinates": [ -0.27494, 48.77695 ] } },
{ "type": "Feature", "properties": { "name": "Unnamed", "category": "Dam", "area_ha": 1.9, "altitude_m": null }, "geometry": { "type": "Point", "coordinates": [ -0.25614, 48.60904 ] } },
{ "type": "Feature", "properties": { "name": "Barrage la Forge", "category": "Dam", "area_ha": 2.5, "altitude_m": null }, "geometry": { "type": "Point", "coordinates": [ -0.19351, 48.62819 ] } },
{ "type": "Feature", "properties": { "name": "Étang de la Fresnaye", "category": "Dam", "area_ha": 5.2, "altitude_m": null }, "geometry": { "type": "Point", "coordinates": [ -0.24204, 48.74317 ] } },
{ "type": "Feature", "properties": { "name": "Unnamed", "category": "Dam", "area_ha": 23.4, "altitude_m": null }, "geometry": { "type": "Point", "coordinates": [ -0.3719, 48.59023 ] } },
{ "type": "Feature", "properties": { "name": "Étang de la Forge", "category": "Dam", "area_ha": 10.2, "altitude_m": null }, "geometry": { "type": "Point", "coordinates": [ -0.21165, 48.60575 ] } },
{ "type": "Feature", "properties": { "name": "Étang de la Visance", "category": "Dam", "area_ha": 14.4, "altitude_m": null }, "geometry": { "type": "Point", "coordinates": [ -0.65515, 48.74444 ] } },
{ "type": "Feature", "properties": { "name": "Étang du Moulin", "category": "Dam", "area_ha": 9.6, "altitude_m": null }, "geometry": { "type": "Point", "coordinates": [ 0.81735, 48.58154 ] } }
]
}
