{
"type": "FeatureCollection",
"name": "dep72.geojson",
"crs": { "type": "name", "properties": { "name": "urn:ogc:def:crs:OGC:1.3:CRS84" } },
"xy_coordinate_resolution": 1e-05,
"features": [
{ "type": "Feature", "properties": { "name": "le Grand Étang", "category": "Reservoir", "area_ha": 7.7, "altitude_m": null }, "geometry": { "type": "Point", "coordinates": [ 0.36537, 48.02164 ] } },
{ "type": "Feature", "properties": { "name": "Étang de la Lande", "category": "Reservoir", "area_ha": 14.2, "altitude_m": null }, "geometry": { "type": "Point", "coordinates": [ 0.35703, 48.02053 ] } },
{ "type": "Feature", "properties": { "name": "Unnamed", "category": "Reservoir", "area_ha": 6.7, "altitude_m": null }, "geometry": { "type": "Point", "coordinates": [ -0.19154, 47.67804 ] } },
{ "type": "Feature", "properties": { "name": "Étangs de Vadré", "category": "Reservoir", "area_ha": 8.9, "altitude_m": null }, "geometry": { "type": "Point", "coordinates": [ 0.00744, 47.79253 ] } },
{ "type": "Feature", "properties": { "name": "Unnamed", "category": "Reservoir", "area_ha": 7.5, "altitude_m": null }, "geometry": { "type": "Point", "coordinates": [ 0.12275, 47.91566 ] } },
{ "type": "Feature", "properties": { "name": "Étang de Claire Fontaine", "category": "Reservoir", "area_ha": 12.0, "altitude_m": null }, "geometry": { "type": "Point", "coordinates": [ 0.19526, 47.82513 ] } },
{ "type": "Feature", "properties": { "name": "Plan d'Eau près les Martinières", "category": "Reservoir", "area_ha": 33.1, "altitude_m": null }, "geometry": { "type": "Point", "coordinates": [ 0.13391, 47.91867 ] } },
{ "type": "Feature", "properties": { "name": "Unnamed", "category": "Reservoir", "area_ha": 12.7, "altitude_m": null }, "geometry": { "type": "Point", "coordinates": [ -0.28406, 48.02541 ] } },
{ "type": "Feature", "properties": { "name": "Unnamed", "category": "Reservoir", "area_ha": 20.0, "altitude_m": null }, "geometry": { "type": "Point", "coordinates": [ 0.46955, 48.05861 ] } },
{ "type": "Feature", "properties": { "name": "Unnamed", "category": "Reservoir", "area_ha": 5.8, "altitude_m": null }, "geometry": { "type": "Point", "coordinates": [ 0.45314, 47.99343 ] } },
{ "type": "Feature", "properties": { "name": "Unnamed", "category": "Reservoir", "area_ha": 9.0, "altitude_m": null }, "geometry": { "type": "Point", "coordinates": [ 0.74749, 47.93058 ] } },
{ "type": "Feature", "properties": { "name": "Étang de la Bonde", "category": "Reservoir", "area_ha": 24.1, "altitude_m": null }, "geometry": { "type": "Point", "coordinates": [ -0.04378, 47.86612 ] } },
{ "type": "Feature", "properties": { "name": "Lac des Varennes", "category": "Reservoir", "area_ha": 46.8, "altitude_m": null }, "geometry": { "type": "Point", "coordinates": [ 0.48873, 47.71347 ] } },
{ "type": "Feature", "properties": { "name": "le Grand Étang", "category": "Reservoir", "area_ha": 7.7, "altitude_m": null }, "geometry": { "type": "Point", "coordinates": [ 0.36582, 48.02232 ] } },
{ "type": "Feature", "properties": { "name": "Unnamed", "category": "Reservoir", "area_ha": 16.8, "altitude_m": null }, "geometry": { "type": "Point", "coordinates": [ 0.51268, 48.12 ] } },
{ "type": "Feature", "properties": { "name": "Unnamed", "category": "Reservoir", "area_ha": 5.3, "altitude_m": null }, "geometry": { "type": "Point", "coordinates": [ 0.167, 47.91412 ] } },
{ "type": "Feature", "properties": { "name": "Unnamed", "category": "Reservoir", "area_ha": 5.7, "altitude_m": null }, "geometry": { "type": "Point", "coordinates": [ 0.07238, 47.6505 ] } },
{ "type": "Feature", "properties": { "name": "Unnamed", "category": "Reservoir", "area_ha": 8.4, "altitude_m": null }, "geometry": { "type": "Point", "coordinates": [ 0.14005, 47.92698 ] } },
{ "type": "Feature", "properties": { "name": "Plan d'Eau de la Rougeraie", "category": "Reservoir", "area_ha": 32.9, "altitude_m": null }, "geometry": { "type": "Point", "coordinates": [ 0.58701, 47.73322 ] } },
{ "type": "Feature", "properties": { "name": "Unnamed", "category": "Reservoir", "area_ha": 6.0, "altitude_m": null }, "geometry": { "type": "Point", "coordinates": [ 0.22988, 47.80029 ] } },
{ "type": "Feature", "properties": { "name": "Unnamed", "category": "Reservoir", "area_ha": 7.1, "altitude_m": null }, "geometry": { "type": "Point", "coordinates": [ 0.24394, 47.6716 ] } },
{ "type": "Feature", "properties": { "name": "Étang de la Panne", "category": "Reservoir", "area_ha": 9.5, "altitude_m": null }, "geometry": { "type": "Point", "coordinates": [ 0.70559, 48.00504 ] } },
{ "type": "Feature", "properties": { "name": "Unnamed", "category": "Reservoir", "area_ha": 5.2, "altitude_m": null }, "geometry": { "type": "Point", "coordinates": [ 0.17303, 47.94664 ] } },
{ "type": "Feature", "properties": { "name": "la Carrière", "category": "Reservoir", "area_ha": 7.5, "altitude_m": null }, "geometry": { "type": "Point", "coordinates": [ 0.05442, 48.29782 ] } },
{ "type": "Feature", "properties": { "name": "Unnamed", "category": "Reservoir", "area_ha": 21.8, "altitude_m": null }, "geometry": { "type": "Point", "coordinates": [ -0.26708, 48.0543 ] } },
{ "type": "Feature", "properties": { "name": "Unnamed", "category": "Reservoir", "area_ha": 8.4, "altitude_m": null }, "geometry": { "type": "Point", "coordinates": [ 0.38588, 47.97541 ] } },
{ "type": "Feature", "properties": { "name": "Unnamed", "category": "Reservoir", "area_ha": 18.2, "altitude_m": null }, "geometry": { "type": "Point", "coordinates": [ 0.09997, 47.91674 ] } },
{ "type": "Feature", "properties": { "name": "Unnamed", "category": "Reservoir", "area_ha": 13.2, "altitude_m": null }, "geometry": { "type": "Point", "coordinates": [ 0.64776, 48.17897 ] } },
{ "type": "Feature", "properties": { "name": "Unnamed", "category": "Reservoir", "area_ha": 6.0, "altitude_m": null }, "geometry": { "type": "Point", "coordinates": [ 0.25469, 48.32254 ] } },
{ "type": "Feature", "properties": { "name": "Unnamed", "category": "Reservoir", "area_ha": 6.7, "altitude_m": null }, "geometry": { "type": "Point", "coordinates": [ 0.21014, 47.78691 ] } },
{ "type": "Feature", "properties": { "name": "Étang Sallé", "category": "Reservoir", "area_ha": 9.0, "altitude_m": null }, "geometry": { "type": "Point", "coordinates": [ 0.6509, 47.96604 ] } },
{ "type": "Feature", "properties": { "name": "Unnamed", "category": "Reservoir", "area_ha": 14.0, "altitude_m": null }, "geometry": { "type": "Point", "coordinates": [ 0.4553, 48.05091 ] } },
{ "type": "Feature", "properties": { "name": "Unnamed", "category": "Reservoir", "area_ha": 5.0, "altitude_m": null }, "geometry": { "type": "Point", "coordinates": [ 0.12138, 47.92259 ] } },
{ "type": "Feature", "properties": { "name": "Unnamed", "category": "Reservoir", "area_ha": 6.0, "altitude_m": null }, "geometry": { "type": "Point", "coordinates": [ 0.25573, 47.8133 ] } },
{ "type": "Feature", "properties": { "name": "Unnamed", "category": "Reservoir", "area_ha": 5.2, "altitude_m": null }, "geometry": { "type": "Point", "coordinates": [ 0.12208, 47.91299 ] } },
{ "type": "Feature", "properties": { "name": "Unnamed", "category": "Reservoir", "area_ha": 7.2, "altitude_m": null }, "geometry": { "type": "Point", "coordinates": [ -0.11384, 47.81327 ] } },
{ "type": "Feature", "properties": { "name": "Unnamed", "category": "Reservoir", "area_ha": 8.7, "altitude_m": null }, "geometry": { "type": "Point", "coordinates": [ -0.17111, 47.67911 ] } },
{ "type": "Feature", "properties": { "name": "Unnamed", "category": "Reservoir", "area_ha": 6.5, "altitude_m": null }, "geometry": { "type": "Point", "coordinates": [ 0.00476, 48.33497 ] } },
{ "type": "Feature", "properties": { "name": "Plan d'Eau de la Gèmerie", "category": "Reservoir", "area_ha": 14.2, "altitude_m": null }, "geometry": { "type": "Point", "coordinates": [ 0.17922, 47.94377 ] } },
{ "type": "Feature", "properties": { "name": "Étang des Chères", "category": "Reservoir", "area_ha": 6.8, "altitude_m": null }, "geometry": { "type": "Point", "coordinates": [ 0.26129, 47.87255 ] } },
{ "type": "Feature", "properties": { "name": "Étang de Gilbert", "category": "Reservoir", "area_ha": 12.7, "altitude_m": null }, "geometry": { "type": "Point", "coordinates": [ -0.02998, 47.86482 ] } },
{ "type": "Feature", "properties": { "name": "le Grand Étang", "category": "Reservoir", "area_ha": 32.6, "altitude_m": null }, "geometry": { "type": "Point", "coordinates": [ -0.12866, 48.20741 ] } },
{ "type": "Feature", "properties": { "name": "Unnamed", "category": "Reservoir", "area_ha": 5.1, "altitude_m": null }, "geometry": { "type": "Point", "coordinates": [ -0.08366, 47.85374 ] } },
{ "type": "Feature", "properties": { "name": "l'Étang Clair", "category": "Reservoir", "area_ha": 5.3, "altitude_m": null }, "geometry": { "type": "Point", "coordinates": [ 0.61021, 47.80124 ] } },
{ "type": "Feature", "properties": { "name": "Étang du Pas du Bœuf", "category": "Reservoir", "area_ha": 9.1, "altitude_m": null }, "geometry": { "type": "Point", "coordinates": [ 0.59642, 47.79472 ] } },
{ "type": "Feature", "properties": { "name": "Étang de Loudon", "category": "Reservoir", "area_ha": 6.9, "altitude_m": null }, "geometry": { "type": "Point", "coordinates": [ 0.38686, 47.97223 ] } },
{ "type": "Feature", "properties": { "name": "Unnamed", "category": "Reservoir", "area_ha": 7.3, "altitude_m": null }, "geometry": { "type": "Point", "coordinates": [ 0.23661, 47.98941 ] } },
{ "type": "Feature", "properties": { "name": "Unnamed", "category": "Reservoir", "area_ha": 26.7, "altitude_m": null }, "geometry": { "type": "Point", "coordinates": [ 0.13072, 47.75846 ] } },
{ "type": "Feature", "properties": { "name": "Unnamed", "category": "Dam", "area_ha": 7.1, "altitude_m": null }, "geometry": { "type": "Point", "coordinates": [ -0.22304, 48.05239 ] } },
{ "type": "Feature", "properties": { "name": "Unnamed", "category": "Dam", "area_ha": 10.3, "altitude_m": null }, "geometry": { "type": "Point", "coordinates": [ 0.08548, 47.66221 ] } },
{ "type": "Feature", "properties": { "name": "Unnamed", "category": "Dam", "area_ha": 6.4, "altitude_m": null }, "geometry": { "type": "Point", "coordinates": [ 0.07015, 47.65423 ] } },
{ "type": "Feature", "properties": { "name": "Unnamed", "category": "Dam", "area_ha": 8.0, "altitude_m": null }, "geometry": { "type": "Point", "coordinates": [ 0.03595, 48.3766 ] } },
{ "type": "Feature", "properties": { "name": "Étang du Mortier", "category": "Dam", "area_ha": 5.2, "altitude_m": null }, "geometry": { "type": "Point", "coordinates": [ 0.02285, 48.36871 ] } }
]
}
