{
"type": "FeatureCollection",
"name": "dep78.geojson",
"crs": { "type": "name", "properties": { "name": "urn:ogc:def:crs:OGC:1.3:CRS84" } },
"xy_coordinate_resolution": 1e-05,
"features": [
{ "type": "Feature", "properties": { "name": "Réservoirs de la Commune de Marly-le-Roi", "category": "Reservoir", "area_ha": 9.1, "altitude_m": null }, "geometry": { "type": "Point", "coordinates": [ 2.10348, 48.85561 ] } },
{ "type": "Feature", "properties": { "name": "Plan d'Eau de la Base de Plein-Air et de Loisirs du Val de Seine", "category": "Reservoir", "area_ha": 5.5, "altitude_m": null }, "geometry": { "type": "Point", "coordinates": [ 1.95949, 49.00097 ] } },
{ "type": "Feature", "properties": { "name": "Pièce d'Eau des Suisses", "category": "Reservoir", "area_ha": 14.4, "altitude_m": null }, "geometry": { "type": "Point", "coordinates": [ 2.11581, 48.798 ] } },
{ "type": "Feature", "properties": { "name": "Gravière de la Commune de Flins-sur-Seine", "category": "Reservoir", "area_ha": 9.3, "altitude_m": null }, "geometry": { "type": "Point", "coordinates": [ 1.86611, 48.97158 ] } },
{ "type": "Feature", "properties": { "name": "Étang de l'Épinoche", "category": "Reservoir", "area_ha": 5.7, "altitude_m": null }, "geometry": { "type": "Point", "coordinates": [ 2.12542, 48.91956 ] } },
{ "type": "Feature", "properties": { "name": "Étang de la Vieille Ferme", "category": "Reservoir", "area_ha": 9.9, "altitude_m": null }, "geometry": { "type": "Point", "coordinates": [ 2.00784, 48.93983 ] } },
{ "type": "Feature", "properties": { "name": "Réservoirs de la Commune de Louveciennes", "category": "Reservoir", "area_ha": 8.5, "altitude_m": null }, "geometry": { "type": "Point", "coordinates": [ 2.11272, 48.85224 ] } },
{ "type": "Feature", "properties": { "name": "Étang de Saint-Quentin", "category": "Reservoir", "area_ha": 137.0, "altitude_m": null }, "geometry": { "type": "Point", "coordinates": [ 2.0131, 48.78788 ] } },
{ "type": "Feature", "properties": { "name": "Étang de la Tour", "category": "Reservoir", "area_ha": 16.6, "altitude_m": null }, "geometry": { "type": "Point", "coordinates": [ 1.88316, 48.65806 ] } },
{ "type": "Feature", "properties": { "name": "Unnamed", "category": "Reservoir", "area_ha": 8.1, "altitude_m": null }, "geometry": { "type": "Point", "coordinates": [ 1.75797, 48.63203 ] } },
{ "type": "Feature", "properties": { "name": "Réservoir 1 de la Commune de Croissy-sur-Seine", "category": "Reservoir", "area_ha": 6.1, "altitude_m": null }, "geometry": { "type": "Point", "coordinates": [ 2.11999, 48.88126 ] } },
{ "type": "Feature", "properties": { "name": "Étang de la Galiotte", "category": "Reservoir", "area_ha": 21.8, "altitude_m": null }, "geometry": { "type": "Point", "coordinates": [ 2.02809, 48.93405 ] } },
{ "type": "Feature", "properties": { "name": "Étang de la Geneste", "category": "Reservoir", "area_ha": 5.8, "altitude_m": null }, "geometry": { "type": "Point", "coordinates": [ 2.1105, 48.77596 ] } },
{ "type": "Feature", "properties": { "name": "Station de Pompage 1 de la Commune de Trappes", "category": "Reservoir", "area_ha": 7.9, "altitude_m": null }, "geometry": { "type": "Point", "coordinates": [ 1.99658, 48.79093 ] } },
{ "type": "Feature", "properties": { "name": "Plan d'Eau 1 de la Commune de Jouy-en-Josas", "category": "Reservoir", "area_ha": 5.3, "altitude_m": null }, "geometry": { "type": "Point", "coordinates": [ 2.1616, 48.76012 ] } },
{ "type": "Feature", "properties": { "name": "Grand Canal", "category": "Reservoir", "area_ha": 23.6, "altitude_m": null }, "geometry": { "type": "Point", "coordinates": [ 2.10093, 48.8097 ] } },
{ "type": "Feature", "properties": { "name": "Étang de l'Abbaye", "category": "Reservoir", "area_ha": 14.5, "altitude_m": null }, "geometry": { "type": "Point", "coordinates": [ 1.92225, 48.68879 ] } },
{ "type": "Feature", "properties": { "name": "Sablière des Hautes Garennes", "category": "Reservoir", "area_ha": 9.9, "altitude_m": null }, "geometry": { "type": "Point", "coordinates": [ 1.66237, 49.00439 ] } },
{ "type": "Feature", "properties": { "name": "Étang du Château", "category": "Reservoir", "area_ha": 8.1, "altitude_m": null }, "geometry": { "type": "Point", "coordinates": [ 1.88808, 48.80095 ] } },
{ "type": "Feature", "properties": { "name": "Étang des Grésillons", "category": "Reservoir", "area_ha": 34.0, "altitude_m": null }, "geometry": { "type": "Point", "coordinates": [ 2.00664, 48.95517 ] } },
{ "type": "Feature", "properties": { "name": "Unnamed", "category": "Reservoir", "area_ha": 14.1, "altitude_m": null }, "geometry": { "type": "Point", "coordinates": [ 1.81667, 48.64396 ] } },
{ "type": "Feature", "properties": { "name": "Unnamed", "category": "Reservoir", "area_ha": 5.3, "altitude_m": null }, "geometry": { "type": "Point", "coordinates": [ 1.93298, 48.71961 ] } },
{ "type": "Feature", "properties": { "name": "Étang de Guiperreux", "category": "Reservoir", "area_ha": 11.2, "altitude_m": null }, "geometry": { "type": "Point", "coordinates": [ 1.70935, 48.6624 ] } },
{ "type": "Feature", "properties": { "name": "Étang des Noës", "category": "Reservoir", "area_ha": 23.6, "altitude_m": null }, "geometry": { "type": "Point", "coordinates": [ 1.96388, 48.75345 ] } },
{ "type": "Feature", "properties": { "name": "Bassin de la Sourderie", "category": "Reservoir", "area_ha": 13.6, "altitude_m": null }, "geometry": { "type": "Point", "coordinates": [ 2.04673, 48.76668 ] } },
{ "type": "Feature", "properties": { "name": "Stade Nautique International Didier Simond", "category": "Reservoir", "area_ha": 34.4, "altitude_m": null }, "geometry": { "type": "Point", "coordinates": [ 1.6735, 49.00568 ] } },
{ "type": "Feature", "properties": { "name": "Lac des Pêcheurs", "category": "Reservoir", "area_ha": 6.8, "altitude_m": null }, "geometry": { "type": "Point", "coordinates": [ 1.69836, 49.00538 ] } },
{ "type": "Feature", "properties": { "name": "Lac de Gassicourt", "category": "Reservoir", "area_ha": 16.6, "altitude_m": null }, "geometry": { "type": "Point", "coordinates": [ 1.70834, 49.00095 ] } },
{ "type": "Feature", "properties": { "name": "Bassin de la Courance", "category": "Reservoir", "area_ha": 5.1, "altitude_m": null }, "geometry": { "type": "Point", "coordinates": [ 1.92358, 48.77628 ] } },
{ "type": "Feature", "properties": { "name": "Étang du Perray", "category": "Reservoir", "area_ha": 7.0, "altitude_m": null }, "geometry": { "type": "Point", "coordinates": [ 1.86277, 48.69556 ] } },
{ "type": "Feature", "properties": { "name": "Étang de Cernay", "category": "Reservoir", "area_ha": 15.9, "altitude_m": null }, "geometry": { "type": "Point", "coordinates": [ 1.9513, 48.67882 ] } },
{ "type": "Feature", "properties": { "name": "Étang de la Pimardière", "category": "Reservoir", "area_ha": 5.2, "altitude_m": null }, "geometry": { "type": "Point", "coordinates": [ 1.71425, 48.81407 ] } },
{ "type": "Feature", "properties": { "name": "Étang du Moulin à Renard", "category": "Reservoir", "area_ha": 13.7, "altitude_m": null }, "geometry": { "type": "Point", "coordinates": [ 2.08131, 48.78446 ] } },
{ "type": "Feature", "properties": { "name": "Plan d'Eau de la Commune d'Épone", "category": "Reservoir", "area_ha": 27.3, "altitude_m": null }, "geometry": { "type": "Point", "coordinates": [ 1.82762, 48.97266 ] } }
]
}
