{
"type": "FeatureCollection",
"name": "dep75.geojson",
"crs": { "type": "name", "properties": { "name": "urn:ogc:def:crs:OGC:1.3:CRS84" } },
"xy_coordinate_resolution": 1e-05,
"features": [
{ "type": "Feature", "properties": { "name": "Lac des Minimes", "category": "Reservoir", "area_ha": 6.0, "altitude_m": null }, "geometry": { "type": "Point", "coordinates": [ 2.45674, 48.8362 ] } },
{ "type": "Feature", "properties": { "name": "Lac Daumesnil", "category": "Reservoir", "area_ha": 10.1, "altitude_m": null }, "geometry": { "type": "Point", "coordinates": [ 2.41533, 48.83078 ] } },
{ "type": "Feature", "properties": { "name": "Lac Inférieur", "category": "Reservoir", "area_ha": 10.5, "altitude_m": null }, "geometry": { "type": "Point", "coordinates": [ 2.26107, 48.86353 ] } }
]
}
