{
"type": "FeatureCollection",
"name": "dep76.geojson",
"crs": { "type": "name", "properties": { "name": "urn:ogc:def:crs:OGC:1.3:CRS84" } },
"xy_coordinate_resolution": 1e-05,
"features": [
{ "type": "Feature", "properties": { "name": "Unnamed", "category": "Reservoir", "area_ha": 5.4, "altitude_m": null }, "geometry": { "type": "Point", "coordinates": [ 1.16649, 49.86319 ] } },
{ "type": "Feature", "properties": { "name": "Plan d'Eau 5 de la Commune de Saint-Aubin-le-Cauf", "category": "Reservoir", "area_ha": 18.2, "altitude_m": null }, "geometry": { "type": "Point", "coordinates": [ 1.15035, 49.87092 ] } },
{ "type": "Feature", "properties": { "name": "Plan d'Eau 1 de la Commune de Gamaches", "category": "Reservoir", "area_ha": 7.7, "altitude_m": null }, "geometry": { "type": "Point", "coordinates": [ 1.56459, 49.9784 ] } },
{ "type": "Feature", "properties": { "name": "Plan d'Eau de la Longue Haie", "category": "Reservoir", "area_ha": 11.3, "altitude_m": null }, "geometry": { "type": "Point", "coordinates": [ 1.12001, 49.36064 ] } },
{ "type": "Feature", "properties": { "name": "Plan d'Eau 2 de la Commune de Incheville", "category": "Reservoir", "area_ha": 5.4, "altitude_m": null }, "geometry": { "type": "Point", "coordinates": [ 1.52143, 50.00276 ] } },
{ "type": "Feature", "properties": { "name": "Petit Marais", "category": "Reservoir", "area_ha": 6.7, "altitude_m": null }, "geometry": { "type": "Point", "coordinates": [ 1.46857, 50.03378 ] } },
{ "type": "Feature", "properties": { "name": "Plan d'Eau 20 de la Commune de Saint-Aubin-le-Cauf", "category": "Reservoir", "area_ha": 5.5, "altitude_m": null }, "geometry": { "type": "Point", "coordinates": [ 1.16581, 49.86632 ] } },
{ "type": "Feature", "properties": { "name": "Petit Marais", "category": "Reservoir", "area_ha": 9.5, "altitude_m": null }, "geometry": { "type": "Point", "coordinates": [ 1.4665, 50.03254 ] } },
{ "type": "Feature", "properties": { "name": "Plan d'Eau 1 de la Commune de Saint-Aubin-le-Cauf", "category": "Reservoir", "area_ha": 5.0, "altitude_m": null }, "geometry": { "type": "Point", "coordinates": [ 1.14864, 49.87561 ] } },
{ "type": "Feature", "properties": { "name": "Plan d'Eau 19 de la Commune de Saint-Aubin-le-Cauf", "category": "Reservoir", "area_ha": 5.2, "altitude_m": null }, "geometry": { "type": "Point", "coordinates": [ 1.16125, 49.86762 ] } },
{ "type": "Feature", "properties": { "name": "Unnamed", "category": "Reservoir", "area_ha": 5.0, "altitude_m": null }, "geometry": { "type": "Point", "coordinates": [ 1.17077, 49.84585 ] } },
{ "type": "Feature", "properties": { "name": "Plan d'Eau 7 de la Commune de Blangy-sur-Bresle", "category": "Reservoir", "area_ha": 5.9, "altitude_m": null }, "geometry": { "type": "Point", "coordinates": [ 1.67748, 49.91634 ] } },
{ "type": "Feature", "properties": { "name": "Unnamed", "category": "Reservoir", "area_ha": 5.7, "altitude_m": null }, "geometry": { "type": "Point", "coordinates": [ 1.5009, 49.642 ] } },
{ "type": "Feature", "properties": { "name": "Unnamed", "category": "Reservoir", "area_ha": 7.9, "altitude_m": null }, "geometry": { "type": "Point", "coordinates": [ 1.16515, 49.85019 ] } },
{ "type": "Feature", "properties": { "name": "Unnamed", "category": "Reservoir", "area_ha": 8.9, "altitude_m": null }, "geometry": { "type": "Point", "coordinates": [ 1.1747, 49.83951 ] } },
{ "type": "Feature", "properties": { "name": "Unnamed", "category": "Reservoir", "area_ha": 5.2, "altitude_m": null }, "geometry": { "type": "Point", "coordinates": [ 1.17, 49.83759 ] } },
{ "type": "Feature", "properties": { "name": "Unnamed", "category": "Reservoir", "area_ha": 9.0, "altitude_m": null }, "geometry": { "type": "Point", "coordinates": [ 1.67946, 49.91204 ] } },
{ "type": "Feature", "properties": { "name": "Unnamed", "category": "Reservoir", "area_ha": 6.1, "altitude_m": null }, "geometry": { "type": "Point", "coordinates": [ 1.67067, 49.91998 ] } },
{ "type": "Feature", "properties": { "name": "Plan d'Eau 2 de la Commune de Blangy-sur-Bresle", "category": "Reservoir", "area_ha": 6.5, "altitude_m": null }, "geometry": { "type": "Point", "coordinates": [ 1.6547, 49.92557 ] } },
{ "type": "Feature", "properties": { "name": "Bourienne", "category": "Reservoir", "area_ha": 10.5, "altitude_m": null }, "geometry": { "type": "Point", "coordinates": [ 0.83116, 49.8173 ] } },
{ "type": "Feature", "properties": { "name": "Unnamed", "category": "Reservoir", "area_ha": 5.2, "altitude_m": null }, "geometry": { "type": "Point", "coordinates": [ 1.18007, 49.77588 ] } },
{ "type": "Feature", "properties": { "name": "Plan d'Eau 1 de la Commune de Saint-Vigor-d'Ymonville", "category": "Reservoir", "area_ha": 6.1, "altitude_m": null }, "geometry": { "type": "Point", "coordinates": [ 0.34886, 49.47527 ] } },
{ "type": "Feature", "properties": { "name": "Plan d'Eau 6 de la Commune de Blangy-sur-Bresle", "category": "Reservoir", "area_ha": 7.6, "altitude_m": null }, "geometry": { "type": "Point", "coordinates": [ 1.66071, 49.92091 ] } },
{ "type": "Feature", "properties": { "name": "Plan d'Eau 1 de la Commune de Arques-la-Bataille", "category": "Reservoir", "area_ha": 8.9, "altitude_m": null }, "geometry": { "type": "Point", "coordinates": [ 1.14414, 49.87714 ] } },
{ "type": "Feature", "properties": { "name": "le Marais", "category": "Reservoir", "area_ha": 28.1, "altitude_m": null }, "geometry": { "type": "Point", "coordinates": [ 1.50853, 50.01019 ] } },
{ "type": "Feature", "properties": { "name": "Plan d'Eau 2 de la Commune de Arques-la-Bataille", "category": "Reservoir", "area_ha": 12.4, "altitude_m": null }, "geometry": { "type": "Point", "coordinates": [ 1.13524, 49.87549 ] } },
{ "type": "Feature", "properties": { "name": "Lac de Caniel", "category": "Reservoir", "area_ha": 20.1, "altitude_m": null }, "geometry": { "type": "Point", "coordinates": [ 0.63524, 49.80041 ] } }
]
}
