{
"type": "FeatureCollection",
"name": "dep70.geojson",
"crs": { "type": "name", "properties": { "name": "urn:ogc:def:crs:OGC:1.3:CRS84" } },
"xy_coordinate_resolution": 1e-05,
"features": [
{ "type": "Feature", "properties": { "name": "Étang Mama", "category": "Reservoir", "area_ha": 6.4, "altitude_m": null }, "geometry": { "type": "Point", "coordinates": [ 6.58412, 47.81315 ] } },
{ "type": "Feature", "properties": { "name": "Bassin de Champagney", "category": "Dam", "area_ha": 96.1, "altitude_m": null }, "geometry": { "type": "Point", "coordinates": [ 6.72024, 47.6873 ] } },
{ "type": "Feature", "properties": { "name": "Étang Noraz", "category": "Reservoir", "area_ha": 6.2, "altitude_m": null }, "geometry": { "type": "Point", "coordinates": [ 6.47019, 47.73494 ] } },
{ "type": "Feature", "properties": { "name": "Étang du Prévot", "category": "Reservoir", "area_ha": 5.6, "altitude_m": null }, "geometry": { "type": "Point", "coordinates": [ 6.42932, 47.76998 ] } },
{ "type": "Feature", "properties": { "name": "Étang d'Échalonge", "category": "Reservoir", "area_ha": 5.3, "altitude_m": null }, "geometry": { "type": "Point", "coordinates": [ 5.49308, 47.41558 ] } },
{ "type": "Feature", "properties": { "name": "Étang des Grands Prés", "category": "Reservoir", "area_ha": 5.7, "altitude_m": null }, "geometry": { "type": "Point", "coordinates": [ 6.59068, 47.81323 ] } },
{ "type": "Feature", "properties": { "name": "Étangs de la Grand-Peteneu", "category": "Reservoir", "area_ha": 5.4, "altitude_m": null }, "geometry": { "type": "Point", "coordinates": [ 6.56045, 47.79997 ] } },
{ "type": "Feature", "properties": { "name": "Étang Corbenay", "category": "Reservoir", "area_ha": 6.2, "altitude_m": null }, "geometry": { "type": "Point", "coordinates": [ 6.45946, 47.75365 ] } },
{ "type": "Feature", "properties": { "name": "Étang du Beuchot", "category": "Reservoir", "area_ha": 21.7, "altitude_m": null }, "geometry": { "type": "Point", "coordinates": [ 6.30726, 47.83668 ] } },
{ "type": "Feature", "properties": { "name": "Étang d'Arfin", "category": "Reservoir", "area_ha": 17.3, "altitude_m": null }, "geometry": { "type": "Point", "coordinates": [ 6.63247, 47.82462 ] } },
{ "type": "Feature", "properties": { "name": "Étang d'Échalonge", "category": "Reservoir", "area_ha": 8.1, "altitude_m": null }, "geometry": { "type": "Point", "coordinates": [ 5.48924, 47.40954 ] } },
{ "type": "Feature", "properties": { "name": "Étang de la Maisonnette", "category": "Reservoir", "area_ha": 21.5, "altitude_m": null }, "geometry": { "type": "Point", "coordinates": [ 6.45316, 47.76403 ] } },
{ "type": "Feature", "properties": { "name": "Étang du Grand Rosbeck", "category": "Reservoir", "area_ha": 8.0, "altitude_m": null }, "geometry": { "type": "Point", "coordinates": [ 6.59987, 47.7678 ] } },
{ "type": "Feature", "properties": { "name": "Étang de la Gelinotte", "category": "Reservoir", "area_ha": 6.1, "altitude_m": null }, "geometry": { "type": "Point", "coordinates": [ 6.59949, 47.82991 ] } },
{ "type": "Feature", "properties": { "name": "Étang du Mont Gérard", "category": "Reservoir", "area_ha": 6.9, "altitude_m": null }, "geometry": { "type": "Point", "coordinates": [ 6.53938, 47.78555 ] } },
{ "type": "Feature", "properties": { "name": "Étang des Murots", "category": "Reservoir", "area_ha": 5.4, "altitude_m": null }, "geometry": { "type": "Point", "coordinates": [ 6.59336, 47.93572 ] } },
{ "type": "Feature", "properties": { "name": "Étang Labbé", "category": "Reservoir", "area_ha": 6.1, "altitude_m": null }, "geometry": { "type": "Point", "coordinates": [ 6.42452, 47.83488 ] } },
{ "type": "Feature", "properties": { "name": "Étang de Plate Pierre", "category": "Reservoir", "area_ha": 10.0, "altitude_m": null }, "geometry": { "type": "Point", "coordinates": [ 6.56611, 47.81118 ] } },
{ "type": "Feature", "properties": { "name": "Étangs de la Grande Chaussée", "category": "Reservoir", "area_ha": 10.5, "altitude_m": null }, "geometry": { "type": "Point", "coordinates": [ 6.54577, 47.79594 ] } },
{ "type": "Feature", "properties": { "name": "le Long Faing", "category": "Reservoir", "area_ha": 8.5, "altitude_m": null }, "geometry": { "type": "Point", "coordinates": [ 6.54947, 47.78161 ] } },
{ "type": "Feature", "properties": { "name": "Étang Pellevin", "category": "Reservoir", "area_ha": 9.9, "altitude_m": null }, "geometry": { "type": "Point", "coordinates": [ 6.55844, 47.7931 ] } },
{ "type": "Feature", "properties": { "name": "Étang de la Noie Frenouse", "category": "Reservoir", "area_ha": 7.0, "altitude_m": null }, "geometry": { "type": "Point", "coordinates": [ 6.43462, 47.79167 ] } },
{ "type": "Feature", "properties": { "name": "Étang Goutte Poinsotte", "category": "Reservoir", "area_ha": 5.6, "altitude_m": null }, "geometry": { "type": "Point", "coordinates": [ 6.405, 47.79 ] } },
{ "type": "Feature", "properties": { "name": "Étang de la Marcelle", "category": "Reservoir", "area_ha": 5.0, "altitude_m": null }, "geometry": { "type": "Point", "coordinates": [ 6.55445, 47.77221 ] } },
{ "type": "Feature", "properties": { "name": "Étang du Châtelet", "category": "Reservoir", "area_ha": 7.7, "altitude_m": null }, "geometry": { "type": "Point", "coordinates": [ 6.4273, 47.77542 ] } },
{ "type": "Feature", "properties": { "name": "Étang de Billeux", "category": "Reservoir", "area_ha": 17.4, "altitude_m": null }, "geometry": { "type": "Point", "coordinates": [ 6.49767, 47.7399 ] } },
{ "type": "Feature", "properties": { "name": "la Noie Sébille", "category": "Reservoir", "area_ha": 7.0, "altitude_m": null }, "geometry": { "type": "Point", "coordinates": [ 6.49077, 47.76269 ] } },
{ "type": "Feature", "properties": { "name": "Étangs d'Esboz", "category": "Reservoir", "area_ha": 9.8, "altitude_m": null }, "geometry": { "type": "Point", "coordinates": [ 6.41399, 47.75936 ] } },
{ "type": "Feature", "properties": { "name": "le Grand Étang", "category": "Reservoir", "area_ha": 10.2, "altitude_m": null }, "geometry": { "type": "Point", "coordinates": [ 6.49639, 47.71555 ] } },
{ "type": "Feature", "properties": { "name": "Grand Étang", "category": "Reservoir", "area_ha": 8.9, "altitude_m": null }, "geometry": { "type": "Point", "coordinates": [ 6.41183, 47.76867 ] } },
{ "type": "Feature", "properties": { "name": "Étang du Grand Saint-Maurice", "category": "Reservoir", "area_ha": 21.8, "altitude_m": null }, "geometry": { "type": "Point", "coordinates": [ 6.49262, 47.72714 ] } },
{ "type": "Feature", "properties": { "name": "Étang de Fallon", "category": "Reservoir", "area_ha": 8.2, "altitude_m": null }, "geometry": { "type": "Point", "coordinates": [ 6.4856, 47.5098 ] } },
{ "type": "Feature", "properties": { "name": "Étang Neuf", "category": "Reservoir", "area_ha": 9.6, "altitude_m": null }, "geometry": { "type": "Point", "coordinates": [ 6.04416, 47.97904 ] } },
{ "type": "Feature", "properties": { "name": "Étang du Grand Courbey", "category": "Reservoir", "area_ha": 7.8, "altitude_m": null }, "geometry": { "type": "Point", "coordinates": [ 6.4353, 47.77401 ] } },
{ "type": "Feature", "properties": { "name": "Étang de l'Oranger", "category": "Reservoir", "area_ha": 5.5, "altitude_m": null }, "geometry": { "type": "Point", "coordinates": [ 6.67056, 47.88473 ] } },
{ "type": "Feature", "properties": { "name": "Étang de Vy-le-Ferroux", "category": "Reservoir", "area_ha": 30.6, "altitude_m": null }, "geometry": { "type": "Point", "coordinates": [ 5.9791, 47.58355 ] } },
{ "type": "Feature", "properties": { "name": "Étang Jean Ballay", "category": "Reservoir", "area_ha": 5.3, "altitude_m": null }, "geometry": { "type": "Point", "coordinates": [ 6.39745, 47.79142 ] } },
{ "type": "Feature", "properties": { "name": "Étang de Theuley", "category": "Reservoir", "area_ha": 8.4, "altitude_m": null }, "geometry": { "type": "Point", "coordinates": [ 5.5149, 47.54288 ] } },
{ "type": "Feature", "properties": { "name": "Étang des Brosses", "category": "Dam", "area_ha": 8.4, "altitude_m": null }, "geometry": { "type": "Point", "coordinates": [ 6.47425, 47.75376 ] } },
{ "type": "Feature", "properties": { "name": "Étang Neuf", "category": "Dam", "area_ha": 6.9, "altitude_m": null }, "geometry": { "type": "Point", "coordinates": [ 6.53486, 47.62377 ] } },
{ "type": "Feature", "properties": { "name": "Étang Neuf", "category": "Dam", "area_ha": 6.5, "altitude_m": null }, "geometry": { "type": "Point", "coordinates": [ 6.54174, 47.65419 ] } },
{ "type": "Feature", "properties": { "name": "Étang de Chaudoz", "category": "Dam", "area_ha": 1.9, "altitude_m": null }, "geometry": { "type": "Point", "coordinates": [ 6.56892, 47.65216 ] } },
{ "type": "Feature", "properties": { "name": "Étang de Cassevosse", "category": "Dam", "area_ha": 7.0, "altitude_m": null }, "geometry": { "type": "Point", "coordinates": [ 5.40659, 47.4892 ] } },
{ "type": "Feature", "properties": { "name": "Étang de Chaudoz", "category": "Dam", "area_ha": 8.7, "altitude_m": null }, "geometry": { "type": "Point", "coordinates": [ 6.56825, 47.64872 ] } }
]
}
