{
"type": "FeatureCollection",
"name": "dep73.geojson",
"crs": { "type": "name", "properties": { "name": "urn:ogc:def:crs:OGC:1.3:CRS84" } },
"xy_coordinate_resolution": 1e-05,
"features": [
{ "type": "Feature", "properties": { "name": "Lac du Bourget", "category": "Lake", "area_ha": 4435.2, "altitude_m": null }, "geometry": { "type": "Point", "coordinates": [ 5.86728, 45.7268 ] } },
{ "type": "Feature", "properties": { "name": "Lac de Roselend", "category": "Dam", "area_ha": 307.2, "altitude_m": null }, "geometry": { "type": "Point", "coordinates": [ 6.62357, 45.68235 ] } },
{ "type": "Feature", "properties": { "name": "Lac des Assiettes", "category": "Lake", "area_ha": 7.3, "altitude_m": null }, "geometry": { "type": "Point", "coordinates": [ 6.78468, 45.39072 ] } },
{ "type": "Feature", "properties": { "name": "Lac de Savine", "category": "Lake", "area_ha": 12.0, "altitude_m": null }, "geometry": { "type": "Point", "coordinates": [ 6.91402, 45.17446 ] } },
{ "type": "Feature", "properties": { "name": "Lac Blanc", "category": "Lake", "area_ha": 10.8, "altitude_m": null }, "geometry": { "type": "Point", "coordinates": [ 6.65245, 45.29547 ] } },
{ "type": "Feature", "properties": { "name": "Lacs du Chardonnet", "category": "Lake", "area_ha": 6.9, "altitude_m": null }, "geometry": { "type": "Point", "coordinates": [ 6.88344, 45.46578 ] } },
{ "type": "Feature", "properties": { "name": "Lac du Mont Cenis", "category": "Dam", "area_ha": 641.6, "altitude_m": null }, "geometry": { "type": "Point", "coordinates": [ 6.92946, 45.23732 ] } },
{ "type": "Feature", "properties": { "name": "Lac des Sources Inférieures", "category": "Lake", "area_ha": 7.1, "altitude_m": null }, "geometry": { "type": "Point", "coordinates": [ 7.15582, 45.39671 ] } },
{ "type": "Feature", "properties": { "name": "Lac de Saint-André", "category": "Lake", "area_ha": 6.5, "altitude_m": null }, "geometry": { "type": "Point", "coordinates": [ 5.98611, 45.49397 ] } },
{ "type": "Feature", "properties": { "name": "Lac d'Aiguebelette", "category": "Lake", "area_ha": 525.3, "altitude_m": null }, "geometry": { "type": "Point", "coordinates": [ 5.80072, 45.55751 ] } },
{ "type": "Feature", "properties": { "name": "Lac d'Ambin ou Lac Bleu", "category": "Lake", "area_ha": 7.5, "altitude_m": null }, "geometry": { "type": "Point", "coordinates": [ 6.87836, 45.13878 ] } },
{ "type": "Feature", "properties": { "name": "Lac de la Patinoire", "category": "Lake", "area_ha": 6.3, "altitude_m": null }, "geometry": { "type": "Point", "coordinates": [ 6.76673, 45.40514 ] } },
{ "type": "Feature", "properties": { "name": "Lac de Chasseforêt", "category": "Lake", "area_ha": 8.1, "altitude_m": null }, "geometry": { "type": "Point", "coordinates": [ 6.78154, 45.33491 ] } },
{ "type": "Feature", "properties": { "name": "Lac de Sainte-Hélène", "category": "Lake", "area_ha": 23.0, "altitude_m": null }, "geometry": { "type": "Point", "coordinates": [ 6.07492, 45.48039 ] } },
{ "type": "Feature", "properties": { "name": "Lacs de Chevelu", "category": "Lake", "area_ha": 6.6, "altitude_m": null }, "geometry": { "type": "Point", "coordinates": [ 5.82446, 45.69805 ] } },
{ "type": "Feature", "properties": { "name": "Lac Long", "category": "Lake", "area_ha": 5.9, "altitude_m": null }, "geometry": { "type": "Point", "coordinates": [ 6.79095, 45.39591 ] } },
{ "type": "Feature", "properties": { "name": "Lac de l'Ouillette", "category": "Lake", "area_ha": 5.7, "altitude_m": null }, "geometry": { "type": "Point", "coordinates": [ 6.992, 45.42886 ] } },
{ "type": "Feature", "properties": { "name": "Lac Rond", "category": "Lake", "area_ha": 6.3, "altitude_m": null }, "geometry": { "type": "Point", "coordinates": [ 6.48223, 45.08555 ] } },
{ "type": "Feature", "properties": { "name": "Lac Blanc", "category": "Lake", "area_ha": 8.1, "altitude_m": null }, "geometry": { "type": "Point", "coordinates": [ 6.96653, 45.57906 ] } },
{ "type": "Feature", "properties": { "name": "Plan d'Aval", "category": "Dam", "area_ha": 17.6, "altitude_m": null }, "geometry": { "type": "Point", "coordinates": [ 6.72315, 45.24728 ] } },
{ "type": "Feature", "properties": { "name": "Lac du Lou", "category": "Lake", "area_ha": 7.4, "altitude_m": null }, "geometry": { "type": "Point", "coordinates": [ 6.52916, 45.29067 ] } },
{ "type": "Feature", "properties": { "name": "Lac de la Thuile", "category": "Lake", "area_ha": 6.5, "altitude_m": null }, "geometry": { "type": "Point", "coordinates": [ 6.05722, 45.52983 ] } },
{ "type": "Feature", "properties": { "name": "Lacs de Francin", "category": "Lake", "area_ha": 6.4, "altitude_m": null }, "geometry": { "type": "Point", "coordinates": [ 6.02361, 45.47864 ] } },
{ "type": "Feature", "properties": { "name": "Lacs Merlet", "category": "Lake", "area_ha": 8.8, "altitude_m": null }, "geometry": { "type": "Point", "coordinates": [ 6.64037, 45.36021 ] } },
{ "type": "Feature", "properties": { "name": "Lac de Tignes", "category": "Lake", "area_ha": 23.6, "altitude_m": null }, "geometry": { "type": "Point", "coordinates": [ 6.90464, 45.46566 ] } },
{ "type": "Feature", "properties": { "name": "Lac du Plan de la Grassaz", "category": "Lake", "area_ha": 5.7, "altitude_m": null }, "geometry": { "type": "Point", "coordinates": [ 6.85223, 45.47738 ] } },
{ "type": "Feature", "properties": { "name": "Lac le Tournant", "category": "Lake", "area_ha": 6.3, "altitude_m": null }, "geometry": { "type": "Point", "coordinates": [ 6.17199, 45.18471 ] } },
{ "type": "Feature", "properties": { "name": "Lac de la Plagne", "category": "Lake", "area_ha": 7.8, "altitude_m": null }, "geometry": { "type": "Point", "coordinates": [ 6.84159, 45.48431 ] } },
{ "type": "Feature", "properties": { "name": "Lac de Carouge", "category": "Reservoir", "area_ha": 9.3, "altitude_m": null }, "geometry": { "type": "Point", "coordinates": [ 6.17102, 45.55727 ] } },
{ "type": "Feature", "properties": { "name": "Étang de Grésy", "category": "Reservoir", "area_ha": 11.9, "altitude_m": null }, "geometry": { "type": "Point", "coordinates": [ 6.2432, 45.58513 ] } },
{ "type": "Feature", "properties": { "name": "Bassin de Compensation de Longefan", "category": "Reservoir", "area_ha": 20.1, "altitude_m": null }, "geometry": { "type": "Point", "coordinates": [ 6.3592, 45.28725 ] } },
{ "type": "Feature", "properties": { "name": "Étang de Crosagny", "category": "Reservoir", "area_ha": 6.7, "altitude_m": null }, "geometry": { "type": "Point", "coordinates": [ 5.96185, 45.811 ] } },
{ "type": "Feature", "properties": { "name": "Lac de la Rosière", "category": "Dam", "area_ha": 1.7, "altitude_m": null }, "geometry": { "type": "Point", "coordinates": [ 6.66599, 45.41093 ] } },
{ "type": "Feature", "properties": { "name": "Lac du Chevril", "category": "Dam", "area_ha": 245.3, "altitude_m": null }, "geometry": { "type": "Point", "coordinates": [ 6.93709, 45.48461 ] } },
{ "type": "Feature", "properties": { "name": "Lac de la Gittaz", "category": "Dam", "area_ha": 36.2, "altitude_m": null }, "geometry": { "type": "Point", "coordinates": [ 6.65224, 45.71181 ] } },
{ "type": "Feature", "properties": { "name": "Lac de Saint-Guérin", "category": "Dam", "area_ha": 42.3, "altitude_m": null }, "geometry": { "type": "Point", "coordinates": [ 6.58012, 45.6458 ] } },
{ "type": "Feature", "properties": { "name": "le Grand Lac ou Lac Bramant", "category": "Dam", "area_ha": 15.4, "altitude_m": null }, "geometry": { "type": "Point", "coordinates": [ 6.17578, 45.20039 ] } },
{ "type": "Feature", "properties": { "name": "Lac des Blanchets", "category": "Dam", "area_ha": 6.7, "altitude_m": null }, "geometry": { "type": "Point", "coordinates": [ 6.71218, 45.49262 ] } },
{ "type": "Feature", "properties": { "name": "Lac de la Vallée de l'Arc", "category": "Dam", "area_ha": 4.6, "altitude_m": null }, "geometry": { "type": "Point", "coordinates": [ 6.8177, 45.56501 ] } },
{ "type": "Feature", "properties": { "name": "Lac de la Sassière", "category": "Dam", "area_ha": 44.4, "altitude_m": null }, "geometry": { "type": "Point", "coordinates": [ 7.0084, 45.48235 ] } },
{ "type": "Feature", "properties": { "name": "Lac de la Girotte", "category": "Dam", "area_ha": 74.1, "altitude_m": null }, "geometry": { "type": "Point", "coordinates": [ 6.6491, 45.75947 ] } },
{ "type": "Feature", "properties": { "name": "Plan d'Amont", "category": "Dam", "area_ha": 32.4, "altitude_m": null }, "geometry": { "type": "Point", "coordinates": [ 6.71912, 45.25852 ] } },
{ "type": "Feature", "properties": { "name": "Lac Blanc", "category": "Dam", "area_ha": 10.7, "altitude_m": null }, "geometry": { "type": "Point", "coordinates": [ 6.17442, 45.19293 ] } },
{ "type": "Feature", "properties": { "name": "Lac de Bissorte", "category": "Dam", "area_ha": 111.5, "altitude_m": null }, "geometry": { "type": "Point", "coordinates": [ 6.57595, 45.17173 ] } }
]
}
