{
"type": "FeatureCollection",
"name": "dep79.geojson",
"crs": { "type": "name", "properties": { "name": "urn:ogc:def:crs:OGC:1.3:CRS84" } },
"xy_coordinate_resolution": 1e-05,
"features": [
{ "type": "Feature", "properties": { "name": "Étang de la Picotière", "category": "Reservoir", "area_ha": 6.5, "altitude_m": null }, "geometry": { "type": "Point", "coordinates": [ -0.17413, 46.59905 ] } },
{ "type": "Feature", "properties": { "name": "Étang du Magny", "category": "Reservoir", "area_ha": 5.8, "altitude_m": null }, "geometry": { "type": "Point", "coordinates": [ -0.40473, 47.0147 ] } },
{ "type": "Feature", "properties": { "name": "Unnamed", "category": "Reservoir", "area_ha": 6.8, "altitude_m": null }, "geometry": { "type": "Point", "coordinates": [ -0.05323, 46.47052 ] } },
{ "type": "Feature", "properties": { "name": "Retenue de la Touche Poupard", "category": "Dam", "area_ha": 137.6, "altitude_m": null }, "geometry": { "type": "Point", "coordinates": [ -0.20886, 46.4819 ] } },
{ "type": "Feature", "properties": { "name": "Étang de Juigny", "category": "Dam", "area_ha": 38.4, "altitude_m": null }, "geometry": { "type": "Point", "coordinates": [ -0.32002, 46.97057 ] } },
{ "type": "Feature", "properties": { "name": "Unnamed", "category": "Reservoir", "area_ha": 22.2, "altitude_m": null }, "geometry": { "type": "Point", "coordinates": [ -0.6035, 46.70595 ] } },
{ "type": "Feature", "properties": { "name": "Étang de Beaurepaire", "category": "Dam", "area_ha": 37.3, "altitude_m": null }, "geometry": { "type": "Point", "coordinates": [ -0.48585, 47.06521 ] } },
{ "type": "Feature", "properties": { "name": "Barrage du Cébron", "category": "Dam", "area_ha": 172.0, "altitude_m": null }, "geometry": { "type": "Point", "coordinates": [ -0.20536, 46.7556 ] } },
{ "type": "Feature", "properties": { "name": "Unnamed", "category": "Reservoir", "area_ha": 5.2, "altitude_m": null }, "geometry": { "type": "Point", "coordinates": [ -0.12427, 46.67667 ] } },
{ "type": "Feature", "properties": { "name": "Unnamed", "category": "Reservoir", "area_ha": 7.9, "altitude_m": null }, "geometry": { "type": "Point", "coordinates": [ -0.24129, 46.52082 ] } },
{ "type": "Feature", "properties": { "name": "Unnamed", "category": "Reservoir", "area_ha": 6.0, "altitude_m": null }, "geometry": { "type": "Point", "coordinates": [ -0.12967, 46.55759 ] } },
{ "type": "Feature", "properties": { "name": "Unnamed", "category": "Reservoir", "area_ha": 6.2, "altitude_m": null }, "geometry": { "type": "Point", "coordinates": [ -0.18391, 46.57882 ] } },
{ "type": "Feature", "properties": { "name": "Unnamed", "category": "Reservoir", "area_ha": 6.0, "altitude_m": null }, "geometry": { "type": "Point", "coordinates": [ -0.20396, 46.56652 ] } },
{ "type": "Feature", "properties": { "name": "Unnamed", "category": "Reservoir", "area_ha": 5.1, "altitude_m": null }, "geometry": { "type": "Point", "coordinates": [ -0.29383, 46.67827 ] } },
{ "type": "Feature", "properties": { "name": "la Ballastière", "category": "Reservoir", "area_ha": 8.9, "altitude_m": null }, "geometry": { "type": "Point", "coordinates": [ -0.19897, 47.09291 ] } },
{ "type": "Feature", "properties": { "name": "Unnamed", "category": "Reservoir", "area_ha": 5.8, "altitude_m": null }, "geometry": { "type": "Point", "coordinates": [ -0.3161, 46.76351 ] } },
{ "type": "Feature", "properties": { "name": "Étang du Vivier", "category": "Reservoir", "area_ha": 19.3, "altitude_m": null }, "geometry": { "type": "Point", "coordinates": [ 0.04378, 46.21195 ] } },
{ "type": "Feature", "properties": { "name": "Unnamed", "category": "Reservoir", "area_ha": 8.1, "altitude_m": null }, "geometry": { "type": "Point", "coordinates": [ -0.50592, 47.06261 ] } },
{ "type": "Feature", "properties": { "name": "Unnamed", "category": "Reservoir", "area_ha": 8.4, "altitude_m": null }, "geometry": { "type": "Point", "coordinates": [ -0.13587, 46.64924 ] } },
{ "type": "Feature", "properties": { "name": "Unnamed", "category": "Reservoir", "area_ha": 6.6, "altitude_m": null }, "geometry": { "type": "Point", "coordinates": [ -0.4703, 47.03895 ] } },
{ "type": "Feature", "properties": { "name": "Étang Neuf", "category": "Reservoir", "area_ha": 15.8, "altitude_m": null }, "geometry": { "type": "Point", "coordinates": [ -0.42629, 47.0637 ] } },
{ "type": "Feature", "properties": { "name": "l'Étang", "category": "Reservoir", "area_ha": 20.5, "altitude_m": null }, "geometry": { "type": "Point", "coordinates": [ -0.55179, 47.00984 ] } },
{ "type": "Feature", "properties": { "name": "Étang de la Barre", "category": "Reservoir", "area_ha": 9.2, "altitude_m": null }, "geometry": { "type": "Point", "coordinates": [ -0.19841, 46.71281 ] } },
{ "type": "Feature", "properties": { "name": "Étang de l'Olivette", "category": "Reservoir", "area_ha": 13.1, "altitude_m": null }, "geometry": { "type": "Point", "coordinates": [ -0.45722, 46.72726 ] } },
{ "type": "Feature", "properties": { "name": "Étang du Bordage", "category": "Reservoir", "area_ha": 5.7, "altitude_m": null }, "geometry": { "type": "Point", "coordinates": [ -0.45087, 46.83923 ] } },
{ "type": "Feature", "properties": { "name": "Étang de Coigne", "category": "Reservoir", "area_ha": 5.8, "altitude_m": null }, "geometry": { "type": "Point", "coordinates": [ -0.15163, 46.65828 ] } },
{ "type": "Feature", "properties": { "name": "Étang de la Madoire", "category": "Reservoir", "area_ha": 31.3, "altitude_m": null }, "geometry": { "type": "Point", "coordinates": [ -0.43015, 46.84005 ] } },
{ "type": "Feature", "properties": { "name": "Étang des Mothes", "category": "Reservoir", "area_ha": 14.1, "altitude_m": null }, "geometry": { "type": "Point", "coordinates": [ -0.46374, 46.72147 ] } },
{ "type": "Feature", "properties": { "name": "Étang de Courberive", "category": "Reservoir", "area_ha": 9.2, "altitude_m": null }, "geometry": { "type": "Point", "coordinates": [ -0.5055, 46.71708 ] } },
{ "type": "Feature", "properties": { "name": "Étang Gaillard", "category": "Reservoir", "area_ha": 14.0, "altitude_m": null }, "geometry": { "type": "Point", "coordinates": [ -0.14237, 46.64523 ] } },
{ "type": "Feature", "properties": { "name": "Lac des Effres", "category": "Reservoir", "area_ha": 8.5, "altitude_m": null }, "geometry": { "type": "Point", "coordinates": [ -0.41257, 46.60496 ] } },
{ "type": "Feature", "properties": { "name": "Étang de la Guyonnière", "category": "Reservoir", "area_ha": 8.9, "altitude_m": null }, "geometry": { "type": "Point", "coordinates": [ -0.19647, 46.50631 ] } },
{ "type": "Feature", "properties": { "name": "Étang de Bois Pouvreau", "category": "Reservoir", "area_ha": 8.5, "altitude_m": null }, "geometry": { "type": "Point", "coordinates": [ -0.07767, 46.4891 ] } },
{ "type": "Feature", "properties": { "name": "Étang des Châteliers", "category": "Reservoir", "area_ha": 17.4, "altitude_m": null }, "geometry": { "type": "Point", "coordinates": [ -0.13965, 46.4891 ] } },
{ "type": "Feature", "properties": { "name": "Unnamed", "category": "Reservoir", "area_ha": 9.1, "altitude_m": null }, "geometry": { "type": "Point", "coordinates": [ -0.39247, 46.81989 ] } },
{ "type": "Feature", "properties": { "name": "Étang de la Grue", "category": "Reservoir", "area_ha": 11.5, "altitude_m": null }, "geometry": { "type": "Point", "coordinates": [ -0.39514, 46.97722 ] } },
{ "type": "Feature", "properties": { "name": "Unnamed", "category": "Reservoir", "area_ha": 5.7, "altitude_m": null }, "geometry": { "type": "Point", "coordinates": [ -0.11881, 46.57119 ] } },
{ "type": "Feature", "properties": { "name": "Étang des Brunetières", "category": "Reservoir", "area_ha": 15.9, "altitude_m": null }, "geometry": { "type": "Point", "coordinates": [ -0.39819, 47.00803 ] } },
{ "type": "Feature", "properties": { "name": "Lac d'Hautibus", "category": "Reservoir", "area_ha": 6.4, "altitude_m": null }, "geometry": { "type": "Point", "coordinates": [ -0.44839, 46.98786 ] } },
{ "type": "Feature", "properties": { "name": "Unnamed", "category": "Dam", "area_ha": 5.5, "altitude_m": null }, "geometry": { "type": "Point", "coordinates": [ -0.55344, 47.02971 ] } },
{ "type": "Feature", "properties": { "name": "Unnamed", "category": "Dam", "area_ha": 5.2, "altitude_m": null }, "geometry": { "type": "Point", "coordinates": [ -0.39678, 46.80765 ] } },
{ "type": "Feature", "properties": { "name": "Plan d'Eau du Lambon", "category": "Dam", "area_ha": 12.5, "altitude_m": null }, "geometry": { "type": "Point", "coordinates": [ -0.2048, 46.29812 ] } },
{ "type": "Feature", "properties": { "name": "Unnamed", "category": "Dam", "area_ha": 5.2, "altitude_m": null }, "geometry": { "type": "Point", "coordinates": [ -0.24802, 46.77202 ] } },
{ "type": "Feature", "properties": { "name": "Étang Fourreau", "category": "Dam", "area_ha": 11.6, "altitude_m": null }, "geometry": { "type": "Point", "coordinates": [ -0.24565, 46.81176 ] } },
{ "type": "Feature", "properties": { "name": "Étang de Prieuré Saint-Martin", "category": "Dam", "area_ha": 6.3, "altitude_m": null }, "geometry": { "type": "Point", "coordinates": [ -0.28244, 46.51878 ] } },
{ "type": "Feature", "properties": { "name": "Étang des Fréaux", "category": "Dam", "area_ha": 11.2, "altitude_m": null }, "geometry": { "type": "Point", "coordinates": [ -0.37866, 46.72027 ] } }
]
}
