{
"type": "FeatureCollection",
"name": "dep77.geojson",
"crs": { "type": "name", "properties": { "name": "urn:ogc:def:crs:OGC:1.3:CRS84" } },
"xy_coordinate_resolution": 1e-05,
"features": [
{ "type": "Feature", "properties": { "name": "Unnamed", "category": "Reservoir", "area_ha": 11.3, "altitude_m": null }, "geometry": { "type": "Point", "coordinates": [ 2.75434, 48.33106 ] } },
{ "type": "Feature", "properties": { "name": "la Sabotte", "category": "Reservoir", "area_ha": 13.6, "altitude_m": null }, "geometry": { "type": "Point", "coordinates": [ 2.92756, 48.98986 ] } },
{ "type": "Feature", "properties": { "name": "Plan d'Eau 3 de la Centrale Thermique de Montereau", "category": "Reservoir", "area_ha": 12.3, "altitude_m": null }, "geometry": { "type": "Point", "coordinates": [ 2.86153, 48.37468 ] } },
{ "type": "Feature", "properties": { "name": "les Chapelottes", "category": "Reservoir", "area_ha": 7.2, "altitude_m": null }, "geometry": { "type": "Point", "coordinates": [ 2.70971, 48.31597 ] } },
{ "type": "Feature", "properties": { "name": "Canal de Dérivation 1 de la Commune de Villiers sur Seine", "category": "Reservoir", "area_ha": 7.7, "altitude_m": null }, "geometry": { "type": "Point", "coordinates": [ 3.38151, 48.47384 ] } },
{ "type": "Feature", "properties": { "name": "Unnamed", "category": "Reservoir", "area_ha": 5.0, "altitude_m": null }, "geometry": { "type": "Point", "coordinates": [ 2.57598, 48.59247 ] } },
{ "type": "Feature", "properties": { "name": "Étangs des Carreaux", "category": "Reservoir", "area_ha": 5.1, "altitude_m": null }, "geometry": { "type": "Point", "coordinates": [ 2.95664, 48.69063 ] } },
{ "type": "Feature", "properties": { "name": "Plan d'Eau 1 du Bois des Bauges", "category": "Reservoir", "area_ha": 8.4, "altitude_m": null }, "geometry": { "type": "Point", "coordinates": [ 2.72935, 48.3174 ] } },
{ "type": "Feature", "properties": { "name": "Étang de Tizard", "category": "Reservoir", "area_ha": 9.1, "altitude_m": null }, "geometry": { "type": "Point", "coordinates": [ 2.77446, 48.71143 ] } },
{ "type": "Feature", "properties": { "name": "Étang d'Armainvilliers", "category": "Reservoir", "area_ha": 73.4, "altitude_m": null }, "geometry": { "type": "Point", "coordinates": [ 2.7372, 48.75847 ] } },
{ "type": "Feature", "properties": { "name": "Unnamed", "category": "Reservoir", "area_ha": 10.0, "altitude_m": null }, "geometry": { "type": "Point", "coordinates": [ 3.21406, 48.42712 ] } },
{ "type": "Feature", "properties": { "name": "Unnamed", "category": "Reservoir", "area_ha": 11.6, "altitude_m": null }, "geometry": { "type": "Point", "coordinates": [ 2.74939, 48.32787 ] } },
{ "type": "Feature", "properties": { "name": "Plan d'Eau 4 de la Commune de Gravon", "category": "Reservoir", "area_ha": 7.1, "altitude_m": null }, "geometry": { "type": "Point", "coordinates": [ 3.11793, 48.39981 ] } },
{ "type": "Feature", "properties": { "name": "Étang de Nesles", "category": "Reservoir", "area_ha": 5.4, "altitude_m": null }, "geometry": { "type": "Point", "coordinates": [ 2.96191, 48.69532 ] } },
{ "type": "Feature", "properties": { "name": "Étang des Varennes", "category": "Reservoir", "area_ha": 21.1, "altitude_m": null }, "geometry": { "type": "Point", "coordinates": [ 2.7445, 48.16778 ] } },
{ "type": "Feature", "properties": { "name": "Étang de Vincennes", "category": "Reservoir", "area_ha": 23.8, "altitude_m": null }, "geometry": { "type": "Point", "coordinates": [ 2.74525, 48.7796 ] } },
{ "type": "Feature", "properties": { "name": "Plan d'Eau 5 de la Commune de Montigny-sur-Loing", "category": "Reservoir", "area_ha": 5.7, "altitude_m": null }, "geometry": { "type": "Point", "coordinates": [ 2.78685, 48.3432 ] } },
{ "type": "Feature", "properties": { "name": "Plan d'Eau 10 de la Commune de Montigny-sur-Loing", "category": "Reservoir", "area_ha": 6.2, "altitude_m": null }, "geometry": { "type": "Point", "coordinates": [ 2.77716, 48.34448 ] } },
{ "type": "Feature", "properties": { "name": "Mare des Plaines", "category": "Reservoir", "area_ha": 6.9, "altitude_m": null }, "geometry": { "type": "Point", "coordinates": [ 2.61636, 48.59593 ] } },
{ "type": "Feature", "properties": { "name": "Unnamed", "category": "Reservoir", "area_ha": 5.9, "altitude_m": null }, "geometry": { "type": "Point", "coordinates": [ 2.68483, 48.29483 ] } },
{ "type": "Feature", "properties": { "name": "Étang de Péreuse", "category": "Reservoir", "area_ha": 14.0, "altitude_m": null }, "geometry": { "type": "Point", "coordinates": [ 3.09694, 48.92155 ] } },
{ "type": "Feature", "properties": { "name": "Étang de la Loy", "category": "Reservoir", "area_ha": 6.9, "altitude_m": null }, "geometry": { "type": "Point", "coordinates": [ 2.67974, 48.85363 ] } },
{ "type": "Feature", "properties": { "name": "Unnamed", "category": "Reservoir", "area_ha": 6.2, "altitude_m": null }, "geometry": { "type": "Point", "coordinates": [ 2.91939, 48.38349 ] } },
{ "type": "Feature", "properties": { "name": "Étang de Guerlande", "category": "Reservoir", "area_ha": 13.1, "altitude_m": null }, "geometry": { "type": "Point", "coordinates": [ 2.96412, 48.74573 ] } },
{ "type": "Feature", "properties": { "name": "Étang du Pont Brossard", "category": "Reservoir", "area_ha": 5.2, "altitude_m": null }, "geometry": { "type": "Point", "coordinates": [ 2.90416, 48.44794 ] } },
{ "type": "Feature", "properties": { "name": "Plan d'Eau 1 de la Centrale Thermique de Montereau", "category": "Reservoir", "area_ha": 13.1, "altitude_m": null }, "geometry": { "type": "Point", "coordinates": [ 2.85054, 48.37858 ] } },
{ "type": "Feature", "properties": { "name": "Plan d'Eau 1 de la Commune de Samoreau", "category": "Reservoir", "area_ha": 9.3, "altitude_m": null }, "geometry": { "type": "Point", "coordinates": [ 2.74954, 48.41826 ] } },
{ "type": "Feature", "properties": { "name": "Unnamed", "category": "Reservoir", "area_ha": 9.7, "altitude_m": null }, "geometry": { "type": "Point", "coordinates": [ 2.73066, 48.17491 ] } },
{ "type": "Feature", "properties": { "name": "Sablière du Vieux Pont", "category": "Reservoir", "area_ha": 7.2, "altitude_m": null }, "geometry": { "type": "Point", "coordinates": [ 2.8067, 48.35471 ] } },
{ "type": "Feature", "properties": { "name": "Ferme Chauchion", "category": "Reservoir", "area_ha": 51.8, "altitude_m": null }, "geometry": { "type": "Point", "coordinates": [ 2.89593, 48.37356 ] } },
{ "type": "Feature", "properties": { "name": "Étang de Maubuée", "category": "Reservoir", "area_ha": 10.7, "altitude_m": null }, "geometry": { "type": "Point", "coordinates": [ 2.64477, 48.8421 ] } },
{ "type": "Feature", "properties": { "name": "les Chapelottes", "category": "Reservoir", "area_ha": 13.7, "altitude_m": null }, "geometry": { "type": "Point", "coordinates": [ 2.71358, 48.31613 ] } },
{ "type": "Feature", "properties": { "name": "Canal de Dérivation 2 de la Commune de Villiers sur Seine", "category": "Reservoir", "area_ha": 8.0, "altitude_m": null }, "geometry": { "type": "Point", "coordinates": [ 3.36897, 48.46883 ] } },
{ "type": "Feature", "properties": { "name": "Unnamed", "category": "Reservoir", "area_ha": 18.2, "altitude_m": null }, "geometry": { "type": "Point", "coordinates": [ 3.03419, 48.37627 ] } },
{ "type": "Feature", "properties": { "name": "Carrière des Grands Prés", "category": "Reservoir", "area_ha": 7.4, "altitude_m": null }, "geometry": { "type": "Point", "coordinates": [ 2.6855, 48.28597 ] } },
{ "type": "Feature", "properties": { "name": "les Vodres", "category": "Reservoir", "area_ha": 5.7, "altitude_m": null }, "geometry": { "type": "Point", "coordinates": [ 3.32555, 48.45114 ] } },
{ "type": "Feature", "properties": { "name": "Plan d'Eau 6 de la Commune de Montigny-sur-Loing", "category": "Reservoir", "area_ha": 29.1, "altitude_m": null }, "geometry": { "type": "Point", "coordinates": [ 2.78653, 48.34051 ] } },
{ "type": "Feature", "properties": { "name": "Ferme de Frétay", "category": "Reservoir", "area_ha": 9.4, "altitude_m": null }, "geometry": { "type": "Point", "coordinates": [ 2.79184, 48.72462 ] } },
{ "type": "Feature", "properties": { "name": "Carrière des Grands Prés", "category": "Reservoir", "area_ha": 6.4, "altitude_m": null }, "geometry": { "type": "Point", "coordinates": [ 2.69007, 48.28332 ] } },
{ "type": "Feature", "properties": { "name": "Étang de Croissy", "category": "Reservoir", "area_ha": 6.7, "altitude_m": null }, "geometry": { "type": "Point", "coordinates": [ 2.65561, 48.82945 ] } },
{ "type": "Feature", "properties": { "name": "Unnamed", "category": "Reservoir", "area_ha": 7.0, "altitude_m": null }, "geometry": { "type": "Point", "coordinates": [ 2.57059, 48.63491 ] } },
{ "type": "Feature", "properties": { "name": "Plan d'Eau 2 du Bois des Bauges", "category": "Reservoir", "area_ha": 20.5, "altitude_m": null }, "geometry": { "type": "Point", "coordinates": [ 2.72243, 48.31763 ] } },
{ "type": "Feature", "properties": { "name": "Canal de Dérivation 1 de la Commune de Melz sur Seine", "category": "Reservoir", "area_ha": 6.2, "altitude_m": null }, "geometry": { "type": "Point", "coordinates": [ 3.42872, 48.49215 ] } },
{ "type": "Feature", "properties": { "name": "Sablière du Vieux Pont", "category": "Reservoir", "area_ha": 15.7, "altitude_m": null }, "geometry": { "type": "Point", "coordinates": [ 2.8132, 48.35888 ] } },
{ "type": "Feature", "properties": { "name": "Unnamed", "category": "Reservoir", "area_ha": 15.6, "altitude_m": null }, "geometry": { "type": "Point", "coordinates": [ 2.68751, 48.29443 ] } },
{ "type": "Feature", "properties": { "name": "Unnamed", "category": "Reservoir", "area_ha": 8.7, "altitude_m": null }, "geometry": { "type": "Point", "coordinates": [ 2.91968, 48.38092 ] } },
{ "type": "Feature", "properties": { "name": "Sablière de la Maison Blanche", "category": "Reservoir", "area_ha": 25.0, "altitude_m": null }, "geometry": { "type": "Point", "coordinates": [ 2.76225, 48.32859 ] } },
{ "type": "Feature", "properties": { "name": "Étang de la Clarette", "category": "Reservoir", "area_ha": 13.5, "altitude_m": null }, "geometry": { "type": "Point", "coordinates": [ 2.70588, 48.31504 ] } },
{ "type": "Feature", "properties": { "name": "Unnamed", "category": "Reservoir", "area_ha": 10.4, "altitude_m": null }, "geometry": { "type": "Point", "coordinates": [ 2.61583, 48.99557 ] } },
{ "type": "Feature", "properties": { "name": "Étang de Célie", "category": "Reservoir", "area_ha": 5.9, "altitude_m": null }, "geometry": { "type": "Point", "coordinates": [ 2.61018, 48.82071 ] } },
{ "type": "Feature", "properties": { "name": "Unnamed", "category": "Reservoir", "area_ha": 5.4, "altitude_m": null }, "geometry": { "type": "Point", "coordinates": [ 2.58726, 48.56269 ] } },
{ "type": "Feature", "properties": { "name": "Plan d'Eau 1 de la Commune de Chessy", "category": "Reservoir", "area_ha": 7.3, "altitude_m": null }, "geometry": { "type": "Point", "coordinates": [ 2.78964, 48.87013 ] } },
{ "type": "Feature", "properties": { "name": "Unnamed", "category": "Reservoir", "area_ha": 11.1, "altitude_m": null }, "geometry": { "type": "Point", "coordinates": [ 2.67423, 48.49799 ] } },
{ "type": "Feature", "properties": { "name": "Étang Blain", "category": "Reservoir", "area_ha": 6.4, "altitude_m": null }, "geometry": { "type": "Point", "coordinates": [ 3.00567, 48.48364 ] } },
{ "type": "Feature", "properties": { "name": "Étang du Coq", "category": "Reservoir", "area_ha": 8.2, "altitude_m": null }, "geometry": { "type": "Point", "coordinates": [ 2.62849, 48.78655 ] } },
{ "type": "Feature", "properties": { "name": "Étang du Vivier", "category": "Reservoir", "area_ha": 11.0, "altitude_m": null }, "geometry": { "type": "Point", "coordinates": [ 2.84729, 48.68125 ] } },
{ "type": "Feature", "properties": { "name": "Étang de Villeron", "category": "Dam", "area_ha": 10.2, "altitude_m": null }, "geometry": { "type": "Point", "coordinates": [ 2.79419, 48.31824 ] } },
{ "type": "Feature", "properties": { "name": "Étang de Villefermoy", "category": "Dam", "area_ha": 21.8, "altitude_m": null }, "geometry": { "type": "Point", "coordinates": [ 2.92971, 48.5371 ] } },
{ "type": "Feature", "properties": { "name": "Étangs de Villefermoy", "category": "Dam", "area_ha": 10.9, "altitude_m": null }, "geometry": { "type": "Point", "coordinates": [ 2.92925, 48.53036 ] } },
{ "type": "Feature", "properties": { "name": "Étang de Moret", "category": "Dam", "area_ha": 12.4, "altitude_m": null }, "geometry": { "type": "Point", "coordinates": [ 2.84044, 48.35761 ] } }
]
}
