{
"type": "FeatureCollection",
"name": "dep71.geojson",
"crs": { "type": "name", "properties": { "name": "urn:ogc:def:crs:OGC:1.3:CRS84" } },
"xy_coordinate_resolution": 1e-05,
"features": [
{ "type": "Feature", "properties": { "name": "Étang de Pitoure", "category": "Reservoir", "area_ha": 6.4, "altitude_m": null }, "geometry": { "type": "Point", "coordinates": [ 5.26014, 46.85888 ] } },
{ "type": "Feature", "properties": { "name": "Étang du Petit Montchanin", "category": "Reservoir", "area_ha": 7.7, "altitude_m": null }, "geometry": { "type": "Point", "coordinates": [ 4.4815, 46.71915 ] } },
{ "type": "Feature", "properties": { "name": "Étang de Chaudenard", "category": "Reservoir", "area_ha": 5.2, "altitude_m": null }, "geometry": { "type": "Point", "coordinates": [ 5.28573, 46.79416 ] } },
{ "type": "Feature", "properties": { "name": "Étang de la Chênaie", "category": "Reservoir", "area_ha": 20.0, "altitude_m": null }, "geometry": { "type": "Point", "coordinates": [ 5.1968, 46.89265 ] } },
{ "type": "Feature", "properties": { "name": "Étang de Fussey", "category": "Dam", "area_ha": 5.3, "altitude_m": null }, "geometry": { "type": "Point", "coordinates": [ 5.12584, 46.82156 ] } },
{ "type": "Feature", "properties": { "name": "Étang de Pierre au Grain", "category": "Reservoir", "area_ha": 5.9, "altitude_m": null }, "geometry": { "type": "Point", "coordinates": [ 4.54393, 46.46027 ] } },
{ "type": "Feature", "properties": { "name": "Étang de Vortoy", "category": "Reservoir", "area_ha": 9.6, "altitude_m": null }, "geometry": { "type": "Point", "coordinates": [ 4.88392, 46.91566 ] } },
{ "type": "Feature", "properties": { "name": "Étang de la Sorme", "category": "Dam", "area_ha": 218.4, "altitude_m": null }, "geometry": { "type": "Point", "coordinates": [ 4.34101, 46.72592 ] } },
{ "type": "Feature", "properties": { "name": "Étang de Corberan", "category": "Reservoir", "area_ha": 6.0, "altitude_m": null }, "geometry": { "type": "Point", "coordinates": [ 5.05416, 46.71724 ] } },
{ "type": "Feature", "properties": { "name": "Unnamed", "category": "Reservoir", "area_ha": 29.9, "altitude_m": null }, "geometry": { "type": "Point", "coordinates": [ 4.37093, 46.68774 ] } },
{ "type": "Feature", "properties": { "name": "Houillères", "category": "Reservoir", "area_ha": 15.0, "altitude_m": null }, "geometry": { "type": "Point", "coordinates": [ 4.35145, 46.67961 ] } },
{ "type": "Feature", "properties": { "name": "Étang du Grand Beauregard", "category": "Reservoir", "area_ha": 16.1, "altitude_m": null }, "geometry": { "type": "Point", "coordinates": [ 4.84931, 46.89407 ] } },
{ "type": "Feature", "properties": { "name": "Unnamed", "category": "Reservoir", "area_ha": 5.1, "altitude_m": null }, "geometry": { "type": "Point", "coordinates": [ 4.50359, 46.86733 ] } },
{ "type": "Feature", "properties": { "name": "Étang des Claies", "category": "Reservoir", "area_ha": 31.4, "altitude_m": null }, "geometry": { "type": "Point", "coordinates": [ 5.35804, 46.65364 ] } },
{ "type": "Feature", "properties": { "name": "la Grande Mare", "category": "Reservoir", "area_ha": 24.1, "altitude_m": null }, "geometry": { "type": "Point", "coordinates": [ 4.8724, 46.79498 ] } },
{ "type": "Feature", "properties": { "name": "Lacs de Laives", "category": "Reservoir", "area_ha": 23.1, "altitude_m": null }, "geometry": { "type": "Point", "coordinates": [ 4.82755, 46.66839 ] } },
{ "type": "Feature", "properties": { "name": "Unnamed", "category": "Reservoir", "area_ha": 6.3, "altitude_m": null }, "geometry": { "type": "Point", "coordinates": [ 4.11507, 46.67179 ] } },
{ "type": "Feature", "properties": { "name": "Étang de Montaubry", "category": "Dam", "area_ha": 90.2, "altitude_m": null }, "geometry": { "type": "Point", "coordinates": [ 4.53496, 46.78867 ] } },
{ "type": "Feature", "properties": { "name": "Étang de Villeron", "category": "Dam", "area_ha": 35.9, "altitude_m": null }, "geometry": { "type": "Point", "coordinates": [ 5.39492, 46.648 ] } },
{ "type": "Feature", "properties": { "name": "Étang de la Colonge", "category": "Dam", "area_ha": 5.1, "altitude_m": null }, "geometry": { "type": "Point", "coordinates": [ 4.76681, 46.72583 ] } },
{ "type": "Feature", "properties": { "name": "Étang de Louvarel", "category": "Reservoir", "area_ha": 21.3, "altitude_m": null }, "geometry": { "type": "Point", "coordinates": [ 5.32323, 46.49293 ] } },
{ "type": "Feature", "properties": { "name": "Étang de Torcy Neuf", "category": "Dam", "area_ha": 148.8, "altitude_m": null }, "geometry": { "type": "Point", "coordinates": [ 4.43517, 46.77683 ] } },
{ "type": "Feature", "properties": { "name": "Étang de la Grande Vèvre", "category": "Reservoir", "area_ha": 10.4, "altitude_m": null }, "geometry": { "type": "Point", "coordinates": [ 5.2334, 46.8692 ] } },
{ "type": "Feature", "properties": { "name": "le Bouley", "category": "Reservoir", "area_ha": 5.2, "altitude_m": null }, "geometry": { "type": "Point", "coordinates": [ 5.13091, 46.89639 ] } },
{ "type": "Feature", "properties": { "name": "Étang du Château de la Marche", "category": "Reservoir", "area_ha": 6.1, "altitude_m": null }, "geometry": { "type": "Point", "coordinates": [ 5.11495, 46.79604 ] } },
{ "type": "Feature", "properties": { "name": "Étang des Bordes", "category": "Reservoir", "area_ha": 5.1, "altitude_m": null }, "geometry": { "type": "Point", "coordinates": [ 4.991, 46.60884 ] } },
{ "type": "Feature", "properties": { "name": "Étang Paillard", "category": "Reservoir", "area_ha": 8.2, "altitude_m": null }, "geometry": { "type": "Point", "coordinates": [ 4.29399, 46.92122 ] } },
{ "type": "Feature", "properties": { "name": "Lac du Grand Pâquier", "category": "Reservoir", "area_ha": 7.0, "altitude_m": null }, "geometry": { "type": "Point", "coordinates": [ 4.87999, 46.77375 ] } },
{ "type": "Feature", "properties": { "name": "Unnamed", "category": "Reservoir", "area_ha": 25.3, "altitude_m": null }, "geometry": { "type": "Point", "coordinates": [ 4.34723, 46.67079 ] } },
{ "type": "Feature", "properties": { "name": "Étang Neuf", "category": "Reservoir", "area_ha": 8.3, "altitude_m": null }, "geometry": { "type": "Point", "coordinates": [ 5.25959, 46.86546 ] } },
{ "type": "Feature", "properties": { "name": "Étang de Layer", "category": "Reservoir", "area_ha": 8.6, "altitude_m": null }, "geometry": { "type": "Point", "coordinates": [ 5.2809, 46.74599 ] } },
{ "type": "Feature", "properties": { "name": "Plan d'Eau des Fouthiaux", "category": "Reservoir", "area_ha": 13.4, "altitude_m": null }, "geometry": { "type": "Point", "coordinates": [ 4.2919, 46.64145 ] } },
{ "type": "Feature", "properties": { "name": "Unnamed", "category": "Reservoir", "area_ha": 5.6, "altitude_m": null }, "geometry": { "type": "Point", "coordinates": [ 3.67365, 46.72818 ] } },
{ "type": "Feature", "properties": { "name": "Étang du Mur", "category": "Reservoir", "area_ha": 6.3, "altitude_m": null }, "geometry": { "type": "Point", "coordinates": [ 4.92588, 46.89945 ] } },
{ "type": "Feature", "properties": { "name": "Étang de Ruilly", "category": "Reservoir", "area_ha": 5.3, "altitude_m": null }, "geometry": { "type": "Point", "coordinates": [ 4.93861, 46.86591 ] } },
{ "type": "Feature", "properties": { "name": "le Grand Étang", "category": "Reservoir", "area_ha": 26.1, "altitude_m": null }, "geometry": { "type": "Point", "coordinates": [ 4.31761, 46.29449 ] } },
{ "type": "Feature", "properties": { "name": "Étang du Charmoy", "category": "Reservoir", "area_ha": 16.9, "altitude_m": null }, "geometry": { "type": "Point", "coordinates": [ 5.16794, 46.6846 ] } },
{ "type": "Feature", "properties": { "name": "Étang de Villeneuve", "category": "Reservoir", "area_ha": 11.6, "altitude_m": null }, "geometry": { "type": "Point", "coordinates": [ 4.8998, 46.86754 ] } },
{ "type": "Feature", "properties": { "name": "Lac des Orlands", "category": "Reservoir", "area_ha": 5.7, "altitude_m": null }, "geometry": { "type": "Point", "coordinates": [ 4.87976, 46.77782 ] } },
{ "type": "Feature", "properties": { "name": "Étang de Ramus", "category": "Reservoir", "area_ha": 5.2, "altitude_m": null }, "geometry": { "type": "Point", "coordinates": [ 4.27488, 46.63042 ] } },
{ "type": "Feature", "properties": { "name": "Étang Bailly", "category": "Reservoir", "area_ha": 13.2, "altitude_m": null }, "geometry": { "type": "Point", "coordinates": [ 5.21071, 46.87785 ] } },
{ "type": "Feature", "properties": { "name": "Lac de la Souche", "category": "Reservoir", "area_ha": 5.0, "altitude_m": null }, "geometry": { "type": "Point", "coordinates": [ 4.87095, 46.77387 ] } },
{ "type": "Feature", "properties": { "name": "Étang de Neuillon", "category": "Reservoir", "area_ha": 16.8, "altitude_m": null }, "geometry": { "type": "Point", "coordinates": [ 5.31521, 46.83785 ] } },
{ "type": "Feature", "properties": { "name": "Étang Berthaud", "category": "Reservoir", "area_ha": 38.4, "altitude_m": null }, "geometry": { "type": "Point", "coordinates": [ 4.47338, 46.72143 ] } },
{ "type": "Feature", "properties": { "name": "Étang des Bois", "category": "Reservoir", "area_ha": 13.4, "altitude_m": null }, "geometry": { "type": "Point", "coordinates": [ 5.20916, 46.89333 ] } },
{ "type": "Feature", "properties": { "name": "Étang du Milieu", "category": "Reservoir", "area_ha": 13.7, "altitude_m": null }, "geometry": { "type": "Point", "coordinates": [ 5.20711, 46.89842 ] } },
{ "type": "Feature", "properties": { "name": "Étang du Coin", "category": "Reservoir", "area_ha": 5.6, "altitude_m": null }, "geometry": { "type": "Point", "coordinates": [ 4.94407, 46.77041 ] } },
{ "type": "Feature", "properties": { "name": "Unnamed", "category": "Reservoir", "area_ha": 6.9, "altitude_m": null }, "geometry": { "type": "Point", "coordinates": [ 4.03938, 46.55362 ] } },
{ "type": "Feature", "properties": { "name": "Sablières de Rives-les-Arrouette", "category": "Reservoir", "area_ha": 16.9, "altitude_m": null }, "geometry": { "type": "Point", "coordinates": [ 4.11019, 46.66567 ] } },
{ "type": "Feature", "properties": { "name": "Étang du Monay", "category": "Reservoir", "area_ha": 5.4, "altitude_m": null }, "geometry": { "type": "Point", "coordinates": [ 4.42649, 46.71908 ] } },
{ "type": "Feature", "properties": { "name": "Étang de Garnot", "category": "Reservoir", "area_ha": 10.0, "altitude_m": null }, "geometry": { "type": "Point", "coordinates": [ 3.76661, 46.66515 ] } },
{ "type": "Feature", "properties": { "name": "Étang de Guéresse", "category": "Reservoir", "area_ha": 5.2, "altitude_m": null }, "geometry": { "type": "Point", "coordinates": [ 3.76278, 46.69526 ] } },
{ "type": "Feature", "properties": { "name": "Gravière du Château de Varennes", "category": "Reservoir", "area_ha": 19.0, "altitude_m": null }, "geometry": { "type": "Point", "coordinates": [ 4.81398, 46.27306 ] } },
{ "type": "Feature", "properties": { "name": "Grand Étang de Saint-Bonnet", "category": "Reservoir", "area_ha": 9.6, "altitude_m": null }, "geometry": { "type": "Point", "coordinates": [ 5.14455, 46.85416 ] } },
{ "type": "Feature", "properties": { "name": "Étang de Colonges", "category": "Reservoir", "area_ha": 6.3, "altitude_m": null }, "geometry": { "type": "Point", "coordinates": [ 4.93464, 46.87927 ] } },
{ "type": "Feature", "properties": { "name": "Étang de Pré Henry", "category": "Reservoir", "area_ha": 8.1, "altitude_m": null }, "geometry": { "type": "Point", "coordinates": [ 5.13899, 46.85714 ] } },
{ "type": "Feature", "properties": { "name": "Lac des Chalendins", "category": "Reservoir", "area_ha": 5.6, "altitude_m": null }, "geometry": { "type": "Point", "coordinates": [ 4.78202, 46.20077 ] } },
{ "type": "Feature", "properties": { "name": "Étang de Brandon", "category": "Reservoir", "area_ha": 40.8, "altitude_m": null }, "geometry": { "type": "Point", "coordinates": [ 4.48936, 46.86069 ] } },
{ "type": "Feature", "properties": { "name": "Étang du Roivre", "category": "Reservoir", "area_ha": 5.4, "altitude_m": null }, "geometry": { "type": "Point", "coordinates": [ 4.75805, 46.62448 ] } },
{ "type": "Feature", "properties": { "name": "Sablières de Rives-les-Arrouette", "category": "Reservoir", "area_ha": 9.9, "altitude_m": null }, "geometry": { "type": "Point", "coordinates": [ 4.10916, 46.66048 ] } },
{ "type": "Feature", "properties": { "name": "Étang du Moulin", "category": "Reservoir", "area_ha": 8.1, "altitude_m": null }, "geometry": { "type": "Point", "coordinates": [ 5.19611, 46.85778 ] } },
{ "type": "Feature", "properties": { "name": "Étang de Baignant", "category": "Reservoir", "area_ha": 23.5, "altitude_m": null }, "geometry": { "type": "Point", "coordinates": [ 4.93163, 46.91287 ] } },
{ "type": "Feature", "properties": { "name": "Étang de Pierre", "category": "Reservoir", "area_ha": 23.0, "altitude_m": null }, "geometry": { "type": "Point", "coordinates": [ 5.24528, 46.86811 ] } },
{ "type": "Feature", "properties": { "name": "Découverte Saint-Amédée", "category": "Reservoir", "area_ha": 13.4, "altitude_m": null }, "geometry": { "type": "Point", "coordinates": [ 4.31667, 46.65625 ] } },
{ "type": "Feature", "properties": { "name": "Étang des Platières", "category": "Reservoir", "area_ha": 7.4, "altitude_m": null }, "geometry": { "type": "Point", "coordinates": [ 5.27393, 46.73739 ] } },
{ "type": "Feature", "properties": { "name": "Étang Rouge", "category": "Reservoir", "area_ha": 15.3, "altitude_m": null }, "geometry": { "type": "Point", "coordinates": [ 5.31115, 46.8665 ] } },
{ "type": "Feature", "properties": { "name": "Étang Niat", "category": "Reservoir", "area_ha": 7.0, "altitude_m": null }, "geometry": { "type": "Point", "coordinates": [ 5.26012, 46.49775 ] } },
{ "type": "Feature", "properties": { "name": "Étang d'Aizy", "category": "Reservoir", "area_ha": 10.8, "altitude_m": null }, "geometry": { "type": "Point", "coordinates": [ 4.21141, 46.80951 ] } },
{ "type": "Feature", "properties": { "name": "Étang Lapierre", "category": "Reservoir", "area_ha": 8.9, "altitude_m": null }, "geometry": { "type": "Point", "coordinates": [ 5.37831, 46.87479 ] } },
{ "type": "Feature", "properties": { "name": "Étang Chancevau", "category": "Reservoir", "area_ha": 6.0, "altitude_m": null }, "geometry": { "type": "Point", "coordinates": [ 5.37986, 46.69203 ] } },
{ "type": "Feature", "properties": { "name": "Étang de Jonvelle", "category": "Reservoir", "area_ha": 5.1, "altitude_m": null }, "geometry": { "type": "Point", "coordinates": [ 4.95853, 46.94309 ] } },
{ "type": "Feature", "properties": { "name": "Étang des Millots", "category": "Reservoir", "area_ha": 5.1, "altitude_m": null }, "geometry": { "type": "Point", "coordinates": [ 5.26946, 46.82815 ] } },
{ "type": "Feature", "properties": { "name": "Étang de la Chanaie", "category": "Reservoir", "area_ha": 6.4, "altitude_m": null }, "geometry": { "type": "Point", "coordinates": [ 5.27277, 46.72904 ] } },
{ "type": "Feature", "properties": { "name": "Étang de Chavenne", "category": "Reservoir", "area_ha": 13.7, "altitude_m": null }, "geometry": { "type": "Point", "coordinates": [ 5.31335, 46.85996 ] } },
{ "type": "Feature", "properties": { "name": "Étang de la Commune", "category": "Reservoir", "area_ha": 5.4, "altitude_m": null }, "geometry": { "type": "Point", "coordinates": [ 5.24122, 46.73529 ] } },
{ "type": "Feature", "properties": { "name": "Étang du Fay", "category": "Reservoir", "area_ha": 22.3, "altitude_m": null }, "geometry": { "type": "Point", "coordinates": [ 5.33042, 46.88114 ] } },
{ "type": "Feature", "properties": { "name": "Étang de la Verne", "category": "Reservoir", "area_ha": 6.8, "altitude_m": null }, "geometry": { "type": "Point", "coordinates": [ 5.36768, 46.86767 ] } },
{ "type": "Feature", "properties": { "name": "Étang de la Marche", "category": "Reservoir", "area_ha": 7.8, "altitude_m": null }, "geometry": { "type": "Point", "coordinates": [ 5.09667, 46.84036 ] } },
{ "type": "Feature", "properties": { "name": "Étang Neuf", "category": "Reservoir", "area_ha": 7.3, "altitude_m": null }, "geometry": { "type": "Point", "coordinates": [ 5.08844, 46.76033 ] } },
{ "type": "Feature", "properties": { "name": "Étang de Poisson", "category": "Reservoir", "area_ha": 23.2, "altitude_m": null }, "geometry": { "type": "Point", "coordinates": [ 4.10965, 46.90168 ] } },
{ "type": "Feature", "properties": { "name": "Étang de Diombe", "category": "Reservoir", "area_ha": 10.2, "altitude_m": null }, "geometry": { "type": "Point", "coordinates": [ 5.15401, 46.77919 ] } },
{ "type": "Feature", "properties": { "name": "Étang Copin", "category": "Reservoir", "area_ha": 7.6, "altitude_m": null }, "geometry": { "type": "Point", "coordinates": [ 5.12887, 46.63773 ] } },
{ "type": "Feature", "properties": { "name": "Gravière de Montbellet N 1", "category": "Reservoir", "area_ha": 16.6, "altitude_m": null }, "geometry": { "type": "Point", "coordinates": [ 4.90093, 46.46012 ] } },
{ "type": "Feature", "properties": { "name": "Étang Bâtard", "category": "Reservoir", "area_ha": 10.5, "altitude_m": null }, "geometry": { "type": "Point", "coordinates": [ 4.83134, 46.8983 ] } },
{ "type": "Feature", "properties": { "name": "Unnamed", "category": "Reservoir", "area_ha": 5.9, "altitude_m": null }, "geometry": { "type": "Point", "coordinates": [ 4.33847, 46.67198 ] } },
{ "type": "Feature", "properties": { "name": "Étang de la Corne au Vilain", "category": "Reservoir", "area_ha": 5.7, "altitude_m": null }, "geometry": { "type": "Point", "coordinates": [ 4.47872, 46.73964 ] } },
{ "type": "Feature", "properties": { "name": "Étang Gruyère", "category": "Reservoir", "area_ha": 6.2, "altitude_m": null }, "geometry": { "type": "Point", "coordinates": [ 5.21499, 46.8708 ] } },
{ "type": "Feature", "properties": { "name": "Étang de la Toison", "category": "Reservoir", "area_ha": 34.9, "altitude_m": null }, "geometry": { "type": "Point", "coordinates": [ 4.30146, 46.92071 ] } },
{ "type": "Feature", "properties": { "name": "Lac du Plessis", "category": "Reservoir", "area_ha": 29.8, "altitude_m": null }, "geometry": { "type": "Point", "coordinates": [ 4.38238, 46.67433 ] } },
{ "type": "Feature", "properties": { "name": "Étang de la Motte", "category": "Reservoir", "area_ha": 7.9, "altitude_m": null }, "geometry": { "type": "Point", "coordinates": [ 5.37047, 46.85578 ] } },
{ "type": "Feature", "properties": { "name": "Étang de Saint-Sernin", "category": "Reservoir", "area_ha": 17.0, "altitude_m": null }, "geometry": { "type": "Point", "coordinates": [ 4.42976, 46.84149 ] } },
{ "type": "Feature", "properties": { "name": "Étang de Longpendu", "category": "Reservoir", "area_ha": 19.5, "altitude_m": null }, "geometry": { "type": "Point", "coordinates": [ 4.4983, 46.75386 ] } },
{ "type": "Feature", "properties": { "name": "Unnamed", "category": "Reservoir", "area_ha": 5.8, "altitude_m": null }, "geometry": { "type": "Point", "coordinates": [ 4.40632, 46.42935 ] } },
{ "type": "Feature", "properties": { "name": "Étang Grillot", "category": "Reservoir", "area_ha": 5.2, "altitude_m": null }, "geometry": { "type": "Point", "coordinates": [ 4.39447, 46.84612 ] } },
{ "type": "Feature", "properties": { "name": "Étang de Montchanin", "category": "Reservoir", "area_ha": 24.9, "altitude_m": null }, "geometry": { "type": "Point", "coordinates": [ 4.48646, 46.74012 ] } },
{ "type": "Feature", "properties": { "name": "Plan d'Eau du Fourneau", "category": "Reservoir", "area_ha": 8.1, "altitude_m": null }, "geometry": { "type": "Point", "coordinates": [ 4.22904, 46.56219 ] } },
{ "type": "Feature", "properties": { "name": "Étang de Beauregard", "category": "Reservoir", "area_ha": 7.4, "altitude_m": null }, "geometry": { "type": "Point", "coordinates": [ 4.86286, 46.89402 ] } },
{ "type": "Feature", "properties": { "name": "Étang de Ramouille", "category": "Reservoir", "area_ha": 20.9, "altitude_m": null }, "geometry": { "type": "Point", "coordinates": [ 5.31788, 46.87338 ] } },
{ "type": "Feature", "properties": { "name": "Étang Fouget", "category": "Reservoir", "area_ha": 13.9, "altitude_m": null }, "geometry": { "type": "Point", "coordinates": [ 4.98088, 46.52261 ] } },
{ "type": "Feature", "properties": { "name": "Lacs d'Épervans", "category": "Reservoir", "area_ha": 10.7, "altitude_m": null }, "geometry": { "type": "Point", "coordinates": [ 4.89114, 46.75258 ] } },
{ "type": "Feature", "properties": { "name": "Étang de Maizières", "category": "Reservoir", "area_ha": 20.0, "altitude_m": null }, "geometry": { "type": "Point", "coordinates": [ 4.89186, 46.90993 ] } },
{ "type": "Feature", "properties": { "name": "Étang de Saint-Émiland", "category": "Reservoir", "area_ha": 16.5, "altitude_m": null }, "geometry": { "type": "Point", "coordinates": [ 4.47886, 46.89709 ] } },
{ "type": "Feature", "properties": { "name": "Étang Meygnaud", "category": "Dam", "area_ha": 5.6, "altitude_m": null }, "geometry": { "type": "Point", "coordinates": [ 4.08969, 46.62338 ] } },
{ "type": "Feature", "properties": { "name": "Étang devant", "category": "Dam", "area_ha": 6.2, "altitude_m": null }, "geometry": { "type": "Point", "coordinates": [ 5.07773, 46.52958 ] } },
{ "type": "Feature", "properties": { "name": "Étang du Martinet", "category": "Dam", "area_ha": 8.9, "altitude_m": null }, "geometry": { "type": "Point", "coordinates": [ 4.38264, 46.88873 ] } },
{ "type": "Feature", "properties": { "name": "Étang de la Croix", "category": "Dam", "area_ha": 5.5, "altitude_m": null }, "geometry": { "type": "Point", "coordinates": [ 5.23295, 46.83257 ] } },
{ "type": "Feature", "properties": { "name": "Grand Étang de Pontoux", "category": "Dam", "area_ha": 20.7, "altitude_m": null }, "geometry": { "type": "Point", "coordinates": [ 5.12584, 46.91961 ] } },
{ "type": "Feature", "properties": { "name": "Étang de Varolles", "category": "Dam", "area_ha": 6.8, "altitude_m": null }, "geometry": { "type": "Point", "coordinates": [ 4.26644, 47.00212 ] } },
{ "type": "Feature", "properties": { "name": "Étang de la Vicheresse", "category": "Dam", "area_ha": 7.1, "altitude_m": null }, "geometry": { "type": "Point", "coordinates": [ 5.21764, 46.69308 ] } },
{ "type": "Feature", "properties": { "name": "Étang de Martenet", "category": "Dam", "area_ha": 17.7, "altitude_m": null }, "geometry": { "type": "Point", "coordinates": [ 4.20522, 46.68013 ] } },
{ "type": "Feature", "properties": { "name": "Étang Neuf", "category": "Dam", "area_ha": 17.3, "altitude_m": null }, "geometry": { "type": "Point", "coordinates": [ 4.42559, 46.55538 ] } },
{ "type": "Feature", "properties": { "name": "Unnamed", "category": "Dam", "area_ha": 8.6, "altitude_m": null }, "geometry": { "type": "Point", "coordinates": [ 4.37067, 46.31317 ] } },
{ "type": "Feature", "properties": { "name": "Étang Neuf", "category": "Dam", "area_ha": 5.5, "altitude_m": null }, "geometry": { "type": "Point", "coordinates": [ 5.21628, 46.85208 ] } },
{ "type": "Feature", "properties": { "name": "Étang du Petit Baronnet", "category": "Dam", "area_ha": 11.0, "altitude_m": null }, "geometry": { "type": "Point", "coordinates": [ 4.33498, 46.55892 ] } },
{ "type": "Feature", "properties": { "name": "Étang de Chevannes", "category": "Dam", "area_ha": 7.1, "altitude_m": null }, "geometry": { "type": "Point", "coordinates": [ 4.12484, 46.76345 ] } },
{ "type": "Feature", "properties": { "name": "Étang de Vauvillard", "category": "Dam", "area_ha": 6.1, "altitude_m": null }, "geometry": { "type": "Point", "coordinates": [ 4.27807, 46.81237 ] } },
{ "type": "Feature", "properties": { "name": "Étang de la Noue", "category": "Dam", "area_ha": 29.8, "altitude_m": null }, "geometry": { "type": "Point", "coordinates": [ 4.39673, 46.87099 ] } },
{ "type": "Feature", "properties": { "name": "Plan d'Eau du Breuil", "category": "Dam", "area_ha": 8.8, "altitude_m": null }, "geometry": { "type": "Point", "coordinates": [ 3.75546, 46.62134 ] } },
{ "type": "Feature", "properties": { "name": "Étang de Briffaut", "category": "Dam", "area_ha": 15.0, "altitude_m": null }, "geometry": { "type": "Point", "coordinates": [ 3.94402, 46.60568 ] } },
{ "type": "Feature", "properties": { "name": "Étang de Beauchamp", "category": "Dam", "area_ha": 12.0, "altitude_m": null }, "geometry": { "type": "Point", "coordinates": [ 3.92491, 46.57969 ] } },
{ "type": "Feature", "properties": { "name": "Grand Étang", "category": "Dam", "area_ha": 8.5, "altitude_m": null }, "geometry": { "type": "Point", "coordinates": [ 5.28083, 46.58216 ] } },
{ "type": "Feature", "properties": { "name": "Étang de Millade", "category": "Dam", "area_ha": 8.5, "altitude_m": null }, "geometry": { "type": "Point", "coordinates": [ 4.43486, 46.35624 ] } },
{ "type": "Feature", "properties": { "name": "Étangs des Moines", "category": "Dam", "area_ha": 5.6, "altitude_m": null }, "geometry": { "type": "Point", "coordinates": [ 4.11284, 46.4182 ] } },
{ "type": "Feature", "properties": { "name": "Étang Prin", "category": "Dam", "area_ha": 6.1, "altitude_m": null }, "geometry": { "type": "Point", "coordinates": [ 4.82291, 46.81367 ] } },
{ "type": "Feature", "properties": { "name": "Étang de la Chaigne", "category": "Dam", "area_ha": 11.1, "altitude_m": null }, "geometry": { "type": "Point", "coordinates": [ 5.41734, 46.66279 ] } },
{ "type": "Feature", "properties": { "name": "Étang de Collonge", "category": "Dam", "area_ha": 5.2, "altitude_m": null }, "geometry": { "type": "Point", "coordinates": [ 4.79361, 46.42217 ] } },
{ "type": "Feature", "properties": { "name": "Lac de Saint-Point Lamartine", "category": "Dam", "area_ha": 10.3, "altitude_m": null }, "geometry": { "type": "Point", "coordinates": [ 4.61253, 46.33359 ] } },
{ "type": "Feature", "properties": { "name": "Étang du Rousset", "category": "Dam", "area_ha": 41.7, "altitude_m": null }, "geometry": { "type": "Point", "coordinates": [ 4.45391, 46.58138 ] } },
{ "type": "Feature", "properties": { "name": "Étang du Moulin", "category": "Dam", "area_ha": 14.2, "altitude_m": null }, "geometry": { "type": "Point", "coordinates": [ 4.33688, 47.09413 ] } },
{ "type": "Feature", "properties": { "name": "Étang de Villegaudin", "category": "Dam", "area_ha": 5.5, "altitude_m": null }, "geometry": { "type": "Point", "coordinates": [ 5.09429, 46.79647 ] } },
{ "type": "Feature", "properties": { "name": "Plan d'Eau du Vallon", "category": "Dam", "area_ha": 20.5, "altitude_m": null }, "geometry": { "type": "Point", "coordinates": [ 4.31511, 46.95332 ] } },
{ "type": "Feature", "properties": { "name": "Barrage du Pont du Roi", "category": "Dam", "area_ha": 43.3, "altitude_m": null }, "geometry": { "type": "Point", "coordinates": [ 4.47262, 46.92181 ] } },
{ "type": "Feature", "properties": { "name": "Étang de la Muette", "category": "Dam", "area_ha": 7.0, "altitude_m": null }, "geometry": { "type": "Point", "coordinates": [ 4.47218, 46.7368 ] } },
{ "type": "Feature", "properties": { "name": "Étang de Bondilly", "category": "Dam", "area_ha": 5.1, "altitude_m": null }, "geometry": { "type": "Point", "coordinates": [ 4.51419, 46.75104 ] } },
{ "type": "Feature", "properties": { "name": "Étang de Beaubery", "category": "Dam", "area_ha": 12.2, "altitude_m": null }, "geometry": { "type": "Point", "coordinates": [ 4.38975, 46.39037 ] } },
{ "type": "Feature", "properties": { "name": "Étang de Grand-Landes", "category": "Dam", "area_ha": 8.2, "altitude_m": null }, "geometry": { "type": "Point", "coordinates": [ 4.37512, 46.48684 ] } },
{ "type": "Feature", "properties": { "name": "Étang du Parc", "category": "Dam", "area_ha": 7.5, "altitude_m": null }, "geometry": { "type": "Point", "coordinates": [ 5.2748, 46.57287 ] } },
{ "type": "Feature", "properties": { "name": "Étang de Montperroux", "category": "Dam", "area_ha": 6.6, "altitude_m": null }, "geometry": { "type": "Point", "coordinates": [ 3.90693, 46.67013 ] } },
{ "type": "Feature", "properties": { "name": "Étang de Mervins", "category": "Dam", "area_ha": 20.5, "altitude_m": null }, "geometry": { "type": "Point", "coordinates": [ 5.13901, 46.88451 ] } },
{ "type": "Feature", "properties": { "name": "Étang de la Bretonnière", "category": "Dam", "area_ha": 8.4, "altitude_m": null }, "geometry": { "type": "Point", "coordinates": [ 5.09204, 46.68041 ] } },
{ "type": "Feature", "properties": { "name": "Étang de Montarlot", "category": "Dam", "area_ha": 9.9, "altitude_m": null }, "geometry": { "type": "Point", "coordinates": [ 5.11601, 46.83734 ] } },
{ "type": "Feature", "properties": { "name": "Étang des Arbois", "category": "Dam", "area_ha": 18.5, "altitude_m": null }, "geometry": { "type": "Point", "coordinates": [ 5.27732, 46.79073 ] } },
{ "type": "Feature", "properties": { "name": "Étang de Champage", "category": "Dam", "area_ha": 9.6, "altitude_m": null }, "geometry": { "type": "Point", "coordinates": [ 4.52057, 46.88609 ] } },
{ "type": "Feature", "properties": { "name": "Étang de la Bazolle", "category": "Dam", "area_ha": 10.3, "altitude_m": null }, "geometry": { "type": "Point", "coordinates": [ 4.3229, 46.316 ] } },
{ "type": "Feature", "properties": { "name": "Étang de Boussons", "category": "Dam", "area_ha": 37.6, "altitude_m": null }, "geometry": { "type": "Point", "coordinates": [ 4.10493, 46.84327 ] } },
{ "type": "Feature", "properties": { "name": "Étang de la Vernée", "category": "Dam", "area_ha": 5.3, "altitude_m": null }, "geometry": { "type": "Point", "coordinates": [ 4.47833, 46.37349 ] } },
{ "type": "Feature", "properties": { "name": "Étang du Grand Baronnet", "category": "Dam", "area_ha": 41.4, "altitude_m": null }, "geometry": { "type": "Point", "coordinates": [ 4.34586, 46.56981 ] } },
{ "type": "Feature", "properties": { "name": "Étang de Cuzy", "category": "Dam", "area_ha": 13.3, "altitude_m": null }, "geometry": { "type": "Point", "coordinates": [ 4.02609, 46.75904 ] } },
{ "type": "Feature", "properties": { "name": "Étang de Valette", "category": "Dam", "area_ha": 9.7, "altitude_m": null }, "geometry": { "type": "Point", "coordinates": [ 4.01724, 46.62698 ] } },
{ "type": "Feature", "properties": { "name": "Étang des Chaumes", "category": "Dam", "area_ha": 1.3, "altitude_m": null }, "geometry": { "type": "Point", "coordinates": [ 4.39111, 46.92397 ] } },
{ "type": "Feature", "properties": { "name": "Étang de Abbaye des Barres", "category": "Dam", "area_ha": 8.9, "altitude_m": null }, "geometry": { "type": "Point", "coordinates": [ 5.03131, 46.72737 ] } },
{ "type": "Feature", "properties": { "name": "Grand Étang de Torcy", "category": "Dam", "area_ha": 56.0, "altitude_m": null }, "geometry": { "type": "Point", "coordinates": [ 4.46053, 46.78597 ] } }
]
}
