{
"type": "FeatureCollection",
"name": "dep87.geojson",
"crs": { "type": "name", "properties": { "name": "urn:ogc:def:crs:OGC:1.3:CRS84" } },
"xy_coordinate_resolution": 1e-05,
"features": [
{ "type": "Feature", "properties": { "name": "Unnamed", "category": "Reservoir", "area_ha": 5.1, "altitude_m": null }, "geometry": { "type": "Point", "coordinates": [ 0.72442, 45.7459 ] } },
{ "type": "Feature", "properties": { "name": "Unnamed", "category": "Reservoir", "area_ha": 7.5, "altitude_m": null }, "geometry": { "type": "Point", "coordinates": [ 1.43791, 45.58682 ] } },
{ "type": "Feature", "properties": { "name": "Unnamed", "category": "Dam", "area_ha": 150.7, "altitude_m": null }, "geometry": { "type": "Point", "coordinates": [ 1.51532, 45.9462 ] } },
{ "type": "Feature", "properties": { "name": "Unnamed", "category": "Reservoir", "area_ha": 7.0, "altitude_m": null }, "geometry": { "type": "Point", "coordinates": [ 1.44115, 45.55004 ] } },
{ "type": "Feature", "properties": { "name": "Étang Neuf", "category": "Reservoir", "area_ha": 6.4, "altitude_m": null }, "geometry": { "type": "Point", "coordinates": [ 1.45044, 45.81447 ] } },
{ "type": "Feature", "properties": { "name": "Lac Plaisance", "category": "Reservoir", "area_ha": 6.6, "altitude_m": null }, "geometry": { "type": "Point", "coordinates": [ 1.16147, 45.63667 ] } },
{ "type": "Feature", "properties": { "name": "Barrage de la Mazelle", "category": "Reservoir", "area_ha": 5.1, "altitude_m": null }, "geometry": { "type": "Point", "coordinates": [ 1.29857, 45.92798 ] } },
{ "type": "Feature", "properties": { "name": "Unnamed", "category": "Reservoir", "area_ha": 11.9, "altitude_m": null }, "geometry": { "type": "Point", "coordinates": [ 1.32557, 45.53767 ] } },
{ "type": "Feature", "properties": { "name": "Barrage de Bujaleuf", "category": "Dam", "area_ha": 50.3, "altitude_m": null }, "geometry": { "type": "Point", "coordinates": [ 1.64331, 45.80891 ] } },
{ "type": "Feature", "properties": { "name": "St Pardoux", "category": "Reservoir", "area_ha": 6.6, "altitude_m": null }, "geometry": { "type": "Point", "coordinates": [ 1.28506, 46.05848 ] } },
{ "type": "Feature", "properties": { "name": "Étang de Fromental", "category": "Reservoir", "area_ha": 17.1, "altitude_m": null }, "geometry": { "type": "Point", "coordinates": [ 0.99783, 45.99385 ] } },
{ "type": "Feature", "properties": { "name": "Barrage de Fleix", "category": "Dam", "area_ha": 34.2, "altitude_m": null }, "geometry": { "type": "Point", "coordinates": [ 1.661, 45.81885 ] } },
{ "type": "Feature", "properties": { "name": "Barrage du Martineix", "category": "Dam", "area_ha": 27.8, "altitude_m": null }, "geometry": { "type": "Point", "coordinates": [ 1.68295, 45.81225 ] } },
{ "type": "Feature", "properties": { "name": "Retenue de Villejoubert", "category": "Dam", "area_ha": 39.9, "altitude_m": null }, "geometry": { "type": "Point", "coordinates": [ 1.57042, 45.79249 ] } },
{ "type": "Feature", "properties": { "name": "Barrage de Mont-Larron", "category": "Dam", "area_ha": 47.7, "altitude_m": null }, "geometry": { "type": "Point", "coordinates": [ 1.7288, 45.81655 ] } },
{ "type": "Feature", "properties": { "name": "Unnamed", "category": "Reservoir", "area_ha": 5.3, "altitude_m": null }, "geometry": { "type": "Point", "coordinates": [ 1.46075, 45.81262 ] } },
{ "type": "Feature", "properties": { "name": "Étang des Landes", "category": "Reservoir", "area_ha": 5.9, "altitude_m": null }, "geometry": { "type": "Point", "coordinates": [ 1.37461, 46.35965 ] } },
{ "type": "Feature", "properties": { "name": "Étang de Cieux", "category": "Reservoir", "area_ha": 38.0, "altitude_m": null }, "geometry": { "type": "Point", "coordinates": [ 1.05765, 45.98969 ] } },
{ "type": "Feature", "properties": { "name": "Étang de la Pouge", "category": "Reservoir", "area_ha": 31.7, "altitude_m": null }, "geometry": { "type": "Point", "coordinates": [ 0.93624, 45.78847 ] } },
{ "type": "Feature", "properties": { "name": "Étang de Ballerand", "category": "Reservoir", "area_ha": 17.8, "altitude_m": null }, "geometry": { "type": "Point", "coordinates": [ 0.78839, 45.59932 ] } },
{ "type": "Feature", "properties": { "name": "Étang Nord", "category": "Reservoir", "area_ha": 10.6, "altitude_m": null }, "geometry": { "type": "Point", "coordinates": [ 1.12733, 45.62245 ] } },
{ "type": "Feature", "properties": { "name": "Unnamed", "category": "Reservoir", "area_ha": 5.0, "altitude_m": null }, "geometry": { "type": "Point", "coordinates": [ 1.12616, 45.62886 ] } },
{ "type": "Feature", "properties": { "name": "Étang de Murat", "category": "Dam", "area_ha": 27.7, "altitude_m": null }, "geometry": { "type": "Point", "coordinates": [ 1.20232, 46.31511 ] } },
{ "type": "Feature", "properties": { "name": "Lac Saint-Fortunat", "category": "Reservoir", "area_ha": 5.2, "altitude_m": null }, "geometry": { "type": "Point", "coordinates": [ 1.09637, 45.70225 ] } },
{ "type": "Feature", "properties": { "name": "Lac du Pont à l'Âge", "category": "Dam", "area_ha": 20.8, "altitude_m": null }, "geometry": { "type": "Point", "coordinates": [ 1.47513, 46.09572 ] } },
{ "type": "Feature", "properties": { "name": "Étang de Cordelas", "category": "Reservoir", "area_ha": 7.8, "altitude_m": null }, "geometry": { "type": "Point", "coordinates": [ 1.33255, 45.83557 ] } },
{ "type": "Feature", "properties": { "name": "Étang des Bussières", "category": "Reservoir", "area_ha": 7.6, "altitude_m": null }, "geometry": { "type": "Point", "coordinates": [ 0.73915, 45.69909 ] } },
{ "type": "Feature", "properties": { "name": "Étang de la Crouzille", "category": "Reservoir", "area_ha": 41.2, "altitude_m": null }, "geometry": { "type": "Point", "coordinates": [ 1.33549, 45.99239 ] } },
{ "type": "Feature", "properties": { "name": "Unnamed", "category": "Reservoir", "area_ha": 7.8, "altitude_m": null }, "geometry": { "type": "Point", "coordinates": [ 1.3305, 45.54083 ] } },
{ "type": "Feature", "properties": { "name": "Étang de Sivergnat", "category": "Reservoir", "area_ha": 9.4, "altitude_m": null }, "geometry": { "type": "Point", "coordinates": [ 1.50128, 45.71335 ] } },
{ "type": "Feature", "properties": { "name": "Étang de Saint-Pardoux", "category": "Dam", "area_ha": 318.1, "altitude_m": null }, "geometry": { "type": "Point", "coordinates": [ 1.27565, 46.0384 ] } },
{ "type": "Feature", "properties": { "name": "Lac de Saint-Mathieu", "category": "Reservoir", "area_ha": 14.0, "altitude_m": null }, "geometry": { "type": "Point", "coordinates": [ 0.78395, 45.71392 ] } },
{ "type": "Feature", "properties": { "name": "Unnamed", "category": "Reservoir", "area_ha": 5.4, "altitude_m": null }, "geometry": { "type": "Point", "coordinates": [ 1.12038, 46.00643 ] } },
{ "type": "Feature", "properties": { "name": "Unnamed", "category": "Reservoir", "area_ha": 5.8, "altitude_m": null }, "geometry": { "type": "Point", "coordinates": [ 1.1112, 46.08122 ] } },
{ "type": "Feature", "properties": { "name": "Unnamed", "category": "Reservoir", "area_ha": 6.0, "altitude_m": null }, "geometry": { "type": "Point", "coordinates": [ 0.81989, 45.81356 ] } },
{ "type": "Feature", "properties": { "name": "Unnamed", "category": "Reservoir", "area_ha": 5.6, "altitude_m": null }, "geometry": { "type": "Point", "coordinates": [ 1.13783, 45.66231 ] } },
{ "type": "Feature", "properties": { "name": "Étang de la Lande", "category": "Reservoir", "area_ha": 5.1, "altitude_m": null }, "geometry": { "type": "Point", "coordinates": [ 1.17781, 45.66882 ] } },
{ "type": "Feature", "properties": { "name": "Barrage de l'Artige", "category": "Dam", "area_ha": 29.8, "altitude_m": null }, "geometry": { "type": "Point", "coordinates": [ 1.54203, 45.80118 ] } },
{ "type": "Feature", "properties": { "name": "Lac de Lavaud", "category": "Dam", "area_ha": 43.4, "altitude_m": null }, "geometry": { "type": "Point", "coordinates": [ 0.71335, 45.79998 ] } },
{ "type": "Feature", "properties": { "name": "Plan d'Eau d'Arfeuille", "category": "Reservoir", "area_ha": 13.6, "altitude_m": null }, "geometry": { "type": "Point", "coordinates": [ 1.20473, 45.52857 ] } },
{ "type": "Feature", "properties": { "name": "Étang du Puy", "category": "Reservoir", "area_ha": 5.2, "altitude_m": null }, "geometry": { "type": "Point", "coordinates": [ 0.78883, 45.66666 ] } },
{ "type": "Feature", "properties": { "name": "Unnamed", "category": "Reservoir", "area_ha": 7.8, "altitude_m": null }, "geometry": { "type": "Point", "coordinates": [ 1.27566, 45.50892 ] } },
{ "type": "Feature", "properties": { "name": "Étang de Gouillet", "category": "Reservoir", "area_ha": 29.0, "altitude_m": null }, "geometry": { "type": "Point", "coordinates": [ 1.36057, 46.01362 ] } },
{ "type": "Feature", "properties": { "name": "Unnamed", "category": "Reservoir", "area_ha": 7.6, "altitude_m": null }, "geometry": { "type": "Point", "coordinates": [ 1.24371, 45.95644 ] } },
{ "type": "Feature", "properties": { "name": "Basse Cote", "category": "Reservoir", "area_ha": 7.2, "altitude_m": null }, "geometry": { "type": "Point", "coordinates": [ 1.28243, 45.94871 ] } },
{ "type": "Feature", "properties": { "name": "Étang de Conore", "category": "Reservoir", "area_ha": 8.6, "altitude_m": null }, "geometry": { "type": "Point", "coordinates": [ 1.16656, 45.98165 ] } },
{ "type": "Feature", "properties": { "name": "Étang de Cherchaud", "category": "Reservoir", "area_ha": 9.9, "altitude_m": null }, "geometry": { "type": "Point", "coordinates": [ 1.41986, 45.53161 ] } },
{ "type": "Feature", "properties": { "name": "Unnamed", "category": "Reservoir", "area_ha": 5.2, "altitude_m": null }, "geometry": { "type": "Point", "coordinates": [ 1.24338, 45.95275 ] } },
{ "type": "Feature", "properties": { "name": "Unnamed", "category": "Reservoir", "area_ha": 17.4, "altitude_m": null }, "geometry": { "type": "Point", "coordinates": [ 1.42909, 45.54891 ] } },
{ "type": "Feature", "properties": { "name": "Unnamed", "category": "Reservoir", "area_ha": 5.3, "altitude_m": null }, "geometry": { "type": "Point", "coordinates": [ 1.47967, 46.0549 ] } },
{ "type": "Feature", "properties": { "name": "Étang de la Combette", "category": "Reservoir", "area_ha": 11.0, "altitude_m": null }, "geometry": { "type": "Point", "coordinates": [ 1.21527, 45.99892 ] } },
{ "type": "Feature", "properties": { "name": "Unnamed", "category": "Reservoir", "area_ha": 11.6, "altitude_m": null }, "geometry": { "type": "Point", "coordinates": [ 1.59885, 45.71386 ] } },
{ "type": "Feature", "properties": { "name": "Unnamed", "category": "Reservoir", "area_ha": 5.1, "altitude_m": null }, "geometry": { "type": "Point", "coordinates": [ 1.26737, 45.51452 ] } },
{ "type": "Feature", "properties": { "name": "Unnamed", "category": "Reservoir", "area_ha": 7.1, "altitude_m": null }, "geometry": { "type": "Point", "coordinates": [ 1.01637, 45.70336 ] } },
{ "type": "Feature", "properties": { "name": "Unnamed", "category": "Reservoir", "area_ha": 6.8, "altitude_m": null }, "geometry": { "type": "Point", "coordinates": [ 0.96782, 45.81348 ] } },
{ "type": "Feature", "properties": { "name": "Étang Bardon", "category": "Reservoir", "area_ha": 8.7, "altitude_m": null }, "geometry": { "type": "Point", "coordinates": [ 1.42518, 46.33471 ] } },
{ "type": "Feature", "properties": { "name": "Peyrat le Château", "category": "Reservoir", "area_ha": 7.6, "altitude_m": null }, "geometry": { "type": "Point", "coordinates": [ 1.77399, 45.81598 ] } },
{ "type": "Feature", "properties": { "name": "Unnamed", "category": "Reservoir", "area_ha": 12.0, "altitude_m": null }, "geometry": { "type": "Point", "coordinates": [ 1.51019, 45.72545 ] } },
{ "type": "Feature", "properties": { "name": "Unnamed", "category": "Reservoir", "area_ha": 9.5, "altitude_m": null }, "geometry": { "type": "Point", "coordinates": [ 1.11619, 45.58851 ] } },
{ "type": "Feature", "properties": { "name": "Unnamed", "category": "Reservoir", "area_ha": 6.3, "altitude_m": null }, "geometry": { "type": "Point", "coordinates": [ 1.56057, 45.55954 ] } },
{ "type": "Feature", "properties": { "name": "Unnamed", "category": "Reservoir", "area_ha": 5.8, "altitude_m": null }, "geometry": { "type": "Point", "coordinates": [ 0.86058, 46.0515 ] } },
{ "type": "Feature", "properties": { "name": "Unnamed", "category": "Reservoir", "area_ha": 5.7, "altitude_m": null }, "geometry": { "type": "Point", "coordinates": [ 1.02884, 46.2947 ] } },
{ "type": "Feature", "properties": { "name": "Unnamed", "category": "Reservoir", "area_ha": 8.1, "altitude_m": null }, "geometry": { "type": "Point", "coordinates": [ 1.09112, 46.0092 ] } },
{ "type": "Feature", "properties": { "name": "Unnamed", "category": "Reservoir", "area_ha": 5.8, "altitude_m": null }, "geometry": { "type": "Point", "coordinates": [ 0.90669, 46.09972 ] } },
{ "type": "Feature", "properties": { "name": "Unnamed", "category": "Reservoir", "area_ha": 9.1, "altitude_m": null }, "geometry": { "type": "Point", "coordinates": [ 1.1898, 46.20361 ] } },
{ "type": "Feature", "properties": { "name": "Unnamed", "category": "Reservoir", "area_ha": 10.3, "altitude_m": null }, "geometry": { "type": "Point", "coordinates": [ 1.60856, 45.84579 ] } },
{ "type": "Feature", "properties": { "name": "Unnamed", "category": "Reservoir", "area_ha": 5.1, "altitude_m": null }, "geometry": { "type": "Point", "coordinates": [ 0.95367, 46.12976 ] } },
{ "type": "Feature", "properties": { "name": "Étang du Cabaret", "category": "Reservoir", "area_ha": 7.2, "altitude_m": null }, "geometry": { "type": "Point", "coordinates": [ 1.12263, 45.48924 ] } },
{ "type": "Feature", "properties": { "name": "Étang de Bêthe", "category": "Reservoir", "area_ha": 7.7, "altitude_m": null }, "geometry": { "type": "Point", "coordinates": [ 1.77876, 45.67453 ] } },
{ "type": "Feature", "properties": { "name": "Étang de la Mazère", "category": "Reservoir", "area_ha": 12.5, "altitude_m": null }, "geometry": { "type": "Point", "coordinates": [ 1.21206, 46.35216 ] } },
{ "type": "Feature", "properties": { "name": "Étang de Moustiers", "category": "Reservoir", "area_ha": 7.7, "altitude_m": null }, "geometry": { "type": "Point", "coordinates": [ 1.09498, 46.3552 ] } },
{ "type": "Feature", "properties": { "name": "Étang Boutilly", "category": "Reservoir", "area_ha": 7.3, "altitude_m": null }, "geometry": { "type": "Point", "coordinates": [ 1.0202, 46.2971 ] } },
{ "type": "Feature", "properties": { "name": "Étang de Jançais", "category": "Reservoir", "area_ha": 5.0, "altitude_m": null }, "geometry": { "type": "Point", "coordinates": [ 1.38261, 46.33777 ] } },
{ "type": "Feature", "properties": { "name": "Étang de la Chaussade", "category": "Reservoir", "area_ha": 8.7, "altitude_m": null }, "geometry": { "type": "Point", "coordinates": [ 1.24434, 46.27265 ] } },
{ "type": "Feature", "properties": { "name": "Étang d'Heru", "category": "Reservoir", "area_ha": 17.8, "altitude_m": null }, "geometry": { "type": "Point", "coordinates": [ 1.23882, 46.30907 ] } },
{ "type": "Feature", "properties": { "name": "Étang Rénier", "category": "Reservoir", "area_ha": 9.1, "altitude_m": null }, "geometry": { "type": "Point", "coordinates": [ 1.2838, 46.07045 ] } },
{ "type": "Feature", "properties": { "name": "Étang de Sagnat", "category": "Reservoir", "area_ha": 21.6, "altitude_m": null }, "geometry": { "type": "Point", "coordinates": [ 1.35067, 46.09716 ] } },
{ "type": "Feature", "properties": { "name": "Étang des Planchettes", "category": "Reservoir", "area_ha": 11.8, "altitude_m": null }, "geometry": { "type": "Point", "coordinates": [ 1.0337, 46.30909 ] } },
{ "type": "Feature", "properties": { "name": "Étang de Lage", "category": "Reservoir", "area_ha": 11.5, "altitude_m": null }, "geometry": { "type": "Point", "coordinates": [ 1.05624, 46.2099 ] } },
{ "type": "Feature", "properties": { "name": "Étang des Bregères", "category": "Reservoir", "area_ha": 6.5, "altitude_m": null }, "geometry": { "type": "Point", "coordinates": [ 0.84573, 46.18724 ] } },
{ "type": "Feature", "properties": { "name": "Étang de Châteaumoulin", "category": "Reservoir", "area_ha": 14.7, "altitude_m": null }, "geometry": { "type": "Point", "coordinates": [ 1.22994, 46.01015 ] } },
{ "type": "Feature", "properties": { "name": "Étang de Lavillemichel", "category": "Reservoir", "area_ha": 8.7, "altitude_m": null }, "geometry": { "type": "Point", "coordinates": [ 1.32364, 46.09577 ] } },
{ "type": "Feature", "properties": { "name": "Étang des Sagnes", "category": "Reservoir", "area_ha": 9.7, "altitude_m": null }, "geometry": { "type": "Point", "coordinates": [ 1.21231, 46.04815 ] } },
{ "type": "Feature", "properties": { "name": "Étang de Tricherie", "category": "Reservoir", "area_ha": 23.5, "altitude_m": null }, "geometry": { "type": "Point", "coordinates": [ 1.23855, 46.00097 ] } },
{ "type": "Feature", "properties": { "name": "Étang de Freyssinet", "category": "Reservoir", "area_ha": 6.2, "altitude_m": null }, "geometry": { "type": "Point", "coordinates": [ 1.28154, 45.60707 ] } },
{ "type": "Feature", "properties": { "name": "Étang de Lascaux", "category": "Reservoir", "area_ha": 6.0, "altitude_m": null }, "geometry": { "type": "Point", "coordinates": [ 1.22059, 45.61984 ] } },
{ "type": "Feature", "properties": { "name": "Étang de Puymoreau", "category": "Reservoir", "area_ha": 8.5, "altitude_m": null }, "geometry": { "type": "Point", "coordinates": [ 1.22923, 45.49159 ] } },
{ "type": "Feature", "properties": { "name": "Étang Neuf", "category": "Reservoir", "area_ha": 5.7, "altitude_m": null }, "geometry": { "type": "Point", "coordinates": [ 1.23742, 45.48202 ] } },
{ "type": "Feature", "properties": { "name": "le Grand Étang", "category": "Reservoir", "area_ha": 29.8, "altitude_m": null }, "geometry": { "type": "Point", "coordinates": [ 1.01294, 46.30359 ] } },
{ "type": "Feature", "properties": { "name": "Unnamed", "category": "Reservoir", "area_ha": 7.5, "altitude_m": null }, "geometry": { "type": "Point", "coordinates": [ 1.54144, 45.70691 ] } },
{ "type": "Feature", "properties": { "name": "Unnamed", "category": "Reservoir", "area_ha": 5.7, "altitude_m": null }, "geometry": { "type": "Point", "coordinates": [ 1.14429, 45.57765 ] } },
{ "type": "Feature", "properties": { "name": "Lac de la Chateline", "category": "Reservoir", "area_ha": 10.0, "altitude_m": null }, "geometry": { "type": "Point", "coordinates": [ 1.04113, 45.61529 ] } },
{ "type": "Feature", "properties": { "name": "Étang de Jonas", "category": "Reservoir", "area_ha": 20.0, "altitude_m": null }, "geometry": { "type": "Point", "coordinates": [ 1.40926, 45.9725 ] } },
{ "type": "Feature", "properties": { "name": "Lac d'Uzurat", "category": "Reservoir", "area_ha": 8.0, "altitude_m": null }, "geometry": { "type": "Point", "coordinates": [ 1.273, 45.86667 ] } },
{ "type": "Feature", "properties": { "name": "Unnamed", "category": "Reservoir", "area_ha": 6.1, "altitude_m": null }, "geometry": { "type": "Point", "coordinates": [ 1.06755, 45.60756 ] } },
{ "type": "Feature", "properties": { "name": "Rivière le Taurion", "category": "Dam", "area_ha": 26.3, "altitude_m": null }, "geometry": { "type": "Point", "coordinates": [ 1.41489, 45.91464 ] } },
{ "type": "Feature", "properties": { "name": "Unnamed", "category": "Dam", "area_ha": 2.9, "altitude_m": null }, "geometry": { "type": "Point", "coordinates": [ 1.17936, 45.92279 ] } },
{ "type": "Feature", "properties": { "name": "Rivière la Vienne", "category": "Dam", "area_ha": 2.5, "altitude_m": null }, "geometry": { "type": "Point", "coordinates": [ 1.72754, 45.74313 ] } },
{ "type": "Feature", "properties": { "name": "Unnamed", "category": "Dam", "area_ha": 20.7, "altitude_m": null }, "geometry": { "type": "Point", "coordinates": [ 1.30389, 45.92225 ] } },
{ "type": "Feature", "properties": { "name": "Étang de Puytison", "category": "Dam", "area_ha": 3.3, "altitude_m": null }, "geometry": { "type": "Point", "coordinates": [ 1.33473, 45.80143 ] } },
{ "type": "Feature", "properties": { "name": "Barrage de Langleret", "category": "Dam", "area_ha": 12.4, "altitude_m": null }, "geometry": { "type": "Point", "coordinates": [ 1.60328, 45.79937 ] } },
{ "type": "Feature", "properties": { "name": "Unnamed", "category": "Dam", "area_ha": 5.7, "altitude_m": null }, "geometry": { "type": "Point", "coordinates": [ 1.26719, 46.21949 ] } },
{ "type": "Feature", "properties": { "name": "Étang de Couze", "category": "Dam", "area_ha": 8.4, "altitude_m": null }, "geometry": { "type": "Point", "coordinates": [ 1.31851, 46.04782 ] } },
{ "type": "Feature", "properties": { "name": "Unnamed", "category": "Dam", "area_ha": 2.3, "altitude_m": null }, "geometry": { "type": "Point", "coordinates": [ 1.32161, 45.80625 ] } },
{ "type": "Feature", "properties": { "name": "Étang de Meilhac", "category": "Dam", "area_ha": 2.3, "altitude_m": null }, "geometry": { "type": "Point", "coordinates": [ 1.16149, 45.70778 ] } },
{ "type": "Feature", "properties": { "name": "Étang de Mondon", "category": "Dam", "area_ha": 12.4, "altitude_m": null }, "geometry": { "type": "Point", "coordinates": [ 1.31832, 46.32847 ] } },
{ "type": "Feature", "properties": { "name": "Étang de Pierre Millier", "category": "Dam", "area_ha": 44.0, "altitude_m": null }, "geometry": { "type": "Point", "coordinates": [ 1.39409, 46.03381 ] } },
{ "type": "Feature", "properties": { "name": "Unnamed", "category": "Dam", "area_ha": 1.5, "altitude_m": null }, "geometry": { "type": "Point", "coordinates": [ 1.07405, 46.08038 ] } }
]
}
