{
"type": "FeatureCollection",
"name": "dep89.geojson",
"crs": { "type": "name", "properties": { "name": "urn:ogc:def:crs:OGC:1.3:CRS84" } },
"xy_coordinate_resolution": 1e-05,
"features": [
{ "type": "Feature", "properties": { "name": "Unnamed", "category": "Reservoir", "area_ha": 7.1, "altitude_m": null }, "geometry": { "type": "Point", "coordinates": [ 3.28871, 48.12282 ] } },
{ "type": "Feature", "properties": { "name": "Unnamed", "category": "Reservoir", "area_ha": 7.8, "altitude_m": null }, "geometry": { "type": "Point", "coordinates": [ 3.4199, 47.95878 ] } },
{ "type": "Feature", "properties": { "name": "Étang de Pierre Aigue", "category": "Reservoir", "area_ha": 10.8, "altitude_m": null }, "geometry": { "type": "Point", "coordinates": [ 3.0741, 48.07798 ] } },
{ "type": "Feature", "properties": { "name": "Plan d'Eau 2 de la Commune de Tannerre-en-Puisaye", "category": "Reservoir", "area_ha": 5.4, "altitude_m": null }, "geometry": { "type": "Point", "coordinates": [ 3.11666, 47.71648 ] } },
{ "type": "Feature", "properties": { "name": "Unnamed", "category": "Reservoir", "area_ha": 10.7, "altitude_m": null }, "geometry": { "type": "Point", "coordinates": [ 3.29527, 48.05226 ] } },
{ "type": "Feature", "properties": { "name": "Unnamed", "category": "Reservoir", "area_ha": 7.4, "altitude_m": null }, "geometry": { "type": "Point", "coordinates": [ 3.30238, 48.04878 ] } },
{ "type": "Feature", "properties": { "name": "Unnamed", "category": "Reservoir", "area_ha": 6.4, "altitude_m": null }, "geometry": { "type": "Point", "coordinates": [ 3.55618, 47.87733 ] } },
{ "type": "Feature", "properties": { "name": "Unnamed", "category": "Reservoir", "area_ha": 9.4, "altitude_m": null }, "geometry": { "type": "Point", "coordinates": [ 3.2808, 48.11523 ] } },
{ "type": "Feature", "properties": { "name": "Unnamed", "category": "Reservoir", "area_ha": 7.6, "altitude_m": null }, "geometry": { "type": "Point", "coordinates": [ 3.22322, 48.28534 ] } },
{ "type": "Feature", "properties": { "name": "Réservoir du Bourdon", "category": "Dam", "area_ha": 151.6, "altitude_m": null }, "geometry": { "type": "Point", "coordinates": [ 3.1011, 47.60638 ] } },
{ "type": "Feature", "properties": { "name": "Étang de Pense-Folie", "category": "Reservoir", "area_ha": 5.7, "altitude_m": null }, "geometry": { "type": "Point", "coordinates": [ 3.03979, 47.82237 ] } },
{ "type": "Feature", "properties": { "name": "la Plaine d'Épisy", "category": "Reservoir", "area_ha": 15.7, "altitude_m": null }, "geometry": { "type": "Point", "coordinates": [ 3.36099, 47.98054 ] } },
{ "type": "Feature", "properties": { "name": "Étang de Châtre", "category": "Reservoir", "area_ha": 6.0, "altitude_m": null }, "geometry": { "type": "Point", "coordinates": [ 2.99545, 47.7846 ] } },
{ "type": "Feature", "properties": { "name": "Unnamed", "category": "Reservoir", "area_ha": 6.4, "altitude_m": null }, "geometry": { "type": "Point", "coordinates": [ 3.20634, 47.73337 ] } },
{ "type": "Feature", "properties": { "name": "Unnamed", "category": "Reservoir", "area_ha": 5.4, "altitude_m": null }, "geometry": { "type": "Point", "coordinates": [ 3.12737, 48.13544 ] } },
{ "type": "Feature", "properties": { "name": "Sablière de la Picardie", "category": "Reservoir", "area_ha": 12.0, "altitude_m": null }, "geometry": { "type": "Point", "coordinates": [ 3.54308, 47.89101 ] } },
{ "type": "Feature", "properties": { "name": "Unnamed", "category": "Reservoir", "area_ha": 8.9, "altitude_m": null }, "geometry": { "type": "Point", "coordinates": [ 3.28446, 48.1235 ] } },
{ "type": "Feature", "properties": { "name": "Unnamed", "category": "Reservoir", "area_ha": 27.7, "altitude_m": null }, "geometry": { "type": "Point", "coordinates": [ 3.27614, 48.1085 ] } },
{ "type": "Feature", "properties": { "name": "Plan d'Eau de la Commune de Venouse", "category": "Reservoir", "area_ha": 6.3, "altitude_m": null }, "geometry": { "type": "Point", "coordinates": [ 3.6914, 47.91805 ] } },
{ "type": "Feature", "properties": { "name": "Unnamed", "category": "Reservoir", "area_ha": 6.0, "altitude_m": null }, "geometry": { "type": "Point", "coordinates": [ 3.22674, 48.28727 ] } },
{ "type": "Feature", "properties": { "name": "Unnamed", "category": "Reservoir", "area_ha": 5.8, "altitude_m": null }, "geometry": { "type": "Point", "coordinates": [ 3.27944, 48.11299 ] } },
{ "type": "Feature", "properties": { "name": "Unnamed", "category": "Reservoir", "area_ha": 7.4, "altitude_m": null }, "geometry": { "type": "Point", "coordinates": [ 3.4778, 47.79424 ] } },
{ "type": "Feature", "properties": { "name": "Base de Loisirs", "category": "Reservoir", "area_ha": 14.3, "altitude_m": null }, "geometry": { "type": "Point", "coordinates": [ 3.2869, 48.09951 ] } },
{ "type": "Feature", "properties": { "name": "Unnamed", "category": "Reservoir", "area_ha": 7.6, "altitude_m": null }, "geometry": { "type": "Point", "coordinates": [ 3.29021, 48.16157 ] } },
{ "type": "Feature", "properties": { "name": "Unnamed", "category": "Reservoir", "area_ha": 5.8, "altitude_m": null }, "geometry": { "type": "Point", "coordinates": [ 3.27994, 48.12068 ] } },
{ "type": "Feature", "properties": { "name": "Étang du Parc", "category": "Reservoir", "area_ha": 5.1, "altitude_m": null }, "geometry": { "type": "Point", "coordinates": [ 3.0301, 47.60461 ] } },
{ "type": "Feature", "properties": { "name": "Étang de Galetas", "category": "Reservoir", "area_ha": 69.7, "altitude_m": null }, "geometry": { "type": "Point", "coordinates": [ 3.0377, 48.11193 ] } },
{ "type": "Feature", "properties": { "name": "Étang de Pétra", "category": "Reservoir", "area_ha": 9.3, "altitude_m": null }, "geometry": { "type": "Point", "coordinates": [ 3.12256, 47.8972 ] } },
{ "type": "Feature", "properties": { "name": "Étang du Four", "category": "Reservoir", "area_ha": 8.0, "altitude_m": null }, "geometry": { "type": "Point", "coordinates": [ 2.97703, 47.61973 ] } },
{ "type": "Feature", "properties": { "name": "Étang de Marrault", "category": "Reservoir", "area_ha": 12.6, "altitude_m": null }, "geometry": { "type": "Point", "coordinates": [ 3.94868, 47.44343 ] } },
{ "type": "Feature", "properties": { "name": "Unnamed", "category": "Reservoir", "area_ha": 9.5, "altitude_m": null }, "geometry": { "type": "Point", "coordinates": [ 3.4655, 47.95466 ] } },
{ "type": "Feature", "properties": { "name": "Sablière des Plantes du Mont", "category": "Reservoir", "area_ha": 12.8, "altitude_m": null }, "geometry": { "type": "Point", "coordinates": [ 3.55232, 47.88436 ] } },
{ "type": "Feature", "properties": { "name": "Étang de Potieux", "category": "Reservoir", "area_ha": 7.0, "altitude_m": null }, "geometry": { "type": "Point", "coordinates": [ 2.94418, 47.61186 ] } },
{ "type": "Feature", "properties": { "name": "Unnamed", "category": "Reservoir", "area_ha": 13.3, "altitude_m": null }, "geometry": { "type": "Point", "coordinates": [ 3.30207, 48.05235 ] } },
{ "type": "Feature", "properties": { "name": "Étang des Vallées", "category": "Reservoir", "area_ha": 9.1, "altitude_m": null }, "geometry": { "type": "Point", "coordinates": [ 3.06299, 48.10105 ] } },
{ "type": "Feature", "properties": { "name": "Étang Lélu", "category": "Reservoir", "area_ha": 12.2, "altitude_m": null }, "geometry": { "type": "Point", "coordinates": [ 3.0025, 47.62958 ] } },
{ "type": "Feature", "properties": { "name": "Étang du Griottier Blanc", "category": "Reservoir", "area_ha": 8.4, "altitude_m": null }, "geometry": { "type": "Point", "coordinates": [ 4.00515, 47.34651 ] } },
{ "type": "Feature", "properties": { "name": "Unnamed", "category": "Reservoir", "area_ha": 5.7, "altitude_m": null }, "geometry": { "type": "Point", "coordinates": [ 3.27666, 48.1153 ] } },
{ "type": "Feature", "properties": { "name": "Étang Neuf", "category": "Reservoir", "area_ha": 11.1, "altitude_m": null }, "geometry": { "type": "Point", "coordinates": [ 2.85957, 47.71791 ] } },
{ "type": "Feature", "properties": { "name": "Étangs de la Mouillardière", "category": "Reservoir", "area_ha": 14.8, "altitude_m": null }, "geometry": { "type": "Point", "coordinates": [ 3.08323, 47.66284 ] } },
{ "type": "Feature", "properties": { "name": "Étang Neuf", "category": "Reservoir", "area_ha": 9.5, "altitude_m": null }, "geometry": { "type": "Point", "coordinates": [ 4.04947, 47.42047 ] } },
{ "type": "Feature", "properties": { "name": "Unnamed", "category": "Reservoir", "area_ha": 6.5, "altitude_m": null }, "geometry": { "type": "Point", "coordinates": [ 3.40203, 47.97137 ] } },
{ "type": "Feature", "properties": { "name": "Étang de Vernidard", "category": "Reservoir", "area_ha": 7.4, "altitude_m": null }, "geometry": { "type": "Point", "coordinates": [ 4.10504, 47.35183 ] } },
{ "type": "Feature", "properties": { "name": "Étang de Rabotteux", "category": "Reservoir", "area_ha": 6.3, "altitude_m": null }, "geometry": { "type": "Point", "coordinates": [ 3.06027, 48.15409 ] } },
{ "type": "Feature", "properties": { "name": "Étang de la Ricardière", "category": "Reservoir", "area_ha": 7.8, "altitude_m": null }, "geometry": { "type": "Point", "coordinates": [ 3.17153, 47.94775 ] } },
{ "type": "Feature", "properties": { "name": "Étang du Martroi", "category": "Reservoir", "area_ha": 5.7, "altitude_m": null }, "geometry": { "type": "Point", "coordinates": [ 3.20215, 47.89461 ] } },
{ "type": "Feature", "properties": { "name": "Station d'Épuration de la Commune de Chemilly-sur-Yonne", "category": "Reservoir", "area_ha": 13.4, "altitude_m": null }, "geometry": { "type": "Point", "coordinates": [ 3.5497, 47.9008 ] } },
{ "type": "Feature", "properties": { "name": "Sablière des Mignottes", "category": "Reservoir", "area_ha": 19.8, "altitude_m": null }, "geometry": { "type": "Point", "coordinates": [ 3.55649, 47.88803 ] } },
{ "type": "Feature", "properties": { "name": "Étang de la Goulardière", "category": "Reservoir", "area_ha": 7.5, "altitude_m": null }, "geometry": { "type": "Point", "coordinates": [ 2.92625, 47.75911 ] } },
{ "type": "Feature", "properties": { "name": "Unnamed", "category": "Reservoir", "area_ha": 5.9, "altitude_m": null }, "geometry": { "type": "Point", "coordinates": [ 3.15954, 48.31853 ] } },
{ "type": "Feature", "properties": { "name": "Unnamed", "category": "Reservoir", "area_ha": 10.9, "altitude_m": null }, "geometry": { "type": "Point", "coordinates": [ 3.28367, 48.10374 ] } },
{ "type": "Feature", "properties": { "name": "Étang des Pinabeaux", "category": "Reservoir", "area_ha": 8.6, "altitude_m": null }, "geometry": { "type": "Point", "coordinates": [ 3.15796, 47.83929 ] } },
{ "type": "Feature", "properties": { "name": "Unnamed", "category": "Reservoir", "area_ha": 14.9, "altitude_m": null }, "geometry": { "type": "Point", "coordinates": [ 3.56271, 47.87729 ] } },
{ "type": "Feature", "properties": { "name": "Unnamed", "category": "Reservoir", "area_ha": 12.5, "altitude_m": null }, "geometry": { "type": "Point", "coordinates": [ 3.62232, 47.91281 ] } },
{ "type": "Feature", "properties": { "name": "Étang de la Balastière", "category": "Reservoir", "area_ha": 8.0, "altitude_m": null }, "geometry": { "type": "Point", "coordinates": [ 3.2901, 48.21137 ] } },
{ "type": "Feature", "properties": { "name": "Étang Batard", "category": "Reservoir", "area_ha": 6.5, "altitude_m": null }, "geometry": { "type": "Point", "coordinates": [ 3.18899, 47.97018 ] } },
{ "type": "Feature", "properties": { "name": "Étang de Mouchard", "category": "Reservoir", "area_ha": 5.1, "altitude_m": null }, "geometry": { "type": "Point", "coordinates": [ 3.15987, 47.8352 ] } },
{ "type": "Feature", "properties": { "name": "le Grand Étang", "category": "Reservoir", "area_ha": 6.8, "altitude_m": null }, "geometry": { "type": "Point", "coordinates": [ 3.0684, 47.70892 ] } },
{ "type": "Feature", "properties": { "name": "Étang de Gaudry", "category": "Reservoir", "area_ha": 14.8, "altitude_m": null }, "geometry": { "type": "Point", "coordinates": [ 3.2084, 47.65101 ] } },
{ "type": "Feature", "properties": { "name": "le Grand Étang Neuf", "category": "Reservoir", "area_ha": 9.6, "altitude_m": null }, "geometry": { "type": "Point", "coordinates": [ 3.01697, 47.7431 ] } },
{ "type": "Feature", "properties": { "name": "Étang de Marrault (Étang du Haut)", "category": "Reservoir", "area_ha": 22.0, "altitude_m": null }, "geometry": { "type": "Point", "coordinates": [ 3.95105, 47.43148 ] } },
{ "type": "Feature", "properties": { "name": "Étang des Barres", "category": "Reservoir", "area_ha": 21.0, "altitude_m": null }, "geometry": { "type": "Point", "coordinates": [ 3.19882, 47.64104 ] } },
{ "type": "Feature", "properties": { "name": "Étang des Brûleries", "category": "Reservoir", "area_ha": 6.3, "altitude_m": null }, "geometry": { "type": "Point", "coordinates": [ 2.93996, 47.61745 ] } },
{ "type": "Feature", "properties": { "name": "Étang d'Écrignelle", "category": "Reservoir", "area_ha": 15.4, "altitude_m": null }, "geometry": { "type": "Point", "coordinates": [ 3.06434, 47.67986 ] } },
{ "type": "Feature", "properties": { "name": "Étang du Grand Bouza", "category": "Reservoir", "area_ha": 6.9, "altitude_m": null }, "geometry": { "type": "Point", "coordinates": [ 2.97507, 47.65082 ] } },
{ "type": "Feature", "properties": { "name": "Étang de Sépeaux", "category": "Reservoir", "area_ha": 13.5, "altitude_m": null }, "geometry": { "type": "Point", "coordinates": [ 3.20083, 47.93706 ] } },
{ "type": "Feature", "properties": { "name": "Unnamed", "category": "Reservoir", "area_ha": 13.8, "altitude_m": null }, "geometry": { "type": "Point", "coordinates": [ 3.69467, 47.96899 ] } },
{ "type": "Feature", "properties": { "name": "Étang de Chassin", "category": "Reservoir", "area_ha": 6.1, "altitude_m": null }, "geometry": { "type": "Point", "coordinates": [ 3.17441, 47.58815 ] } },
{ "type": "Feature", "properties": { "name": "Étang de Charmoy", "category": "Reservoir", "area_ha": 9.5, "altitude_m": null }, "geometry": { "type": "Point", "coordinates": [ 3.14357, 47.60214 ] } },
{ "type": "Feature", "properties": { "name": "Unnamed", "category": "Reservoir", "area_ha": 5.6, "altitude_m": null }, "geometry": { "type": "Point", "coordinates": [ 3.07353, 47.63522 ] } },
{ "type": "Feature", "properties": { "name": "Étang des Courants", "category": "Reservoir", "area_ha": 7.9, "altitude_m": null }, "geometry": { "type": "Point", "coordinates": [ 3.16651, 47.88616 ] } },
{ "type": "Feature", "properties": { "name": "Étang de Beine", "category": "Reservoir", "area_ha": 10.9, "altitude_m": null }, "geometry": { "type": "Point", "coordinates": [ 3.74456, 47.82272 ] } },
{ "type": "Feature", "properties": { "name": "Unnamed", "category": "Reservoir", "area_ha": 6.0, "altitude_m": null }, "geometry": { "type": "Point", "coordinates": [ 3.33445, 47.99267 ] } },
{ "type": "Feature", "properties": { "name": "Étang du Château", "category": "Reservoir", "area_ha": 14.2, "altitude_m": null }, "geometry": { "type": "Point", "coordinates": [ 2.92082, 47.66709 ] } },
{ "type": "Feature", "properties": { "name": "Étang de Moutiers", "category": "Reservoir", "area_ha": 29.0, "altitude_m": null }, "geometry": { "type": "Point", "coordinates": [ 3.1613, 47.61995 ] } },
{ "type": "Feature", "properties": { "name": "Étang de Guédelon", "category": "Reservoir", "area_ha": 5.4, "altitude_m": null }, "geometry": { "type": "Point", "coordinates": [ 3.15949, 47.58672 ] } },
{ "type": "Feature", "properties": { "name": "Unnamed", "category": "Reservoir", "area_ha": 9.7, "altitude_m": null }, "geometry": { "type": "Point", "coordinates": [ 3.13926, 48.11438 ] } },
{ "type": "Feature", "properties": { "name": "Étang Neuf", "category": "Dam", "area_ha": 8.9, "altitude_m": null }, "geometry": { "type": "Point", "coordinates": [ 3.19275, 47.9236 ] } },
{ "type": "Feature", "properties": { "name": "Plan d'Eau 1 de la Commune de Saint Fargeau", "category": "Dam", "area_ha": 1.4, "altitude_m": null }, "geometry": { "type": "Point", "coordinates": [ 3.09735, 47.60049 ] } },
{ "type": "Feature", "properties": { "name": "Étang des Luneaux", "category": "Dam", "area_ha": 6.9, "altitude_m": null }, "geometry": { "type": "Point", "coordinates": [ 2.96642, 47.71485 ] } },
{ "type": "Feature", "properties": { "name": "Étang des Blondeaux dit Étang des Beaurois", "category": "Dam", "area_ha": 19.8, "altitude_m": null }, "geometry": { "type": "Point", "coordinates": [ 2.9433, 47.66519 ] } },
{ "type": "Feature", "properties": { "name": "Étang de la Cahauderie", "category": "Dam", "area_ha": 11.3, "altitude_m": null }, "geometry": { "type": "Point", "coordinates": [ 2.92608, 47.65984 ] } }
]
}
