{
"type": "FeatureCollection",
"name": "dep82.geojson",
"crs": { "type": "name", "properties": { "name": "urn:ogc:def:crs:OGC:1.3:CRS84" } },
"xy_coordinate_resolution": 1e-05,
"features": [
{ "type": "Feature", "properties": { "name": "Unnamed", "category": "Reservoir", "area_ha": 8.3, "altitude_m": null }, "geometry": { "type": "Point", "coordinates": [ 1.87025, 44.27076 ] } },
{ "type": "Feature", "properties": { "name": "Unnamed", "category": "Dam", "area_ha": 19.4, "altitude_m": null }, "geometry": { "type": "Point", "coordinates": [ 1.54847, 43.97338 ] } },
{ "type": "Feature", "properties": { "name": "Lac de Boulet", "category": "Dam", "area_ha": 16.4, "altitude_m": null }, "geometry": { "type": "Point", "coordinates": [ 1.1407, 43.90646 ] } },
{ "type": "Feature", "properties": { "name": "Lac des Fourrières", "category": "Reservoir", "area_ha": 8.1, "altitude_m": null }, "geometry": { "type": "Point", "coordinates": [ 1.16148, 44.03921 ] } },
{ "type": "Feature", "properties": { "name": "Unnamed", "category": "Dam", "area_ha": 10.6, "altitude_m": null }, "geometry": { "type": "Point", "coordinates": [ 0.91381, 44.20637 ] } },
{ "type": "Feature", "properties": { "name": "Unnamed", "category": "Reservoir", "area_ha": 7.3, "altitude_m": null }, "geometry": { "type": "Point", "coordinates": [ 1.09385, 44.02594 ] } },
{ "type": "Feature", "properties": { "name": "Unnamed", "category": "Reservoir", "area_ha": 7.6, "altitude_m": null }, "geometry": { "type": "Point", "coordinates": [ 1.26799, 43.80026 ] } },
{ "type": "Feature", "properties": { "name": "Lac des Bouzigues", "category": "Reservoir", "area_ha": 11.8, "altitude_m": null }, "geometry": { "type": "Point", "coordinates": [ 0.969, 44.08714 ] } },
{ "type": "Feature", "properties": { "name": "Unnamed", "category": "Reservoir", "area_ha": 5.7, "altitude_m": null }, "geometry": { "type": "Point", "coordinates": [ 1.19368, 44.01811 ] } },
{ "type": "Feature", "properties": { "name": "Unnamed", "category": "Reservoir", "area_ha": 11.6, "altitude_m": null }, "geometry": { "type": "Point", "coordinates": [ 1.28494, 43.96076 ] } },
{ "type": "Feature", "properties": { "name": "Unnamed", "category": "Reservoir", "area_ha": 7.0, "altitude_m": null }, "geometry": { "type": "Point", "coordinates": [ 1.17151, 44.00032 ] } },
{ "type": "Feature", "properties": { "name": "Unnamed", "category": "Reservoir", "area_ha": 11.0, "altitude_m": null }, "geometry": { "type": "Point", "coordinates": [ 1.26597, 43.80313 ] } },
{ "type": "Feature", "properties": { "name": "Unnamed", "category": "Reservoir", "area_ha": 6.4, "altitude_m": null }, "geometry": { "type": "Point", "coordinates": [ 1.42257, 44.07603 ] } },
{ "type": "Feature", "properties": { "name": "Unnamed", "category": "Reservoir", "area_ha": 13.7, "altitude_m": null }, "geometry": { "type": "Point", "coordinates": [ 1.55575, 44.17344 ] } },
{ "type": "Feature", "properties": { "name": "Unnamed", "category": "Reservoir", "area_ha": 11.3, "altitude_m": null }, "geometry": { "type": "Point", "coordinates": [ 1.41643, 44.07919 ] } },
{ "type": "Feature", "properties": { "name": "Lac Bleu de Bergon", "category": "Reservoir", "area_ha": 8.5, "altitude_m": null }, "geometry": { "type": "Point", "coordinates": [ 0.84381, 44.12535 ] } },
{ "type": "Feature", "properties": { "name": "Unnamed", "category": "Reservoir", "area_ha": 8.9, "altitude_m": null }, "geometry": { "type": "Point", "coordinates": [ 1.32205, 43.86707 ] } },
{ "type": "Feature", "properties": { "name": "Unnamed", "category": "Reservoir", "area_ha": 5.3, "altitude_m": null }, "geometry": { "type": "Point", "coordinates": [ 1.31591, 43.8705 ] } },
{ "type": "Feature", "properties": { "name": "Lac de Monestié", "category": "Reservoir", "area_ha": 10.1, "altitude_m": null }, "geometry": { "type": "Point", "coordinates": [ 1.06844, 44.05044 ] } },
{ "type": "Feature", "properties": { "name": "Lac Balat-David", "category": "Reservoir", "area_ha": 12.8, "altitude_m": null }, "geometry": { "type": "Point", "coordinates": [ 1.42048, 44.0554 ] } },
{ "type": "Feature", "properties": { "name": "Unnamed", "category": "Reservoir", "area_ha": 7.4, "altitude_m": null }, "geometry": { "type": "Point", "coordinates": [ 1.3058, 43.92777 ] } },
{ "type": "Feature", "properties": { "name": "Unnamed", "category": "Dam", "area_ha": 9.3, "altitude_m": null }, "geometry": { "type": "Point", "coordinates": [ 0.91762, 44.34277 ] } },
{ "type": "Feature", "properties": { "name": "Unnamed", "category": "Dam", "area_ha": 8.4, "altitude_m": null }, "geometry": { "type": "Point", "coordinates": [ 1.36513, 44.18406 ] } },
{ "type": "Feature", "properties": { "name": "Lac du Gagnol", "category": "Dam", "area_ha": 13.1, "altitude_m": null }, "geometry": { "type": "Point", "coordinates": [ 1.60737, 43.99138 ] } },
{ "type": "Feature", "properties": { "name": "Unnamed", "category": "Dam", "area_ha": 25.5, "altitude_m": null }, "geometry": { "type": "Point", "coordinates": [ 1.00366, 43.88502 ] } },
{ "type": "Feature", "properties": { "name": "Lac de la Cajelauque", "category": "Dam", "area_ha": 6.7, "altitude_m": null }, "geometry": { "type": "Point", "coordinates": [ 0.77574, 44.05698 ] } },
{ "type": "Feature", "properties": { "name": "Retenue du Tessonne", "category": "Dam", "area_ha": 22.6, "altitude_m": null }, "geometry": { "type": "Point", "coordinates": [ 1.06503, 43.87616 ] } },
{ "type": "Feature", "properties": { "name": "Lac de Piboulette", "category": "Dam", "area_ha": 6.6, "altitude_m": null }, "geometry": { "type": "Point", "coordinates": [ 1.40963, 44.00749 ] } },
{ "type": "Feature", "properties": { "name": "Unnamed", "category": "Dam", "area_ha": 16.0, "altitude_m": null }, "geometry": { "type": "Point", "coordinates": [ 1.02707, 43.9631 ] } },
{ "type": "Feature", "properties": { "name": "Lac du Gouyre", "category": "Dam", "area_ha": 48.0, "altitude_m": null }, "geometry": { "type": "Point", "coordinates": [ 1.60476, 44.04843 ] } },
{ "type": "Feature", "properties": { "name": "Lac du Gouyre", "category": "Dam", "area_ha": 12.2, "altitude_m": null }, "geometry": { "type": "Point", "coordinates": [ 1.6151, 44.04087 ] } },
{ "type": "Feature", "properties": { "name": "Retenue de Roquecor", "category": "Dam", "area_ha": 17.7, "altitude_m": null }, "geometry": { "type": "Point", "coordinates": [ 0.95805, 44.30588 ] } },
{ "type": "Feature", "properties": { "name": "Lac de la Chêneraie", "category": "Dam", "area_ha": 10.0, "altitude_m": null }, "geometry": { "type": "Point", "coordinates": [ 0.88933, 43.94716 ] } },
{ "type": "Feature", "properties": { "name": "Unnamed", "category": "Dam", "area_ha": 5.1, "altitude_m": null }, "geometry": { "type": "Point", "coordinates": [ 1.4688, 43.91472 ] } },
{ "type": "Feature", "properties": { "name": "Barrage de Gensac-Lavit", "category": "Dam", "area_ha": 48.8, "altitude_m": null }, "geometry": { "type": "Point", "coordinates": [ 0.95707, 43.96571 ] } },
{ "type": "Feature", "properties": { "name": "Unnamed", "category": "Dam", "area_ha": 9.7, "altitude_m": null }, "geometry": { "type": "Point", "coordinates": [ 1.04186, 43.99127 ] } },
{ "type": "Feature", "properties": { "name": "Unnamed", "category": "Dam", "area_ha": 8.2, "altitude_m": null }, "geometry": { "type": "Point", "coordinates": [ 1.58897, 43.96722 ] } },
{ "type": "Feature", "properties": { "name": "Lac de Combe Cave", "category": "Dam", "area_ha": 7.8, "altitude_m": null }, "geometry": { "type": "Point", "coordinates": [ 1.14076, 43.89787 ] } },
{ "type": "Feature", "properties": { "name": "Lac de Fonbouysse", "category": "Dam", "area_ha": 8.7, "altitude_m": null }, "geometry": { "type": "Point", "coordinates": [ 1.02985, 44.32039 ] } },
{ "type": "Feature", "properties": { "name": "Lac du Tordre", "category": "Dam", "area_ha": 68.5, "altitude_m": null }, "geometry": { "type": "Point", "coordinates": [ 1.45932, 44.01318 ] } }
]
}
