{
"type": "FeatureCollection",
"name": "dep85.geojson",
"crs": { "type": "name", "properties": { "name": "urn:ogc:def:crs:OGC:1.3:CRS84" } },
"xy_coordinate_resolution": 1e-05,
"features": [
{ "type": "Feature", "properties": { "name": "Unnamed", "category": "Reservoir", "area_ha": 390.5, "altitude_m": null }, "geometry": { "type": "Point", "coordinates": [ -2.26294, 47.00683 ] } },
{ "type": "Feature", "properties": { "name": "Lac du Jaunay", "category": "Dam", "area_ha": 102.6, "altitude_m": null }, "geometry": { "type": "Point", "coordinates": [ -1.77371, 46.65993 ] } },
{ "type": "Feature", "properties": { "name": "Retenue de la Sillonnière", "category": "Dam", "area_ha": 73.6, "altitude_m": null }, "geometry": { "type": "Point", "coordinates": [ -1.15991, 46.66342 ] } },
{ "type": "Feature", "properties": { "name": "Unnamed", "category": "Reservoir", "area_ha": 12.4, "altitude_m": null }, "geometry": { "type": "Point", "coordinates": [ -2.05538, 46.95224 ] } },
{ "type": "Feature", "properties": { "name": "Barrage de Moulin Papon", "category": "Dam", "area_ha": 92.9, "altitude_m": null }, "geometry": { "type": "Point", "coordinates": [ -1.40468, 46.7106 ] } },
{ "type": "Feature", "properties": { "name": "Unnamed", "category": "Reservoir", "area_ha": 6.6, "altitude_m": null }, "geometry": { "type": "Point", "coordinates": [ -1.4309, 46.36142 ] } },
{ "type": "Feature", "properties": { "name": "Unnamed", "category": "Reservoir", "area_ha": 8.8, "altitude_m": null }, "geometry": { "type": "Point", "coordinates": [ -1.8904, 46.90679 ] } },
{ "type": "Feature", "properties": { "name": "Unnamed", "category": "Reservoir", "area_ha": 5.5, "altitude_m": null }, "geometry": { "type": "Point", "coordinates": [ -0.90441, 46.88905 ] } },
{ "type": "Feature", "properties": { "name": "Barrage du Marillet", "category": "Dam", "area_ha": 89.5, "altitude_m": null }, "geometry": { "type": "Point", "coordinates": [ -1.23882, 46.56728 ] } },
{ "type": "Feature", "properties": { "name": "Unnamed", "category": "Reservoir", "area_ha": 5.1, "altitude_m": null }, "geometry": { "type": "Point", "coordinates": [ -1.10281, 46.8148 ] } },
{ "type": "Feature", "properties": { "name": "Unnamed", "category": "Reservoir", "area_ha": 40.1, "altitude_m": null }, "geometry": { "type": "Point", "coordinates": [ -1.80064, 46.5322 ] } },
{ "type": "Feature", "properties": { "name": "Retenue de la Bultière", "category": "Dam", "area_ha": 61.6, "altitude_m": null }, "geometry": { "type": "Point", "coordinates": [ -1.18102, 46.91484 ] } },
{ "type": "Feature", "properties": { "name": "Barrage d'Albert", "category": "Dam", "area_ha": 89.7, "altitude_m": null }, "geometry": { "type": "Point", "coordinates": [ -0.72172, 46.48453 ] } },
{ "type": "Feature", "properties": { "name": "Barrage de Mervent", "category": "Dam", "area_ha": 92.5, "altitude_m": null }, "geometry": { "type": "Point", "coordinates": [ -0.75223, 46.52065 ] } },
{ "type": "Feature", "properties": { "name": "Unnamed", "category": "Reservoir", "area_ha": 19.8, "altitude_m": null }, "geometry": { "type": "Point", "coordinates": [ -1.14167, 46.96547 ] } },
{ "type": "Feature", "properties": { "name": "Unnamed", "category": "Reservoir", "area_ha": 20.3, "altitude_m": null }, "geometry": { "type": "Point", "coordinates": [ -2.23844, 46.9902 ] } },
{ "type": "Feature", "properties": { "name": "Réserve Ornithologique", "category": "Reservoir", "area_ha": 41.4, "altitude_m": null }, "geometry": { "type": "Point", "coordinates": [ -1.18493, 46.42912 ] } },
{ "type": "Feature", "properties": { "name": "Lac du Graon", "category": "Dam", "area_ha": 62.2, "altitude_m": null }, "geometry": { "type": "Point", "coordinates": [ -1.38879, 46.54538 ] } },
{ "type": "Feature", "properties": { "name": "Barrage de Pierre Brune", "category": "Dam", "area_ha": 57.6, "altitude_m": null }, "geometry": { "type": "Point", "coordinates": [ -0.77643, 46.55838 ] } },
{ "type": "Feature", "properties": { "name": "Unnamed", "category": "Dam", "area_ha": 3.8, "altitude_m": null }, "geometry": { "type": "Point", "coordinates": [ -1.31596, 46.8306 ] } },
{ "type": "Feature", "properties": { "name": "Étang de la Chausselière", "category": "Reservoir", "area_ha": 13.5, "altitude_m": null }, "geometry": { "type": "Point", "coordinates": [ -1.24435, 46.95382 ] } },
{ "type": "Feature", "properties": { "name": "Unnamed", "category": "Reservoir", "area_ha": 5.4, "altitude_m": null }, "geometry": { "type": "Point", "coordinates": [ -1.02897, 46.80178 ] } },
{ "type": "Feature", "properties": { "name": "Unnamed", "category": "Reservoir", "area_ha": 7.2, "altitude_m": null }, "geometry": { "type": "Point", "coordinates": [ -0.89985, 46.85199 ] } },
{ "type": "Feature", "properties": { "name": "Unnamed", "category": "Reservoir", "area_ha": 6.2, "altitude_m": null }, "geometry": { "type": "Point", "coordinates": [ -1.21758, 46.66364 ] } },
{ "type": "Feature", "properties": { "name": "Lac de l'Espérance", "category": "Reservoir", "area_ha": 5.1, "altitude_m": null }, "geometry": { "type": "Point", "coordinates": [ -0.85367, 46.77956 ] } },
{ "type": "Feature", "properties": { "name": "Unnamed", "category": "Reservoir", "area_ha": 31.6, "altitude_m": null }, "geometry": { "type": "Point", "coordinates": [ -2.20576, 46.96727 ] } },
{ "type": "Feature", "properties": { "name": "Plan d'Eau du Maupas", "category": "Reservoir", "area_ha": 6.0, "altitude_m": null }, "geometry": { "type": "Point", "coordinates": [ -1.42879, 46.34577 ] } },
{ "type": "Feature", "properties": { "name": "Unnamed", "category": "Reservoir", "area_ha": 273.0, "altitude_m": null }, "geometry": { "type": "Point", "coordinates": [ -1.78263, 46.54563 ] } },
{ "type": "Feature", "properties": { "name": "Unnamed", "category": "Reservoir", "area_ha": 5.3, "altitude_m": null }, "geometry": { "type": "Point", "coordinates": [ -1.27303, 46.75888 ] } },
{ "type": "Feature", "properties": { "name": "Unnamed", "category": "Reservoir", "area_ha": 8.6, "altitude_m": null }, "geometry": { "type": "Point", "coordinates": [ -2.23737, 46.97834 ] } },
{ "type": "Feature", "properties": { "name": "Unnamed", "category": "Reservoir", "area_ha": 11.0, "altitude_m": null }, "geometry": { "type": "Point", "coordinates": [ -1.79122, 46.55885 ] } },
{ "type": "Feature", "properties": { "name": "Étang du Vide", "category": "Reservoir", "area_ha": 6.6, "altitude_m": null }, "geometry": { "type": "Point", "coordinates": [ -2.15006, 46.93821 ] } },
{ "type": "Feature", "properties": { "name": "Unnamed", "category": "Reservoir", "area_ha": 12.5, "altitude_m": null }, "geometry": { "type": "Point", "coordinates": [ -1.64021, 46.44217 ] } },
{ "type": "Feature", "properties": { "name": "Unnamed", "category": "Reservoir", "area_ha": 17.9, "altitude_m": null }, "geometry": { "type": "Point", "coordinates": [ -1.50867, 46.51535 ] } },
{ "type": "Feature", "properties": { "name": "Unnamed", "category": "Reservoir", "area_ha": 5.4, "altitude_m": null }, "geometry": { "type": "Point", "coordinates": [ -1.00033, 46.63954 ] } },
{ "type": "Feature", "properties": { "name": "Étang du Cellier", "category": "Reservoir", "area_ha": 33.8, "altitude_m": null }, "geometry": { "type": "Point", "coordinates": [ -1.08358, 46.80949 ] } },
{ "type": "Feature", "properties": { "name": "Étang du Plessis", "category": "Reservoir", "area_ha": 6.7, "altitude_m": null }, "geometry": { "type": "Point", "coordinates": [ -1.31894, 46.70337 ] } },
{ "type": "Feature", "properties": { "name": "Unnamed", "category": "Reservoir", "area_ha": 5.9, "altitude_m": null }, "geometry": { "type": "Point", "coordinates": [ -1.27163, 46.68089 ] } },
{ "type": "Feature", "properties": { "name": "Unnamed", "category": "Reservoir", "area_ha": 5.4, "altitude_m": null }, "geometry": { "type": "Point", "coordinates": [ -1.5253, 46.65508 ] } },
{ "type": "Feature", "properties": { "name": "Unnamed", "category": "Reservoir", "area_ha": 6.4, "altitude_m": null }, "geometry": { "type": "Point", "coordinates": [ -2.00874, 46.89449 ] } },
{ "type": "Feature", "properties": { "name": "Unnamed", "category": "Reservoir", "area_ha": 6.1, "altitude_m": null }, "geometry": { "type": "Point", "coordinates": [ -1.30939, 46.75363 ] } },
{ "type": "Feature", "properties": { "name": "Étang de Boireau", "category": "Reservoir", "area_ha": 9.7, "altitude_m": null }, "geometry": { "type": "Point", "coordinates": [ -1.27642, 46.77919 ] } },
{ "type": "Feature", "properties": { "name": "les Cosses Cinq Cent Dix", "category": "Reservoir", "area_ha": 8.8, "altitude_m": null }, "geometry": { "type": "Point", "coordinates": [ -1.24098, 46.72319 ] } },
{ "type": "Feature", "properties": { "name": "les Cosses Cinq Cent Vingt", "category": "Reservoir", "area_ha": 14.8, "altitude_m": null }, "geometry": { "type": "Point", "coordinates": [ -1.23804, 46.72744 ] } },
{ "type": "Feature", "properties": { "name": "Unnamed", "category": "Reservoir", "area_ha": 9.6, "altitude_m": null }, "geometry": { "type": "Point", "coordinates": [ -1.10292, 46.84562 ] } },
{ "type": "Feature", "properties": { "name": "Unnamed", "category": "Reservoir", "area_ha": 9.1, "altitude_m": null }, "geometry": { "type": "Point", "coordinates": [ -1.88528, 46.90837 ] } },
{ "type": "Feature", "properties": { "name": "Étang du Blanc", "category": "Reservoir", "area_ha": 6.5, "altitude_m": null }, "geometry": { "type": "Point", "coordinates": [ -0.93279, 46.95461 ] } },
{ "type": "Feature", "properties": { "name": "Étang de la Tricherie", "category": "Reservoir", "area_ha": 17.2, "altitude_m": null }, "geometry": { "type": "Point", "coordinates": [ -1.11429, 46.85103 ] } },
{ "type": "Feature", "properties": { "name": "Étang de la Jarrie", "category": "Reservoir", "area_ha": 10.9, "altitude_m": null }, "geometry": { "type": "Point", "coordinates": [ -1.37874, 46.77804 ] } },
{ "type": "Feature", "properties": { "name": "Étang de la Haute Rivière", "category": "Reservoir", "area_ha": 5.6, "altitude_m": null }, "geometry": { "type": "Point", "coordinates": [ -1.10911, 46.7782 ] } },
{ "type": "Feature", "properties": { "name": "Étang de Badiole", "category": "Reservoir", "area_ha": 11.0, "altitude_m": null }, "geometry": { "type": "Point", "coordinates": [ -1.36632, 46.6307 ] } },
{ "type": "Feature", "properties": { "name": "Unnamed", "category": "Reservoir", "area_ha": 5.4, "altitude_m": null }, "geometry": { "type": "Point", "coordinates": [ -1.21661, 46.61936 ] } },
{ "type": "Feature", "properties": { "name": "Lac de Tanchet", "category": "Reservoir", "area_ha": 6.3, "altitude_m": null }, "geometry": { "type": "Point", "coordinates": [ -1.76225, 46.48274 ] } },
{ "type": "Feature", "properties": { "name": "Unnamed", "category": "Reservoir", "area_ha": 6.0, "altitude_m": null }, "geometry": { "type": "Point", "coordinates": [ -1.32914, 46.69816 ] } },
{ "type": "Feature", "properties": { "name": "Marais de la Boulinière", "category": "Reservoir", "area_ha": 19.9, "altitude_m": null }, "geometry": { "type": "Point", "coordinates": [ -1.62762, 46.42605 ] } },
{ "type": "Feature", "properties": { "name": "Barrage d'Apremont", "category": "Reservoir", "area_ha": 8.9, "altitude_m": null }, "geometry": { "type": "Point", "coordinates": [ -1.67026, 46.74838 ] } },
{ "type": "Feature", "properties": { "name": "Unnamed", "category": "Reservoir", "area_ha": 12.2, "altitude_m": null }, "geometry": { "type": "Point", "coordinates": [ -1.24771, 46.39696 ] } },
{ "type": "Feature", "properties": { "name": "Retenue de Rochereau", "category": "Dam", "area_ha": 114.8, "altitude_m": null }, "geometry": { "type": "Point", "coordinates": [ -0.95153, 46.69555 ] } },
{ "type": "Feature", "properties": { "name": "Lac du Gué Gorand", "category": "Dam", "area_ha": 15.8, "altitude_m": null }, "geometry": { "type": "Point", "coordinates": [ -1.793, 46.70566 ] } },
{ "type": "Feature", "properties": { "name": "Unnamed", "category": "Dam", "area_ha": 27.1, "altitude_m": null }, "geometry": { "type": "Point", "coordinates": [ -1.23568, 46.5772 ] } },
{ "type": "Feature", "properties": { "name": "Unnamed", "category": "Dam", "area_ha": 5.4, "altitude_m": null }, "geometry": { "type": "Point", "coordinates": [ -0.63646, 46.54932 ] } },
{ "type": "Feature", "properties": { "name": "Unnamed", "category": "Dam", "area_ha": 11.1, "altitude_m": null }, "geometry": { "type": "Point", "coordinates": [ -1.29175, 46.73397 ] } },
{ "type": "Feature", "properties": { "name": "Unnamed", "category": "Dam", "area_ha": 0.9, "altitude_m": null }, "geometry": { "type": "Point", "coordinates": [ -1.70668, 46.66104 ] } },
{ "type": "Feature", "properties": { "name": "Unnamed", "category": "Dam", "area_ha": 5.8, "altitude_m": null }, "geometry": { "type": "Point", "coordinates": [ -1.01421, 46.9912 ] } },
{ "type": "Feature", "properties": { "name": "Étang de Fraisa", "category": "Dam", "area_ha": 9.7, "altitude_m": null }, "geometry": { "type": "Point", "coordinates": [ -1.16706, 46.5955 ] } },
{ "type": "Feature", "properties": { "name": "Lac de Finfarine", "category": "Dam", "area_ha": 23.9, "altitude_m": null }, "geometry": { "type": "Point", "coordinates": [ -1.55261, 46.49456 ] } },
{ "type": "Feature", "properties": { "name": "Retenue de l'Angle Guignard", "category": "Dam", "area_ha": 42.6, "altitude_m": null }, "geometry": { "type": "Point", "coordinates": [ -1.06348, 46.64484 ] } }
]
}
