{
"type": "FeatureCollection",
"name": "dep86.geojson",
"crs": { "type": "name", "properties": { "name": "urn:ogc:def:crs:OGC:1.3:CRS84" } },
"xy_coordinate_resolution": 1e-05,
"features": [
{ "type": "Feature", "properties": { "name": "Parc de Loisirs St Cyr", "category": "Reservoir", "area_ha": 71.2, "altitude_m": null }, "geometry": { "type": "Point", "coordinates": [ 0.46662, 46.72613 ] } },
{ "type": "Feature", "properties": { "name": "Unnamed", "category": "Reservoir", "area_ha": 7.5, "altitude_m": null }, "geometry": { "type": "Point", "coordinates": [ 0.3978, 46.71564 ] } },
{ "type": "Feature", "properties": { "name": "Étang de Pétaveau", "category": "Reservoir", "area_ha": 6.7, "altitude_m": null }, "geometry": { "type": "Point", "coordinates": [ 0.96175, 46.43502 ] } },
{ "type": "Feature", "properties": { "name": "Unnamed", "category": "Reservoir", "area_ha": 10.3, "altitude_m": null }, "geometry": { "type": "Point", "coordinates": [ 0.70724, 46.18941 ] } },
{ "type": "Feature", "properties": { "name": "Étang de Fleix", "category": "Reservoir", "area_ha": 14.5, "altitude_m": null }, "geometry": { "type": "Point", "coordinates": [ 0.08472, 46.6549 ] } },
{ "type": "Feature", "properties": { "name": "Étang de Sainte-Anne", "category": "Reservoir", "area_ha": 10.6, "altitude_m": null }, "geometry": { "type": "Point", "coordinates": [ 0.91772, 46.43018 ] } },
{ "type": "Feature", "properties": { "name": "le Lac", "category": "Reservoir", "area_ha": 7.0, "altitude_m": null }, "geometry": { "type": "Point", "coordinates": [ 0.52129, 46.79732 ] } },
{ "type": "Feature", "properties": { "name": "Unnamed", "category": "Reservoir", "area_ha": 5.5, "altitude_m": null }, "geometry": { "type": "Point", "coordinates": [ 0.54309, 46.74961 ] } },
{ "type": "Feature", "properties": { "name": "Étang de Gardéché", "category": "Reservoir", "area_ha": 21.2, "altitude_m": null }, "geometry": { "type": "Point", "coordinates": [ 0.94308, 46.43465 ] } },
{ "type": "Feature", "properties": { "name": "Unnamed", "category": "Reservoir", "area_ha": 5.4, "altitude_m": null }, "geometry": { "type": "Point", "coordinates": [ 0.57193, 46.08304 ] } },
{ "type": "Feature", "properties": { "name": "Unnamed", "category": "Reservoir", "area_ha": 5.4, "altitude_m": null }, "geometry": { "type": "Point", "coordinates": [ 0.83193, 46.3676 ] } },
{ "type": "Feature", "properties": { "name": "la Maraiche 930", "category": "Reservoir", "area_ha": 5.9, "altitude_m": null }, "geometry": { "type": "Point", "coordinates": [ 0.58785, 46.64277 ] } },
{ "type": "Feature", "properties": { "name": "Unnamed", "category": "Reservoir", "area_ha": 11.0, "altitude_m": null }, "geometry": { "type": "Point", "coordinates": [ 0.91478, 46.44811 ] } },
{ "type": "Feature", "properties": { "name": "le Moulin de Perrière", "category": "Reservoir", "area_ha": 6.4, "altitude_m": null }, "geometry": { "type": "Point", "coordinates": [ 0.43795, 46.72416 ] } },
{ "type": "Feature", "properties": { "name": "Étang de Ponteil", "category": "Reservoir", "area_ha": 5.2, "altitude_m": null }, "geometry": { "type": "Point", "coordinates": [ 0.55052, 46.12429 ] } },
{ "type": "Feature", "properties": { "name": "Unnamed", "category": "Reservoir", "area_ha": 7.3, "altitude_m": null }, "geometry": { "type": "Point", "coordinates": [ 0.16648, 46.49904 ] } },
{ "type": "Feature", "properties": { "name": "l'Étang Neuf", "category": "Reservoir", "area_ha": 8.1, "altitude_m": null }, "geometry": { "type": "Point", "coordinates": [ 0.51441, 46.13307 ] } },
{ "type": "Feature", "properties": { "name": "Moulin Thorus", "category": "Reservoir", "area_ha": 5.7, "altitude_m": null }, "geometry": { "type": "Point", "coordinates": [ 0.30734, 46.42474 ] } },
{ "type": "Feature", "properties": { "name": "Étang Grolleau", "category": "Reservoir", "area_ha": 13.2, "altitude_m": null }, "geometry": { "type": "Point", "coordinates": [ 0.9595, 46.41866 ] } },
{ "type": "Feature", "properties": { "name": "Étang Gadoret", "category": "Reservoir", "area_ha": 15.1, "altitude_m": null }, "geometry": { "type": "Point", "coordinates": [ 0.9608, 46.42628 ] } },
{ "type": "Feature", "properties": { "name": "Unnamed", "category": "Reservoir", "area_ha": 8.4, "altitude_m": null }, "geometry": { "type": "Point", "coordinates": [ 0.58714, 46.31065 ] } },
{ "type": "Feature", "properties": { "name": "Étang Neuf", "category": "Reservoir", "area_ha": 8.5, "altitude_m": null }, "geometry": { "type": "Point", "coordinates": [ 0.55391, 46.11864 ] } },
{ "type": "Feature", "properties": { "name": "Unnamed", "category": "Reservoir", "area_ha": 6.5, "altitude_m": null }, "geometry": { "type": "Point", "coordinates": [ 1.10828, 46.36785 ] } },
{ "type": "Feature", "properties": { "name": "Unnamed", "category": "Reservoir", "area_ha": 6.6, "altitude_m": null }, "geometry": { "type": "Point", "coordinates": [ 0.65313, 46.89083 ] } },
{ "type": "Feature", "properties": { "name": "Unnamed", "category": "Reservoir", "area_ha": 5.1, "altitude_m": null }, "geometry": { "type": "Point", "coordinates": [ 0.59099, 46.92561 ] } },
{ "type": "Feature", "properties": { "name": "le Grand Étang", "category": "Reservoir", "area_ha": 12.9, "altitude_m": null }, "geometry": { "type": "Point", "coordinates": [ 0.7718, 46.62937 ] } },
{ "type": "Feature", "properties": { "name": "Plan d'Eau de Clan", "category": "Reservoir", "area_ha": 7.6, "altitude_m": null }, "geometry": { "type": "Point", "coordinates": [ 0.3907, 46.68978 ] } },
{ "type": "Feature", "properties": { "name": "Unnamed", "category": "Reservoir", "area_ha": 7.4, "altitude_m": null }, "geometry": { "type": "Point", "coordinates": [ 0.59918, 46.61304 ] } },
{ "type": "Feature", "properties": { "name": "Unnamed", "category": "Reservoir", "area_ha": 11.3, "altitude_m": null }, "geometry": { "type": "Point", "coordinates": [ 0.7895, 46.15752 ] } },
{ "type": "Feature", "properties": { "name": "Unnamed", "category": "Reservoir", "area_ha": 5.5, "altitude_m": null }, "geometry": { "type": "Point", "coordinates": [ 0.58364, 46.30836 ] } },
{ "type": "Feature", "properties": { "name": "Unnamed", "category": "Reservoir", "area_ha": 11.2, "altitude_m": null }, "geometry": { "type": "Point", "coordinates": [ 0.84645, 46.25666 ] } },
{ "type": "Feature", "properties": { "name": "Lac du Magne", "category": "Reservoir", "area_ha": 8.7, "altitude_m": null }, "geometry": { "type": "Point", "coordinates": [ -0.02143, 46.88912 ] } },
{ "type": "Feature", "properties": { "name": "le Grand Étang", "category": "Reservoir", "area_ha": 9.3, "altitude_m": null }, "geometry": { "type": "Point", "coordinates": [ 0.921, 46.37224 ] } },
{ "type": "Feature", "properties": { "name": "Étang de la Roche", "category": "Reservoir", "area_ha": 7.2, "altitude_m": null }, "geometry": { "type": "Point", "coordinates": [ 0.80971, 46.43988 ] } },
{ "type": "Feature", "properties": { "name": "Étang de Mortaigues", "category": "Reservoir", "area_ha": 6.5, "altitude_m": null }, "geometry": { "type": "Point", "coordinates": [ 0.62385, 46.33021 ] } },
{ "type": "Feature", "properties": { "name": "le Grand Étang", "category": "Reservoir", "area_ha": 6.0, "altitude_m": null }, "geometry": { "type": "Point", "coordinates": [ 0.62285, 46.16052 ] } },
{ "type": "Feature", "properties": { "name": "Étang de Fondeube", "category": "Reservoir", "area_ha": 23.7, "altitude_m": null }, "geometry": { "type": "Point", "coordinates": [ 0.69609, 46.14148 ] } },
{ "type": "Feature", "properties": { "name": "Étang de Villedon", "category": "Reservoir", "area_ha": 29.2, "altitude_m": null }, "geometry": { "type": "Point", "coordinates": [ 0.81318, 46.14851 ] } },
{ "type": "Feature", "properties": { "name": "Étang des Forges", "category": "Reservoir", "area_ha": 9.7, "altitude_m": null }, "geometry": { "type": "Point", "coordinates": [ 0.73086, 46.15296 ] } },
{ "type": "Feature", "properties": { "name": "Étang de Biard", "category": "Reservoir", "area_ha": 5.2, "altitude_m": null }, "geometry": { "type": "Point", "coordinates": [ 0.92377, 46.39511 ] } },
{ "type": "Feature", "properties": { "name": "Étang de Beaufour", "category": "Reservoir", "area_ha": 32.5, "altitude_m": null }, "geometry": { "type": "Point", "coordinates": [ 0.82146, 46.3697 ] } },
{ "type": "Feature", "properties": { "name": "Unnamed", "category": "Reservoir", "area_ha": 5.2, "altitude_m": null }, "geometry": { "type": "Point", "coordinates": [ 0.26103, 46.49862 ] } },
{ "type": "Feature", "properties": { "name": "Étang de la Forge", "category": "Reservoir", "area_ha": 16.1, "altitude_m": null }, "geometry": { "type": "Point", "coordinates": [ 0.5946, 46.421 ] } },
{ "type": "Feature", "properties": { "name": "Étang de Combourg", "category": "Reservoir", "area_ha": 19.5, "altitude_m": null }, "geometry": { "type": "Point", "coordinates": [ 0.53275, 46.13884 ] } },
{ "type": "Feature", "properties": { "name": "Étang de Beauregard", "category": "Reservoir", "area_ha": 10.8, "altitude_m": null }, "geometry": { "type": "Point", "coordinates": [ 0.575, 46.30373 ] } }
]
}
