{
"type": "FeatureCollection",
"name": "dep84.geojson",
"crs": { "type": "name", "properties": { "name": "urn:ogc:def:crs:OGC:1.3:CRS84" } },
"xy_coordinate_resolution": 1e-05,
"features": [
{ "type": "Feature", "properties": { "name": "Plan d'Eau de la Riaille", "category": "Reservoir", "area_ha": 8.2, "altitude_m": null }, "geometry": { "type": "Point", "coordinates": [ 5.37939, 43.89048 ] } },
{ "type": "Feature", "properties": { "name": "Gravière de l'Île Vieille", "category": "Reservoir", "area_ha": 64.1, "altitude_m": null }, "geometry": { "type": "Point", "coordinates": [ 4.67854, 44.21897 ] } },
{ "type": "Feature", "properties": { "name": "Lac de la Lionne", "category": "Reservoir", "area_ha": 8.1, "altitude_m": null }, "geometry": { "type": "Point", "coordinates": [ 4.84745, 44.02825 ] } },
{ "type": "Feature", "properties": { "name": "le Trop Long", "category": "Reservoir", "area_ha": 20.5, "altitude_m": null }, "geometry": { "type": "Point", "coordinates": [ 4.72328, 44.31659 ] } },
{ "type": "Feature", "properties": { "name": "Étang de la Bonde", "category": "Reservoir", "area_ha": 28.9, "altitude_m": null }, "geometry": { "type": "Point", "coordinates": [ 5.5064, 43.7613 ] } },
{ "type": "Feature", "properties": { "name": "Plan d'Eau du Revestidou", "category": "Reservoir", "area_ha": 51.3, "altitude_m": null }, "geometry": { "type": "Point", "coordinates": [ 4.75049, 44.08971 ] } },
{ "type": "Feature", "properties": { "name": "Réserve de Rustrel", "category": "Dam", "area_ha": 6.2, "altitude_m": null }, "geometry": { "type": "Point", "coordinates": [ 5.45548, 43.91744 ] } }
]
}
