{
"type": "FeatureCollection",
"name": "dep81.geojson",
"crs": { "type": "name", "properties": { "name": "urn:ogc:def:crs:OGC:1.3:CRS84" } },
"xy_coordinate_resolution": 1e-05,
"features": [
{ "type": "Feature", "properties": { "name": "Unnamed", "category": "Reservoir", "area_ha": 9.2, "altitude_m": null }, "geometry": { "type": "Point", "coordinates": [ 2.14381, 44.0211 ] } },
{ "type": "Feature", "properties": { "name": "Unnamed", "category": "Dam", "area_ha": 1.0, "altitude_m": null }, "geometry": { "type": "Point", "coordinates": [ 2.02867, 43.57396 ] } },
{ "type": "Feature", "properties": { "name": "Unnamed", "category": "Reservoir", "area_ha": 5.1, "altitude_m": null }, "geometry": { "type": "Point", "coordinates": [ 2.07101, 43.908 ] } },
{ "type": "Feature", "properties": { "name": "le Ludolac", "category": "Reservoir", "area_ha": 10.0, "altitude_m": null }, "geometry": { "type": "Point", "coordinates": [ 1.74103, 43.76369 ] } },
{ "type": "Feature", "properties": { "name": "Lac de Saint-Géraud", "category": "Dam", "area_ha": 93.7, "altitude_m": null }, "geometry": { "type": "Point", "coordinates": [ 2.33277, 44.04107 ] } },
{ "type": "Feature", "properties": { "name": "Unnamed", "category": "Reservoir", "area_ha": 10.4, "altitude_m": null }, "geometry": { "type": "Point", "coordinates": [ 1.82788, 43.85925 ] } },
{ "type": "Feature", "properties": { "name": "Unnamed", "category": "Dam", "area_ha": 2.4, "altitude_m": null }, "geometry": { "type": "Point", "coordinates": [ 1.91864, 43.65329 ] } },
{ "type": "Feature", "properties": { "name": "Unnamed", "category": "Reservoir", "area_ha": 19.0, "altitude_m": null }, "geometry": { "type": "Point", "coordinates": [ 2.01335, 43.65941 ] } },
{ "type": "Feature", "properties": { "name": "Retenue de la Roucarié", "category": "Dam", "area_ha": 56.8, "altitude_m": null }, "geometry": { "type": "Point", "coordinates": [ 2.13882, 44.08256 ] } },
{ "type": "Feature", "properties": { "name": "Lac du Laouzas", "category": "Dam", "area_ha": 262.7, "altitude_m": null }, "geometry": { "type": "Point", "coordinates": [ 2.76869, 43.6469 ] } },
{ "type": "Feature", "properties": { "name": "Retenue de Rasisse", "category": "Dam", "area_ha": 106.0, "altitude_m": null }, "geometry": { "type": "Point", "coordinates": [ 2.34856, 43.8167 ] } },
{ "type": "Feature", "properties": { "name": "Unnamed", "category": "Dam", "area_ha": 1.9, "altitude_m": null }, "geometry": { "type": "Point", "coordinates": [ 2.45394, 43.53078 ] } },
{ "type": "Feature", "properties": { "name": "Lac des Cammazes", "category": "Dam", "area_ha": 76.0, "altitude_m": null }, "geometry": { "type": "Point", "coordinates": [ 2.09751, 43.40134 ] } },
{ "type": "Feature", "properties": { "name": "Unnamed", "category": "Dam", "area_ha": 6.2, "altitude_m": null }, "geometry": { "type": "Point", "coordinates": [ 1.87036, 43.82412 ] } },
{ "type": "Feature", "properties": { "name": "Unnamed", "category": "Dam", "area_ha": 2.0, "altitude_m": null }, "geometry": { "type": "Point", "coordinates": [ 2.20187, 43.46711 ] } },
{ "type": "Feature", "properties": { "name": "Unnamed", "category": "Dam", "area_ha": 2.2, "altitude_m": null }, "geometry": { "type": "Point", "coordinates": [ 2.36245, 43.71371 ] } },
{ "type": "Feature", "properties": { "name": "Unnamed", "category": "Dam", "area_ha": 2.3, "altitude_m": null }, "geometry": { "type": "Point", "coordinates": [ 1.93993, 43.57917 ] } },
{ "type": "Feature", "properties": { "name": "Unnamed", "category": "Reservoir", "area_ha": 6.5, "altitude_m": null }, "geometry": { "type": "Point", "coordinates": [ 2.133, 43.90037 ] } },
{ "type": "Feature", "properties": { "name": "Unnamed", "category": "Reservoir", "area_ha": 8.5, "altitude_m": null }, "geometry": { "type": "Point", "coordinates": [ 2.06893, 43.91113 ] } },
{ "type": "Feature", "properties": { "name": "Retenue de Verdet", "category": "Reservoir", "area_ha": 26.7, "altitude_m": null }, "geometry": { "type": "Point", "coordinates": [ 1.87567, 43.8339 ] } },
{ "type": "Feature", "properties": { "name": "Unnamed", "category": "Reservoir", "area_ha": 13.5, "altitude_m": null }, "geometry": { "type": "Point", "coordinates": [ 2.13007, 43.60242 ] } },
{ "type": "Feature", "properties": { "name": "Unnamed", "category": "Reservoir", "area_ha": 7.9, "altitude_m": null }, "geometry": { "type": "Point", "coordinates": [ 2.17002, 43.53406 ] } },
{ "type": "Feature", "properties": { "name": "Unnamed", "category": "Reservoir", "area_ha": 5.9, "altitude_m": null }, "geometry": { "type": "Point", "coordinates": [ 2.01716, 43.88956 ] } },
{ "type": "Feature", "properties": { "name": "Unnamed", "category": "Reservoir", "area_ha": 7.4, "altitude_m": null }, "geometry": { "type": "Point", "coordinates": [ 1.73122, 43.79954 ] } },
{ "type": "Feature", "properties": { "name": "Réservoir de Fonrogue", "category": "Dam", "area_ha": 31.1, "altitude_m": null }, "geometry": { "type": "Point", "coordinates": [ 2.09022, 43.99791 ] } },
{ "type": "Feature", "properties": { "name": "Retenue de l'Aybes", "category": "Dam", "area_ha": 15.4, "altitude_m": null }, "geometry": { "type": "Point", "coordinates": [ 2.16132, 43.62477 ] } },
{ "type": "Feature", "properties": { "name": "Unnamed", "category": "Dam", "area_ha": 6.9, "altitude_m": null }, "geometry": { "type": "Point", "coordinates": [ 1.91479, 43.56819 ] } },
{ "type": "Feature", "properties": { "name": "Unnamed", "category": "Dam", "area_ha": 12.1, "altitude_m": null }, "geometry": { "type": "Point", "coordinates": [ 2.58006, 43.59823 ] } },
{ "type": "Feature", "properties": { "name": "Lac de Miquelou", "category": "Dam", "area_ha": 8.3, "altitude_m": null }, "geometry": { "type": "Point", "coordinates": [ 1.99592, 43.74711 ] } },
{ "type": "Feature", "properties": { "name": "Lac d'en Brunet", "category": "Dam", "area_ha": 21.3, "altitude_m": null }, "geometry": { "type": "Point", "coordinates": [ 2.05887, 43.4778 ] } },
{ "type": "Feature", "properties": { "name": "Unnamed", "category": "Dam", "area_ha": 2.7, "altitude_m": null }, "geometry": { "type": "Point", "coordinates": [ 2.44951, 43.51742 ] } },
{ "type": "Feature", "properties": { "name": "Retenue de Briax", "category": "Dam", "area_ha": 28.3, "altitude_m": null }, "geometry": { "type": "Point", "coordinates": [ 1.77135, 43.64496 ] } },
{ "type": "Feature", "properties": { "name": "Lac du Barrage du Pas des Bêtes", "category": "Dam", "area_ha": 10.0, "altitude_m": null }, "geometry": { "type": "Point", "coordinates": [ 2.41444, 43.5546 ] } },
{ "type": "Feature", "properties": { "name": "Unnamed", "category": "Dam", "area_ha": 6.0, "altitude_m": null }, "geometry": { "type": "Point", "coordinates": [ 1.69778, 43.83363 ] } },
{ "type": "Feature", "properties": { "name": "Retenue de Fontbonne", "category": "Dam", "area_ha": 16.6, "altitude_m": null }, "geometry": { "type": "Point", "coordinates": [ 2.2107, 44.08905 ] } },
{ "type": "Feature", "properties": { "name": "Lac des Montagnès", "category": "Dam", "area_ha": 23.4, "altitude_m": null }, "geometry": { "type": "Point", "coordinates": [ 2.34169, 43.46253 ] } },
{ "type": "Feature", "properties": { "name": "Lac du Merle", "category": "Dam", "area_ha": 4.8, "altitude_m": null }, "geometry": { "type": "Point", "coordinates": [ 2.38679, 43.64441 ] } },
{ "type": "Feature", "properties": { "name": "Retenue de la Bancalié", "category": "Dam", "area_ha": 87.9, "altitude_m": null }, "geometry": { "type": "Point", "coordinates": [ 2.27121, 43.79015 ] } },
{ "type": "Feature", "properties": { "name": "Lac du Messal", "category": "Dam", "area_ha": 22.9, "altitude_m": null }, "geometry": { "type": "Point", "coordinates": [ 1.80727, 43.62629 ] } },
{ "type": "Feature", "properties": { "name": "Lac de Geignes", "category": "Dam", "area_ha": 17.3, "altitude_m": null }, "geometry": { "type": "Point", "coordinates": [ 1.83295, 43.59964 ] } },
{ "type": "Feature", "properties": { "name": "Lac des Saints-Peyres", "category": "Dam", "area_ha": 186.1, "altitude_m": null }, "geometry": { "type": "Point", "coordinates": [ 2.51607, 43.54354 ] } },
{ "type": "Feature", "properties": { "name": "Unnamed", "category": "Dam", "area_ha": 18.1, "altitude_m": null }, "geometry": { "type": "Point", "coordinates": [ 2.44475, 43.64198 ] } },
{ "type": "Feature", "properties": { "name": "Lac de la Balerme", "category": "Dam", "area_ha": 33.2, "altitude_m": null }, "geometry": { "type": "Point", "coordinates": [ 1.6984, 43.64696 ] } },
{ "type": "Feature", "properties": { "name": "Retenue de Thuriès", "category": "Dam", "area_ha": 17.4, "altitude_m": null }, "geometry": { "type": "Point", "coordinates": [ 2.25148, 44.12094 ] } }
]
}
