{
"type": "FeatureCollection",
"name": "dep91.geojson",
"crs": { "type": "name", "properties": { "name": "urn:ogc:def:crs:OGC:1.3:CRS84" } },
"xy_coordinate_resolution": 1e-05,
"features": [
{ "type": "Feature", "properties": { "name": "la Fouille Loury", "category": "Reservoir", "area_ha": 5.3, "altitude_m": null }, "geometry": { "type": "Point", "coordinates": [ 2.48977, 48.59591 ] } },
{ "type": "Feature", "properties": { "name": "Étang des Mousseaux", "category": "Reservoir", "area_ha": 5.4, "altitude_m": null }, "geometry": { "type": "Point", "coordinates": [ 2.40356, 48.69801 ] } },
{ "type": "Feature", "properties": { "name": "Étang de la Justice", "category": "Reservoir", "area_ha": 32.3, "altitude_m": null }, "geometry": { "type": "Point", "coordinates": [ 2.38882, 48.66574 ] } },
{ "type": "Feature", "properties": { "name": "Port de Vigneux-sur-Seine", "category": "Reservoir", "area_ha": 7.1, "altitude_m": null }, "geometry": { "type": "Point", "coordinates": [ 2.41217, 48.70294 ] } },
{ "type": "Feature", "properties": { "name": "Unnamed", "category": "Reservoir", "area_ha": 14.4, "altitude_m": null }, "geometry": { "type": "Point", "coordinates": [ 2.39807, 48.67659 ] } },
{ "type": "Feature", "properties": { "name": "Plan d'Eau 10 de la Commune de Vert-le-Petit", "category": "Reservoir", "area_ha": 6.1, "altitude_m": null }, "geometry": { "type": "Point", "coordinates": [ 2.37072, 48.53756 ] } },
{ "type": "Feature", "properties": { "name": "Étang Vieux", "category": "Reservoir", "area_ha": 36.8, "altitude_m": null }, "geometry": { "type": "Point", "coordinates": [ 2.15945, 48.74219 ] } },
{ "type": "Feature", "properties": { "name": "Plan d'Eau 1 de la Commune de Courcouronnes", "category": "Reservoir", "area_ha": 6.8, "altitude_m": null }, "geometry": { "type": "Point", "coordinates": [ 2.41501, 48.61783 ] } },
{ "type": "Feature", "properties": { "name": "Étang de Saint-Blaise", "category": "Reservoir", "area_ha": 9.1, "altitude_m": null }, "geometry": { "type": "Point", "coordinates": [ 2.36773, 48.51088 ] } },
{ "type": "Feature", "properties": { "name": "Étang aux Moines", "category": "Reservoir", "area_ha": 13.6, "altitude_m": null }, "geometry": { "type": "Point", "coordinates": [ 2.38897, 48.55401 ] } },
{ "type": "Feature", "properties": { "name": "Étang aux Pointes", "category": "Reservoir", "area_ha": 30.3, "altitude_m": null }, "geometry": { "type": "Point", "coordinates": [ 2.40248, 48.55788 ] } },
{ "type": "Feature", "properties": { "name": "Étang Fleuri", "category": "Reservoir", "area_ha": 9.1, "altitude_m": null }, "geometry": { "type": "Point", "coordinates": [ 2.37203, 48.54145 ] } },
{ "type": "Feature", "properties": { "name": "le Maroc", "category": "Reservoir", "area_ha": 5.0, "altitude_m": null }, "geometry": { "type": "Point", "coordinates": [ 2.48207, 48.5764 ] } },
{ "type": "Feature", "properties": { "name": "Plan d'Eau 1 de la Commune de Palaiseau", "category": "Reservoir", "area_ha": 5.7, "altitude_m": null }, "geometry": { "type": "Point", "coordinates": [ 2.21062, 48.71589 ] } },
{ "type": "Feature", "properties": { "name": "Marais Hannot", "category": "Reservoir", "area_ha": 6.4, "altitude_m": null }, "geometry": { "type": "Point", "coordinates": [ 2.42373, 48.57542 ] } },
{ "type": "Feature", "properties": { "name": "Trémolle", "category": "Reservoir", "area_ha": 5.1, "altitude_m": null }, "geometry": { "type": "Point", "coordinates": [ 2.16774, 48.57935 ] } },
{ "type": "Feature", "properties": { "name": "Bassin du Petit Paris", "category": "Reservoir", "area_ha": 5.5, "altitude_m": null }, "geometry": { "type": "Point", "coordinates": [ 2.28337, 48.61705 ] } },
{ "type": "Feature", "properties": { "name": "Plan d'Eau 7 de la Commune de Itteville", "category": "Reservoir", "area_ha": 7.2, "altitude_m": null }, "geometry": { "type": "Point", "coordinates": [ 2.3619, 48.51975 ] } },
{ "type": "Feature", "properties": { "name": "Fosse Montalbot", "category": "Reservoir", "area_ha": 23.3, "altitude_m": null }, "geometry": { "type": "Point", "coordinates": [ 2.42767, 48.71216 ] } },
{ "type": "Feature", "properties": { "name": "Plan d'Eau 2 de la Commune de Viry-Châtillon", "category": "Reservoir", "area_ha": 28.7, "altitude_m": null }, "geometry": { "type": "Point", "coordinates": [ 2.38619, 48.67045 ] } },
{ "type": "Feature", "properties": { "name": "la Fosse aux Carpes", "category": "Reservoir", "area_ha": 12.2, "altitude_m": null }, "geometry": { "type": "Point", "coordinates": [ 2.39559, 48.68081 ] } },
{ "type": "Feature", "properties": { "name": "Étang de Saclay", "category": "Reservoir", "area_ha": 33.2, "altitude_m": null }, "geometry": { "type": "Point", "coordinates": [ 2.17222, 48.74045 ] } },
{ "type": "Feature", "properties": { "name": "le Polygone", "category": "Reservoir", "area_ha": 8.4, "altitude_m": null }, "geometry": { "type": "Point", "coordinates": [ 2.36073, 48.52702 ] } },
{ "type": "Feature", "properties": { "name": "Marais de Boigneville", "category": "Reservoir", "area_ha": 5.4, "altitude_m": null }, "geometry": { "type": "Point", "coordinates": [ 2.38389, 48.33948 ] } },
{ "type": "Feature", "properties": { "name": "Unnamed", "category": "Reservoir", "area_ha": 9.1, "altitude_m": null }, "geometry": { "type": "Point", "coordinates": [ 2.27478, 48.69814 ] } },
{ "type": "Feature", "properties": { "name": "Plan d'Eau 3 de la Commune de Itteville", "category": "Reservoir", "area_ha": 5.4, "altitude_m": null }, "geometry": { "type": "Point", "coordinates": [ 2.35641, 48.49486 ] } },
{ "type": "Feature", "properties": { "name": "Lac de l'Arbalète", "category": "Reservoir", "area_ha": 10.6, "altitude_m": null }, "geometry": { "type": "Point", "coordinates": [ 2.39643, 48.65941 ] } },
{ "type": "Feature", "properties": { "name": "Unnamed", "category": "Reservoir", "area_ha": 5.0, "altitude_m": null }, "geometry": { "type": "Point", "coordinates": [ 2.37809, 48.55673 ] } },
{ "type": "Feature", "properties": { "name": "Bassin du Carrouges", "category": "Reservoir", "area_ha": 10.4, "altitude_m": null }, "geometry": { "type": "Point", "coordinates": [ 2.29506, 48.62057 ] } },
{ "type": "Feature", "properties": { "name": "Plan d'Eau 6 de la Commune de Vert-le-Petit", "category": "Reservoir", "area_ha": 7.8, "altitude_m": null }, "geometry": { "type": "Point", "coordinates": [ 2.37284, 48.55184 ] } },
{ "type": "Feature", "properties": { "name": "Plan d'Eau 8 de la Commune de Vert-le-Petit", "category": "Reservoir", "area_ha": 11.6, "altitude_m": null }, "geometry": { "type": "Point", "coordinates": [ 2.37114, 48.54457 ] } },
{ "type": "Feature", "properties": { "name": "Étang de la Place Verte", "category": "Reservoir", "area_ha": 11.2, "altitude_m": null }, "geometry": { "type": "Point", "coordinates": [ 2.39535, 48.66554 ] } },
{ "type": "Feature", "properties": { "name": "Étang Fédéral", "category": "Reservoir", "area_ha": 6.0, "altitude_m": null }, "geometry": { "type": "Point", "coordinates": [ 2.37342, 48.54667 ] } },
{ "type": "Feature", "properties": { "name": "Unnamed", "category": "Reservoir", "area_ha": 5.3, "altitude_m": null }, "geometry": { "type": "Point", "coordinates": [ 2.18893, 48.57267 ] } },
{ "type": "Feature", "properties": { "name": "Unnamed", "category": "Reservoir", "area_ha": 5.8, "altitude_m": null }, "geometry": { "type": "Point", "coordinates": [ 2.02654, 48.38927 ] } },
{ "type": "Feature", "properties": { "name": "Bassin de Retenue de Trévoix", "category": "Reservoir", "area_ha": 17.6, "altitude_m": null }, "geometry": { "type": "Point", "coordinates": [ 2.20584, 48.58228 ] } },
{ "type": "Feature", "properties": { "name": "Étang Brûle-Doux", "category": "Reservoir", "area_ha": 5.3, "altitude_m": null }, "geometry": { "type": "Point", "coordinates": [ 2.06661, 48.60314 ] } },
{ "type": "Feature", "properties": { "name": "Étang de la Plaine Basse", "category": "Reservoir", "area_ha": 12.1, "altitude_m": null }, "geometry": { "type": "Point", "coordinates": [ 2.39881, 48.66264 ] } }
]
}
