{
"type": "FeatureCollection",
"name": "dep25_overview.geojson",
"crs": { "type": "name", "properties": { "name": "urn:ogc:def:crs:OGC:1.3:CRS84" } },
"xy_coordinate_resolution": 1e-05,
"features": [
{ "type": "Feature", "properties": { "name": "l'Allan", "weight_class": 3, "permanent": true, "length_km": 14.5 }, "geometry": { "type": "MultiLineString", "coordinates": [ [ [ 6.81001, 47.50472 ], [ 6.80895, 47.50565 ], [ 6.80255, 47.50661 ], [ 6.79656, 47.50575 ], [ 6.79288, 47.50795 ], [ 6.78588, 47.50858 ], [ 6.78237, 47.50644 ], [ 6.77758, 47.50551 ], [ 6.7745, 47.50344 ], [ 6.77281, 47.5006 ], [ 6.77432, 47.49556 ], [ 6.77791, 47.49173 ], [ 6.77275, 47.48772 ], [ 6.76723, 47.48099 ], [ 6.75906, 47.47869 ] ], [ [ 6.9161, 47.53257 ], [ 6.916, 47.52966 ], [ 6.91258, 47.52745 ], [ 6.90308, 47.52715 ], [ 6.90213, 47.5265 ], [ 6.89938, 47.52742 ], [ 6.89682, 47.52655 ], [ 6.89658, 47.52485 ], [ 6.89458, 47.52405 ], [ 6.88795, 47.52414 ], [ 6.88724, 47.52559 ], [ 6.88541, 47.52605 ], [ 6.87432, 47.51894 ], [ 6.86436, 47.51531 ], [ 6.85559, 47.51427 ], [ 6.85123, 47.51274 ], [ 6.84824, 47.51024 ] ], [ [ 6.90605, 47.54674 ], [ 6.90775, 47.54116 ], [ 6.91077, 47.53938 ] ] ] } },
{ "type": "Feature", "properties": { "name": "la Feschotte", "weight_class": 1, "permanent": true, "length_km": 7.0 }, "geometry": { "type": "LineString", "coordinates": [ [ 6.94267, 47.48492 ], [ 6.94331, 47.48692 ], [ 6.94049, 47.48962 ], [ 6.94173, 47.49314 ], [ 6.94003, 47.4961 ], [ 6.94141, 47.49805 ], [ 6.94021, 47.49981 ], [ 6.93992, 47.50648 ], [ 6.93124, 47.51133 ], [ 6.92871, 47.51229 ], [ 6.92542, 47.51224 ], [ 6.92259, 47.51357 ], [ 6.9195, 47.5156 ], [ 6.91815, 47.51849 ], [ 6.91363, 47.52002 ], [ 6.91133, 47.52203 ], [ 6.89638, 47.52464 ] ] } },
{ "type": "Feature", "properties": { "name": "la Doue", "weight_class": 1, "permanent": true, "length_km": 3.4 }, "geometry": { "type": "LineString", "coordinates": [ [ 6.91661, 47.40713 ], [ 6.9109, 47.40747 ], [ 6.90756, 47.40275 ], [ 6.89689, 47.40114 ], [ 6.88949, 47.40442 ], [ 6.88874, 47.40624 ], [ 6.89054, 47.40879 ] ] } },
{ "type": "Feature", "properties": { "name": "la Creuse", "weight_class": 1, "permanent": true, "length_km": 4.2 }, "geometry": { "type": "LineString", "coordinates": [ [ 6.84956, 47.38671 ], [ 6.85698, 47.38783 ], [ 6.86083, 47.39051 ], [ 6.86457, 47.39041 ], [ 6.87021, 47.39164 ], [ 6.88507, 47.39936 ], [ 6.88868, 47.40183 ], [ 6.88978, 47.40418 ] ] } },
{ "type": "Feature", "properties": { "name": "Bief de Fuesse", "weight_class": 1, "permanent": true, "length_km": 2.3 }, "geometry": { "type": "LineString", "coordinates": [ [ 6.98247, 47.31433 ], [ 6.98898, 47.31006 ], [ 6.99015, 47.30739 ], [ 6.99394, 47.30374 ], [ 7.00133, 47.30014 ] ] } },
{ "type": "Feature", "properties": { "name": "la Savoureuse", "weight_class": 3, "permanent": true, "length_km": 5.9 }, "geometry": { "type": "LineString", "coordinates": [ [ 6.85863, 47.55147 ], [ 6.85697, 47.54825 ], [ 6.85728, 47.54545 ], [ 6.85248, 47.54049 ], [ 6.85147, 47.53803 ], [ 6.8541, 47.535 ], [ 6.85142, 47.53333 ], [ 6.85256, 47.53076 ], [ 6.85079, 47.53023 ], [ 6.84894, 47.52778 ], [ 6.8475, 47.52823 ], [ 6.84636, 47.52758 ], [ 6.84698, 47.52358 ], [ 6.84404, 47.52216 ], [ 6.84128, 47.5183 ], [ 6.84878, 47.51314 ], [ 6.84892, 47.51093 ] ] } },
{ "type": "Feature", "properties": { "name": "la Lizaine", "weight_class": 3, "permanent": true, "length_km": 5.3 }, "geometry": { "type": "LineString", "coordinates": [ [ 6.78521, 47.54335 ], [ 6.78466, 47.54048 ], [ 6.78647, 47.53959 ], [ 6.78641, 47.53706 ], [ 6.79113, 47.5345 ], [ 6.79331, 47.53488 ], [ 6.8017, 47.52419 ], [ 6.80166, 47.52158 ], [ 6.79808, 47.51331 ], [ 6.80083, 47.50629 ] ] } },
{ "type": "Feature", "properties": { "name": "la Sapoie", "weight_class": 1, "permanent": true, "length_km": 2.2 }, "geometry": { "type": "MultiLineString", "coordinates": [ [ [ 6.65369, 47.57503 ], [ 6.65213, 47.57215 ], [ 6.65722, 47.56923 ], [ 6.65706, 47.5668 ] ], [ [ 6.65686, 47.58511 ], [ 6.65988, 47.5798 ], [ 6.65657, 47.57775 ] ] ] } },
{ "type": "Feature", "properties": { "name": "le Rupt", "weight_class": 1, "permanent": true, "length_km": 15.0 }, "geometry": { "type": "LineString", "coordinates": [ [ 6.68286, 47.56961 ], [ 6.67783, 47.56304 ], [ 6.67915, 47.56018 ], [ 6.68299, 47.55734 ], [ 6.69042, 47.55482 ], [ 6.6932, 47.54987 ], [ 6.69952, 47.54802 ], [ 6.69838, 47.54286 ], [ 6.696, 47.53922 ], [ 6.69627, 47.53568 ], [ 6.70025, 47.5274 ], [ 6.71061, 47.52774 ], [ 6.71713, 47.53153 ], [ 6.72136, 47.53152 ], [ 6.72768, 47.52928 ], [ 6.73018, 47.52572 ], [ 6.73564, 47.52504 ], [ 6.74229, 47.52002 ], [ 6.74897, 47.51839 ], [ 6.74939, 47.51663 ], [ 6.74782, 47.51461 ], [ 6.74945, 47.51349 ], [ 6.75272, 47.50669 ], [ 6.75317, 47.49887 ], [ 6.75739, 47.49309 ], [ 6.76179, 47.49121 ], [ 6.77352, 47.49141 ], [ 6.77388, 47.48875 ] ] } },
{ "type": "Feature", "properties": { "name": "le Moine", "weight_class": 1, "permanent": true, "length_km": 2.4 }, "geometry": { "type": "LineString", "coordinates": [ [ 6.73127, 47.50003 ], [ 6.73613, 47.49772 ], [ 6.73613, 47.49571 ], [ 6.73732, 47.49503 ], [ 6.75739, 47.49309 ] ] } },
{ "type": "Feature", "properties": { "name": "le Gland", "weight_class": 1, "permanent": true, "length_km": 14.0 }, "geometry": { "type": "LineString", "coordinates": [ [ 6.85254, 47.4061 ], [ 6.85981, 47.40865 ], [ 6.86812, 47.40614 ], [ 6.87732, 47.4089 ], [ 6.87968, 47.40801 ], [ 6.88896, 47.40757 ], [ 6.88903, 47.40875 ], [ 6.89054, 47.40879 ], [ 6.8902, 47.41368 ], [ 6.88617, 47.41787 ], [ 6.88675, 47.42076 ], [ 6.88083, 47.42837 ], [ 6.88224, 47.43489 ], [ 6.8794, 47.43522 ], [ 6.87913, 47.436 ], [ 6.88024, 47.44068 ], [ 6.88142, 47.44226 ], [ 6.88467, 47.44305 ], [ 6.88499, 47.44484 ], [ 6.87692, 47.45088 ], [ 6.87579, 47.45489 ], [ 6.87099, 47.45688 ], [ 6.86981, 47.45956 ], [ 6.85887, 47.46161 ], [ 6.857, 47.46355 ], [ 6.85593, 47.46325 ], [ 6.8524, 47.46551 ], [ 6.85103, 47.46807 ], [ 6.85159, 47.46972 ], [ 6.84742, 47.47178 ], [ 6.84208, 47.47248 ], [ 6.83798, 47.47189 ] ] } },
{ "type": "Feature", "properties": { "name": "la Lougres", "weight_class": 1, "permanent": true, "length_km": 4.2 }, "geometry": { "type": "LineString", "coordinates": [ [ 6.68927, 47.47913 ], [ 6.68844, 47.47782 ], [ 6.68933, 47.47815 ], [ 6.6937, 47.47535 ], [ 6.69434, 47.47309 ], [ 6.69282, 47.47258 ], [ 6.6932, 47.47193 ], [ 6.69018, 47.47162 ], [ 6.69162, 47.47045 ], [ 6.6902, 47.46908 ], [ 6.68707, 47.46957 ], [ 6.68545, 47.46884 ], [ 6.68503, 47.46595 ], [ 6.6831, 47.46445 ], [ 6.68301, 47.45738 ], [ 6.68163, 47.45557 ], [ 6.6825, 47.45441 ] ] } },
{ "type": "Feature", "properties": { "name": "Ruisseau des Noyes", "weight_class": 1, "permanent": false, "length_km": 3.0 }, "geometry": { "type": "LineString", "coordinates": [ [ 6.65971, 47.44474 ], [ 6.64989, 47.44649 ], [ 6.64525, 47.44517 ], [ 6.63098, 47.4455 ], [ 6.62862, 47.43862 ] ] } },
{ "type": "Feature", "properties": { "name": "Ruisseau du Bief", "weight_class": 1, "permanent": true, "length_km": 9.6 }, "geometry": { "type": "LineString", "coordinates": [ [ 6.72113, 47.40631 ], [ 6.71578, 47.4093 ], [ 6.7087, 47.4105 ], [ 6.70186, 47.41345 ], [ 6.69553, 47.42199 ], [ 6.69032, 47.42452 ], [ 6.68343, 47.42236 ], [ 6.67738, 47.42324 ], [ 6.66285, 47.42895 ], [ 6.66236, 47.43158 ], [ 6.65575, 47.4354 ], [ 6.65324, 47.43821 ], [ 6.65067, 47.43908 ], [ 6.64946, 47.44094 ], [ 6.64118, 47.44169 ], [ 6.62699, 47.43811 ] ] } },
{ "type": "Feature", "properties": { "name": "le Bief", "weight_class": 1, "permanent": true, "length_km": 3.0 }, "geometry": { "type": "LineString", "coordinates": [ [ 6.64318, 47.41427 ], [ 6.64434, 47.42252 ], [ 6.65337, 47.42739 ], [ 6.65919, 47.42973 ], [ 6.66223, 47.43001 ] ] } },
{ "type": "Feature", "properties": { "name": "le Roide", "weight_class": 1, "permanent": true, "length_km": 4.5 }, "geometry": { "type": "LineString", "coordinates": [ [ 6.82475, 47.38424 ], [ 6.8225, 47.38307 ], [ 6.81647, 47.38319 ], [ 6.8047, 47.38524 ], [ 6.79876, 47.38497 ], [ 6.79316, 47.38634 ], [ 6.79083, 47.3853 ], [ 6.78609, 47.3855 ], [ 6.77365, 47.39056 ] ] } },
{ "type": "Feature", "properties": { "name": "la Ranceuse", "weight_class": 1, "permanent": true, "length_km": 8.5 }, "geometry": { "type": "LineString", "coordinates": [ [ 6.6805, 47.37655 ], [ 6.69688, 47.37907 ], [ 6.71054, 47.38007 ], [ 6.71805, 47.38232 ], [ 6.72342, 47.38472 ], [ 6.72672, 47.3874 ], [ 6.73644, 47.39083 ], [ 6.74296, 47.38951 ], [ 6.74527, 47.39034 ], [ 6.75738, 47.38898 ], [ 6.76268, 47.3908 ], [ 6.76312, 47.39183 ], [ 6.76858, 47.39197 ], [ 6.77229, 47.39538 ] ] } },
{ "type": "Feature", "properties": { "name": "Ruisseau du Val Noir", "weight_class": 1, "permanent": false, "length_km": 2.6 }, "geometry": { "type": "LineString", "coordinates": [ [ 6.59334, 47.14478 ], [ 6.59451, 47.14705 ], [ 6.59953, 47.14917 ], [ 6.59598, 47.15267 ], [ 6.59699, 47.1544 ], [ 6.5988, 47.15422 ], [ 6.60185, 47.15163 ], [ 6.60973, 47.15323 ] ] } },
{ "type": "Feature", "properties": { "name": "la Cude", "weight_class": 1, "permanent": true, "length_km": 2.1 }, "geometry": { "type": "LineString", "coordinates": [ [ 6.78404, 47.3452 ], [ 6.77924, 47.34619 ], [ 6.76982, 47.34215 ], [ 6.76025, 47.34192 ] ] } },
{ "type": "Feature", "properties": { "name": "la Barbèche", "weight_class": 1, "permanent": true, "length_km": 14.6 }, "geometry": { "type": "LineString", "coordinates": [ [ 6.64016, 47.29418 ], [ 6.64419, 47.30659 ], [ 6.64365, 47.3116 ], [ 6.64084, 47.31368 ], [ 6.64277, 47.3156 ], [ 6.64395, 47.32124 ], [ 6.65884, 47.32933 ], [ 6.66997, 47.33196 ], [ 6.67424, 47.33105 ], [ 6.67661, 47.3293 ], [ 6.67941, 47.33117 ], [ 6.68394, 47.33229 ], [ 6.68785, 47.33081 ], [ 6.69338, 47.33118 ], [ 6.69542, 47.33043 ], [ 6.70274, 47.3325 ], [ 6.70802, 47.33124 ], [ 6.70964, 47.33237 ], [ 6.71583, 47.33285 ], [ 6.71826, 47.33635 ], [ 6.71779, 47.3386 ], [ 6.71975, 47.34063 ], [ 6.72472, 47.34094 ], [ 6.72617, 47.33968 ], [ 6.73081, 47.33984 ], [ 6.73252, 47.3409 ], [ 6.73711, 47.34039 ], [ 6.74407, 47.34449 ], [ 6.74482, 47.34612 ], [ 6.75253, 47.34781 ], [ 6.75753, 47.34712 ] ] } },
{ "type": "Feature", "properties": { "name": "la Raie de Charbonney", "weight_class": 1, "permanent": false, "length_km": 2.8 }, "geometry": { "type": "LineString", "coordinates": [ [ 6.86486, 47.30674 ], [ 6.85845, 47.30681 ], [ 6.85612, 47.30808 ], [ 6.85699, 47.31223 ], [ 6.85878, 47.31438 ], [ 6.85667, 47.31789 ], [ 6.85817, 47.32252 ], [ 6.85556, 47.32413 ] ] } },
{ "type": "Feature", "properties": { "name": "le Dessoubre", "weight_class": 3, "permanent": true, "length_km": 33.7 }, "geometry": { "type": "LineString", "coordinates": [ [ 6.60087, 47.15303 ], [ 6.60432, 47.15588 ], [ 6.60656, 47.16123 ], [ 6.60588, 47.16402 ], [ 6.6034, 47.16647 ], [ 6.60482, 47.17031 ], [ 6.6115, 47.17692 ], [ 6.61732, 47.18016 ], [ 6.61933, 47.18281 ], [ 6.61791, 47.1848 ], [ 6.61788, 47.19015 ], [ 6.61536, 47.19684 ], [ 6.61683, 47.20156 ], [ 6.62191, 47.20344 ], [ 6.62742, 47.20031 ], [ 6.63095, 47.2021 ], [ 6.63168, 47.2052 ], [ 6.63064, 47.20693 ], [ 6.63173, 47.20788 ], [ 6.63466, 47.20816 ], [ 6.63634, 47.20629 ], [ 6.64032, 47.20524 ], [ 6.64173, 47.20581 ], [ 6.64174, 47.20787 ], [ 6.64332, 47.20853 ], [ 6.65058, 47.20776 ], [ 6.65909, 47.2117 ], [ 6.6642, 47.21157 ], [ 6.66574, 47.21442 ], [ 6.6705, 47.21666 ], [ 6.67493, 47.21719 ], [ 6.6763, 47.21643 ], [ 6.6856, 47.21878 ], [ 6.69043, 47.21788 ], [ 6.69296, 47.21932 ], [ 6.69528, 47.21942 ], [ 6.70151, 47.22646 ], [ 6.69935, 47.22754 ], [ 6.70071, 47.23012 ], [ 6.69901, 47.2373 ], [ 6.69961, 47.24658 ], [ 6.70547, 47.24744 ], [ 6.7046, 47.25021 ], [ 6.7058, 47.2531 ], [ 6.71045, 47.25492 ], [ 6.71275, 47.25384 ], [ 6.71452, 47.25414 ], [ 6.71452, 47.25791 ], [ 6.71909, 47.25981 ], [ 6.7193, 47.26296 ], [ 6.72144, 47.26262 ], [ 6.72429, 47.26044 ], [ 6.72866, 47.26108 ], [ 6.73267, 47.25989 ], [ 6.73507, 47.2608 ], [ 6.73542, 47.26426 ], [ 6.73906, 47.26337 ], [ 6.74152, 47.2655 ], [ 6.74613, 47.26554 ], [ 6.746, 47.26903 ], [ 6.74816, 47.27094 ], [ 6.75192, 47.27223 ], [ 6.75735, 47.27238 ], [ 6.7583, 47.27594 ], [ 6.7625, 47.27765 ], [ 6.76062, 47.28006 ], [ 6.76184, 47.28382 ], [ 6.76654, 47.28236 ], [ 6.76886, 47.28269 ], [ 6.76982, 47.28395 ], [ 6.76824, 47.28702 ], [ 6.76938, 47.28853 ], [ 6.77502, 47.28933 ], [ 6.78108, 47.29187 ], [ 6.78652, 47.29296 ], [ 6.7873, 47.29553 ], [ 6.79132, 47.29713 ], [ 6.79035, 47.30111 ], [ 6.7932, 47.30377 ], [ 6.79512, 47.30761 ], [ 6.80154, 47.30803 ], [ 6.80451, 47.31096 ], [ 6.80935, 47.31148 ], [ 6.81128, 47.31902 ] ] } },
{ "type": "Feature", "properties": { "name": "Ruisseau de Froidevaux", "weight_class": 1, "permanent": true, "length_km": 3.4 }, "geometry": { "type": "LineString", "coordinates": [ [ 6.61182, 47.32702 ], [ 6.61992, 47.32755 ], [ 6.62393, 47.3268 ], [ 6.62619, 47.32106 ], [ 6.63252, 47.3213 ], [ 6.64229, 47.32404 ], [ 6.64753, 47.32376 ] ] } },
{ "type": "Feature", "properties": { "name": "Ruisseau de la Forge", "weight_class": 1, "permanent": true, "length_km": 2.5 }, "geometry": { "type": "LineString", "coordinates": [ [ 6.81707, 47.28859 ], [ 6.80997, 47.29076 ], [ 6.80319, 47.29078 ], [ 6.8017, 47.29189 ], [ 6.79597, 47.2923 ], [ 6.7932, 47.29411 ], [ 6.79018, 47.29469 ], [ 6.78891, 47.29628 ] ] } },
{ "type": "Feature", "properties": { "name": "Bief de Vau", "weight_class": 1, "permanent": true, "length_km": 4.6 }, "geometry": { "type": "LineString", "coordinates": [ [ 6.6978, 47.27524 ], [ 6.70695, 47.27507 ], [ 6.71723, 47.27704 ], [ 6.72102, 47.27897 ], [ 6.72644, 47.27952 ], [ 6.73085, 47.27716 ], [ 6.73652, 47.27564 ], [ 6.73949, 47.26991 ], [ 6.7441, 47.26546 ] ] } },
{ "type": "Feature", "properties": { "name": "le Bief de Vau", "weight_class": 1, "permanent": true, "length_km": 2.6 }, "geometry": { "type": "LineString", "coordinates": [ [ 6.67588, 47.26095 ], [ 6.68747, 47.25626 ], [ 6.69244, 47.25556 ], [ 6.69521, 47.25393 ], [ 6.69934, 47.25298 ], [ 6.70623, 47.25328 ] ] } },
{ "type": "Feature", "properties": { "name": "le Pissoux", "weight_class": 2, "permanent": true, "length_km": 2.2 }, "geometry": { "type": "LineString", "coordinates": [ [ 6.63746, 47.17218 ], [ 6.63445, 47.17255 ], [ 6.63335, 47.17445 ], [ 6.63129, 47.17538 ], [ 6.63034, 47.17847 ], [ 6.62665, 47.18234 ], [ 6.62069, 47.18404 ], [ 6.61918, 47.18375 ] ] } },
{ "type": "Feature", "properties": { "name": "Ruisseau des Seignes", "weight_class": 1, "permanent": true, "length_km": 6.7 }, "geometry": { "type": "LineString", "coordinates": [ [ 6.63902, 47.104 ], [ 6.64873, 47.1083 ], [ 6.64934, 47.10982 ], [ 6.6576, 47.11309 ], [ 6.66001, 47.11449 ], [ 6.66038, 47.11604 ], [ 6.66405, 47.11799 ], [ 6.6663, 47.11764 ], [ 6.67396, 47.12082 ], [ 6.67511, 47.12031 ], [ 6.67714, 47.1226 ], [ 6.68453, 47.12398 ], [ 6.68415, 47.1246 ], [ 6.68851, 47.12644 ], [ 6.69622, 47.12839 ] ] } },
{ "type": "Feature", "properties": { "name": "la Rançonnière", "weight_class": 1, "permanent": true, "length_km": 3.1 }, "geometry": { "type": "LineString", "coordinates": [ [ 6.7198, 47.05224 ], [ 6.71196, 47.05358 ], [ 6.70877, 47.05812 ], [ 6.70071, 47.0592 ], [ 6.69861, 47.06216 ], [ 6.69458, 47.06379 ], [ 6.69173, 47.06694 ] ] } },
{ "type": "Feature", "properties": { "name": "Ruisseau de la Tanche", "weight_class": 1, "permanent": true, "length_km": 4.0 }, "geometry": { "type": "LineString", "coordinates": [ [ 6.63386, 47.07461 ], [ 6.6324, 47.07067 ], [ 6.62321, 47.06386 ], [ 6.62, 47.05929 ], [ 6.61657, 47.058 ], [ 6.62745, 47.0472 ] ] } },
{ "type": "Feature", "properties": { "name": "la Malcombe", "weight_class": 1, "permanent": true, "length_km": 2.5 }, "geometry": { "type": "LineString", "coordinates": [ [ 6.65136, 47.03238 ], [ 6.65022, 47.03384 ], [ 6.65266, 47.03652 ], [ 6.65298, 47.03946 ], [ 6.64987, 47.04259 ], [ 6.64619, 47.0417 ], [ 6.64244, 47.04608 ], [ 6.63985, 47.04635 ] ] } },
{ "type": "Feature", "properties": { "name": "Chataignot", "weight_class": 1, "permanent": true, "length_km": 4.9 }, "geometry": { "type": "LineString", "coordinates": [ [ 6.61378, 47.01768 ], [ 6.60915, 47.02085 ], [ 6.60683, 47.0211 ], [ 6.59405, 47.01812 ], [ 6.58985, 47.01858 ], [ 6.58905, 47.02201 ], [ 6.59502, 47.03243 ], [ 6.59442, 47.0359 ], [ 6.58839, 47.04058 ] ] } },
{ "type": "Feature", "properties": { "name": "le Scey", "weight_class": 1, "permanent": true, "length_km": 2.6 }, "geometry": { "type": "LineString", "coordinates": [ [ 6.59385, 47.52435 ], [ 6.58914, 47.53118 ], [ 6.58928, 47.5356 ], [ 6.58683, 47.54045 ], [ 6.58453, 47.54099 ], [ 6.58355, 47.54039 ], [ 6.58119, 47.54174 ] ] } },
{ "type": "Feature", "properties": { "name": "Bief d'Auta", "weight_class": 1, "permanent": true, "length_km": 8.0 }, "geometry": { "type": "LineString", "coordinates": [ [ 6.42598, 47.46764 ], [ 6.42859, 47.47978 ], [ 6.42797, 47.48117 ], [ 6.4315, 47.48572 ], [ 6.44016, 47.49308 ], [ 6.44067, 47.49504 ], [ 6.43643, 47.49721 ], [ 6.43667, 47.50071 ], [ 6.42831, 47.50879 ], [ 6.42978, 47.51281 ], [ 6.42907, 47.51367 ], [ 6.42995, 47.51381 ], [ 6.4286, 47.51457 ], [ 6.42853, 47.51686 ], [ 6.42707, 47.51805 ], [ 6.42287, 47.51853 ], [ 6.41961, 47.52023 ], [ 6.41713, 47.51972 ], [ 6.41655, 47.52121 ] ] } },
{ "type": "Feature", "properties": { "name": "Ruisseau de l'Étang", "weight_class": 1, "permanent": true, "length_km": 6.7 }, "geometry": { "type": "LineString", "coordinates": [ [ 6.42027, 47.49463 ], [ 6.40758, 47.49427 ], [ 6.38749, 47.50259 ], [ 6.37764, 47.49827 ], [ 6.36942, 47.49923 ], [ 6.36794, 47.50113 ], [ 6.36827, 47.5049 ], [ 6.36209, 47.50208 ], [ 6.35614, 47.50342 ], [ 6.35289, 47.50777 ] ] } },
{ "type": "Feature", "properties": { "name": "Ruisseau de l'Abbaye", "weight_class": 1, "permanent": true, "length_km": 4.2 }, "geometry": { "type": "LineString", "coordinates": [ [ 6.56324, 47.46568 ], [ 6.56423, 47.46594 ], [ 6.56637, 47.46372 ], [ 6.56627, 47.45542 ], [ 6.56728, 47.45395 ], [ 6.56564, 47.45318 ], [ 6.56552, 47.45093 ], [ 6.56729, 47.44988 ], [ 6.56713, 47.44866 ], [ 6.56367, 47.44345 ], [ 6.55759, 47.44163 ], [ 6.55418, 47.44157 ] ] } },
{ "type": "Feature", "properties": { "name": "Ruisseau de la Bouterre", "weight_class": 1, "permanent": true, "length_km": 2.2 }, "geometry": { "type": "LineString", "coordinates": [ [ 6.40982, 47.46659 ], [ 6.4084, 47.47363 ], [ 6.40313, 47.47564 ], [ 6.39546, 47.47646 ], [ 6.39252, 47.47842 ] ] } },
{ "type": "Feature", "properties": { "name": "le Drigeon/Ruisseau de Nans", "weight_class": 1, "permanent": true, "length_km": 5.4 }, "geometry": { "type": "LineString", "coordinates": [ [ 6.41879, 47.47387 ], [ 6.41007, 47.47774 ], [ 6.40885, 47.48011 ], [ 6.40526, 47.48055 ], [ 6.39564, 47.47942 ], [ 6.39029, 47.47791 ], [ 6.38888, 47.47924 ], [ 6.38432, 47.48013 ], [ 6.37422, 47.47912 ], [ 6.36768, 47.47722 ], [ 6.35941, 47.47835 ] ] } },
{ "type": "Feature", "properties": { "name": "Ruisseau de Gouhelans", "weight_class": 1, "permanent": true, "length_km": 6.9 }, "geometry": { "type": "LineString", "coordinates": [ [ 6.34408, 47.44501 ], [ 6.34977, 47.44747 ], [ 6.35014, 47.45253 ], [ 6.35338, 47.45564 ], [ 6.35334, 47.4581 ], [ 6.35818, 47.46411 ], [ 6.36246, 47.46716 ], [ 6.36177, 47.47027 ], [ 6.35985, 47.47213 ], [ 6.35941, 47.47835 ], [ 6.35775, 47.48045 ], [ 6.35353, 47.48109 ], [ 6.3329, 47.47748 ] ] } },
{ "type": "Feature", "properties": { "name": "Ruisseau de Soye", "weight_class": 1, "permanent": true, "length_km": 6.4 }, "geometry": { "type": "LineString", "coordinates": [ [ 6.48605, 47.43852 ], [ 6.48757, 47.43655 ], [ 6.493, 47.43624 ], [ 6.49913, 47.42941 ], [ 6.50363, 47.42996 ], [ 6.50471, 47.43131 ], [ 6.50757, 47.43115 ], [ 6.50837, 47.42646 ], [ 6.50653, 47.42449 ], [ 6.50746, 47.42373 ], [ 6.51162, 47.42386 ], [ 6.51518, 47.42561 ], [ 6.51695, 47.4255 ], [ 6.51884, 47.42163 ], [ 6.52178, 47.4209 ], [ 6.52552, 47.41803 ], [ 6.52273, 47.41651 ], [ 6.52013, 47.41627 ] ] } },
{ "type": "Feature", "properties": { "name": "Ruisseau du Moulin de la Pelle", "weight_class": 1, "permanent": true, "length_km": 3.2 }, "geometry": { "type": "LineString", "coordinates": [ [ 6.31424, 47.44589 ], [ 6.3125, 47.44993 ], [ 6.31351, 47.45641 ], [ 6.30818, 47.45874 ], [ 6.30424, 47.46281 ], [ 6.30585, 47.46551 ], [ 6.30169, 47.46874 ] ] } },
{ "type": "Feature", "properties": { "name": "Ruisseau de Morchamps", "weight_class": 1, "permanent": true, "length_km": 4.3 }, "geometry": { "type": "LineString", "coordinates": [ [ 6.32741, 47.446 ], [ 6.33337, 47.45262 ], [ 6.33252, 47.45522 ], [ 6.33405, 47.4582 ], [ 6.33996, 47.46213 ], [ 6.33973, 47.46484 ], [ 6.33784, 47.46707 ], [ 6.34078, 47.47294 ], [ 6.33997, 47.47394 ], [ 6.34396, 47.47738 ], [ 6.34333, 47.47888 ] ] } },
{ "type": "Feature", "properties": { "name": "Ruisseau de la Foudre", "weight_class": 1, "permanent": false, "length_km": 2.5 }, "geometry": { "type": "LineString", "coordinates": [ [ 6.39651, 47.42036 ], [ 6.39609, 47.41978 ], [ 6.40197, 47.41868 ], [ 6.40904, 47.41877 ], [ 6.41004, 47.42166 ], [ 6.41265, 47.42334 ], [ 6.41182, 47.42636 ], [ 6.41469, 47.42959 ] ] } },
{ "type": "Feature", "properties": { "name": "Ruisseau de Tallans/le Crenu", "weight_class": 1, "permanent": true, "length_km": 11.6 }, "geometry": { "type": "LineString", "coordinates": [ [ 6.37058, 47.44089 ], [ 6.36563, 47.44287 ], [ 6.36001, 47.43979 ], [ 6.35429, 47.44006 ], [ 6.34845, 47.43822 ], [ 6.33897, 47.43249 ], [ 6.33193, 47.43112 ], [ 6.3278, 47.4293 ], [ 6.32415, 47.42935 ], [ 6.32348, 47.42852 ], [ 6.31899, 47.42776 ], [ 6.31743, 47.42638 ], [ 6.31243, 47.42588 ], [ 6.30638, 47.42373 ], [ 6.29982, 47.42505 ], [ 6.29699, 47.42396 ], [ 6.29077, 47.42452 ], [ 6.29068, 47.42377 ], [ 6.28786, 47.42305 ], [ 6.28743, 47.42066 ], [ 6.2847, 47.41964 ], [ 6.28151, 47.42232 ], [ 6.27992, 47.42703 ], [ 6.27252, 47.42688 ], [ 6.27126, 47.425 ], [ 6.26869, 47.42441 ], [ 6.26001, 47.42717 ] ] } },
{ "type": "Feature", "properties": { "name": "Ruisseau de Céleri", "weight_class": 1, "permanent": true, "length_km": 2.1 }, "geometry": { "type": "LineString", "coordinates": [ [ 6.3658, 47.43216 ], [ 6.36067, 47.43242 ], [ 6.35697, 47.43092 ], [ 6.35218, 47.43052 ], [ 6.34768, 47.43133 ], [ 6.34225, 47.43488 ] ] } },
{ "type": "Feature", "properties": { "name": "Ruisseau de Monot", "weight_class": 1, "permanent": true, "length_km": 2.0 }, "geometry": { "type": "LineString", "coordinates": [ [ 6.33697, 47.41528 ], [ 6.34122, 47.41959 ], [ 6.34334, 47.42558 ], [ 6.34768, 47.43133 ] ] } },
{ "type": "Feature", "properties": { "name": "Torrent des Alloz", "weight_class": 1, "permanent": true, "length_km": 2.8 }, "geometry": { "type": "LineString", "coordinates": [ [ 6.45974, 47.32612 ], [ 6.45921, 47.3252 ], [ 6.45656, 47.32641 ], [ 6.45427, 47.32359 ], [ 6.44944, 47.32306 ], [ 6.44913, 47.32205 ], [ 6.44431, 47.32427 ], [ 6.44072, 47.32251 ], [ 6.43838, 47.32471 ], [ 6.43486, 47.32387 ] ] } },
{ "type": "Feature", "properties": { "name": "le Cusancin", "weight_class": 3, "permanent": true, "length_km": 12.9 }, "geometry": { "type": "LineString", "coordinates": [ [ 6.43717, 47.32211 ], [ 6.43486, 47.32387 ], [ 6.42608, 47.32344 ], [ 6.42229, 47.32176 ], [ 6.41849, 47.32217 ], [ 6.41674, 47.31912 ], [ 6.41218, 47.31975 ], [ 6.40886, 47.31814 ], [ 6.40696, 47.32069 ], [ 6.40305, 47.31934 ], [ 6.39937, 47.32028 ], [ 6.39037, 47.31897 ], [ 6.38797, 47.32013 ], [ 6.38558, 47.31949 ], [ 6.37736, 47.32166 ], [ 6.37309, 47.32015 ], [ 6.37044, 47.31709 ], [ 6.3678, 47.31713 ], [ 6.36614, 47.31924 ], [ 6.36892, 47.32196 ], [ 6.36853, 47.32468 ], [ 6.36675, 47.32518 ], [ 6.36383, 47.32385 ], [ 6.36155, 47.32444 ], [ 6.36284, 47.32705 ], [ 6.36539, 47.32643 ], [ 6.36711, 47.32808 ], [ 6.36967, 47.32756 ], [ 6.37232, 47.32879 ], [ 6.37226, 47.3296 ], [ 6.36961, 47.32991 ], [ 6.37002, 47.33082 ], [ 6.36791, 47.3315 ], [ 6.36694, 47.3353 ], [ 6.36918, 47.33695 ], [ 6.37933, 47.33924 ], [ 6.3823, 47.34172 ], [ 6.38119, 47.34237 ], [ 6.37704, 47.3406 ], [ 6.37139, 47.3418 ] ] } },
{ "type": "Feature", "properties": { "name": "Ruisseau d'Hautpré", "weight_class": 1, "permanent": true, "length_km": 2.4 }, "geometry": { "type": "LineString", "coordinates": [ [ 6.5199, 47.30269 ], [ 6.52052, 47.3009 ], [ 6.52444, 47.29884 ], [ 6.52986, 47.29856 ], [ 6.53681, 47.29994 ], [ 6.54536, 47.30383 ] ] } },
{ "type": "Feature", "properties": { "name": "Ruisseau de Buhin/Ruisseau de Voître", "weight_class": 1, "permanent": true, "length_km": 10.5 }, "geometry": { "type": "LineString", "coordinates": [ [ 6.62698, 47.28399 ], [ 6.62451, 47.29001 ], [ 6.6214, 47.29232 ], [ 6.60812, 47.29844 ], [ 6.60388, 47.30494 ], [ 6.59918, 47.30557 ], [ 6.59035, 47.3052 ], [ 6.58408, 47.30795 ], [ 6.57756, 47.30909 ], [ 6.57475, 47.30693 ], [ 6.57136, 47.30617 ], [ 6.56492, 47.30614 ], [ 6.5462, 47.30308 ], [ 6.54466, 47.30595 ], [ 6.54582, 47.31328 ], [ 6.54205, 47.31797 ], [ 6.54416, 47.32266 ] ] } },
{ "type": "Feature", "properties": { "name": "le Sesserant", "weight_class": 1, "permanent": true, "length_km": 3.0 }, "geometry": { "type": "LineString", "coordinates": [ [ 6.3385, 47.32168 ], [ 6.3439, 47.32325 ], [ 6.3449, 47.32479 ], [ 6.34765, 47.32503 ], [ 6.3508, 47.32673 ], [ 6.35268, 47.32594 ], [ 6.36042, 47.32725 ], [ 6.36245, 47.32923 ], [ 6.36677, 47.32951 ], [ 6.36614, 47.33027 ], [ 6.36746, 47.33229 ] ] } },
{ "type": "Feature", "properties": { "name": "Ruisseau de Voye", "weight_class": 1, "permanent": true, "length_km": 6.7 }, "geometry": { "type": "LineString", "coordinates": [ [ 6.6066, 47.27318 ], [ 6.60469, 47.27518 ], [ 6.6027, 47.27559 ], [ 6.60279, 47.27942 ], [ 6.60057, 47.28544 ], [ 6.58967, 47.29126 ], [ 6.58873, 47.29583 ], [ 6.58525, 47.30041 ], [ 6.58231, 47.30036 ], [ 6.57885, 47.3024 ], [ 6.57541, 47.30248 ], [ 6.57418, 47.30506 ], [ 6.57055, 47.30503 ], [ 6.56569, 47.30354 ], [ 6.55445, 47.30323 ], [ 6.55423, 47.30388 ] ] } },
{ "type": "Feature", "properties": { "name": "l'Audeux", "weight_class": 1, "permanent": true, "length_km": 25.3 }, "geometry": { "type": "LineString", "coordinates": [ [ 6.42866, 47.21582 ], [ 6.41932, 47.21741 ], [ 6.41638, 47.21937 ], [ 6.41335, 47.22357 ], [ 6.41429, 47.22437 ], [ 6.41261, 47.22478 ], [ 6.41246, 47.22568 ], [ 6.40877, 47.22605 ], [ 6.406, 47.22799 ], [ 6.4029, 47.22832 ], [ 6.40283, 47.22918 ], [ 6.39973, 47.23023 ], [ 6.39637, 47.2338 ], [ 6.39515, 47.23387 ], [ 6.3948, 47.23576 ], [ 6.39018, 47.2372 ], [ 6.39002, 47.24127 ], [ 6.38803, 47.24365 ], [ 6.38796, 47.24644 ], [ 6.38513, 47.24905 ], [ 6.38176, 47.24788 ], [ 6.37934, 47.24835 ], [ 6.37617, 47.2502 ], [ 6.37392, 47.24999 ], [ 6.37088, 47.25257 ], [ 6.36628, 47.25069 ], [ 6.36273, 47.25161 ], [ 6.35492, 47.25161 ], [ 6.34935, 47.2507 ], [ 6.34454, 47.24722 ], [ 6.33677, 47.24929 ], [ 6.33482, 47.25101 ], [ 6.33212, 47.24992 ], [ 6.33151, 47.25307 ], [ 6.32908, 47.25369 ], [ 6.32906, 47.25544 ], [ 6.32713, 47.25622 ], [ 6.32642, 47.25896 ], [ 6.3245, 47.26056 ], [ 6.32561, 47.26404 ], [ 6.31816, 47.26934 ], [ 6.31839, 47.27086 ], [ 6.31663, 47.27104 ], [ 6.31785, 47.27368 ], [ 6.3165, 47.2757 ], [ 6.31701, 47.27692 ], [ 6.31547, 47.27712 ], [ 6.31346, 47.27932 ], [ 6.31025, 47.27777 ], [ 6.31114, 47.28043 ], [ 6.30826, 47.28121 ], [ 6.30713, 47.27958 ], [ 6.30592, 47.27951 ], [ 6.3073, 47.28338 ], [ 6.30394, 47.28051 ], [ 6.30109, 47.28313 ], [ 6.30239, 47.28923 ], [ 6.31123, 47.29247 ], [ 6.31061, 47.29663 ], [ 6.3144, 47.30013 ], [ 6.31438, 47.30238 ], [ 6.31962, 47.30583 ], [ 6.32923, 47.30986 ], [ 6.32753, 47.31112 ], [ 6.33604, 47.31657 ], [ 6.33632, 47.31764 ], [ 6.33459, 47.31905 ], [ 6.34039, 47.32224 ] ] } },
{ "type": "Feature", "properties": { "name": "la Reverotte", "weight_class": 1, "permanent": true, "length_km": 12.4 }, "geometry": { "type": "LineString", "coordinates": [ [ 6.494, 47.17496 ], [ 6.50112, 47.1756 ], [ 6.50342, 47.17297 ], [ 6.50685, 47.17294 ], [ 6.50987, 47.1754 ], [ 6.51031, 47.17709 ], [ 6.51705, 47.18016 ], [ 6.51611, 47.18549 ], [ 6.51729, 47.18659 ], [ 6.52051, 47.1875 ], [ 6.52869, 47.18702 ], [ 6.53297, 47.18909 ], [ 6.53443, 47.1886 ], [ 6.53728, 47.18924 ], [ 6.5407, 47.19434 ], [ 6.54419, 47.19716 ], [ 6.54702, 47.19757 ], [ 6.54882, 47.20056 ], [ 6.55153, 47.19938 ], [ 6.56307, 47.19822 ], [ 6.56614, 47.19697 ], [ 6.57896, 47.19792 ], [ 6.585, 47.20135 ], [ 6.5949, 47.20134 ], [ 6.6012, 47.19928 ], [ 6.61052, 47.20043 ], [ 6.61372, 47.20211 ], [ 6.61834, 47.20244 ] ] } },
{ "type": "Feature", "properties": { "name": "Ruisseau d'Athose", "weight_class": 1, "permanent": false, "length_km": 6.5 }, "geometry": { "type": "LineString", "coordinates": [ [ 6.32582, 47.08627 ], [ 6.32284, 47.08516 ], [ 6.32305, 47.08362 ], [ 6.32055, 47.08105 ], [ 6.31453, 47.07924 ], [ 6.30807, 47.07524 ], [ 6.29952, 47.06797 ], [ 6.29187, 47.06768 ], [ 6.28858, 47.06589 ], [ 6.2795, 47.06493 ], [ 6.26901, 47.05772 ], [ 6.26139, 47.05489 ] ] } },
{ "type": "Feature", "properties": { "name": "le Théverot", "weight_class": 1, "permanent": true, "length_km": 9.3 }, "geometry": { "type": "LineString", "coordinates": [ [ 6.51578, 46.97983 ], [ 6.52535, 46.98726 ], [ 6.54382, 46.99479 ], [ 6.54791, 46.99908 ], [ 6.55284, 47.00133 ], [ 6.55946, 47.01574 ], [ 6.5705, 47.02192 ], [ 6.57112, 47.0252 ], [ 6.57412, 47.02748 ], [ 6.57464, 47.02971 ], [ 6.57898, 47.0336 ], [ 6.58316, 47.03971 ] ] } },
{ "type": "Feature", "properties": { "name": "Ruisseau des Entreportes", "weight_class": 1, "permanent": true, "length_km": 3.6 }, "geometry": { "type": "LineString", "coordinates": [ [ 6.43546, 46.92698 ], [ 6.4236, 46.92382 ], [ 6.41245, 46.91908 ], [ 6.40287, 46.9169 ], [ 6.39753, 46.91942 ], [ 6.39703, 46.92163 ] ] } },
{ "type": "Feature", "properties": { "name": "Ruisseau des Lavaux", "weight_class": 1, "permanent": true, "length_km": 12.2 }, "geometry": { "type": "LineString", "coordinates": [ [ 6.47553, 46.95715 ], [ 6.46999, 46.95128 ], [ 6.4596, 46.94947 ], [ 6.45716, 46.94635 ], [ 6.45097, 46.94321 ], [ 6.44599, 46.94544 ], [ 6.43414, 46.9417 ], [ 6.42697, 46.93595 ], [ 6.41832, 46.93177 ], [ 6.41752, 46.9305 ], [ 6.40696, 46.92687 ], [ 6.38967, 46.91831 ], [ 6.3846, 46.91213 ], [ 6.37683, 46.90902 ], [ 6.37302, 46.90594 ], [ 6.3618, 46.9049 ], [ 6.35915, 46.90549 ] ] } },
{ "type": "Feature", "properties": { "name": "la Morte", "weight_class": 1, "permanent": true, "length_km": 9.6 }, "geometry": { "type": "LineString", "coordinates": [ [ 6.45992, 46.89734 ], [ 6.45739, 46.89579 ], [ 6.44776, 46.89557 ], [ 6.44481, 46.8915 ], [ 6.43841, 46.89185 ], [ 6.42449, 46.88185 ], [ 6.41893, 46.88153 ], [ 6.41485, 46.87913 ], [ 6.39637, 46.87336 ], [ 6.39421, 46.87072 ], [ 6.38909, 46.87102 ], [ 6.37835, 46.86678 ], [ 6.37256, 46.86666 ], [ 6.37, 46.86415 ], [ 6.36862, 46.86436 ] ] } },
{ "type": "Feature", "properties": { "name": "Bief Rouget", "weight_class": 1, "permanent": true, "length_km": 3.1 }, "geometry": { "type": "LineString", "coordinates": [ [ 6.3293, 46.88706 ], [ 6.32724, 46.88751 ], [ 6.32631, 46.89059 ], [ 6.32087, 46.89297 ], [ 6.31555, 46.89392 ], [ 6.31318, 46.89672 ], [ 6.30154, 46.90438 ] ] } },
{ "type": "Feature", "properties": { "name": "le Drugeon", "weight_class": 2, "permanent": true, "length_km": 39.6 }, "geometry": { "type": "LineString", "coordinates": [ [ 6.28631, 46.83344 ], [ 6.26768, 46.81474 ], [ 6.26138, 46.81399 ], [ 6.25661, 46.80988 ], [ 6.24709, 46.81263 ], [ 6.24413, 46.81624 ], [ 6.24569, 46.81802 ], [ 6.24458, 46.81921 ], [ 6.23779, 46.81788 ], [ 6.23374, 46.81925 ], [ 6.23395, 46.8205 ], [ 6.22969, 46.82106 ], [ 6.22603, 46.82248 ], [ 6.22602, 46.82365 ], [ 6.22289, 46.82415 ], [ 6.2195, 46.82368 ], [ 6.21735, 46.82239 ], [ 6.21337, 46.82301 ], [ 6.20524, 46.81621 ], [ 6.19475, 46.81128 ], [ 6.18928, 46.80756 ], [ 6.18396, 46.80891 ], [ 6.18346, 46.81198 ], [ 6.1785, 46.81237 ], [ 6.17953, 46.81485 ], [ 6.18799, 46.81756 ], [ 6.18955, 46.81897 ], [ 6.18867, 46.82994 ], [ 6.19278, 46.83327 ], [ 6.19161, 46.83514 ], [ 6.19313, 46.83546 ], [ 6.19435, 46.83727 ], [ 6.20062, 46.83763 ], [ 6.20462, 46.83964 ], [ 6.20358, 46.8427 ], [ 6.20936, 46.845 ], [ 6.20735, 46.84685 ], [ 6.20884, 46.85265 ], [ 6.21166, 46.85424 ], [ 6.21376, 46.85786 ], [ 6.21827, 46.85849 ], [ 6.22029, 46.86028 ], [ 6.21985, 46.86144 ], [ 6.21535, 46.86376 ], [ 6.2162, 46.86565 ], [ 6.21428, 46.86664 ], [ 6.21519, 46.86788 ], [ 6.2164, 46.86834 ], [ 6.21937, 46.86713 ], [ 6.22276, 46.86831 ], [ 6.22622, 46.87178 ], [ 6.23154, 46.87406 ], [ 6.23071, 46.87552 ], [ 6.23476, 46.87752 ], [ 6.23924, 46.88206 ], [ 6.2479, 46.88108 ], [ 6.2511, 46.88241 ], [ 6.25494, 46.88056 ], [ 6.25555, 46.88239 ], [ 6.25851, 46.88393 ], [ 6.26059, 46.88368 ], [ 6.2626, 46.88196 ], [ 6.26311, 46.88314 ], [ 6.26576, 46.88302 ], [ 6.27855, 46.89333 ], [ 6.2838, 46.89377 ], [ 6.28249, 46.8953 ], [ 6.28532, 46.89586 ], [ 6.28509, 46.89699 ], [ 6.28713, 46.89844 ], [ 6.29052, 46.89917 ], [ 6.29328, 46.89879 ], [ 6.29901, 46.90229 ], [ 6.30154, 46.90183 ], [ 6.30208, 46.90248 ], [ 6.3002, 46.90414 ], [ 6.30187, 46.90476 ], [ 6.29991, 46.90561 ], [ 6.30032, 46.90723 ], [ 6.30232, 46.91214 ], [ 6.30636, 46.91604 ], [ 6.30852, 46.92218 ], [ 6.31986, 46.92804 ], [ 6.32865, 46.93903 ], [ 6.33723, 46.94331 ], [ 6.34814, 46.94344 ], [ 6.35532, 46.94535 ], [ 6.36138, 46.94528 ] ] } },
{ "type": "Feature", "properties": { "name": "Ruisseau de Fontaine Ronde", "weight_class": 1, "permanent": true, "length_km": 6.5 }, "geometry": { "type": "LineString", "coordinates": [ [ 6.36999, 46.81886 ], [ 6.37008, 46.82475 ], [ 6.36736, 46.83354 ], [ 6.3681, 46.84347 ], [ 6.37031, 46.84607 ], [ 6.37268, 46.85293 ], [ 6.36981, 46.85575 ], [ 6.37143, 46.86184 ], [ 6.36862, 46.86436 ], [ 6.36448, 46.86552 ], [ 6.36219, 46.86775 ] ] } },
{ "type": "Feature", "properties": { "name": "Ruisseau du Saut", "weight_class": 1, "permanent": true, "length_km": 6.1 }, "geometry": { "type": "LineString", "coordinates": [ [ 6.28571, 46.83603 ], [ 6.28264, 46.8365 ], [ 6.28309, 46.83788 ], [ 6.2897, 46.84374 ], [ 6.29201, 46.84442 ], [ 6.29506, 46.84398 ], [ 6.297, 46.84665 ], [ 6.30048, 46.84597 ], [ 6.30574, 46.85054 ], [ 6.30927, 46.84996 ], [ 6.31338, 46.85237 ], [ 6.31637, 46.85285 ], [ 6.31785, 46.85183 ], [ 6.32412, 46.85344 ], [ 6.32685, 46.85131 ], [ 6.33748, 46.85472 ] ] } },
{ "type": "Feature", "properties": { "name": "Ruisseau de Malpas", "weight_class": 1, "permanent": true, "length_km": 2.3 }, "geometry": { "type": "LineString", "coordinates": [ [ 6.30188, 46.84269 ], [ 6.30902, 46.84527 ], [ 6.31431, 46.84865 ], [ 6.32633, 46.85156 ] ] } },
{ "type": "Feature", "properties": { "name": "la Jougnena", "weight_class": 1, "permanent": true, "length_km": 9.8 }, "geometry": { "type": "LineString", "coordinates": [ [ 6.4585, 46.78451 ], [ 6.43505, 46.7733 ], [ 6.41931, 46.76908 ], [ 6.41489, 46.76582 ], [ 6.41192, 46.76604 ], [ 6.39985, 46.76298 ], [ 6.39201, 46.75727 ], [ 6.38944, 46.75656 ], [ 6.38897, 46.75485 ], [ 6.38556, 46.75335 ], [ 6.38169, 46.74805 ], [ 6.37923, 46.74155 ], [ 6.37967, 46.73591 ], [ 6.3842, 46.73232 ] ] } },
{ "type": "Feature", "properties": { "name": "Bief Rouge", "weight_class": 1, "permanent": true, "length_km": 7.8 }, "geometry": { "type": "LineString", "coordinates": [ [ 6.36638, 46.77363 ], [ 6.35206, 46.77563 ], [ 6.34383, 46.77456 ], [ 6.34181, 46.77312 ], [ 6.33903, 46.7734 ], [ 6.33616, 46.77183 ], [ 6.33372, 46.7719 ], [ 6.33093, 46.77043 ], [ 6.33143, 46.76938 ], [ 6.3299, 46.76963 ], [ 6.32904, 46.7682 ], [ 6.32777, 46.76837 ], [ 6.32621, 46.76421 ], [ 6.3229, 46.76301 ], [ 6.32268, 46.76166 ], [ 6.32106, 46.76092 ], [ 6.32168, 46.75989 ], [ 6.31979, 46.75876 ], [ 6.3173, 46.75879 ], [ 6.31666, 46.75786 ], [ 6.31522, 46.7583 ], [ 6.31306, 46.75669 ], [ 6.31139, 46.75702 ], [ 6.30837, 46.75593 ], [ 6.30849, 46.75508 ], [ 6.30641, 46.75567 ], [ 6.30417, 46.75486 ] ] } },
{ "type": "Feature", "properties": { "name": "le Bief Bleu", "weight_class": 1, "permanent": true, "length_km": 2.2 }, "geometry": { "type": "LineString", "coordinates": [ [ 6.34476, 46.78902 ], [ 6.34841, 46.78754 ], [ 6.34225, 46.77852 ], [ 6.34279, 46.77396 ] ] } },
{ "type": "Feature", "properties": { "name": "le Blanc Bief", "weight_class": 1, "permanent": true, "length_km": 2.7 }, "geometry": { "type": "LineString", "coordinates": [ [ 6.29437, 46.77047 ], [ 6.29552, 46.77535 ], [ 6.29459, 46.77805 ], [ 6.29038, 46.77966 ], [ 6.28519, 46.77912 ], [ 6.27954, 46.7864 ] ] } },
{ "type": "Feature", "properties": { "name": "la Taverne", "weight_class": 1, "permanent": true, "length_km": 10.5 }, "geometry": { "type": "LineString", "coordinates": [ [ 6.18796, 46.73969 ], [ 6.19557, 46.74734 ], [ 6.20114, 46.74873 ], [ 6.20685, 46.75147 ], [ 6.21237, 46.75206 ], [ 6.21903, 46.75447 ], [ 6.22298, 46.75742 ], [ 6.22744, 46.75914 ], [ 6.22967, 46.76145 ], [ 6.2329, 46.76117 ], [ 6.23529, 46.75961 ], [ 6.23879, 46.76007 ], [ 6.24662, 46.75847 ], [ 6.25216, 46.76081 ], [ 6.25235, 46.76222 ], [ 6.25584, 46.76211 ], [ 6.25859, 46.76564 ], [ 6.26121, 46.76603 ], [ 6.26499, 46.77507 ], [ 6.26961, 46.78122 ], [ 6.27154, 46.78124 ] ] } },
{ "type": "Feature", "properties": { "name": "le Vaubillon", "weight_class": 1, "permanent": true, "length_km": 2.8 }, "geometry": { "type": "LineString", "coordinates": [ [ 6.36395, 46.75615 ], [ 6.3676, 46.75768 ], [ 6.37113, 46.75791 ], [ 6.3723, 46.75418 ], [ 6.37182, 46.74528 ], [ 6.38022, 46.74355 ] ] } },
{ "type": "Feature", "properties": { "name": "Ruisseau du Lhaut", "weight_class": 1, "permanent": true, "length_km": 4.6 }, "geometry": { "type": "LineString", "coordinates": [ [ 6.25183, 46.74202 ], [ 6.25212, 46.74484 ], [ 6.25441, 46.74738 ], [ 6.2582, 46.74713 ], [ 6.26198, 46.74981 ], [ 6.26154, 46.75165 ], [ 6.25698, 46.7511 ], [ 6.25602, 46.7522 ], [ 6.25694, 46.75516 ], [ 6.26288, 46.7577 ], [ 6.25963, 46.76077 ], [ 6.26121, 46.76603 ] ] } },
{ "type": "Feature", "properties": { "name": "Ruisseau de Benusse", "weight_class": 1, "permanent": true, "length_km": 4.8 }, "geometry": { "type": "LineString", "coordinates": [ [ 5.87393, 47.19455 ], [ 5.85121, 47.18393 ], [ 5.84804, 47.18167 ], [ 5.84796, 47.1806 ], [ 5.84547, 47.17975 ], [ 5.84128, 47.17304 ], [ 5.84207, 47.17179 ], [ 5.83917, 47.16868 ], [ 5.83953, 47.16695 ] ] } },
{ "type": "Feature", "properties": { "name": "Ruisseau de la Voie", "weight_class": 1, "permanent": true, "length_km": 2.5 }, "geometry": { "type": "LineString", "coordinates": [ [ 5.97746, 47.30201 ], [ 5.97161, 47.30878 ], [ 5.97106, 47.31273 ], [ 5.96785, 47.31329 ], [ 5.96668, 47.3152 ], [ 5.96506, 47.31524 ], [ 5.96393, 47.31914 ] ] } },
{ "type": "Feature", "properties": { "name": "Ruisseau de l'Étang", "weight_class": 1, "permanent": true, "length_km": 2.6 }, "geometry": { "type": "LineString", "coordinates": [ [ 5.95351, 47.31337 ], [ 5.9639, 47.3191 ], [ 5.9664, 47.32276 ], [ 5.97236, 47.32539 ], [ 5.97183, 47.33025 ] ] } },
{ "type": "Feature", "properties": { "name": "Ruisseau du Moulin Caillet", "weight_class": 1, "permanent": true, "length_km": 4.6 }, "geometry": { "type": "LineString", "coordinates": [ [ 5.91792, 47.13967 ], [ 5.92516, 47.14537 ], [ 5.92566, 47.14884 ], [ 5.92342, 47.15025 ], [ 5.92321, 47.15206 ], [ 5.91906, 47.15423 ], [ 5.91749, 47.15675 ], [ 5.91856, 47.15871 ], [ 5.92226, 47.16069 ], [ 5.92176, 47.16154 ], [ 5.92639, 47.16598 ], [ 5.92673, 47.16713 ], [ 5.92567, 47.16769 ], [ 5.928, 47.16888 ], [ 5.9256, 47.17138 ] ] } },
{ "type": "Feature", "properties": { "name": "le Vaizot", "weight_class": 1, "permanent": true, "length_km": 2.8 }, "geometry": { "type": "LineString", "coordinates": [ [ 6.18083, 47.24587 ], [ 6.181, 47.24819 ], [ 6.17874, 47.25072 ], [ 6.17432, 47.2515 ], [ 6.17239, 47.25095 ], [ 6.17187, 47.25416 ], [ 6.16727, 47.2546 ], [ 6.16303, 47.25644 ], [ 6.1568, 47.25622 ] ] } },
{ "type": "Feature", "properties": { "name": "Ruisseau de la Dame Rose", "weight_class": 1, "permanent": true, "length_km": 2.7 }, "geometry": { "type": "LineString", "coordinates": [ [ 6.3071, 47.43719 ], [ 6.30722, 47.43954 ], [ 6.30052, 47.44446 ], [ 6.28744, 47.44826 ], [ 6.28258, 47.45144 ] ] } },
{ "type": "Feature", "properties": { "name": "la Beune", "weight_class": 1, "permanent": true, "length_km": 3.9 }, "geometry": { "type": "LineString", "coordinates": [ [ 6.27289, 47.3929 ], [ 6.27155, 47.39585 ], [ 6.25988, 47.39895 ], [ 6.25725, 47.40054 ], [ 6.25687, 47.40249 ], [ 6.25266, 47.40383 ], [ 6.24911, 47.40352 ], [ 6.24269, 47.40723 ], [ 6.24152, 47.41073 ] ] } },
{ "type": "Feature", "properties": { "name": "la Chazelle", "weight_class": 1, "permanent": true, "length_km": 4.0 }, "geometry": { "type": "LineString", "coordinates": [ [ 6.19628, 47.37714 ], [ 6.19788, 47.38261 ], [ 6.19402, 47.39057 ], [ 6.18179, 47.39496 ], [ 6.17852, 47.39482 ], [ 6.17502, 47.39312 ], [ 6.17432, 47.38985 ], [ 6.17095, 47.39018 ] ] } },
{ "type": "Feature", "properties": { "name": "la Corcelle", "weight_class": 1, "permanent": true, "length_km": 9.5 }, "geometry": { "type": "LineString", "coordinates": [ [ 6.14367, 47.34207 ], [ 6.14829, 47.34379 ], [ 6.15305, 47.34257 ], [ 6.15924, 47.34265 ], [ 6.16098, 47.34103 ], [ 6.16421, 47.3412 ], [ 6.17003, 47.34211 ], [ 6.17507, 47.3452 ], [ 6.18033, 47.34639 ], [ 6.18292, 47.34804 ], [ 6.18243, 47.35105 ], [ 6.18447, 47.35312 ], [ 6.18553, 47.36066 ], [ 6.18414, 47.3636 ], [ 6.18091, 47.36637 ], [ 6.17865, 47.37252 ], [ 6.17228, 47.37655 ], [ 6.17365, 47.37889 ], [ 6.17193, 47.38015 ], [ 6.17107, 47.38343 ], [ 6.16602, 47.38348 ], [ 6.165, 47.38751 ], [ 6.1634, 47.38821 ], [ 6.16333, 47.38948 ], [ 6.16188, 47.38919 ] ] } },
{ "type": "Feature", "properties": { "name": "Ruisseau de Bon Bief", "weight_class": 1, "permanent": true, "length_km": 2.9 }, "geometry": { "type": "LineString", "coordinates": [ [ 6.05487, 47.32648 ], [ 6.05467, 47.32812 ], [ 6.05865, 47.33005 ], [ 6.06015, 47.33241 ], [ 6.05862, 47.33629 ], [ 6.05931, 47.34149 ], [ 6.05458, 47.3493 ] ] } },
{ "type": "Feature", "properties": { "name": "Ruisseau des Longeaux", "weight_class": 1, "permanent": true, "length_km": 5.5 }, "geometry": { "type": "LineString", "coordinates": [ [ 6.18027, 47.30574 ], [ 6.16692, 47.30434 ], [ 6.15899, 47.29861 ], [ 6.14097, 47.29399 ], [ 6.13924, 47.29146 ], [ 6.13359, 47.2874 ], [ 6.13357, 47.28556 ], [ 6.13056, 47.28368 ], [ 6.13173, 47.28079 ] ] } },
{ "type": "Feature", "properties": { "name": "Ruisseau de la Baume", "weight_class": 1, "permanent": true, "length_km": 4.2 }, "geometry": { "type": "LineString", "coordinates": [ [ 6.04233, 47.31793 ], [ 6.04344, 47.32034 ], [ 6.04137, 47.32168 ], [ 6.04223, 47.32305 ], [ 6.03839, 47.32461 ], [ 6.03339, 47.32865 ], [ 6.0317, 47.32902 ], [ 6.02891, 47.32788 ], [ 6.02783, 47.32923 ], [ 6.02417, 47.33011 ], [ 6.01863, 47.32945 ], [ 6.00925, 47.33673 ] ] } },
{ "type": "Feature", "properties": { "name": "Ruisseau d'Auxon", "weight_class": 1, "permanent": true, "length_km": 6.0 }, "geometry": { "type": "LineString", "coordinates": [ [ 5.97044, 47.29664 ], [ 5.96134, 47.29807 ], [ 5.95606, 47.30018 ], [ 5.95233, 47.29955 ], [ 5.94479, 47.30001 ], [ 5.94079, 47.30162 ], [ 5.93955, 47.30496 ], [ 5.93626, 47.30707 ], [ 5.93428, 47.31317 ], [ 5.93162, 47.31479 ], [ 5.93216, 47.31739 ], [ 5.92966, 47.31918 ], [ 5.93017, 47.32297 ], [ 5.93273, 47.32742 ], [ 5.93106, 47.32819 ] ] } },
{ "type": "Feature", "properties": { "name": "le Gour", "weight_class": 1, "permanent": true, "length_km": 7.1 }, "geometry": { "type": "LineString", "coordinates": [ [ 6.23986, 47.24762 ], [ 6.23939, 47.25139 ], [ 6.23677, 47.2539 ], [ 6.23728, 47.25728 ], [ 6.23318, 47.25889 ], [ 6.23085, 47.2587 ], [ 6.23231, 47.26055 ], [ 6.23599, 47.26199 ], [ 6.2354, 47.26383 ], [ 6.23692, 47.26602 ], [ 6.23989, 47.26754 ], [ 6.23894, 47.27189 ], [ 6.23424, 47.27249 ], [ 6.23325, 47.27417 ], [ 6.23525, 47.2759 ], [ 6.23449, 47.2765 ], [ 6.23644, 47.27831 ], [ 6.23631, 47.28021 ], [ 6.24586, 47.28581 ], [ 6.24772, 47.28958 ] ] } },
{ "type": "Feature", "properties": { "name": "Ruisseau de la Noue", "weight_class": 1, "permanent": false, "length_km": 3.2 }, "geometry": { "type": "LineString", "coordinates": [ [ 5.95026, 47.27799 ], [ 5.94702, 47.27801 ], [ 5.94117, 47.27483 ], [ 5.93292, 47.27275 ], [ 5.92349, 47.27383 ], [ 5.91264, 47.27092 ] ] } },
{ "type": "Feature", "properties": { "name": "Ruisseau de la Vallée", "weight_class": 1, "permanent": true, "length_km": 3.1 }, "geometry": { "type": "LineString", "coordinates": [ [ 5.98669, 47.29512 ], [ 5.98204, 47.28973 ], [ 5.97313, 47.28593 ], [ 5.96676, 47.28066 ], [ 5.96084, 47.28503 ] ] } },
{ "type": "Feature", "properties": { "name": "la Lanterne", "weight_class": 1, "permanent": true, "length_km": 12.7 }, "geometry": { "type": "LineString", "coordinates": [ [ 5.94423, 47.26219 ], [ 5.93333, 47.25767 ], [ 5.9296, 47.25852 ], [ 5.92797, 47.26313 ], [ 5.92653, 47.26324 ], [ 5.9242, 47.2653 ], [ 5.91876, 47.26605 ], [ 5.91485, 47.27019 ], [ 5.90658, 47.27344 ], [ 5.90873, 47.2794 ], [ 5.90238, 47.28169 ], [ 5.89794, 47.28752 ], [ 5.891, 47.29016 ], [ 5.88987, 47.29322 ], [ 5.88704, 47.29385 ], [ 5.88586, 47.29528 ], [ 5.87812, 47.29603 ], [ 5.87484, 47.29814 ], [ 5.86668, 47.30007 ], [ 5.86431, 47.2975 ], [ 5.86284, 47.2979 ], [ 5.86291, 47.29732 ], [ 5.86105, 47.29851 ], [ 5.85922, 47.29824 ], [ 5.85902, 47.29709 ], [ 5.85563, 47.29717 ], [ 5.85363, 47.29989 ], [ 5.85359, 47.30254 ], [ 5.85021, 47.3036 ], [ 5.84713, 47.30292 ], [ 5.84514, 47.30093 ] ] } },
{ "type": "Feature", "properties": { "name": "Ruisseau de Recologne/Ruisseau des Prés", "weight_class": 1, "permanent": true, "length_km": 15.3 }, "geometry": { "type": "LineString", "coordinates": [ [ 5.86772, 47.21952 ], [ 5.87118, 47.22067 ], [ 5.8723, 47.22197 ], [ 5.87284, 47.22344 ], [ 5.87162, 47.22366 ], [ 5.87273, 47.22655 ], [ 5.87495, 47.22795 ], [ 5.87679, 47.23222 ], [ 5.88008, 47.23556 ], [ 5.88034, 47.23834 ], [ 5.87765, 47.24178 ], [ 5.87715, 47.25282 ], [ 5.8755, 47.25339 ], [ 5.87651, 47.25742 ], [ 5.8815, 47.26383 ], [ 5.8819, 47.2671 ], [ 5.88059, 47.26917 ], [ 5.87798, 47.27149 ], [ 5.87607, 47.27125 ], [ 5.8766, 47.2729 ], [ 5.87402, 47.27369 ], [ 5.86773, 47.28024 ], [ 5.86036, 47.28075 ], [ 5.85752, 47.28206 ], [ 5.85432, 47.28102 ], [ 5.85234, 47.27933 ], [ 5.85278, 47.27808 ], [ 5.84633, 47.27489 ], [ 5.82992, 47.27549 ], [ 5.82567, 47.27331 ], [ 5.82092, 47.27646 ], [ 5.82172, 47.27878 ], [ 5.81994, 47.27957 ], [ 5.82015, 47.28159 ], [ 5.81823, 47.28306 ], [ 5.81291, 47.28297 ], [ 5.8089, 47.28448 ], [ 5.80199, 47.28929 ], [ 5.79905, 47.28963 ] ] } },
{ "type": "Feature", "properties": { "name": "Bief d'Ormes", "weight_class": 1, "permanent": false, "length_km": 4.4 }, "geometry": { "type": "LineString", "coordinates": [ [ 5.90158, 47.23429 ], [ 5.91585, 47.24198 ], [ 5.92095, 47.24791 ], [ 5.92207, 47.25388 ], [ 5.92071, 47.25972 ], [ 5.92156, 47.26227 ], [ 5.91942, 47.26578 ] ] } },
{ "type": "Feature", "properties": { "name": "Ruisseau de Placey", "weight_class": 1, "permanent": true, "length_km": 2.6 }, "geometry": { "type": "LineString", "coordinates": [ [ 5.85173, 47.25467 ], [ 5.84957, 47.2596 ], [ 5.85232, 47.26259 ], [ 5.85107, 47.26647 ], [ 5.84746, 47.27 ], [ 5.84559, 47.27488 ] ] } },
{ "type": "Feature", "properties": { "name": "Ruisseau de Pommeau", "weight_class": 1, "permanent": true, "length_km": 5.2 }, "geometry": { "type": "LineString", "coordinates": [ [ 5.86124, 47.25238 ], [ 5.85833, 47.25356 ], [ 5.85638, 47.25338 ], [ 5.85237, 47.24995 ], [ 5.85217, 47.24707 ], [ 5.84989, 47.24341 ], [ 5.84706, 47.24179 ], [ 5.8417, 47.24099 ], [ 5.83573, 47.24148 ], [ 5.83121, 47.24022 ], [ 5.82581, 47.23286 ], [ 5.81753, 47.23445 ], [ 5.81636, 47.23634 ] ] } },
{ "type": "Feature", "properties": { "name": "Ruisseau de Recologne", "weight_class": 1, "permanent": true, "length_km": 10.5 }, "geometry": { "type": "LineString", "coordinates": [ [ 5.76909, 47.21091 ], [ 5.77779, 47.21252 ], [ 5.78573, 47.21711 ], [ 5.7894, 47.21752 ], [ 5.79124, 47.2194 ], [ 5.80621, 47.22285 ], [ 5.8072, 47.22601 ], [ 5.81122, 47.22713 ], [ 5.81201, 47.22916 ], [ 5.81479, 47.22974 ], [ 5.81408, 47.23475 ], [ 5.82089, 47.24043 ], [ 5.82029, 47.2459 ], [ 5.81797, 47.24797 ], [ 5.82097, 47.25412 ], [ 5.8219, 47.25976 ], [ 5.81942, 47.26686 ], [ 5.82256, 47.27068 ], [ 5.82119, 47.2728 ], [ 5.82368, 47.2751 ] ] } },
{ "type": "Feature", "properties": { "name": "Ruisseau du Moulin de Chazoy", "weight_class": 1, "permanent": true, "length_km": 4.5 }, "geometry": { "type": "LineString", "coordinates": [ [ 5.79958, 47.2665 ], [ 5.79778, 47.26971 ], [ 5.79423, 47.27134 ], [ 5.78461, 47.2717 ], [ 5.78043, 47.2728 ], [ 5.77025, 47.26796 ], [ 5.76633, 47.26705 ], [ 5.76165, 47.26745 ], [ 5.75875, 47.27121 ], [ 5.7553, 47.27102 ], [ 5.75387, 47.27289 ] ] } },
{ "type": "Feature", "properties": { "name": "Ruisseau des Marais", "weight_class": 1, "permanent": true, "length_km": 4.5 }, "geometry": { "type": "LineString", "coordinates": [ [ 6.07041, 47.2089 ], [ 6.07108, 47.20771 ], [ 6.07361, 47.20694 ], [ 6.08036, 47.20996 ], [ 6.08824, 47.21672 ], [ 6.09574, 47.2198 ], [ 6.10627, 47.22033 ], [ 6.10788, 47.21772 ], [ 6.10676, 47.21552 ], [ 6.10789, 47.21514 ] ] } },
{ "type": "Feature", "properties": { "name": "Ruisseau de Rix", "weight_class": 1, "permanent": true, "length_km": 2.1 }, "geometry": { "type": "LineString", "coordinates": [ [ 5.90235, 47.23921 ], [ 5.9006, 47.24052 ], [ 5.89362, 47.24005 ], [ 5.88757, 47.24236 ], [ 5.88149, 47.23988 ], [ 5.87907, 47.24004 ] ] } },
{ "type": "Feature", "properties": { "name": "Ruisseau de Corcondray", "weight_class": 1, "permanent": true, "length_km": 3.7 }, "geometry": { "type": "LineString", "coordinates": [ [ 5.86353, 47.23157 ], [ 5.8594, 47.22921 ], [ 5.84927, 47.22704 ], [ 5.84204, 47.23031 ], [ 5.84278, 47.23094 ], [ 5.84076, 47.23303 ], [ 5.83777, 47.23404 ], [ 5.83269, 47.2348 ], [ 5.83063, 47.23452 ], [ 5.82795, 47.23233 ], [ 5.82581, 47.23286 ] ] } },
{ "type": "Feature", "properties": { "name": "Ruisseau de Lantenne", "weight_class": 1, "permanent": true, "length_km": 4.2 }, "geometry": { "type": "LineString", "coordinates": [ [ 5.75666, 47.22881 ], [ 5.77073, 47.23297 ], [ 5.77805, 47.23373 ], [ 5.7869, 47.23273 ], [ 5.79551, 47.2289 ], [ 5.80336, 47.22276 ] ] } },
{ "type": "Feature", "properties": { "name": "Ruisseau Bief d'Aglans/Bief d'Aglans", "weight_class": 1, "permanent": true, "length_km": 3.3 }, "geometry": { "type": "LineString", "coordinates": [ [ 6.08616, 47.18574 ], [ 6.08803, 47.18876 ], [ 6.09166, 47.19167 ], [ 6.09712, 47.2052 ], [ 6.09584, 47.20768 ], [ 6.09242, 47.21008 ], [ 6.09369, 47.21126 ] ] } },
{ "type": "Feature", "properties": { "name": "Ruisseau du Moulin", "weight_class": 1, "permanent": true, "length_km": 2.2 }, "geometry": { "type": "LineString", "coordinates": [ [ 6.08277, 47.21046 ], [ 6.08956, 47.21081 ], [ 6.09213, 47.21206 ], [ 6.09369, 47.21126 ], [ 6.10247, 47.216 ], [ 6.10695, 47.21578 ] ] } },
{ "type": "Feature", "properties": { "name": "Ruisseau des Mercureaux", "weight_class": 1, "permanent": true, "length_km": 5.0 }, "geometry": { "type": "LineString", "coordinates": [ [ 6.05116, 47.21304 ], [ 6.04911, 47.21196 ], [ 6.04196, 47.21112 ], [ 6.03815, 47.21178 ], [ 6.03568, 47.21095 ], [ 6.02662, 47.21109 ], [ 6.02161, 47.20937 ], [ 6.01972, 47.20724 ], [ 6.01158, 47.20474 ], [ 6.00645, 47.2065 ], [ 6.00203, 47.20691 ], [ 6.0006, 47.20851 ], [ 5.99624, 47.20992 ] ] } },
{ "type": "Feature", "properties": { "name": "Ruisseau de Grandfontaine", "weight_class": 1, "permanent": true, "length_km": 2.3 }, "geometry": { "type": "LineString", "coordinates": [ [ 5.91282, 47.19692 ], [ 5.91194, 47.19362 ], [ 5.90669, 47.19154 ], [ 5.90312, 47.18559 ], [ 5.89604, 47.1833 ] ] } },
{ "type": "Feature", "properties": { "name": "le Pontot", "weight_class": 1, "permanent": true, "length_km": 2.1 }, "geometry": { "type": "LineString", "coordinates": [ [ 5.86184, 47.21382 ], [ 5.85615, 47.20675 ], [ 5.85371, 47.20524 ], [ 5.84968, 47.19774 ] ] } },
{ "type": "Feature", "properties": { "name": "Ruisseau de Ferrieres", "weight_class": 1, "permanent": true, "length_km": 3.0 }, "geometry": { "type": "LineString", "coordinates": [ [ 5.79229, 47.20408 ], [ 5.79744, 47.20367 ], [ 5.80385, 47.2108 ], [ 5.80607, 47.2139 ], [ 5.80919, 47.22468 ] ] } },
{ "type": "Feature", "properties": { "name": "Ruisseau de Vetret", "weight_class": 1, "permanent": false, "length_km": 2.6 }, "geometry": { "type": "LineString", "coordinates": [ [ 5.97704, 47.18615 ], [ 5.96881, 47.17142 ], [ 5.96846, 47.1646 ] ] } },
{ "type": "Feature", "properties": { "name": "la Brême", "weight_class": 1, "permanent": true, "length_km": 16.7 }, "geometry": { "type": "LineString", "coordinates": [ [ 6.27476, 47.13414 ], [ 6.26889, 47.13344 ], [ 6.26779, 47.13801 ], [ 6.2623, 47.13918 ], [ 6.26065, 47.14091 ], [ 6.25964, 47.14579 ], [ 6.25761, 47.14676 ], [ 6.2417, 47.14242 ], [ 6.23472, 47.13911 ], [ 6.23167, 47.13944 ], [ 6.22829, 47.13839 ], [ 6.22686, 47.13898 ], [ 6.22297, 47.13728 ], [ 6.21588, 47.13603 ], [ 6.21214, 47.13739 ], [ 6.20749, 47.13658 ], [ 6.20262, 47.13932 ], [ 6.20067, 47.13928 ], [ 6.19729, 47.13757 ], [ 6.19653, 47.13558 ], [ 6.19464, 47.1351 ], [ 6.19064, 47.13598 ], [ 6.18424, 47.13431 ], [ 6.17922, 47.13043 ], [ 6.17408, 47.12823 ], [ 6.16326, 47.12969 ], [ 6.1487, 47.13415 ], [ 6.14607, 47.13366 ], [ 6.14463, 47.13493 ], [ 6.13805, 47.13468 ], [ 6.13427, 47.13386 ], [ 6.12861, 47.13062 ], [ 6.12422, 47.12488 ], [ 6.12243, 47.12007 ], [ 6.11339, 47.11035 ] ] } },
{ "type": "Feature", "properties": { "name": "Ruisseau de Busy", "weight_class": 1, "permanent": true, "length_km": 3.7 }, "geometry": { "type": "LineString", "coordinates": [ [ 5.93372, 47.15285 ], [ 5.93164, 47.15511 ], [ 5.93292, 47.15949 ], [ 5.93927, 47.1633 ], [ 5.9417, 47.16783 ], [ 5.94828, 47.17471 ], [ 5.94595, 47.17801 ], [ 5.94407, 47.17808 ] ] } },
{ "type": "Feature", "properties": { "name": "le Doubs", "weight_class": 3, "permanent": true, "length_km": 323.1 }, "geometry": { "type": "MultiLineString", "coordinates": [ [ [ 5.79487, 47.17398 ], [ 5.79317, 47.17485 ], [ 5.78811, 47.17306 ], [ 5.78406, 47.16892 ] ], [ [ 7.05463, 47.34763 ], [ 7.0492, 47.348 ], [ 7.04407, 47.34998 ], [ 7.04044, 47.35026 ], [ 7.03626, 47.34862 ], [ 7.03133, 47.34447 ], [ 7.01949, 47.34414 ], [ 7.01185, 47.34094 ], [ 7.0079, 47.34168 ], [ 7.00189, 47.34438 ], [ 6.9979, 47.3445 ], [ 6.99582, 47.34407 ], [ 6.99101, 47.34015 ], [ 6.98727, 47.33879 ], [ 6.98289, 47.34427 ], [ 6.97877, 47.34404 ], [ 6.97102, 47.34012 ], [ 6.96897, 47.34072 ], [ 6.96629, 47.34411 ], [ 6.96077, 47.34215 ], [ 6.95845, 47.33969 ], [ 6.95144, 47.34016 ], [ 6.93535, 47.33806 ], [ 6.92874, 47.33957 ], [ 6.92412, 47.34534 ], [ 6.91697, 47.34879 ], [ 6.90576, 47.34794 ], [ 6.895, 47.34454 ], [ 6.88593, 47.34449 ], [ 6.87711, 47.33974 ], [ 6.86832, 47.33633 ], [ 6.86792, 47.33138 ], [ 6.87198, 47.32696 ], [ 6.86983, 47.32514 ], [ 6.86262, 47.32531 ], [ 6.85911, 47.32639 ], [ 6.85006, 47.32175 ], [ 6.84754, 47.32352 ], [ 6.83981, 47.32578 ], [ 6.83335, 47.32589 ], [ 6.82561, 47.32373 ], [ 6.81552, 47.31844 ], [ 6.81128, 47.31902 ], [ 6.81195, 47.32275 ], [ 6.80878, 47.32572 ], [ 6.80575, 47.32472 ], [ 6.80345, 47.32202 ], [ 6.79879, 47.3219 ], [ 6.78951, 47.32283 ], [ 6.77989, 47.32717 ], [ 6.77269, 47.32685 ], [ 6.76455, 47.32883 ], [ 6.76138, 47.33034 ], [ 6.75568, 47.33544 ], [ 6.76026, 47.34253 ], [ 6.75737, 47.34651 ], [ 6.76024, 47.35105 ], [ 6.75893, 47.35773 ], [ 6.75613, 47.36064 ], [ 6.75708, 47.36454 ], [ 6.75587, 47.36773 ], [ 6.76042, 47.37152 ], [ 6.76425, 47.37676 ], [ 6.76846, 47.3764 ], [ 6.77187, 47.37886 ], [ 6.77358, 47.39251 ], [ 6.77193, 47.39586 ], [ 6.76708, 47.40054 ], [ 6.77036, 47.40355 ], [ 6.77089, 47.40644 ], [ 6.7796, 47.41145 ], [ 6.78676, 47.41204 ], [ 6.78956, 47.41323 ], [ 6.78699, 47.4196 ], [ 6.79182, 47.42397 ], [ 6.79119, 47.42624 ], [ 6.78818, 47.42915 ], [ 6.79154, 47.43372 ], [ 6.7904, 47.43609 ], [ 6.78604, 47.43935 ], [ 6.78606, 47.44094 ], [ 6.79031, 47.44439 ], [ 6.79182, 47.45229 ], [ 6.79556, 47.45628 ], [ 6.7997, 47.45812 ], [ 6.80349, 47.45845 ], [ 6.8078, 47.45749 ], [ 6.81096, 47.45087 ], [ 6.8195, 47.44661 ], [ 6.83384, 47.44949 ], [ 6.83739, 47.45095 ], [ 6.8412, 47.4663 ], [ 6.8389, 47.4694 ], [ 6.83638, 47.4783 ], [ 6.83777, 47.4829 ], [ 6.8341, 47.48484 ], [ 6.82675, 47.48517 ], [ 6.8129, 47.48339 ], [ 6.79939, 47.48661 ], [ 6.79593, 47.48584 ], [ 6.78921, 47.4824 ], [ 6.77564, 47.4851 ], [ 6.77281, 47.4825 ], [ 6.7704, 47.47471 ], [ 6.7689, 47.47378 ], [ 6.76657, 47.474 ], [ 6.75906, 47.47869 ], [ 6.74941, 47.48011 ], [ 6.74443, 47.48 ], [ 6.73524, 47.47638 ], [ 6.73155, 47.47707 ], [ 6.72498, 47.48043 ], [ 6.71612, 47.47522 ], [ 6.70852, 47.46887 ], [ 6.69894, 47.46576 ], [ 6.69164, 47.45951 ], [ 6.68083, 47.45376 ], [ 6.6729, 47.45214 ], [ 6.65539, 47.4517 ], [ 6.64235, 47.44922 ], [ 6.62799, 47.44882 ], [ 6.62313, 47.44747 ], [ 6.62045, 47.44467 ], [ 6.62101, 47.44079 ], [ 6.62305, 47.43868 ], [ 6.62531, 47.43887 ], [ 6.62723, 47.43764 ], [ 6.62999, 47.43307 ], [ 6.62809, 47.42975 ], [ 6.6238, 47.42743 ], [ 6.61588, 47.42809 ], [ 6.61058, 47.42986 ], [ 6.60593, 47.43308 ], [ 6.60071, 47.43409 ], [ 6.59804, 47.44305 ], [ 6.59717, 47.45281 ], [ 6.59506, 47.4556 ], [ 6.59051, 47.45736 ], [ 6.58705, 47.45678 ], [ 6.58311, 47.45431 ], [ 6.57671, 47.44802 ], [ 6.57477, 47.43866 ], [ 6.56417, 47.43853 ], [ 6.5523, 47.44177 ], [ 6.54365, 47.44055 ], [ 6.53359, 47.44113 ], [ 6.53187, 47.43821 ], [ 6.53367, 47.43263 ], [ 6.53983, 47.42929 ], [ 6.55153, 47.4264 ], [ 6.5522, 47.42508 ], [ 6.56076, 47.42248 ], [ 6.56218, 47.42017 ], [ 6.56052, 47.4167 ], [ 6.55664, 47.41441 ], [ 6.55216, 47.41329 ], [ 6.54031, 47.41312 ], [ 6.53048, 47.41137 ], [ 6.52737, 47.41169 ], [ 6.51845, 47.41613 ], [ 6.51508, 47.41549 ], [ 6.51243, 47.41253 ], [ 6.5125, 47.4053 ], [ 6.50711, 47.39813 ], [ 6.50432, 47.39661 ], [ 6.49455, 47.39423 ], [ 6.49464, 47.39244 ], [ 6.50381, 47.38376 ], [ 6.50459, 47.38118 ], [ 6.50003, 47.37502 ], [ 6.4897, 47.36954 ], [ 6.4812, 47.36931 ], [ 6.46407, 47.37381 ], [ 6.45877, 47.37403 ], [ 6.45429, 47.37137 ], [ 6.45278, 47.36939 ], [ 6.45187, 47.36425 ], [ 6.4488, 47.3627 ], [ 6.43912, 47.3668 ], [ 6.42909, 47.368 ], [ 6.42706, 47.37154 ], [ 6.42515, 47.37204 ], [ 6.42186, 47.37065 ], [ 6.41914, 47.36734 ], [ 6.41813, 47.3645 ], [ 6.41882, 47.35991 ], [ 6.41775, 47.35839 ], [ 6.40759, 47.3568 ], [ 6.39931, 47.35812 ], [ 6.39568, 47.35784 ], [ 6.38883, 47.35321 ], [ 6.38542, 47.35215 ], [ 6.37218, 47.35444 ], [ 6.37149, 47.35318 ], [ 6.37365, 47.34755 ], [ 6.37288, 47.34221 ], [ 6.37079, 47.34181 ], [ 6.35959, 47.34325 ], [ 6.35385, 47.33964 ], [ 6.34931, 47.33469 ], [ 6.34701, 47.33506 ], [ 6.3446, 47.33827 ], [ 6.33954, 47.34065 ], [ 6.32592, 47.34313 ], [ 6.32068, 47.34213 ], [ 6.31585, 47.33825 ], [ 6.31348, 47.33071 ], [ 6.30461, 47.32913 ], [ 6.29863, 47.32989 ], [ 6.29425, 47.3295 ], [ 6.29009, 47.32758 ], [ 6.28182, 47.32102 ], [ 6.26621, 47.32023 ], [ 6.25898, 47.3103 ], [ 6.24512, 47.30789 ], [ 6.2374, 47.30561 ], [ 6.23606, 47.30302 ], [ 6.236, 47.29769 ], [ 6.23273, 47.29564 ], [ 6.2286, 47.29601 ], [ 6.22083, 47.29867 ], [ 6.21405, 47.30281 ], [ 6.20988, 47.30326 ], [ 6.20633, 47.2996 ], [ 6.20477, 47.29216 ], [ 6.20033, 47.2889 ], [ 6.18879, 47.28778 ], [ 6.17979, 47.2902 ], [ 6.15638, 47.28753 ], [ 6.14632, 47.28468 ], [ 6.13968, 47.28391 ], [ 6.13546, 47.28148 ], [ 6.12345, 47.27877 ], [ 6.11873, 47.27459 ], [ 6.11466, 47.26828 ], [ 6.11185, 47.26671 ], [ 6.10082, 47.269 ], [ 6.08306, 47.2701 ], [ 6.07855, 47.26947 ], [ 6.07014, 47.26188 ], [ 6.07084, 47.26109 ], [ 6.07555, 47.26117 ], [ 6.08125, 47.25963 ], [ 6.08286, 47.25862 ], [ 6.08283, 47.2573 ], [ 6.07977, 47.25355 ], [ 6.0756, 47.25198 ], [ 6.0686, 47.24622 ], [ 6.05638, 47.22976 ], [ 6.04821, 47.22653 ], [ 6.0423, 47.22666 ], [ 6.03973, 47.22784 ], [ 6.03692, 47.23138 ], [ 6.03192, 47.24064 ], [ 6.02775, 47.24202 ], [ 6.0236, 47.24206 ], [ 6.01711, 47.2369 ], [ 6.01622, 47.23322 ], [ 6.01816, 47.23029 ], [ 6.02665, 47.23058 ], [ 6.02997, 47.22971 ], [ 6.03212, 47.22607 ], [ 6.02879, 47.22096 ], [ 6.01792, 47.21771 ], [ 6.00327, 47.21607 ], [ 5.99583, 47.20949 ], [ 5.99291, 47.20164 ], [ 5.98525, 47.19862 ], [ 5.95782, 47.20003 ], [ 5.95321, 47.19899 ], [ 5.94885, 47.19682 ], [ 5.9468, 47.19452 ], [ 5.94739, 47.19158 ], [ 5.94966, 47.19119 ], [ 5.95128, 47.19428 ], [ 5.95635, 47.19526 ], [ 5.96283, 47.19049 ], [ 5.96274, 47.18871 ], [ 5.96118, 47.1864 ], [ 5.9566, 47.1838 ], [ 5.94853, 47.18348 ], [ 5.94139, 47.17546 ], [ 5.92938, 47.17181 ], [ 5.90995, 47.17124 ], [ 5.90675, 47.17301 ], [ 5.90425, 47.17849 ], [ 5.89407, 47.18475 ], [ 5.8917, 47.18465 ], [ 5.88979, 47.18038 ], [ 5.89094, 47.17387 ], [ 5.89493, 47.17114 ], [ 5.9006, 47.16899 ], [ 5.90258, 47.16611 ], [ 5.89967, 47.16429 ], [ 5.88612, 47.16099 ], [ 5.88355, 47.15962 ], [ 5.88553, 47.14788 ], [ 5.88801, 47.14375 ], [ 5.88429, 47.14127 ], [ 5.86923, 47.1399 ], [ 5.85676, 47.13329 ], [ 5.85224, 47.13185 ], [ 5.84357, 47.1316 ], [ 5.83799, 47.13295 ], [ 5.83634, 47.13605 ], [ 5.83846, 47.14001 ], [ 5.84165, 47.14248 ], [ 5.84893, 47.14574 ], [ 5.85502, 47.15298 ], [ 5.85466, 47.15824 ], [ 5.85109, 47.1627 ], [ 5.84674, 47.1651 ], [ 5.83813, 47.16659 ], [ 5.83451, 47.16667 ], [ 5.82652, 47.16502 ], [ 5.81975, 47.16751 ], [ 5.81337, 47.16779 ], [ 5.80557, 47.17204 ], [ 5.79615, 47.17345 ] ], [ [ 6.20916, 46.70496 ], [ 6.20641, 46.70733 ], [ 6.20522, 46.70709 ], [ 6.20526, 46.70791 ], [ 6.20043, 46.708 ], [ 6.20078, 46.70652 ], [ 6.19851, 46.70829 ], [ 6.19528, 46.70779 ], [ 6.19336, 46.71035 ], [ 6.19656, 46.71449 ], [ 6.20021, 46.71608 ], [ 6.20158, 46.71814 ], [ 6.20285, 46.71718 ], [ 6.20655, 46.71798 ], [ 6.21411, 46.72287 ], [ 6.21819, 46.72349 ], [ 6.21863, 46.72504 ], [ 6.22055, 46.7246 ], [ 6.22399, 46.72589 ], [ 6.22703, 46.72535 ], [ 6.22791, 46.7269 ], [ 6.23136, 46.72657 ], [ 6.23229, 46.7276 ], [ 6.23403, 46.72671 ], [ 6.23755, 46.72831 ], [ 6.23863, 46.72982 ], [ 6.24037, 46.72914 ], [ 6.24318, 46.73063 ], [ 6.24388, 46.7323 ], [ 6.2456, 46.73077 ], [ 6.24828, 46.73252 ], [ 6.25089, 46.73208 ], [ 6.2547, 46.7348 ], [ 6.2588, 46.73622 ], [ 6.25893, 46.7376 ], [ 6.26709, 46.74049 ], [ 6.27887, 46.74072 ], [ 6.28293, 46.74209 ], [ 6.28344, 46.74116 ], [ 6.2849, 46.74187 ], [ 6.28702, 46.74088 ], [ 6.28889, 46.74132 ], [ 6.29231, 46.74388 ], [ 6.29543, 46.74438 ], [ 6.29937, 46.74753 ], [ 6.29849, 46.74968 ], [ 6.30382, 46.75197 ], [ 6.30555, 46.75391 ], [ 6.30147, 46.75584 ], [ 6.29721, 46.76089 ], [ 6.29515, 46.76124 ], [ 6.29127, 46.76398 ], [ 6.28682, 46.76502 ], [ 6.28469, 46.76441 ], [ 6.28259, 46.76495 ], [ 6.28077, 46.76404 ], [ 6.27577, 46.76494 ], [ 6.27999, 46.76863 ], [ 6.28038, 46.77192 ], [ 6.27943, 46.77436 ], [ 6.27655, 46.7749 ], [ 6.27352, 46.77775 ], [ 6.275, 46.77877 ], [ 6.27292, 46.77948 ], [ 6.27469, 46.78037 ], [ 6.27276, 46.78001 ], [ 6.27154, 46.78124 ], [ 6.27446, 46.7857 ], [ 6.27883, 46.78596 ], [ 6.28098, 46.78858 ], [ 6.28633, 46.78999 ], [ 6.2956, 46.80006 ], [ 6.31912, 46.82045 ], [ 6.32977, 46.83167 ], [ 6.33629, 46.83537 ], [ 6.33553, 46.8382 ], [ 6.33385, 46.83966 ], [ 6.33425, 46.84237 ], [ 6.33199, 46.84468 ], [ 6.33455, 46.8489 ], [ 6.33481, 46.85191 ], [ 6.33755, 46.85335 ], [ 6.33854, 46.85726 ], [ 6.3436, 46.85721 ], [ 6.34845, 46.85873 ], [ 6.35156, 46.86045 ], [ 6.35134, 46.86172 ], [ 6.3536, 46.86325 ], [ 6.35671, 46.86258 ], [ 6.35919, 46.86489 ], [ 6.35811, 46.86598 ], [ 6.36407, 46.86862 ], [ 6.36608, 46.87142 ], [ 6.36559, 46.87236 ], [ 6.36821, 46.87457 ], [ 6.36753, 46.87724 ], [ 6.37, 46.87892 ], [ 6.36565, 46.88022 ], [ 6.36414, 46.88184 ], [ 6.36401, 46.89352 ], [ 6.35994, 46.89612 ], [ 6.35843, 46.89927 ], [ 6.3592, 46.9043 ], [ 6.34584, 46.91509 ], [ 6.34594, 46.91944 ], [ 6.34842, 46.92129 ], [ 6.34924, 46.92447 ], [ 6.3477, 46.92839 ], [ 6.34555, 46.93033 ], [ 6.34595, 46.93134 ], [ 6.34915, 46.93258 ], [ 6.34726, 46.93753 ], [ 6.34835, 46.93938 ], [ 6.35566, 46.94402 ], [ 6.36109, 46.94535 ], [ 6.36201, 46.94061 ], [ 6.36443, 46.93801 ], [ 6.36728, 46.93714 ], [ 6.3724, 46.93771 ], [ 6.38387, 46.94542 ], [ 6.38638, 46.9482 ], [ 6.40764, 46.95632 ], [ 6.41381, 46.96288 ], [ 6.42366, 46.96445 ], [ 6.42688, 46.96768 ], [ 6.44111, 46.97614 ], [ 6.44204, 46.97894 ], [ 6.45305, 46.98238 ], [ 6.45661, 46.98852 ], [ 6.45876, 46.99005 ], [ 6.46231, 46.99061 ], [ 6.47165, 46.99434 ], [ 6.47602, 47.00068 ], [ 6.48018, 47.00228 ], [ 6.47977, 47.00707 ], [ 6.48309, 47.01092 ], [ 6.48676, 47.01209 ], [ 6.48247, 47.01517 ], [ 6.48626, 47.01637 ], [ 6.49123, 47.01414 ], [ 6.49593, 47.01933 ], [ 6.49343, 47.02357 ], [ 6.49367, 47.02575 ], [ 6.49883, 47.02651 ], [ 6.49818, 47.02888 ], [ 6.5065, 47.03083 ], [ 6.50893, 47.03263 ], [ 6.50926, 47.03448 ], [ 6.51308, 47.03522 ], [ 6.51499, 47.03453 ], [ 6.52066, 47.02755 ], [ 6.52635, 47.02832 ], [ 6.53447, 47.03127 ], [ 6.53963, 47.02923 ], [ 6.54222, 47.03003 ], [ 6.54656, 47.0335 ], [ 6.55002, 47.03348 ], [ 6.55533, 47.03194 ], [ 6.56456, 47.03466 ], [ 6.57405, 47.03492 ], [ 6.57845, 47.03945 ], [ 6.58782, 47.03978 ], [ 6.58875, 47.04151 ], [ 6.58682, 47.04316 ], [ 6.58752, 47.04433 ], [ 6.59488, 47.04994 ], [ 6.5977, 47.05053 ], [ 6.59852, 47.05356 ], [ 6.60464, 47.05189 ], [ 6.60404, 47.05059 ], [ 6.60111, 47.05013 ], [ 6.60232, 47.04844 ], [ 6.60452, 47.04867 ], [ 6.6088, 47.05247 ], [ 6.61493, 47.05168 ], [ 6.61796, 47.0521 ], [ 6.62147, 47.04915 ], [ 6.62174, 47.04676 ], [ 6.62798, 47.04725 ], [ 6.6343, 47.04483 ], [ 6.63839, 47.045 ], [ 6.64274, 47.04894 ], [ 6.64721, 47.04941 ], [ 6.6527, 47.05202 ], [ 6.66072, 47.05286 ], [ 6.66308, 47.05085 ], [ 6.66454, 47.05087 ], [ 6.66932, 47.05312 ], [ 6.67204, 47.05626 ], [ 6.67229, 47.0623 ], [ 6.67445, 47.0639 ], [ 6.67863, 47.06492 ], [ 6.68325, 47.06206 ], [ 6.68358, 47.0637 ], [ 6.69173, 47.06694 ], [ 6.69279, 47.0687 ], [ 6.70147, 47.07067 ], [ 6.70362, 47.07369 ], [ 6.70635, 47.07438 ], [ 6.70518, 47.07632 ], [ 6.70747, 47.07904 ], [ 6.7035, 47.08056 ], [ 6.70259, 47.08193 ], [ 6.70981, 47.08442 ] ], [ [ 6.7108, 47.08476 ], [ 6.7139, 47.08642 ], [ 6.71497, 47.08836 ], [ 6.72237, 47.08953 ], [ 6.72601, 47.09207 ], [ 6.73067, 47.08975 ], [ 6.73833, 47.09035 ], [ 6.74383, 47.09226 ], [ 6.74649, 47.09919 ], [ 6.74154, 47.10405 ], [ 6.73998, 47.10812 ], [ 6.74053, 47.10951 ], [ 6.74657, 47.10982 ], [ 6.75184, 47.11437 ], [ 6.76543, 47.12061 ], [ 6.77493, 47.1211 ], [ 6.77918, 47.12369 ], [ 6.79188, 47.12682 ], [ 6.79699, 47.12913 ], [ 6.80057, 47.12911 ] ], [ [ 6.80126, 47.12925 ], [ 6.80645, 47.13102 ], [ 6.80829, 47.13544 ], [ 6.81608, 47.13617 ], [ 6.81987, 47.14035 ], [ 6.82514, 47.14242 ], [ 6.82821, 47.14643 ], [ 6.83051, 47.14628 ], [ 6.83936, 47.15026 ], [ 6.84078, 47.15411 ], [ 6.84977, 47.15638 ], [ 6.85827, 47.16523 ], [ 6.85538, 47.16582 ], [ 6.84862, 47.16482 ], [ 6.84557, 47.1655 ], [ 6.84055, 47.16955 ], [ 6.8404, 47.17155 ], [ 6.86322, 47.18017 ], [ 6.86735, 47.18548 ], [ 6.87134, 47.18495 ], [ 6.87395, 47.18559 ], [ 6.87372, 47.19158 ], [ 6.87821, 47.19592 ], [ 6.88006, 47.20049 ], [ 6.88925, 47.20503 ] ], [ [ 6.90898, 47.21747 ], [ 6.91583, 47.21949 ] ], [ [ 6.91626, 47.21956 ], [ 6.92186, 47.22158 ], [ 6.92531, 47.22392 ] ], [ [ 6.92561, 47.22418 ], [ 6.92808, 47.22889 ], [ 6.93261, 47.23098 ], [ 6.93919, 47.23099 ], [ 6.94186, 47.2333 ], [ 6.94284, 47.23795 ], [ 6.95537, 47.24315 ], [ 6.94727, 47.25067 ], [ 6.94645, 47.25414 ], [ 6.94931, 47.25656 ], [ 6.95023, 47.25902 ] ], [ [ 6.95116, 47.26089 ], [ 6.94991, 47.2661 ], [ 6.9517, 47.26998 ], [ 6.94497, 47.27894 ], [ 6.94514, 47.28097 ], [ 6.94064, 47.28492 ], [ 6.94078, 47.28678 ], [ 6.94892, 47.29181 ], [ 6.95674, 47.29247 ], [ 6.96218, 47.29159 ], [ 6.96861, 47.29278 ], [ 6.97323, 47.29141 ], [ 6.97567, 47.29288 ], [ 6.97609, 47.2963 ], [ 6.9788, 47.29661 ], [ 6.98111, 47.29584 ] ], [ [ 6.9833, 47.29558 ], [ 6.98951, 47.29691 ], [ 6.99646, 47.29596 ], [ 7.00354, 47.30171 ], [ 7.00768, 47.3011 ] ] ] } },
{ "type": "Feature", "properties": { "name": "Canal du Rhône au Rhin", "weight_class": 3, "permanent": true, "length_km": 70.0 }, "geometry": { "type": "MultiLineString", "coordinates": [ [ [ 5.88327, 47.15846 ], [ 5.88334, 47.14818 ], [ 5.88022, 47.14475 ], [ 5.86335, 47.13885 ], [ 5.85283, 47.13966 ], [ 5.85063, 47.1416 ], [ 5.85642, 47.15601 ], [ 5.85129, 47.16342 ], [ 5.84757, 47.1654 ], [ 5.83797, 47.16719 ], [ 5.82413, 47.16583 ] ], [ [ 5.90596, 47.16971 ], [ 5.90245, 47.16735 ] ], [ [ 5.91765, 47.17117 ], [ 5.9134, 47.16972 ], [ 5.90784, 47.17107 ] ], [ [ 5.96891, 47.19976 ], [ 5.96129, 47.19914 ], [ 5.95937, 47.19813 ], [ 5.95942, 47.19392 ], [ 5.96402, 47.19059 ], [ 5.96282, 47.18669 ], [ 5.95572, 47.18266 ], [ 5.94595, 47.18045 ] ], [ [ 6.03295, 47.23854 ], [ 6.02785, 47.24134 ], [ 6.0236, 47.24206 ] ], [ [ 6.11803, 47.27366 ], [ 6.11339, 47.27026 ], [ 6.10906, 47.26902 ], [ 6.08664, 47.27077 ], [ 6.08306, 47.2701 ] ], [ [ 6.20627, 47.29939 ], [ 6.20261, 47.29178 ], [ 6.19948, 47.28979 ], [ 6.19038, 47.28888 ], [ 6.18008, 47.29089 ], [ 6.17407, 47.28922 ] ], [ [ 6.37079, 47.34181 ], [ 6.36063, 47.34204 ], [ 6.35524, 47.33981 ], [ 6.35157, 47.33472 ], [ 6.34888, 47.33369 ], [ 6.33692, 47.34091 ] ], [ [ 6.37872, 47.35328 ], [ 6.37496, 47.35268 ], [ 6.3727, 47.35061 ] ], [ [ 6.50195, 47.3856 ], [ 6.50286, 47.38055 ], [ 6.50108, 47.37704 ], [ 6.49353, 47.37177 ], [ 6.48873, 47.37 ], [ 6.47884, 47.37087 ], [ 6.46335, 47.37479 ], [ 6.45828, 47.37394 ] ], [ [ 6.50534, 47.39696 ], [ 6.50021, 47.39748 ], [ 6.49455, 47.39423 ] ], [ [ 6.54945, 47.42667 ], [ 6.55015, 47.42527 ], [ 6.55428, 47.42358 ], [ 6.55518, 47.42167 ], [ 6.555, 47.41829 ], [ 6.55233, 47.41637 ], [ 6.54848, 47.41573 ], [ 6.51845, 47.41613 ] ], [ [ 6.91073, 47.53918 ], [ 6.90718, 47.53433 ], [ 6.89907, 47.52835 ], [ 6.88821, 47.5278 ], [ 6.8801, 47.52393 ], [ 6.88266, 47.52096 ], [ 6.88212, 47.52027 ], [ 6.84824, 47.51024 ], [ 6.83997, 47.50652 ], [ 6.8269, 47.50375 ], [ 6.79882, 47.50505 ], [ 6.78912, 47.50391 ], [ 6.78082, 47.50534 ], [ 6.77744, 47.50477 ], [ 6.77393, 47.501 ], [ 6.77875, 47.49245 ], [ 6.76747, 47.48008 ], [ 6.76037, 47.47698 ], [ 6.7454, 47.47738 ], [ 6.73398, 47.47543 ], [ 6.73092, 47.47582 ], [ 6.71718, 47.47202 ], [ 6.69671, 47.46247 ], [ 6.68608, 47.45313 ], [ 6.68005, 47.45045 ], [ 6.63116, 47.44654 ], [ 6.62793, 47.43932 ], [ 6.6315, 47.43166 ], [ 6.62985, 47.42881 ], [ 6.62707, 47.42724 ], [ 6.62184, 47.42638 ], [ 6.61718, 47.42678 ], [ 6.60025, 47.43357 ], [ 6.59809, 47.43807 ], [ 6.59649, 47.44835 ], [ 6.59456, 47.45087 ], [ 6.59205, 47.45193 ], [ 6.58645, 47.45117 ], [ 6.58154, 47.44834 ], [ 6.57552, 47.43907 ] ] ] } },
{ "type": "Feature", "properties": { "name": "Ruisseau du Chanet", "weight_class": 1, "permanent": true, "length_km": 2.1 }, "geometry": { "type": "LineString", "coordinates": [ [ 6.22113, 47.11021 ], [ 6.21462, 47.10863 ], [ 6.21258, 47.10969 ], [ 6.20846, 47.10888 ], [ 6.19649, 47.11177 ] ] } },
{ "type": "Feature", "properties": { "name": "Ruisseau d'Amathay", "weight_class": 1, "permanent": true, "length_km": 2.5 }, "geometry": { "type": "LineString", "coordinates": [ [ 6.20447, 47.10286 ], [ 6.1969, 47.09996 ], [ 6.19517, 47.09375 ], [ 6.19303, 47.09148 ], [ 6.18655, 47.08986 ], [ 6.18463, 47.08829 ] ] } },
{ "type": "Feature", "properties": { "name": "Ruisseau de Cornebouche", "weight_class": 1, "permanent": true, "length_km": 5.4 }, "geometry": { "type": "LineString", "coordinates": [ [ 6.2234, 47.12136 ], [ 6.22103, 47.11883 ], [ 6.19868, 47.11324 ], [ 6.19464, 47.11074 ], [ 6.18775, 47.1095 ], [ 6.17817, 47.09695 ], [ 6.17209, 47.09653 ] ] } },
{ "type": "Feature", "properties": { "name": "Ruisseau de Vau", "weight_class": 1, "permanent": true, "length_km": 4.8 }, "geometry": { "type": "LineString", "coordinates": [ [ 6.22438, 47.10316 ], [ 6.22205, 47.10198 ], [ 6.21856, 47.09746 ], [ 6.21878, 47.09338 ], [ 6.21658, 47.09079 ], [ 6.21572, 47.08579 ], [ 6.21412, 47.08359 ], [ 6.20956, 47.08159 ], [ 6.20024, 47.08186 ], [ 6.19579, 47.08127 ], [ 6.19234, 47.07967 ], [ 6.18806, 47.07939 ] ] } },
{ "type": "Feature", "properties": { "name": "Ruisseau de Désillot", "weight_class": 2, "permanent": true, "length_km": 2.4 }, "geometry": { "type": "LineString", "coordinates": [ [ 6.17488, 47.11112 ], [ 6.16923, 47.11608 ], [ 6.15832, 47.10837 ], [ 6.15786, 47.10438 ] ] } },
{ "type": "Feature", "properties": { "name": "Ruisseau de Abbans-dessus", "weight_class": 1, "permanent": false, "length_km": 3.3 }, "geometry": { "type": "LineString", "coordinates": [ [ 5.88459, 47.12149 ], [ 5.88477, 47.12468 ], [ 5.88915, 47.12812 ], [ 5.89003, 47.13158 ], [ 5.89248, 47.13314 ], [ 5.89351, 47.13569 ], [ 5.89041, 47.13998 ], [ 5.89172, 47.14433 ], [ 5.88936, 47.1455 ], [ 5.88811, 47.14484 ] ] } },
{ "type": "Feature", "properties": { "name": "Ruisseau de Raffenot", "weight_class": 1, "permanent": true, "length_km": 8.6 }, "geometry": { "type": "LineString", "coordinates": [ [ 6.19109, 47.01665 ], [ 6.20799, 47.02364 ], [ 6.21375, 47.02467 ], [ 6.21988, 47.02793 ], [ 6.22127, 47.02983 ], [ 6.22199, 47.03323 ], [ 6.22067, 47.03439 ], [ 6.2194, 47.03943 ], [ 6.21608, 47.04377 ], [ 6.21546, 47.0469 ], [ 6.20142, 47.05677 ], [ 6.19887, 47.06226 ], [ 6.19979, 47.06588 ], [ 6.20319, 47.06755 ], [ 6.20419, 47.06932 ], [ 6.2075, 47.06918 ], [ 6.2081, 47.06982 ] ] } },
{ "type": "Feature", "properties": { "name": "Ruisseau de Vau Narbey", "weight_class": 1, "permanent": true, "length_km": 3.1 }, "geometry": { "type": "LineString", "coordinates": [ [ 6.17769, 47.05917 ], [ 6.17746, 47.06137 ], [ 6.17203, 47.06538 ], [ 6.17028, 47.06961 ], [ 6.16751, 47.07271 ], [ 6.1662, 47.08023 ], [ 6.16374, 47.08358 ] ] } },
{ "type": "Feature", "properties": { "name": "Ruisseau de l'Eugney", "weight_class": 1, "permanent": true, "length_km": 5.4 }, "geometry": { "type": "LineString", "coordinates": [ [ 6.15953, 47.05571 ], [ 6.16124, 47.05791 ], [ 6.16164, 47.0611 ], [ 6.15904, 47.0646 ], [ 6.1582, 47.07866 ], [ 6.16105, 47.0813 ], [ 6.16368, 47.08226 ], [ 6.16314, 47.08582 ], [ 6.16453, 47.09012 ], [ 6.16775, 47.09218 ], [ 6.17066, 47.09699 ] ] } },
{ "type": "Feature", "properties": { "name": "Ruisseau de Norvaux", "weight_class": 1, "permanent": false, "length_km": 7.2 }, "geometry": { "type": "LineString", "coordinates": [ [ 6.08697, 47.03714 ], [ 6.08325, 47.04467 ], [ 6.08439, 47.04866 ], [ 6.08763, 47.05173 ], [ 6.08662, 47.05906 ], [ 6.08155, 47.06628 ], [ 6.07792, 47.06938 ], [ 6.06519, 47.07152 ], [ 6.05973, 47.0747 ], [ 6.05563, 47.08071 ], [ 6.05735, 47.08635 ], [ 6.05627, 47.0882 ] ] } },
{ "type": "Feature", "properties": { "name": "Bief de Vaux", "weight_class": 2, "permanent": true, "length_km": 2.1 }, "geometry": { "type": "LineString", "coordinates": [ [ 6.0076, 47.09714 ], [ 6.00006, 47.09289 ], [ 5.99121, 47.09253 ], [ 5.98598, 47.09037 ], [ 5.98422, 47.09044 ] ] } },
{ "type": "Feature", "properties": { "name": "le Lison", "weight_class": 2, "permanent": true, "length_km": 25.6 }, "geometry": { "type": "LineString", "coordinates": [ [ 6.01151, 46.96518 ], [ 6.0098, 46.96786 ], [ 6.00755, 46.96794 ], [ 6.00392, 46.97026 ], [ 6.00012, 46.97108 ], [ 5.99813, 46.9732 ], [ 5.99915, 46.97493 ], [ 5.99877, 46.97828 ], [ 5.9974, 46.97898 ], [ 5.99633, 46.98415 ], [ 5.99736, 46.98606 ], [ 6.0002, 46.98749 ], [ 6.00234, 46.99351 ], [ 6.00451, 46.99591 ], [ 6.00397, 46.99931 ], [ 6.00147, 47.00009 ], [ 6.00008, 47.00268 ], [ 5.99831, 47.00191 ], [ 5.99805, 46.99945 ], [ 5.99581, 46.99868 ], [ 5.99471, 46.99949 ], [ 5.99567, 47.00165 ], [ 5.9948, 47.00262 ], [ 5.98861, 47.00041 ], [ 5.98156, 47.00376 ], [ 5.98604, 47.00769 ], [ 5.99014, 47.00747 ], [ 5.98982, 47.01103 ], [ 5.9922, 47.01282 ], [ 5.98734, 47.01474 ], [ 5.98762, 47.01591 ], [ 5.99101, 47.01748 ], [ 5.9917, 47.01883 ], [ 5.98785, 47.02537 ], [ 5.98537, 47.02645 ], [ 5.98477, 47.03083 ], [ 5.98029, 47.02911 ], [ 5.97312, 47.02978 ], [ 5.96819, 47.0288 ], [ 5.96475, 47.03081 ], [ 5.9626, 47.03422 ], [ 5.95344, 47.03021 ], [ 5.95083, 47.02757 ], [ 5.94895, 47.02732 ], [ 5.94793, 47.02845 ], [ 5.95034, 47.03008 ], [ 5.95041, 47.03212 ], [ 5.94475, 47.03498 ], [ 5.94697, 47.03852 ], [ 5.94665, 47.04347 ], [ 5.9504, 47.04265 ], [ 5.95443, 47.03918 ], [ 5.96027, 47.04056 ], [ 5.96373, 47.03986 ], [ 5.96519, 47.04161 ], [ 5.96553, 47.04603 ], [ 5.97008, 47.04972 ], [ 5.96547, 47.05195 ], [ 5.9661, 47.05396 ], [ 5.9705, 47.05666 ], [ 5.97369, 47.05315 ], [ 5.97605, 47.05311 ], [ 5.97967, 47.0544 ], [ 5.98332, 47.0599 ], [ 5.99081, 47.0605 ], [ 5.99083, 47.06296 ], [ 5.99307, 47.06438 ], [ 5.98973, 47.06676 ], [ 5.99097, 47.07051 ], [ 5.98688, 47.07252 ] ] } },
{ "type": "Feature", "properties": { "name": "Ruisseau du Moulin Vernerey", "weight_class": 1, "permanent": true, "length_km": 4.4 }, "geometry": { "type": "LineString", "coordinates": [ [ 5.83123, 47.07414 ], [ 5.82797, 47.07172 ], [ 5.82681, 47.06932 ], [ 5.82264, 47.05435 ], [ 5.81872, 47.05233 ], [ 5.81281, 47.05352 ], [ 5.81142, 47.05295 ], [ 5.80472, 47.04777 ], [ 5.80455, 47.04568 ] ] } },
{ "type": "Feature", "properties": { "name": "Ruisseau de Vergetolle", "weight_class": 1, "permanent": true, "length_km": 2.1 }, "geometry": { "type": "LineString", "coordinates": [ [ 6.18669, 47.05165 ], [ 6.18682, 47.05713 ], [ 6.19317, 47.06269 ], [ 6.19941, 47.06524 ] ] } },
{ "type": "Feature", "properties": { "name": "Ruisseau de Valbois", "weight_class": 2, "permanent": false, "length_km": 6.0 }, "geometry": { "type": "LineString", "coordinates": [ [ 6.11654, 47.06091 ], [ 6.11451, 47.06107 ], [ 6.11536, 47.06384 ], [ 6.11373, 47.06686 ], [ 6.10869, 47.06824 ], [ 6.10372, 47.07638 ], [ 6.09783, 47.07977 ], [ 6.09488, 47.08378 ], [ 6.08629, 47.09109 ], [ 6.08089, 47.09216 ], [ 6.07058, 47.09171 ], [ 6.06865, 47.09075 ] ] } },
{ "type": "Feature", "properties": { "name": "Ruisseau de Bonnecreau", "weight_class": 1, "permanent": true, "length_km": 2.2 }, "geometry": { "type": "LineString", "coordinates": [ [ 6.14284, 47.04568 ], [ 6.13812, 47.05063 ], [ 6.13476, 47.05261 ], [ 6.13167, 47.05308 ], [ 6.1277, 47.05568 ], [ 6.12474, 47.05952 ] ] } },
{ "type": "Feature", "properties": { "name": "Ruisseau de Nuet", "weight_class": 1, "permanent": false, "length_km": 3.6 }, "geometry": { "type": "LineString", "coordinates": [ [ 6.14986, 47.05259 ], [ 6.14832, 47.05343 ], [ 6.14809, 47.0561 ], [ 6.15165, 47.06037 ], [ 6.14792, 47.07134 ], [ 6.15153, 47.07514 ], [ 6.15821, 47.07853 ] ] } },
{ "type": "Feature", "properties": { "name": "Ruisseau de Bonneille", "weight_class": 1, "permanent": true, "length_km": 10.0 }, "geometry": { "type": "LineString", "coordinates": [ [ 6.14191, 47.03313 ], [ 6.13709, 47.03185 ], [ 6.13275, 47.03515 ], [ 6.1288, 47.04047 ], [ 6.12965, 47.04589 ], [ 6.12823, 47.04943 ], [ 6.122, 47.05312 ], [ 6.12135, 47.055 ], [ 6.12721, 47.06294 ], [ 6.12624, 47.06588 ], [ 6.12808, 47.0692 ], [ 6.12747, 47.0731 ], [ 6.1293, 47.07935 ], [ 6.12642, 47.08309 ], [ 6.12711, 47.08601 ], [ 6.1317, 47.08893 ], [ 6.13447, 47.08914 ], [ 6.13595, 47.09102 ], [ 6.13678, 47.09303 ], [ 6.1359, 47.09556 ], [ 6.13803, 47.10192 ], [ 6.13696, 47.10362 ], [ 6.13848, 47.10475 ] ] } },
{ "type": "Feature", "properties": { "name": "Ruisseau du Val d'Anchet", "weight_class": 1, "permanent": false, "length_km": 4.4 }, "geometry": { "type": "LineString", "coordinates": [ [ 6.04755, 47.0252 ], [ 6.04799, 47.02844 ], [ 6.0468, 47.03155 ], [ 6.0481, 47.03558 ], [ 6.04613, 47.04361 ], [ 6.04264, 47.04693 ], [ 6.03377, 47.04964 ], [ 6.02962, 47.05695 ] ] } },
{ "type": "Feature", "properties": { "name": "Ruisseau de la Mée", "weight_class": 1, "permanent": false, "length_km": 5.2 }, "geometry": { "type": "LineString", "coordinates": [ [ 6.06312, 47.04248 ], [ 6.0643, 47.04776 ], [ 6.06352, 47.05315 ], [ 6.06205, 47.05463 ], [ 6.06278, 47.05628 ], [ 6.06099, 47.06366 ], [ 6.05676, 47.06888 ], [ 6.05081, 47.07284 ], [ 6.04907, 47.07594 ], [ 6.05116, 47.08108 ], [ 6.05559, 47.08255 ] ] } },
{ "type": "Feature", "properties": { "name": "Ruisseau de Malans/le Bief tard", "weight_class": 1, "permanent": true, "length_km": 6.8 }, "geometry": { "type": "LineString", "coordinates": [ [ 6.04031, 47.0226 ], [ 6.04185, 47.02638 ], [ 6.04122, 47.03259 ], [ 6.03149, 47.03882 ], [ 6.02585, 47.045 ], [ 6.02661, 47.05156 ], [ 6.02971, 47.0559 ], [ 6.02948, 47.05978 ], [ 6.02214, 47.06467 ], [ 6.02063, 47.06908 ], [ 6.01534, 47.07103 ], [ 6.01223, 47.07077 ] ] } },
{ "type": "Feature", "properties": { "name": "la Goulue", "weight_class": 1, "permanent": true, "length_km": 2.4 }, "geometry": { "type": "LineString", "coordinates": [ [ 5.9433, 47.06205 ], [ 5.94669, 47.06201 ], [ 5.95112, 47.05976 ], [ 5.9639, 47.0579 ], [ 5.96654, 47.05588 ], [ 5.96953, 47.05558 ] ] } },
{ "type": "Feature", "properties": { "name": "Bief de Caille", "weight_class": 1, "permanent": true, "length_km": 5.1 }, "geometry": { "type": "LineString", "coordinates": [ [ 5.90301, 47.04843 ], [ 5.90046, 47.04796 ], [ 5.89715, 47.04942 ], [ 5.89933, 47.05439 ], [ 5.89654, 47.05528 ], [ 5.89176, 47.05473 ], [ 5.88695, 47.05788 ], [ 5.88193, 47.0589 ], [ 5.87693, 47.06208 ], [ 5.8708, 47.06247 ], [ 5.86954, 47.06018 ], [ 5.8676, 47.05954 ], [ 5.85767, 47.06111 ] ] } },
{ "type": "Feature", "properties": { "name": "Ruisseau de la Tanche", "weight_class": 1, "permanent": true, "length_km": 2.6 }, "geometry": { "type": "MultiLineString", "coordinates": [ [ [ 5.75665, 47.06276 ], [ 5.74757, 47.05909 ], [ 5.74365, 47.0559 ], [ 5.7401, 47.05472 ], [ 5.73663, 47.05529 ] ], [ [ 5.7772, 47.07649 ], [ 5.77093, 47.07171 ] ] ] } },
{ "type": "Feature", "properties": { "name": "Ruisseau de la Réverotte", "weight_class": 1, "permanent": true, "length_km": 3.3 }, "geometry": { "type": "LineString", "coordinates": [ [ 5.75739, 47.04918 ], [ 5.75458, 47.04449 ], [ 5.75426, 47.0412 ], [ 5.74943, 47.03482 ], [ 5.75016, 47.03297 ], [ 5.74836, 47.03103 ], [ 5.7391, 47.03111 ], [ 5.73545, 47.03022 ] ] } },
{ "type": "Feature", "properties": { "name": "Ruisseau du Dard", "weight_class": 1, "permanent": false, "length_km": 3.2 }, "geometry": { "type": "LineString", "coordinates": [ [ 6.14512, 46.99637 ], [ 6.13891, 46.99605 ], [ 6.13404, 46.99825 ], [ 6.13237, 47.00154 ], [ 6.13263, 47.00416 ], [ 6.13544, 47.00911 ], [ 6.13304, 47.01372 ], [ 6.13333, 47.016 ] ] } },
{ "type": "Feature", "properties": { "name": "Ruisseau de Rochanon", "weight_class": 1, "permanent": true, "length_km": 5.3 }, "geometry": { "type": "LineString", "coordinates": [ [ 6.12263, 46.99392 ], [ 6.11349, 46.99198 ], [ 6.10839, 46.99272 ], [ 6.10654, 46.99436 ], [ 6.10215, 46.99508 ], [ 6.09792, 46.99906 ], [ 6.09516, 47.00026 ], [ 6.09767, 47.00586 ], [ 6.09632, 47.0128 ], [ 6.09033, 47.0146 ], [ 6.08873, 47.01697 ], [ 6.08706, 47.01675 ] ] } },
{ "type": "Feature", "properties": { "name": "Ruisseau de la Vau", "weight_class": 1, "permanent": true, "length_km": 4.2 }, "geometry": { "type": "LineString", "coordinates": [ [ 6.04592, 47.01066 ], [ 6.04189, 47.00751 ], [ 6.04236, 47.00515 ], [ 6.03765, 47.00426 ], [ 6.03481, 47.00477 ], [ 6.03248, 47.00642 ], [ 6.02951, 47.00646 ], [ 6.02298, 47.00514 ], [ 6.01814, 47.00234 ], [ 6.00881, 47.00137 ], [ 6.00334, 46.9996 ] ] } },
{ "type": "Feature", "properties": { "name": "Ruisseau de Goële", "weight_class": 1, "permanent": true, "length_km": 3.1 }, "geometry": { "type": "LineString", "coordinates": [ [ 6.01554, 47.03162 ], [ 6.01434, 47.02935 ], [ 6.00992, 47.02786 ], [ 6.00319, 47.02885 ], [ 5.99861, 47.03294 ], [ 5.99427, 47.03406 ], [ 5.99026, 47.03285 ], [ 5.9891, 47.03158 ], [ 5.98484, 47.03075 ] ] } },
{ "type": "Feature", "properties": { "name": "la Loue", "weight_class": 3, "permanent": true, "length_km": 87.0 }, "geometry": { "type": "MultiLineString", "coordinates": [ [ [ 5.79194, 47.02275 ], [ 5.78748, 47.02064 ], [ 5.77004, 47.0182 ], [ 5.76655, 47.01873 ], [ 5.76114, 47.0214 ], [ 5.75373, 47.02106 ], [ 5.75166, 47.01991 ], [ 5.75319, 47.01613 ], [ 5.75044, 47.01402 ] ], [ [ 5.8083, 47.04602 ], [ 5.80137, 47.0451 ], [ 5.79778, 47.04312 ], [ 5.79633, 47.0365 ], [ 5.79918, 47.03361 ] ], [ [ 5.81303, 47.01962 ], [ 5.81486, 47.02018 ], [ 5.81578, 47.02173 ], [ 5.81627, 47.02931 ], [ 5.81456, 47.03382 ], [ 5.81513, 47.03598 ] ], [ [ 5.81746, 47.03823 ], [ 5.81818, 47.04071 ], [ 5.81628, 47.0429 ] ], [ [ 6.29958, 47.01075 ], [ 6.29831, 47.01373 ], [ 6.29301, 47.01695 ], [ 6.29627, 47.0192 ], [ 6.29711, 47.02267 ], [ 6.29363, 47.02387 ], [ 6.28922, 47.02261 ], [ 6.2878, 47.02091 ], [ 6.28659, 47.02114 ], [ 6.28605, 47.02704 ], [ 6.28263, 47.03572 ], [ 6.27993, 47.0371 ], [ 6.27425, 47.03745 ], [ 6.26927, 47.03917 ], [ 6.26429, 47.0385 ], [ 6.26123, 47.03953 ], [ 6.25946, 47.04134 ], [ 6.25594, 47.04055 ], [ 6.25402, 47.0422 ], [ 6.25083, 47.04251 ], [ 6.24872, 47.04401 ], [ 6.24288, 47.04429 ], [ 6.23714, 47.04676 ], [ 6.23728, 47.04974 ], [ 6.23437, 47.05007 ], [ 6.23161, 47.05363 ], [ 6.22732, 47.05538 ], [ 6.22701, 47.0572 ], [ 6.224, 47.05792 ], [ 6.22336, 47.06243 ], [ 6.21251, 47.06548 ], [ 6.20987, 47.06774 ], [ 6.20901, 47.07137 ], [ 6.18903, 47.07556 ], [ 6.18755, 47.07765 ], [ 6.18788, 47.0799 ], [ 6.1833, 47.08256 ], [ 6.18463, 47.08829 ], [ 6.18077, 47.0873 ], [ 6.17369, 47.09122 ], [ 6.1717, 47.09278 ], [ 6.17209, 47.09653 ], [ 6.16535, 47.09898 ], [ 6.16261, 47.10354 ], [ 6.16095, 47.10448 ], [ 6.15786, 47.10438 ], [ 6.15687, 47.10225 ], [ 6.15495, 47.10182 ], [ 6.15174, 47.10229 ], [ 6.14731, 47.10567 ], [ 6.14461, 47.10627 ], [ 6.13944, 47.10472 ], [ 6.13539, 47.1055 ], [ 6.1306, 47.10244 ], [ 6.12815, 47.10205 ], [ 6.12471, 47.10387 ], [ 6.12286, 47.10981 ], [ 6.11897, 47.11071 ], [ 6.11062, 47.11053 ], [ 6.10607, 47.11276 ], [ 6.10107, 47.1101 ], [ 6.09926, 47.10661 ], [ 6.09223, 47.10543 ], [ 6.08988, 47.10246 ], [ 6.08709, 47.10486 ], [ 6.08459, 47.10532 ], [ 6.08226, 47.10093 ], [ 6.07842, 47.10176 ], [ 6.07952, 47.0993 ], [ 6.07861, 47.09828 ], [ 6.07165, 47.09856 ], [ 6.07064, 47.0964 ], [ 6.07219, 47.09421 ], [ 6.06832, 47.09198 ], [ 6.06938, 47.08945 ], [ 6.06803, 47.08857 ], [ 6.05564, 47.08839 ], [ 6.05544, 47.08964 ], [ 6.05784, 47.09164 ], [ 6.05738, 47.09663 ], [ 6.05229, 47.09616 ], [ 6.0471, 47.09869 ], [ 6.04093, 47.09657 ], [ 6.03908, 47.09712 ], [ 6.03727, 47.09971 ], [ 6.03463, 47.09936 ], [ 6.03217, 47.09664 ], [ 6.03553, 47.093 ], [ 6.03547, 47.09175 ], [ 6.0297, 47.08871 ], [ 6.02805, 47.08479 ], [ 6.02436, 47.08357 ], [ 6.02416, 47.08074 ], [ 6.02201, 47.07815 ], [ 6.01276, 47.07559 ], [ 6.01168, 47.07029 ], [ 6.00469, 47.07059 ], [ 5.99715, 47.06771 ], [ 5.99518, 47.06851 ], [ 5.99423, 47.07147 ], [ 5.99249, 47.07282 ], [ 5.98688, 47.07252 ], [ 5.98174, 47.07343 ], [ 5.97959, 47.07578 ], [ 5.9852, 47.08111 ], [ 5.9851, 47.08969 ], [ 5.9832, 47.09174 ], [ 5.97305, 47.09033 ], [ 5.96958, 47.09119 ], [ 5.96841, 47.09267 ], [ 5.9695, 47.09467 ], [ 5.97664, 47.09816 ], [ 5.97854, 47.10105 ], [ 5.97803, 47.10308 ], [ 5.97586, 47.105 ], [ 5.97222, 47.10558 ], [ 5.96301, 47.10271 ], [ 5.95906, 47.10451 ], [ 5.95832, 47.10583 ], [ 5.95867, 47.10794 ], [ 5.96225, 47.11212 ], [ 5.95935, 47.11775 ], [ 5.96705, 47.12154 ], [ 5.96878, 47.1248 ], [ 5.96804, 47.13128 ], [ 5.95918, 47.13685 ], [ 5.95605, 47.14108 ], [ 5.95795, 47.14487 ], [ 5.96445, 47.14717 ], [ 5.96629, 47.14868 ], [ 5.96481, 47.15018 ], [ 5.95964, 47.15161 ], [ 5.95239, 47.14984 ], [ 5.94454, 47.15082 ], [ 5.93989, 47.14978 ], [ 5.93648, 47.14543 ], [ 5.93394, 47.13777 ], [ 5.92284, 47.13073 ], [ 5.92395, 47.1267 ], [ 5.92315, 47.12529 ], [ 5.91346, 47.12022 ], [ 5.91327, 47.11192 ], [ 5.91151, 47.1095 ], [ 5.90765, 47.10775 ], [ 5.88638, 47.10418 ], [ 5.88274, 47.09951 ], [ 5.87906, 47.09813 ], [ 5.87165, 47.0932 ], [ 5.87116, 47.09156 ], [ 5.87345, 47.08684 ], [ 5.87202, 47.08428 ], [ 5.86913, 47.08352 ], [ 5.86562, 47.08481 ], [ 5.86372, 47.08382 ], [ 5.86325, 47.08235 ], [ 5.86631, 47.07665 ], [ 5.86746, 47.07026 ], [ 5.85969, 47.06621 ], [ 5.85789, 47.06371 ], [ 5.85611, 47.05043 ], [ 5.85721, 47.04627 ], [ 5.8563, 47.03956 ], [ 5.85722, 47.03393 ], [ 5.85152, 47.02914 ], [ 5.8551, 47.02613 ], [ 5.85685, 47.02218 ], [ 5.85363, 47.01926 ], [ 5.85322, 47.01496 ], [ 5.8502, 47.01279 ], [ 5.84899, 47.00924 ], [ 5.84514, 47.0103 ], [ 5.84171, 47.00927 ], [ 5.83844, 47.00313 ] ] ] } },
{ "type": "Feature", "properties": { "name": "le Todeur", "weight_class": 1, "permanent": true, "length_km": 6.8 }, "geometry": { "type": "LineString", "coordinates": [ [ 5.91679, 46.9795 ], [ 5.9212, 46.98164 ], [ 5.92401, 46.98488 ], [ 5.92284, 46.98773 ], [ 5.92341, 46.9944 ], [ 5.92239, 46.99714 ], [ 5.92379, 47.00085 ], [ 5.92885, 47.00515 ], [ 5.93144, 47.0104 ], [ 5.94463, 47.01965 ], [ 5.94389, 47.02165 ], [ 5.94861, 47.02668 ], [ 5.94806, 47.02801 ] ] } },
{ "type": "Feature", "properties": { "name": "Bief de Vaux", "weight_class": 1, "permanent": true, "length_km": 4.2 }, "geometry": { "type": "LineString", "coordinates": [ [ 5.95922, 46.9544 ], [ 5.96038, 46.95597 ], [ 5.96337, 46.95699 ], [ 5.97095, 46.96466 ], [ 5.9764, 46.96771 ], [ 5.98689, 46.97201 ], [ 5.99893, 46.97556 ] ] } },
{ "type": "Feature", "properties": { "name": "Bief du Foure", "weight_class": 1, "permanent": true, "length_km": 3.2 }, "geometry": { "type": "LineString", "coordinates": [ [ 5.95895, 46.97943 ], [ 5.97303, 46.98058 ], [ 5.98218, 46.98012 ], [ 5.98777, 46.97811 ], [ 5.99848, 46.97673 ] ] } },
{ "type": "Feature", "properties": { "name": "Ruisseau de Château Renaud", "weight_class": 1, "permanent": true, "length_km": 4.7 }, "geometry": { "type": "LineString", "coordinates": [ [ 5.98433, 46.93793 ], [ 5.98599, 46.94113 ], [ 5.99235, 46.94335 ], [ 5.99367, 46.94472 ], [ 5.99321, 46.94602 ], [ 5.99841, 46.9492 ], [ 5.99574, 46.95229 ], [ 5.99615, 46.95406 ], [ 5.99829, 46.95548 ], [ 5.99804, 46.9609 ], [ 6.00227, 46.95964 ], [ 6.0093, 46.96044 ], [ 6.01262, 46.96334 ] ] } },
{ "type": "Feature", "properties": { "name": "Ruisseau de Montorge", "weight_class": 1, "permanent": true, "length_km": 3.2 }, "geometry": { "type": "LineString", "coordinates": [ [ 6.02167, 46.86996 ], [ 6.02237, 46.87117 ], [ 6.02143, 46.8726 ], [ 6.01365, 46.87747 ], [ 6.01208, 46.88332 ], [ 6.00692, 46.88812 ], [ 6.00387, 46.88858 ], [ 6.00062, 46.89089 ] ] } },
{ "type": "Feature", "properties": { "name": "Ruisseau de Boujaille", "weight_class": 1, "permanent": true, "length_km": 5.0 }, "geometry": { "type": "LineString", "coordinates": [ [ 6.06673, 46.87502 ], [ 6.07096, 46.87982 ], [ 6.08139, 46.88804 ], [ 6.09131, 46.89017 ], [ 6.09139, 46.8884 ], [ 6.08872, 46.88649 ], [ 6.08731, 46.88268 ], [ 6.08973, 46.88065 ], [ 6.10047, 46.8867 ] ] } },
{ "type": "Feature", "properties": { "name": "la Raie du Lotaud", "weight_class": 1, "permanent": true, "length_km": 5.1 }, "geometry": { "type": "LineString", "coordinates": [ [ 6.15943, 46.84122 ], [ 6.16755, 46.84379 ], [ 6.16726, 46.84095 ], [ 6.16867, 46.8391 ], [ 6.16725, 46.83629 ], [ 6.17077, 46.83465 ], [ 6.17207, 46.83241 ], [ 6.17715, 46.82991 ], [ 6.17911, 46.83192 ], [ 6.1861, 46.83519 ], [ 6.18775, 46.83248 ], [ 6.18971, 46.8328 ], [ 6.19125, 46.83466 ] ] } },
{ "type": "Feature", "properties": { "name": "le Cul du Bief", "weight_class": 1, "permanent": true, "length_km": 2.2 }, "geometry": { "type": "LineString", "coordinates": [ [ 6.18126, 46.6856 ], [ 6.18092, 46.68724 ], [ 6.18568, 46.69706 ], [ 6.19018, 46.70079 ], [ 6.19063, 46.70257 ] ] } },
{ "type": "Feature", "properties": { "name": "le Cébriot", "weight_class": 1, "permanent": true, "length_km": 9.0 }, "geometry": { "type": "LineString", "coordinates": [ [ 6.11478, 46.67578 ], [ 6.11881, 46.67543 ], [ 6.12913, 46.67749 ], [ 6.13546, 46.6805 ], [ 6.15058, 46.6856 ], [ 6.16064, 46.68783 ], [ 6.16572, 46.69054 ], [ 6.16663, 46.69245 ], [ 6.17713, 46.6966 ], [ 6.18302, 46.6978 ], [ 6.18968, 46.70284 ], [ 6.19118, 46.70285 ], [ 6.1932, 46.7057 ], [ 6.19126, 46.7073 ], [ 6.19238, 46.70733 ], [ 6.19245, 46.7092 ], [ 6.19384, 46.70963 ] ] } },
{ "type": "Feature", "properties": { "name": "Bief Brideau", "weight_class": 1, "permanent": true, "length_km": 2.5 }, "geometry": { "type": "LineString", "coordinates": [ [ 6.11551, 46.66696 ], [ 6.11001, 46.66406 ], [ 6.10111, 46.66593 ], [ 6.0999, 46.6687 ], [ 6.09266, 46.6664 ], [ 6.09042, 46.66668 ] ] } },
{ "type": "Feature", "properties": { "name": "l'Ognon", "weight_class": 4, "permanent": true, "length_km": 84.9 }, "geometry": { "type": "MultiLineString", "coordinates": [ [ [ 5.74396, 47.26604 ], [ 5.74442, 47.26455 ], [ 5.74202, 47.26423 ], [ 5.73941, 47.26252 ], [ 5.73977, 47.2667 ], [ 5.73738, 47.26649 ], [ 5.73524, 47.26344 ], [ 5.73023, 47.26435 ], [ 5.72993, 47.26553 ], [ 5.73355, 47.26708 ], [ 5.73275, 47.26811 ], [ 5.72789, 47.26636 ], [ 5.72581, 47.26841 ], [ 5.7229, 47.26692 ], [ 5.71985, 47.26827 ], [ 5.71688, 47.2682 ], [ 5.71761, 47.26998 ], [ 5.71269, 47.27015 ], [ 5.70987, 47.26816 ], [ 5.69915, 47.26486 ], [ 5.69653, 47.26616 ], [ 5.69897, 47.26863 ] ], [ [ 5.77072, 47.28058 ], [ 5.77249, 47.27943 ], [ 5.77196, 47.27746 ], [ 5.76679, 47.27669 ], [ 5.76389, 47.27367 ], [ 5.76264, 47.27612 ], [ 5.75748, 47.2764 ], [ 5.75491, 47.27296 ], [ 5.75135, 47.27307 ], [ 5.75154, 47.27145 ], [ 5.74994, 47.27047 ], [ 5.74723, 47.27089 ], [ 5.74457, 47.26707 ] ], [ [ 5.80266, 47.29235 ], [ 5.80064, 47.29164 ], [ 5.80051, 47.28992 ], [ 5.79708, 47.28947 ], [ 5.79116, 47.28985 ], [ 5.78407, 47.29238 ], [ 5.78191, 47.29217 ] ], [ [ 5.81459, 47.29476 ], [ 5.81278, 47.2931 ], [ 5.81165, 47.2969 ], [ 5.80811, 47.29423 ], [ 5.80481, 47.29312 ] ], [ [ 5.86706, 47.31647 ], [ 5.86092, 47.31582 ], [ 5.86007, 47.31465 ], [ 5.86087, 47.31299 ], [ 5.85967, 47.31198 ], [ 5.85499, 47.30969 ], [ 5.85168, 47.30932 ], [ 5.85354, 47.30606 ], [ 5.84958, 47.30594 ], [ 5.84841, 47.30396 ], [ 5.84466, 47.3023 ], [ 5.84482, 47.30041 ], [ 5.83794, 47.30027 ], [ 5.83132, 47.29877 ] ], [ [ 5.87425, 47.3153 ], [ 5.87348, 47.31394 ], [ 5.87059, 47.31455 ] ], [ [ 5.89355, 47.31141 ], [ 5.89441, 47.3145 ], [ 5.89103, 47.31465 ], [ 5.8888, 47.31574 ], [ 5.88924, 47.31896 ], [ 5.88769, 47.3198 ] ], [ [ 5.89397, 47.31053 ], [ 5.89313, 47.31086 ] ], [ [ 5.92494, 47.33834 ], [ 5.93085, 47.33149 ], [ 5.93166, 47.32919 ], [ 5.93041, 47.32772 ], [ 5.92742, 47.32707 ], [ 5.92082, 47.32771 ], [ 5.91525, 47.33089 ], [ 5.9127, 47.32973 ], [ 5.91133, 47.33073 ], [ 5.9129, 47.33272 ], [ 5.91087, 47.33297 ], [ 5.90831, 47.33151 ], [ 5.90592, 47.33219 ], [ 5.90542, 47.33414 ], [ 5.90399, 47.33459 ], [ 5.90296, 47.33244 ], [ 5.9006, 47.3313 ], [ 5.90051, 47.32974 ], [ 5.8965, 47.32895 ], [ 5.89751, 47.32332 ] ], [ [ 5.89905, 47.32192 ], [ 5.89971, 47.31953 ] ], [ [ 5.90134, 47.3172 ], [ 5.90235, 47.31535 ], [ 5.89849, 47.31098 ] ], [ [ 5.96046, 47.34139 ], [ 5.95906, 47.34123 ], [ 5.95873, 47.33944 ], [ 5.95742, 47.33884 ], [ 5.95353, 47.34062 ], [ 5.94372, 47.34077 ], [ 5.94204, 47.34185 ], [ 5.94146, 47.3443 ], [ 5.94012, 47.34194 ], [ 5.92826, 47.34523 ], [ 5.92448, 47.34224 ], [ 5.92459, 47.33995 ] ], [ [ 5.96753, 47.33632 ], [ 5.96082, 47.33809 ], [ 5.95996, 47.33935 ], [ 5.96083, 47.341 ] ], [ [ 5.98018, 47.32661 ], [ 5.97882, 47.32553 ], [ 5.97634, 47.32634 ], [ 5.97158, 47.33037 ], [ 5.97083, 47.33427 ] ], [ [ 5.9925, 47.33299 ], [ 5.9934, 47.32897 ], [ 5.98882, 47.32737 ], [ 5.98688, 47.32782 ], [ 5.98832, 47.32917 ], [ 5.98795, 47.33044 ], [ 5.98535, 47.3306 ] ], [ [ 6.00042, 47.34 ], [ 5.99732, 47.34024 ] ], [ [ 6.05458, 47.3493 ], [ 6.05102, 47.34912 ], [ 6.04792, 47.34629 ], [ 6.04561, 47.34571 ], [ 6.04295, 47.3465 ], [ 6.04155, 47.34862 ] ], [ [ 6.10341, 47.36806 ], [ 6.09988, 47.3716 ], [ 6.09644, 47.37069 ], [ 6.08987, 47.37304 ], [ 6.08571, 47.37273 ], [ 6.08194, 47.37097 ], [ 6.08206, 47.35769 ], [ 6.08025, 47.35417 ], [ 6.07609, 47.35404 ], [ 6.07437, 47.3511 ], [ 6.06791, 47.34938 ], [ 6.05555, 47.34969 ] ], [ [ 6.11524, 47.39002 ], [ 6.11353, 47.38721 ], [ 6.10533, 47.38433 ], [ 6.10347, 47.37977 ], [ 6.10769, 47.37597 ], [ 6.11348, 47.37431 ], [ 6.11971, 47.36852 ], [ 6.1199, 47.36672 ], [ 6.11804, 47.36507 ], [ 6.11496, 47.36453 ], [ 6.11513, 47.36153 ], [ 6.11123, 47.36038 ], [ 6.10234, 47.36148 ], [ 6.10348, 47.36552 ] ], [ [ 6.16162, 47.38911 ], [ 6.15944, 47.38781 ], [ 6.15523, 47.39077 ] ], [ [ 6.17218, 47.39695 ], [ 6.1707, 47.38992 ], [ 6.16889, 47.38939 ], [ 6.16253, 47.39018 ] ], [ [ 6.17569, 47.41684 ], [ 6.17449, 47.41464 ], [ 6.17516, 47.41241 ], [ 6.17238, 47.41157 ], [ 6.17055, 47.41196 ], [ 6.17233, 47.4077 ], [ 6.17569, 47.40651 ], [ 6.18051, 47.40708 ], [ 6.17968, 47.40555 ], [ 6.18057, 47.40525 ], [ 6.19322, 47.40585 ], [ 6.19492, 47.40374 ], [ 6.1935, 47.40145 ], [ 6.19044, 47.40133 ], [ 6.18613, 47.39953 ], [ 6.1794, 47.40165 ], [ 6.17688, 47.40101 ] ], [ [ 6.2566, 47.42728 ], [ 6.2562, 47.42466 ], [ 6.25234, 47.42423 ], [ 6.24648, 47.42606 ], [ 6.23885, 47.43189 ], [ 6.23418, 47.43071 ], [ 6.23311, 47.42878 ], [ 6.23402, 47.42505 ], [ 6.24166, 47.41874 ], [ 6.2416, 47.41359 ], [ 6.24008, 47.41282 ], [ 6.2363, 47.4145 ], [ 6.23204, 47.41414 ], [ 6.22781, 47.41848 ], [ 6.2267, 47.4218 ], [ 6.21855, 47.42259 ], [ 6.21529, 47.42206 ], [ 6.21596, 47.42382 ], [ 6.21135, 47.42588 ], [ 6.21073, 47.42761 ], [ 6.20813, 47.42863 ], [ 6.20654, 47.43136 ], [ 6.20363, 47.43342 ], [ 6.20073, 47.43194 ], [ 6.19891, 47.42938 ], [ 6.19561, 47.42793 ], [ 6.19449, 47.42427 ], [ 6.19683, 47.42055 ], [ 6.19984, 47.41866 ], [ 6.19868, 47.41785 ], [ 6.19421, 47.41811 ], [ 6.19314, 47.41541 ], [ 6.1949, 47.41522 ], [ 6.19657, 47.41634 ], [ 6.19498, 47.41434 ], [ 6.19237, 47.41332 ], [ 6.1906, 47.41528 ], [ 6.18596, 47.4144 ], [ 6.17968, 47.41657 ] ], [ [ 6.26191, 47.44084 ], [ 6.26228, 47.43861 ], [ 6.26069, 47.43499 ], [ 6.26223, 47.43051 ], [ 6.26001, 47.42717 ], [ 6.25682, 47.42758 ] ], [ [ 6.28533, 47.45818 ], [ 6.28578, 47.45602 ], [ 6.28443, 47.4532 ], [ 6.28222, 47.45178 ] ], [ [ 6.29904, 47.48115 ], [ 6.30169, 47.47362 ], [ 6.3009, 47.47079 ], [ 6.30181, 47.46892 ], [ 6.29778, 47.46658 ], [ 6.29376, 47.46581 ], [ 6.29228, 47.46232 ], [ 6.28609, 47.46006 ] ], [ [ 6.31995, 47.48851 ], [ 6.32143, 47.48518 ], [ 6.3326, 47.48019 ], [ 6.33296, 47.47764 ], [ 6.33162, 47.47615 ], [ 6.32583, 47.47431 ], [ 6.32209, 47.47442 ], [ 6.31278, 47.47953 ], [ 6.31004, 47.48287 ], [ 6.30496, 47.48458 ], [ 6.30216, 47.48433 ], [ 6.29988, 47.48275 ] ], [ [ 6.32888, 47.49895 ], [ 6.32647, 47.49198 ], [ 6.32389, 47.49135 ] ], [ [ 6.34769, 47.50678 ], [ 6.34755, 47.50521 ], [ 6.33553, 47.50646 ] ], [ [ 6.36628, 47.51304 ], [ 6.3609, 47.51125 ], [ 6.35819, 47.50846 ], [ 6.35289, 47.50777 ] ] ] } },
{ "type": "Feature", "properties": { "name": "Ruisseau du Jonchet", "weight_class": 1, "permanent": true, "length_km": 3.3 }, "geometry": { "type": "LineString", "coordinates": [ [ 5.9942, 47.3094 ], [ 5.99506, 47.31359 ], [ 5.99363, 47.31535 ], [ 5.99122, 47.31574 ], [ 5.98854, 47.31393 ], [ 5.98442, 47.31336 ], [ 5.98175, 47.31503 ], [ 5.97551, 47.32282 ], [ 5.97509, 47.32543 ], [ 5.97625, 47.32643 ] ] } },
{ "type": "Feature", "properties": { "name": "Ruisseau de l'Étang", "weight_class": 1, "permanent": true, "length_km": 3.4 }, "geometry": { "type": "LineString", "coordinates": [ [ 5.92041, 47.30138 ], [ 5.92255, 47.30724 ], [ 5.92237, 47.31251 ], [ 5.91761, 47.31318 ], [ 5.90272, 47.30886 ], [ 5.89849, 47.31098 ] ] } },
{ "type": "Feature", "properties": { "name": "Canal de Montbéliard à la Haute-Saône", "weight_class": 3, "permanent": true, "length_km": 4.3 }, "geometry": { "type": "LineString", "coordinates": [ [ 6.86631, 47.5508 ], [ 6.85985, 47.52833 ], [ 6.86206, 47.52545 ], [ 6.86441, 47.52434 ], [ 6.87436, 47.52307 ], [ 6.87979, 47.52361 ] ] } }
]
}
