{
"type": "FeatureCollection",
"name": "dep78_overview.geojson",
"crs": { "type": "name", "properties": { "name": "urn:ogc:def:crs:OGC:1.3:CRS84" } },
"xy_coordinate_resolution": 1e-05,
"features": [
{ "type": "Feature", "properties": { "name": "l'Oise", "weight_class": 4, "permanent": true, "length_km": 6.7 }, "geometry": { "type": "LineString", "coordinates": [ [ 2.04112, 49.03699 ], [ 2.03672, 49.03214 ], [ 2.03771, 49.02871 ], [ 2.04342, 49.02245 ], [ 2.06754, 49.00622 ], [ 2.07116, 49.00243 ], [ 2.07213, 48.99946 ], [ 2.07174, 48.98632 ] ] } },
{ "type": "Feature", "properties": { "name": "l'Orge", "weight_class": 1, "permanent": true, "length_km": 9.8 }, "geometry": { "type": "MultiLineString", "coordinates": [ [ [ 1.89125, 48.52554 ], [ 1.88976, 48.52075 ], [ 1.89048, 48.51859 ], [ 1.89543, 48.5198 ], [ 1.89968, 48.51847 ], [ 1.90412, 48.51665 ], [ 1.9039, 48.5144 ], [ 1.90588, 48.51288 ], [ 1.91511, 48.51214 ], [ 1.91841, 48.50809 ], [ 1.92398, 48.50933 ], [ 1.92953, 48.50823 ], [ 1.93086, 48.51087 ], [ 1.93627, 48.51221 ], [ 1.93856, 48.51396 ], [ 1.94249, 48.51482 ], [ 1.94585, 48.51359 ], [ 1.94607, 48.51788 ] ], [ [ 1.94638, 48.51805 ], [ 1.95073, 48.51998 ] ], [ [ 1.95367, 48.52237 ], [ 1.95293, 48.52357 ], [ 1.96018, 48.5293 ], [ 1.96958, 48.52826 ], [ 1.97755, 48.52876 ] ] ] } },
{ "type": "Feature", "properties": { "name": "Petit Bras de la Garenne", "weight_class": 4, "permanent": true, "length_km": 2.1 }, "geometry": { "type": "LineString", "coordinates": [ [ 2.1517, 48.98652 ], [ 2.14015, 48.98828 ], [ 2.12816, 48.98896 ], [ 2.12496, 48.99066 ] ] } },
{ "type": "Feature", "properties": { "name": "la Bièvre", "weight_class": 1, "permanent": true, "length_km": 13.3 }, "geometry": { "type": "MultiLineString", "coordinates": [ [ [ 2.04919, 48.77974 ], [ 2.06087, 48.77745 ], [ 2.07055, 48.78151 ], [ 2.07561, 48.78183 ], [ 2.07764, 48.78349 ], [ 2.08202, 48.78492 ], [ 2.08601, 48.78211 ], [ 2.08971, 48.78159 ], [ 2.09229, 48.77993 ], [ 2.09866, 48.78038 ], [ 2.0989, 48.7776 ], [ 2.10056, 48.77584 ], [ 2.10894, 48.7744 ], [ 2.11191, 48.77641 ], [ 2.11952, 48.7769 ], [ 2.12522, 48.77491 ], [ 2.13071, 48.77466 ], [ 2.13382, 48.77282 ] ], [ [ 2.13382, 48.77282 ], [ 2.13898, 48.77243 ], [ 2.14087, 48.77112 ] ], [ [ 2.13382, 48.77282 ], [ 2.13963, 48.77079 ], [ 2.14087, 48.77112 ] ], [ [ 2.14087, 48.77112 ], [ 2.14956, 48.76776 ], [ 2.15785, 48.76695 ], [ 2.16166, 48.76426 ], [ 2.1657, 48.76392 ], [ 2.16975, 48.76492 ], [ 2.17438, 48.76367 ], [ 2.18349, 48.76374 ], [ 2.19274, 48.76032 ] ] ] } },
{ "type": "Feature", "properties": { "name": "Fossé 01 de la Commune de Feucherolles", "weight_class": 1, "permanent": false, "length_km": 3.1 }, "geometry": { "type": "LineString", "coordinates": [ [ 1.96736, 48.8723 ], [ 1.96694, 48.87102 ], [ 1.95083, 48.87013 ], [ 1.94826, 48.86776 ], [ 1.94022, 48.86726 ], [ 1.9388, 48.86774 ], [ 1.93546, 48.87322 ] ] } },
{ "type": "Feature", "properties": { "name": "Cours d'Eau 01 de la Commune de Poissy", "weight_class": 1, "permanent": true, "length_km": 2.5 }, "geometry": { "type": "LineString", "coordinates": [ [ 1.99639, 48.91389 ], [ 1.99978, 48.91519 ], [ 2.00265, 48.91808 ], [ 2.01136, 48.9218 ], [ 2.01606, 48.92285 ], [ 2.01639, 48.92856 ] ] } },
{ "type": "Feature", "properties": { "name": "Fossé 01 de la Commune de Fourqueux", "weight_class": 1, "permanent": false, "length_km": 2.4 }, "geometry": { "type": "LineString", "coordinates": [ [ 2.04221, 48.87827 ], [ 2.04692, 48.8788 ], [ 2.05458, 48.88382 ], [ 2.06233, 48.89377 ] ] } },
{ "type": "Feature", "properties": { "name": "Bras d'Andrésy", "weight_class": 4, "permanent": true, "length_km": 4.7 }, "geometry": { "type": "LineString", "coordinates": [ [ 2.06787, 48.98435 ], [ 2.06337, 48.98304 ], [ 2.05316, 48.9731 ], [ 2.04768, 48.96613 ], [ 2.04542, 48.94986 ], [ 2.04642, 48.94815 ] ] } },
{ "type": "Feature", "properties": { "name": "Bras de Vaux", "weight_class": 3, "permanent": true, "length_km": 2.8 }, "geometry": { "type": "LineString", "coordinates": [ [ 1.97543, 48.99616 ], [ 1.97523, 48.99731 ], [ 1.96382, 49.00443 ], [ 1.94975, 49.00775 ], [ 1.9462, 49.00765 ], [ 1.94534, 49.00653 ] ] } },
{ "type": "Feature", "properties": { "name": "Bras des Moteaux", "weight_class": 4, "permanent": true, "length_km": 2.9 }, "geometry": { "type": "LineString", "coordinates": [ [ 2.00168, 48.94617 ], [ 2.00257, 48.97207 ] ] } },
{ "type": "Feature", "properties": { "name": "Bras de la Petite Rivière", "weight_class": 3, "permanent": true, "length_km": 2.5 }, "geometry": { "type": "LineString", "coordinates": [ [ 2.13332, 48.92966 ], [ 2.1328, 48.93146 ], [ 2.14866, 48.94236 ], [ 2.15256, 48.94364 ], [ 2.15566, 48.9431 ] ] } },
{ "type": "Feature", "properties": { "name": "Bras de Marly", "weight_class": 4, "permanent": true, "length_km": 10.3 }, "geometry": { "type": "LineString", "coordinates": [ [ 2.20059, 48.90868 ], [ 2.19261, 48.9048 ], [ 2.17737, 48.90067 ], [ 2.17071, 48.89689 ], [ 2.16338, 48.88857 ], [ 2.16316, 48.88276 ], [ 2.15817, 48.88051 ], [ 2.15216, 48.87246 ], [ 2.14895, 48.86978 ], [ 2.14517, 48.86833 ], [ 2.13612, 48.86812 ], [ 2.12743, 48.8703 ], [ 2.11155, 48.88123 ], [ 2.1104, 48.88745 ] ] } },
{ "type": "Feature", "properties": { "name": "Ru de Buzot", "weight_class": 1, "permanent": true, "length_km": 9.4 }, "geometry": { "type": "LineString", "coordinates": [ [ 2.0042, 48.89349 ], [ 2.01291, 48.89608 ], [ 2.01775, 48.89223 ], [ 2.02702, 48.89209 ], [ 2.03112, 48.89327 ], [ 2.0366, 48.89349 ], [ 2.04286, 48.89694 ], [ 2.04923, 48.89904 ], [ 2.05936, 48.89661 ], [ 2.06186, 48.89381 ], [ 2.06641, 48.89518 ], [ 2.06967, 48.89784 ], [ 2.08045, 48.89575 ], [ 2.08757, 48.89046 ], [ 2.09671, 48.8864 ], [ 2.10843, 48.88989 ] ] } },
{ "type": "Feature", "properties": { "name": "Ru de Chèvreloup", "weight_class": 1, "permanent": false, "length_km": 4.1 }, "geometry": { "type": "LineString", "coordinates": [ [ 2.11136, 48.83271 ], [ 2.10832, 48.83064 ], [ 2.10344, 48.82958 ], [ 2.10014, 48.83046 ], [ 2.08145, 48.82971 ], [ 2.07057, 48.83154 ], [ 2.06512, 48.83121 ], [ 2.0648, 48.82987 ], [ 2.06206, 48.82977 ] ] } },
{ "type": "Feature", "properties": { "name": "Rigole de Guyancourt", "weight_class": 1, "permanent": true, "length_km": 2.8 }, "geometry": { "type": "LineString", "coordinates": [ [ 2.08306, 48.76086 ], [ 2.08754, 48.75746 ], [ 2.09497, 48.75573 ], [ 2.09903, 48.75642 ], [ 2.10507, 48.75498 ], [ 2.11403, 48.74938 ] ] } },
{ "type": "Feature", "properties": { "name": "Fossé 01 de Garnes", "weight_class": 1, "permanent": false, "length_km": 2.7 }, "geometry": { "type": "LineString", "coordinates": [ [ 1.94516, 48.6893 ], [ 1.95252, 48.68626 ], [ 1.9613, 48.68455 ], [ 1.965, 48.68513 ], [ 1.96861, 48.68753 ], [ 1.97564, 48.68506 ] ] } },
{ "type": "Feature", "properties": { "name": "Fossé 01 de Maincourt-sur-Yvette", "weight_class": 1, "permanent": false, "length_km": 2.4 }, "geometry": { "type": "LineString", "coordinates": [ [ 1.96265, 48.71832 ], [ 1.97212, 48.7152 ], [ 1.97948, 48.71097 ], [ 1.98115, 48.71109 ], [ 1.98855, 48.70777 ] ] } },
{ "type": "Feature", "properties": { "name": "Fossé 01 de Saint-Robert", "weight_class": 1, "permanent": false, "length_km": 4.5 }, "geometry": { "type": "LineString", "coordinates": [ [ 1.97567, 48.65862 ], [ 1.96587, 48.66182 ], [ 1.96292, 48.66429 ], [ 1.95367, 48.66635 ], [ 1.9491, 48.66841 ], [ 1.94408, 48.66801 ], [ 1.94057, 48.6662 ], [ 1.93992, 48.66435 ], [ 1.94324, 48.65387 ] ] } },
{ "type": "Feature", "properties": { "name": "Ru de l'Arcy", "weight_class": 1, "permanent": true, "length_km": 3.5 }, "geometry": { "type": "LineString", "coordinates": [ [ 2.02437, 48.81238 ], [ 2.02435, 48.81528 ], [ 2.02132, 48.81838 ], [ 2.01999, 48.82209 ], [ 2.01707, 48.82375 ], [ 2.01075, 48.82428 ], [ 2.00918, 48.82697 ], [ 2.00795, 48.82706 ], [ 2.00797, 48.82927 ], [ 2.01561, 48.83439 ] ] } },
{ "type": "Feature", "properties": { "name": "Rigole de Guyancourt", "weight_class": 1, "permanent": true, "length_km": 3.1 }, "geometry": { "type": "LineString", "coordinates": [ [ 2.07538, 48.77165 ], [ 2.08527, 48.77013 ], [ 2.08483, 48.7667 ], [ 2.08584, 48.76608 ], [ 2.09536, 48.76514 ], [ 2.09238, 48.76077 ], [ 2.08925, 48.75973 ], [ 2.08801, 48.75735 ] ] } },
{ "type": "Feature", "properties": { "name": "Rigole du Petit Lit de Rivière", "weight_class": 1, "permanent": false, "length_km": 2.1 }, "geometry": { "type": "LineString", "coordinates": [ [ 1.99074, 48.79058 ], [ 1.99513, 48.79463 ], [ 2.00665, 48.79389 ], [ 2.01027, 48.79046 ], [ 2.01313, 48.79051 ] ] } },
{ "type": "Feature", "properties": { "name": "Cours d'Eau 01 de la Commune de Toussus-le-Noble", "weight_class": 1, "permanent": true, "length_km": 4.3 }, "geometry": { "type": "LineString", "coordinates": [ [ 2.12071, 48.75262 ], [ 2.12093, 48.75326 ], [ 2.12686, 48.7516 ], [ 2.13293, 48.75365 ], [ 2.14156, 48.75499 ], [ 2.14524, 48.75765 ], [ 2.15129, 48.75774 ], [ 2.15861, 48.76039 ], [ 2.16388, 48.75973 ], [ 2.16534, 48.76182 ], [ 2.1635, 48.7641 ] ] } },
{ "type": "Feature", "properties": { "name": "Ru du Bois Robert", "weight_class": 1, "permanent": false, "length_km": 2.2 }, "geometry": { "type": "LineString", "coordinates": [ [ 2.05941, 48.79176 ], [ 2.06641, 48.78887 ], [ 2.07404, 48.78745 ], [ 2.08185, 48.7881 ], [ 2.08202, 48.78492 ] ] } },
{ "type": "Feature", "properties": { "name": "Aqueduc de Saclay", "weight_class": 1, "permanent": true, "length_km": 17.9 }, "geometry": { "type": "LineString", "coordinates": [ [ 2.03207, 48.78569 ], [ 2.03433, 48.78589 ], [ 2.04502, 48.78241 ], [ 2.05998, 48.77979 ], [ 2.06569, 48.78828 ], [ 2.06286, 48.79009 ], [ 2.06333, 48.79067 ], [ 2.06648, 48.78925 ], [ 2.07002, 48.7889 ], [ 2.07508, 48.78864 ], [ 2.0792, 48.78941 ], [ 2.08343, 48.78883 ], [ 2.08536, 48.78457 ], [ 2.08957, 48.78422 ], [ 2.09143, 48.78251 ], [ 2.09495, 48.78311 ], [ 2.10305, 48.78002 ], [ 2.10562, 48.78097 ], [ 2.10712, 48.77962 ], [ 2.11234, 48.78056 ], [ 2.115, 48.77968 ], [ 2.11691, 48.78022 ], [ 2.13318, 48.79371 ], [ 2.13391, 48.78497 ], [ 2.13255, 48.77993 ], [ 2.13398, 48.77512 ], [ 2.1318, 48.77041 ], [ 2.12095, 48.75529 ], [ 2.12083, 48.75234 ], [ 2.12337, 48.75058 ], [ 2.13864, 48.74557 ], [ 2.14478, 48.74504 ], [ 2.15437, 48.74276 ] ] } },
{ "type": "Feature", "properties": { "name": "Rigole de Châteaufort", "weight_class": 1, "permanent": true, "length_km": 3.2 }, "geometry": { "type": "LineString", "coordinates": [ [ 2.07935, 48.74986 ], [ 2.08249, 48.7476 ], [ 2.08093, 48.74659 ], [ 2.08162, 48.74409 ], [ 2.08592, 48.74155 ], [ 2.08753, 48.73889 ], [ 2.094, 48.73803 ], [ 2.09524, 48.736 ], [ 2.09794, 48.73457 ], [ 2.09788, 48.73346 ], [ 2.10366, 48.73274 ] ] } },
{ "type": "Feature", "properties": { "name": "Rigole des Granges", "weight_class": 1, "permanent": true, "length_km": 2.9 }, "geometry": { "type": "LineString", "coordinates": [ [ 1.99349, 48.75921 ], [ 1.99824, 48.76019 ], [ 2.00562, 48.75968 ], [ 2.00794, 48.76059 ], [ 2.01127, 48.75864 ], [ 2.01343, 48.75897 ], [ 2.01547, 48.75718 ], [ 2.01401, 48.75406 ], [ 2.01806, 48.7526 ], [ 2.01943, 48.75094 ] ] } },
{ "type": "Feature", "properties": { "name": "Rigole des Clayes", "weight_class": 1, "permanent": false, "length_km": 7.2 }, "geometry": { "type": "LineString", "coordinates": [ [ 1.97414, 48.81195 ], [ 1.98196, 48.81076 ], [ 1.98779, 48.80818 ], [ 1.99663, 48.8077 ], [ 1.99829, 48.80648 ], [ 2.01532, 48.80158 ], [ 2.03256, 48.79977 ], [ 2.03955, 48.79622 ], [ 2.05614, 48.79379 ], [ 2.06185, 48.79223 ], [ 2.06121, 48.79112 ] ] } },
{ "type": "Feature", "properties": { "name": "Ruisseau de l'Oisemont", "weight_class": 1, "permanent": true, "length_km": 3.1 }, "geometry": { "type": "LineString", "coordinates": [ [ 2.0405, 48.8116 ], [ 2.038, 48.81695 ], [ 2.0401, 48.81995 ], [ 2.03689, 48.82488 ], [ 2.03036, 48.82926 ], [ 2.03276, 48.8354 ] ] } },
{ "type": "Feature", "properties": { "name": "la Mérantaise", "weight_class": 1, "permanent": true, "length_km": 11.7 }, "geometry": { "type": "MultiLineString", "coordinates": [ [ [ 2.00315, 48.76548 ], [ 2.01245, 48.76086 ], [ 2.0205, 48.75904 ], [ 2.02339, 48.75633 ], [ 2.03057, 48.75601 ], [ 2.037, 48.75413 ], [ 2.03949, 48.75239 ], [ 2.04177, 48.74839 ], [ 2.04521, 48.74918 ], [ 2.04682, 48.74798 ], [ 2.05629, 48.74883 ], [ 2.06473, 48.7463 ], [ 2.06714, 48.74439 ], [ 2.07286, 48.7447 ], [ 2.08221, 48.74018 ], [ 2.08448, 48.73701 ] ], [ [ 2.08448, 48.73701 ], [ 2.09077, 48.73175 ] ], [ [ 2.08448, 48.73701 ], [ 2.08426, 48.7359 ], [ 2.08809, 48.7318 ], [ 2.0903, 48.73101 ], [ 2.09077, 48.73175 ] ], [ [ 2.09077, 48.73175 ], [ 2.09837, 48.73079 ], [ 2.10216, 48.72798 ], [ 2.10632, 48.72771 ], [ 2.1117, 48.72233 ] ] ] } },
{ "type": "Feature", "properties": { "name": "Ruisseau de Vauhalan", "weight_class": 1, "permanent": true, "length_km": 4.0 }, "geometry": { "type": "LineString", "coordinates": [ [ 2.11403, 48.74938 ], [ 2.11606, 48.749 ], [ 2.11993, 48.74565 ], [ 2.12266, 48.74278 ], [ 2.12256, 48.74113 ], [ 2.13271, 48.73929 ], [ 2.13326, 48.73771 ], [ 2.13569, 48.73729 ], [ 2.14358, 48.74237 ], [ 2.14755, 48.7432 ], [ 2.1546, 48.74266 ] ] } },
{ "type": "Feature", "properties": { "name": "le Rhodon", "weight_class": 1, "permanent": true, "length_km": 10.0 }, "geometry": { "type": "LineString", "coordinates": [ [ 1.98435, 48.7459 ], [ 1.99265, 48.74806 ], [ 1.99683, 48.74755 ], [ 1.99867, 48.74816 ], [ 2.00286, 48.7468 ], [ 2.00626, 48.74725 ], [ 2.01845, 48.74223 ], [ 2.02169, 48.73902 ], [ 2.02212, 48.73428 ], [ 2.02636, 48.72984 ], [ 2.03999, 48.72787 ], [ 2.04469, 48.72543 ], [ 2.05187, 48.72562 ], [ 2.05673, 48.7249 ], [ 2.05836, 48.72368 ], [ 2.06066, 48.72394 ], [ 2.06506, 48.72069 ], [ 2.06531, 48.71909 ], [ 2.06813, 48.71669 ], [ 2.06902, 48.70901 ], [ 2.07121, 48.70671 ], [ 2.07032, 48.70543 ] ] } },
{ "type": "Feature", "properties": { "name": "Ruisseau de Montabé", "weight_class": 1, "permanent": true, "length_km": 3.0 }, "geometry": { "type": "LineString", "coordinates": [ [ 2.06526, 48.68645 ], [ 2.06269, 48.69025 ], [ 2.06607, 48.69298 ], [ 2.06398, 48.695 ], [ 2.06472, 48.70032 ], [ 2.06723, 48.70055 ], [ 2.06559, 48.70403 ], [ 2.06863, 48.70545 ] ] } },
{ "type": "Feature", "properties": { "name": "Rouillon de Valence", "weight_class": 1, "permanent": true, "length_km": 2.9 }, "geometry": { "type": "LineString", "coordinates": [ [ 1.94967, 48.70598 ], [ 1.95436, 48.70554 ], [ 1.96303, 48.70239 ], [ 1.96594, 48.70314 ], [ 1.98324, 48.70056 ], [ 1.98507, 48.70132 ] ] } },
{ "type": "Feature", "properties": { "name": "Ru d'Ecosse Bouton", "weight_class": 1, "permanent": true, "length_km": 4.7 }, "geometry": { "type": "LineString", "coordinates": [ [ 2.00868, 48.67585 ], [ 2.01434, 48.6818 ], [ 2.01858, 48.68266 ], [ 2.01906, 48.68419 ], [ 2.0215, 48.68474 ], [ 2.01868, 48.68869 ], [ 2.02094, 48.69459 ], [ 2.02937, 48.69894 ], [ 2.03141, 48.70282 ], [ 2.03409, 48.70317 ], [ 2.03643, 48.70487 ] ] } },
{ "type": "Feature", "properties": { "name": "le Rouillon", "weight_class": 1, "permanent": false, "length_km": 2.4 }, "geometry": { "type": "LineString", "coordinates": [ [ 1.99133, 48.66692 ], [ 1.97466, 48.672 ], [ 1.96417, 48.67684 ] ] } },
{ "type": "Feature", "properties": { "name": "la Gloriette", "weight_class": 1, "permanent": true, "length_km": 9.5 }, "geometry": { "type": "MultiLineString", "coordinates": [ [ [ 2.00213, 48.65015 ], [ 2.01459, 48.6472 ], [ 2.01882, 48.64504 ] ], [ [ 2.04644, 48.6215 ], [ 2.0469, 48.62041 ], [ 2.04236, 48.61322 ], [ 2.02043, 48.60665 ], [ 2.01238, 48.60128 ], [ 2.01116, 48.59912 ], [ 2.01019, 48.59915 ], [ 2.01085, 48.59839 ], [ 2.00932, 48.59599 ] ], [ [ 2.00932, 48.59599 ], [ 2.00833, 48.59525 ], [ 2.01172, 48.59267 ], [ 2.01182, 48.59061 ], [ 2.01468, 48.5897 ] ], [ [ 2.00932, 48.59599 ], [ 2.01454, 48.59103 ], [ 2.01468, 48.5897 ] ], [ [ 2.01468, 48.5897 ], [ 2.01473, 48.58626 ], [ 2.01904, 48.58385 ], [ 2.02035, 48.58062 ], [ 2.0224, 48.579 ] ] ] } },
{ "type": "Feature", "properties": { "name": "Ruisseau de la Pierre du Jeu", "weight_class": 1, "permanent": false, "length_km": 3.4 }, "geometry": { "type": "LineString", "coordinates": [ [ 1.98788, 48.65018 ], [ 1.98015, 48.6479 ], [ 1.97816, 48.64444 ], [ 1.98237, 48.64164 ], [ 1.97983, 48.63433 ], [ 1.98146, 48.63381 ], [ 1.98121, 48.63234 ], [ 1.99004, 48.6305 ] ] } },
{ "type": "Feature", "properties": { "name": "Rivière Sainte-Anne/Ruisseau Sainte-Anne", "weight_class": 1, "permanent": true, "length_km": 5.7 }, "geometry": { "type": "LineString", "coordinates": [ [ 1.93094, 48.60236 ], [ 1.93333, 48.60217 ], [ 1.93953, 48.6034 ], [ 1.94136, 48.60476 ], [ 1.94981, 48.60598 ], [ 1.95486, 48.60967 ], [ 1.9749, 48.61332 ], [ 1.97737, 48.61294 ], [ 1.97964, 48.61044 ], [ 1.9841, 48.61075 ], [ 1.99336, 48.60455 ] ] } },
{ "type": "Feature", "properties": { "name": "Ruisseau de Rouillon", "weight_class": 1, "permanent": false, "length_km": 4.4 }, "geometry": { "type": "LineString", "coordinates": [ [ 1.97666, 48.55877 ], [ 1.98508, 48.55827 ], [ 1.99003, 48.55595 ], [ 1.9957, 48.55735 ], [ 1.99833, 48.55537 ], [ 2.00492, 48.55538 ], [ 2.01958, 48.55819 ], [ 2.02747, 48.55857 ], [ 2.03054, 48.56001 ] ] } },
{ "type": "Feature", "properties": { "name": "Ruisseau des Bois", "weight_class": 1, "permanent": false, "length_km": 3.9 }, "geometry": { "type": "LineString", "coordinates": [ [ 1.91751, 48.53334 ], [ 1.9235, 48.5307 ], [ 1.92929, 48.53122 ], [ 1.93117, 48.52809 ], [ 1.93721, 48.52414 ], [ 1.94, 48.52568 ], [ 1.95357, 48.52794 ], [ 1.95517, 48.52933 ], [ 1.95718, 48.52829 ], [ 1.9594, 48.52869 ] ] } },
{ "type": "Feature", "properties": { "name": "l'Epte", "weight_class": 3, "permanent": true, "length_km": 9.2 }, "geometry": { "type": "MultiLineString", "coordinates": [ [ [ 1.53209, 49.07167 ], [ 1.53113, 49.06991 ], [ 1.52973, 49.07047 ], [ 1.52594, 49.06982 ], [ 1.52582, 49.06889 ], [ 1.52378, 49.06914 ], [ 1.5231, 49.06825 ], [ 1.51974, 49.0698 ] ], [ [ 1.53909, 49.07345 ], [ 1.5344, 49.07108 ], [ 1.53323, 49.07174 ] ], [ [ 1.57966, 49.07847 ], [ 1.57305, 49.07821 ], [ 1.57251, 49.07683 ], [ 1.56985, 49.07607 ], [ 1.57052, 49.07492 ], [ 1.56899, 49.07306 ], [ 1.56699, 49.07297 ], [ 1.56491, 49.07144 ], [ 1.5579, 49.06911 ], [ 1.55303, 49.0705 ], [ 1.55038, 49.07259 ], [ 1.5429, 49.07244 ], [ 1.54201, 49.07361 ] ], [ [ 1.58944, 49.08107 ], [ 1.58877, 49.07999 ], [ 1.57966, 49.07847 ] ], [ [ 1.58944, 49.08107 ], [ 1.58054, 49.07958 ], [ 1.57966, 49.07847 ] ], [ [ 1.605, 49.08613 ], [ 1.60285, 49.08614 ], [ 1.60299, 49.08463 ], [ 1.59788, 49.08397 ], [ 1.59552, 49.08227 ], [ 1.59196, 49.08266 ], [ 1.58944, 49.08107 ] ] ] } },
{ "type": "Feature", "properties": { "name": "Ravine de la Mare de Magny", "weight_class": 1, "permanent": false, "length_km": 3.6 }, "geometry": { "type": "LineString", "coordinates": [ [ 1.81363, 49.07381 ], [ 1.81568, 49.0728 ], [ 1.82072, 49.0724 ], [ 1.82532, 49.06632 ], [ 1.82833, 49.06508 ], [ 1.83009, 49.06034 ], [ 1.82971, 49.05713 ], [ 1.8315, 49.05462 ], [ 1.82692, 49.04902 ] ] } },
{ "type": "Feature", "properties": { "name": "Cours d'Eau 06 de la Commune de Blaru", "weight_class": 1, "permanent": true, "length_km": 5.7 }, "geometry": { "type": "LineString", "coordinates": [ [ 1.46652, 49.06016 ], [ 1.47195, 49.05808 ], [ 1.47397, 49.05468 ], [ 1.47848, 49.0523 ], [ 1.48709, 49.05158 ], [ 1.49148, 49.05627 ], [ 1.49693, 49.05851 ], [ 1.50261, 49.05914 ], [ 1.50479, 49.06045 ], [ 1.50965, 49.06628 ], [ 1.50933, 49.06987 ], [ 1.51317, 49.0763 ] ] } },
{ "type": "Feature", "properties": { "name": "Bras de l'Epte", "weight_class": 2, "permanent": true, "length_km": 2.9 }, "geometry": { "type": "LineString", "coordinates": [ [ 1.5579, 49.06911 ], [ 1.5574, 49.06794 ], [ 1.55534, 49.06788 ], [ 1.55268, 49.06575 ], [ 1.54669, 49.06466 ], [ 1.54574, 49.06378 ], [ 1.53956, 49.06392 ], [ 1.53522, 49.06303 ], [ 1.53539, 49.06186 ], [ 1.53402, 49.06147 ], [ 1.52948, 49.062 ], [ 1.52647, 49.061 ] ] } },
{ "type": "Feature", "properties": { "name": "Fossé du Marais", "weight_class": 1, "permanent": false, "length_km": 5.2 }, "geometry": { "type": "LineString", "coordinates": [ [ 1.60275, 49.08457 ], [ 1.60477, 49.08527 ], [ 1.6066, 49.08416 ], [ 1.60339, 49.08334 ], [ 1.60266, 49.08385 ], [ 1.59616, 49.08137 ], [ 1.58965, 49.07831 ], [ 1.58563, 49.07512 ], [ 1.57855, 49.07473 ], [ 1.57617, 49.07336 ], [ 1.56094, 49.06925 ], [ 1.55437, 49.06575 ], [ 1.55268, 49.06575 ] ] } },
{ "type": "Feature", "properties": { "name": "l'Aubette", "weight_class": 1, "permanent": true, "length_km": 4.3 }, "geometry": { "type": "LineString", "coordinates": [ [ 1.93666, 49.0303 ], [ 1.92935, 49.02623 ], [ 1.92627, 49.02604 ], [ 1.91946, 49.02117 ], [ 1.91652, 49.02061 ], [ 1.91361, 49.01872 ], [ 1.90966, 49.01394 ], [ 1.90305, 49.00917 ], [ 1.90543, 49.00335 ] ] } },
{ "type": "Feature", "properties": { "name": "Bras de la Seine", "weight_class": 3, "permanent": true, "length_km": 4.6 }, "geometry": { "type": "LineString", "coordinates": [ [ 1.69612, 49.06469 ], [ 1.69638, 49.06676 ], [ 1.69187, 49.06817 ], [ 1.68815, 49.07133 ], [ 1.67238, 49.07854 ], [ 1.65184, 49.08194 ], [ 1.64868, 49.08126 ], [ 1.6459, 49.07924 ] ] } },
{ "type": "Feature", "properties": { "name": "la Bernon", "weight_class": 1, "permanent": true, "length_km": 6.2 }, "geometry": { "type": "LineString", "coordinates": [ [ 1.80829, 49.06256 ], [ 1.81537, 49.05285 ], [ 1.82549, 49.04887 ], [ 1.82678, 49.04215 ], [ 1.8314, 49.0387 ], [ 1.84482, 49.03769 ], [ 1.84478, 49.03712 ], [ 1.84967, 49.03672 ], [ 1.85186, 49.03537 ], [ 1.86517, 49.03394 ] ] } },
{ "type": "Feature", "properties": { "name": "la Montcient", "weight_class": 1, "permanent": true, "length_km": 9.5 }, "geometry": { "type": "MultiLineString", "coordinates": [ [ [ 1.79383, 49.04998 ], [ 1.79853, 49.0416 ], [ 1.80119, 49.04011 ], [ 1.80471, 49.04029 ], [ 1.80818, 49.03576 ], [ 1.81542, 49.03143 ], [ 1.82203, 49.02964 ], [ 1.82985, 49.03026 ], [ 1.83586, 49.02843 ], [ 1.83837, 49.02998 ], [ 1.84219, 49.02908 ], [ 1.85005, 49.03023 ], [ 1.85315, 49.02906 ], [ 1.85995, 49.02897 ] ], [ [ 1.88154, 49.02367 ], [ 1.89083, 49.02181 ], [ 1.89795, 49.01751 ], [ 1.90499, 49.00519 ] ] ] } },
{ "type": "Feature", "properties": { "name": "Bras de la Seine", "weight_class": 4, "permanent": true, "length_km": 3.4 }, "geometry": { "type": "LineString", "coordinates": [ [ 1.6661, 49.04484 ], [ 1.67237, 49.04842 ], [ 1.68294, 49.05065 ], [ 1.69023, 49.05369 ], [ 1.69589, 49.06001 ], [ 1.69612, 49.06469 ] ] } },
{ "type": "Feature", "properties": { "name": "Fossé 01 de la Commune de Blaru", "weight_class": 1, "permanent": false, "length_km": 3.6 }, "geometry": { "type": "LineString", "coordinates": [ [ 1.4835, 49.02865 ], [ 1.48174, 49.03284 ], [ 1.48556, 49.03577 ], [ 1.48456, 49.03772 ], [ 1.48299, 49.03768 ], [ 1.48238, 49.03854 ], [ 1.48158, 49.04362 ], [ 1.4792, 49.04805 ], [ 1.48115, 49.05217 ], [ 1.48587, 49.05133 ], [ 1.48876, 49.05209 ] ] } },
{ "type": "Feature", "properties": { "name": "la Seine", "weight_class": 4, "permanent": true, "length_km": 112.6 }, "geometry": { "type": "MultiLineString", "coordinates": [ [ [ 1.53199, 49.04941 ], [ 1.52487, 49.06407 ], [ 1.50176, 49.0867 ] ], [ [ 1.55876, 49.03535 ], [ 1.5562, 49.03398 ], [ 1.55105, 49.03429 ], [ 1.5397, 49.03881 ], [ 1.53214, 49.04591 ], [ 1.53199, 49.04941 ] ], [ [ 1.55876, 49.03535 ], [ 1.55547, 49.03711 ], [ 1.54246, 49.04029 ], [ 1.53481, 49.04566 ], [ 1.53199, 49.04941 ] ], [ [ 1.69778, 49.06339 ], [ 1.68344, 49.0718 ], [ 1.67525, 49.07499 ], [ 1.65365, 49.07877 ], [ 1.63238, 49.07897 ], [ 1.62784, 49.07766 ], [ 1.61442, 49.07119 ], [ 1.61002, 49.06717 ], [ 1.60346, 49.05733 ], [ 1.59127, 49.04823 ], [ 1.58343, 49.04385 ], [ 1.58207, 49.04164 ], [ 1.57248, 49.03693 ], [ 1.56333, 49.03504 ], [ 1.55876, 49.03535 ] ], [ [ 1.88326, 48.99434 ], [ 1.85773, 48.98811 ], [ 1.84831, 48.98719 ], [ 1.84124, 48.9849 ], [ 1.8364, 48.98475 ], [ 1.81337, 48.97509 ], [ 1.78199, 48.96717 ], [ 1.76887, 48.96644 ], [ 1.76025, 48.96686 ], [ 1.74768, 48.96916 ], [ 1.73589, 48.97547 ], [ 1.72922, 48.98104 ], [ 1.72533, 48.98745 ], [ 1.71043, 49.00356 ], [ 1.69759, 49.00941 ], [ 1.68757, 49.00967 ], [ 1.67492, 49.00871 ], [ 1.65113, 49.00476 ], [ 1.63965, 49.00385 ], [ 1.63451, 49.0042 ], [ 1.6165, 49.00984 ], [ 1.61271, 49.01469 ], [ 1.61267, 49.02116 ], [ 1.61331, 49.02328 ], [ 1.62134, 49.03105 ], [ 1.63132, 49.03517 ], [ 1.64864, 49.03878 ], [ 1.66333, 49.04418 ], [ 1.67876, 49.04661 ], [ 1.68944, 49.04984 ], [ 1.6973, 49.05554 ], [ 1.69895, 49.06161 ] ], [ [ 1.89425, 48.99668 ], [ 1.88991, 48.99641 ], [ 1.88326, 48.99434 ] ], [ [ 1.89425, 48.99668 ], [ 1.88987, 48.99508 ], [ 1.88452, 48.994 ], [ 1.88326, 48.99434 ] ], [ [ 1.99995, 48.94724 ], [ 1.9989, 48.94934 ], [ 1.99954, 48.95952 ], [ 1.99823, 48.96445 ], [ 1.99997, 48.96944 ], [ 2.00271, 48.97243 ], [ 2.00105, 48.97902 ], [ 1.99594, 48.98512 ], [ 1.9662, 49.00068 ], [ 1.95557, 49.00466 ], [ 1.94534, 49.00653 ], [ 1.93861, 49.00667 ], [ 1.93048, 49.00556 ], [ 1.89425, 48.99668 ] ], [ [ 2.00826, 48.93157 ], [ 2.00496, 48.93291 ], [ 2.00089, 48.93702 ], [ 1.99909, 48.94476 ], [ 1.99995, 48.94724 ] ], [ [ 2.00849, 48.93447 ], [ 2.00462, 48.93888 ], [ 2.00168, 48.94617 ], [ 1.99995, 48.94724 ] ], [ [ 2.00826, 48.93157 ], [ 2.00739, 48.93356 ], [ 2.00849, 48.93447 ] ], [ [ 2.03678, 48.93456 ], [ 2.03619, 48.9324 ], [ 2.03081, 48.9294 ], [ 2.02648, 48.92833 ], [ 2.01832, 48.92813 ], [ 2.01054, 48.92994 ], [ 2.00826, 48.93157 ] ], [ [ 2.03678, 48.93456 ], [ 2.03004, 48.93113 ], [ 2.02109, 48.9301 ], [ 2.01391, 48.93157 ], [ 2.00849, 48.93447 ] ], [ [ 2.12364, 48.99166 ], [ 2.11145, 48.9906 ], [ 2.09144, 48.99042 ], [ 2.07174, 48.98632 ], [ 2.06787, 48.98435 ], [ 2.05459, 48.97113 ], [ 2.05406, 48.96778 ], [ 2.04978, 48.96148 ], [ 2.04804, 48.95039 ], [ 2.04231, 48.9404 ], [ 2.03678, 48.93456 ] ], [ [ 2.21386, 48.91629 ], [ 2.18909, 48.90598 ], [ 2.17999, 48.90451 ], [ 2.1719, 48.90116 ], [ 2.16404, 48.89479 ], [ 2.15416, 48.87737 ], [ 2.14924, 48.87334 ], [ 2.14323, 48.87054 ], [ 2.13383, 48.87042 ], [ 2.12766, 48.87233 ], [ 2.11629, 48.88112 ], [ 2.10829, 48.89007 ], [ 2.10879, 48.90008 ], [ 2.11205, 48.90246 ], [ 2.11613, 48.91225 ], [ 2.12484, 48.92342 ], [ 2.1456, 48.93756 ], [ 2.15243, 48.94065 ], [ 2.17077, 48.95168 ], [ 2.17638, 48.95638 ], [ 2.17813, 48.95902 ], [ 2.17805, 48.96327 ], [ 2.18022, 48.9682 ], [ 2.17605, 48.97525 ] ] ] } },
{ "type": "Feature", "properties": { "name": "Cours d'Eau 01 de la Commune de Goupillieres", "weight_class": 1, "permanent": true, "length_km": 2.1 }, "geometry": { "type": "LineString", "coordinates": [ [ 1.75461, 48.87247 ], [ 1.74711, 48.86656 ], [ 1.7459, 48.86307 ], [ 1.74283, 48.86039 ], [ 1.7435, 48.85888 ], [ 1.74642, 48.85795 ] ] } },
{ "type": "Feature", "properties": { "name": "la Petite Vallée", "weight_class": 1, "permanent": false, "length_km": 3.5 }, "geometry": { "type": "LineString", "coordinates": [ [ 1.73238, 48.90502 ], [ 1.73671, 48.90876 ], [ 1.74672, 48.91227 ], [ 1.75692, 48.91096 ], [ 1.76581, 48.9209 ] ] } },
{ "type": "Feature", "properties": { "name": "Fossé 12 de la Commune de Millemont", "weight_class": 1, "permanent": false, "length_km": 3.5 }, "geometry": { "type": "LineString", "coordinates": [ [ 1.71307, 48.80713 ], [ 1.71179, 48.80717 ], [ 1.71111, 48.8086 ], [ 1.7136, 48.81278 ], [ 1.71534, 48.82121 ], [ 1.71348, 48.82322 ], [ 1.71148, 48.83076 ], [ 1.70483, 48.83317 ] ] } },
{ "type": "Feature", "properties": { "name": "Fossé 01 de la Commune de Goussonville", "weight_class": 1, "permanent": false, "length_km": 2.3 }, "geometry": { "type": "LineString", "coordinates": [ [ 1.75287, 48.92622 ], [ 1.75731, 48.92594 ], [ 1.76627, 48.92083 ], [ 1.77371, 48.9238 ], [ 1.77817, 48.92435 ] ] } },
{ "type": "Feature", "properties": { "name": "Fossé 02 de la Commune de Civry-la-Foret", "weight_class": 1, "permanent": false, "length_km": 2.5 }, "geometry": { "type": "LineString", "coordinates": [ [ 1.62223, 48.86001 ], [ 1.61569, 48.85987 ], [ 1.6116, 48.86332 ], [ 1.60703, 48.86389 ], [ 1.606, 48.86735 ], [ 1.60853, 48.87083 ], [ 1.60891, 48.87362 ] ] } },
{ "type": "Feature", "properties": { "name": "Bras de Mézy", "weight_class": 4, "permanent": true, "length_km": 6.6 }, "geometry": { "type": "LineString", "coordinates": [ [ 1.92075, 49.00323 ], [ 1.91913, 49.00396 ], [ 1.9031, 49.003 ], [ 1.89427, 49.00091 ], [ 1.8837, 48.99684 ], [ 1.87915, 48.99639 ], [ 1.85978, 48.99083 ], [ 1.84568, 48.98821 ], [ 1.83848, 48.98503 ] ] } },
{ "type": "Feature", "properties": { "name": "Fossé 01 du Fond de l'Anglée", "weight_class": 1, "permanent": false, "length_km": 2.5 }, "geometry": { "type": "LineString", "coordinates": [ [ 1.6113, 48.82829 ], [ 1.60645, 48.82819 ], [ 1.587, 48.82301 ], [ 1.58257, 48.82396 ], [ 1.5813, 48.82576 ] ] } },
{ "type": "Feature", "properties": { "name": "Fossé 02 de la Commune de Gambais", "weight_class": 1, "permanent": false, "length_km": 4.0 }, "geometry": { "type": "LineString", "coordinates": [ [ 1.66904, 48.79751 ], [ 1.65406, 48.79607 ], [ 1.65323, 48.79397 ], [ 1.64247, 48.79343 ], [ 1.64145, 48.7924 ], [ 1.64223, 48.79163 ], [ 1.63419, 48.78638 ], [ 1.63071, 48.78594 ], [ 1.62702, 48.7875 ], [ 1.62613, 48.78654 ] ] } },
{ "type": "Feature", "properties": { "name": "Cours d'Eau 01 de la Ferme des Presles", "weight_class": 1, "permanent": true, "length_km": 2.6 }, "geometry": { "type": "LineString", "coordinates": [ [ 1.7026, 48.79456 ], [ 1.69572, 48.79374 ], [ 1.68964, 48.79104 ], [ 1.68206, 48.78925 ], [ 1.67386, 48.78367 ] ] } },
{ "type": "Feature", "properties": { "name": "Fossé 01 de la Commune de Gambais", "weight_class": 1, "permanent": false, "length_km": 3.5 }, "geometry": { "type": "LineString", "coordinates": [ [ 1.72911, 48.77875 ], [ 1.72775, 48.7804 ], [ 1.72502, 48.78099 ], [ 1.72273, 48.78386 ], [ 1.71256, 48.78321 ], [ 1.70922, 48.78379 ], [ 1.70269, 48.78293 ], [ 1.69851, 48.77718 ], [ 1.6953, 48.77613 ] ] } },
{ "type": "Feature", "properties": { "name": "Bras de la Seine", "weight_class": 3, "permanent": true, "length_km": 7.4 }, "geometry": { "type": "MultiLineString", "coordinates": [ [ [ 1.61823, 49.0137 ], [ 1.61516, 49.01594 ], [ 1.61396, 49.01836 ], [ 1.61781, 49.02456 ] ], [ [ 1.62317, 49.01048 ], [ 1.61823, 49.0137 ] ], [ [ 1.62335, 49.01051 ], [ 1.61823, 49.0137 ] ], [ [ 1.62335, 49.01051 ], [ 1.62317, 49.01048 ] ], [ [ 1.6493, 49.00822 ], [ 1.64706, 49.00653 ], [ 1.6351, 49.00677 ], [ 1.62496, 49.0089 ], [ 1.62317, 49.01048 ] ], [ [ 1.6493, 49.00822 ], [ 1.63134, 49.0085 ], [ 1.62335, 49.01051 ] ], [ [ 1.65969, 49.00921 ], [ 1.6493, 49.00822 ] ] ] } },
{ "type": "Feature", "properties": { "name": "Fossé 01 de la Commune de Menerville", "weight_class": 1, "permanent": false, "length_km": 2.1 }, "geometry": { "type": "LineString", "coordinates": [ [ 1.60772, 48.96041 ], [ 1.61562, 48.96729 ], [ 1.61423, 48.97032 ], [ 1.60821, 48.97519 ] ] } },
{ "type": "Feature", "properties": { "name": "Cours d'Eau 01 de la Commune de Boissy-Mauvoisisn", "weight_class": 1, "permanent": true, "length_km": 6.7 }, "geometry": { "type": "LineString", "coordinates": [ [ 1.58742, 48.96154 ], [ 1.60256, 48.96847 ], [ 1.60415, 48.97365 ], [ 1.60821, 48.97519 ], [ 1.61467, 48.98017 ], [ 1.61045, 48.98203 ], [ 1.60963, 48.98489 ], [ 1.61951, 48.99483 ], [ 1.61931, 49.0084 ] ] } },
{ "type": "Feature", "properties": { "name": "Ru Morand", "weight_class": 1, "permanent": true, "length_km": 8.0 }, "geometry": { "type": "LineString", "coordinates": [ [ 1.60259, 48.94753 ], [ 1.60464, 48.94914 ], [ 1.6148, 48.9447 ], [ 1.62493, 48.94289 ], [ 1.62771, 48.94146 ], [ 1.64119, 48.94 ], [ 1.65778, 48.93255 ], [ 1.687, 48.94066 ], [ 1.69392, 48.93943 ] ] } },
{ "type": "Feature", "properties": { "name": "Fossé 02 de la Commune de Arnouville-les-Mantes", "weight_class": 1, "permanent": false, "length_km": 3.3 }, "geometry": { "type": "LineString", "coordinates": [ [ 1.71676, 48.90209 ], [ 1.71897, 48.90514 ], [ 1.71688, 48.90724 ], [ 1.70773, 48.90902 ], [ 1.70669, 48.91042 ], [ 1.70167, 48.91049 ], [ 1.69745, 48.91452 ], [ 1.69436, 48.91592 ], [ 1.69129, 48.9192 ], [ 1.69175, 48.92007 ] ] } },
{ "type": "Feature", "properties": { "name": "Fossé 03 de la Commune de Orvilliers", "weight_class": 1, "permanent": false, "length_km": 2.6 }, "geometry": { "type": "LineString", "coordinates": [ [ 1.66468, 48.83481 ], [ 1.66127, 48.83785 ], [ 1.6599, 48.84116 ], [ 1.64933, 48.84629 ], [ 1.64955, 48.85327 ] ] } },
{ "type": "Feature", "properties": { "name": "Bras de la Vaucouleurs", "weight_class": 1, "permanent": true, "length_km": 6.8 }, "geometry": { "type": "LineString", "coordinates": [ [ 1.69158, 48.93529 ], [ 1.69141, 48.93944 ], [ 1.69397, 48.94157 ], [ 1.69655, 48.947 ], [ 1.70623, 48.95285 ], [ 1.7086, 48.95639 ], [ 1.70918, 48.96557 ], [ 1.71343, 48.96871 ], [ 1.71374, 48.97516 ], [ 1.72627, 48.9862 ] ] } },
{ "type": "Feature", "properties": { "name": "Fossé 01 de la Commune de Dammartin-en-Serve", "weight_class": 1, "permanent": false, "length_km": 5.3 }, "geometry": { "type": "LineString", "coordinates": [ [ 1.61814, 48.92242 ], [ 1.61954, 48.92133 ], [ 1.61972, 48.91345 ], [ 1.62401, 48.91195 ], [ 1.63155, 48.91179 ], [ 1.63926, 48.90838 ], [ 1.64721, 48.90803 ], [ 1.65174, 48.90574 ], [ 1.65512, 48.90162 ], [ 1.64992, 48.89739 ], [ 1.64917, 48.89298 ] ] } },
{ "type": "Feature", "properties": { "name": "Fossé 01 de la Commune de Civry-la-Foret", "weight_class": 1, "permanent": false, "length_km": 2.5 }, "geometry": { "type": "LineString", "coordinates": [ [ 1.64145, 48.87237 ], [ 1.64073, 48.87618 ], [ 1.64619, 48.8814 ], [ 1.64657, 48.88626 ], [ 1.64931, 48.89234 ] ] } },
{ "type": "Feature", "properties": { "name": "Fossé 01 de la Commune de Arnouville-les-Mantes", "weight_class": 1, "permanent": false, "length_km": 2.3 }, "geometry": { "type": "LineString", "coordinates": [ [ 1.71937, 48.92289 ], [ 1.72177, 48.92349 ], [ 1.72479, 48.92297 ], [ 1.72708, 48.91915 ], [ 1.73769, 48.90922 ] ] } },
{ "type": "Feature", "properties": { "name": "Ru de Senneville", "weight_class": 1, "permanent": false, "length_km": 9.3 }, "geometry": { "type": "LineString", "coordinates": [ [ 1.78584, 48.91777 ], [ 1.78609, 48.91963 ], [ 1.78273, 48.92073 ], [ 1.7823, 48.92343 ], [ 1.77817, 48.92435 ], [ 1.77702, 48.92949 ], [ 1.77299, 48.93212 ], [ 1.77256, 48.93424 ], [ 1.7694, 48.93564 ], [ 1.76785, 48.9399 ], [ 1.75976, 48.94228 ], [ 1.75732, 48.94169 ], [ 1.75375, 48.94268 ], [ 1.74516, 48.95 ], [ 1.74187, 48.95161 ], [ 1.74052, 48.95116 ], [ 1.73853, 48.95426 ], [ 1.73379, 48.95614 ], [ 1.73015, 48.9689 ], [ 1.73235, 48.97818 ] ] } },
{ "type": "Feature", "properties": { "name": "Ru de la Coquerie", "weight_class": 1, "permanent": true, "length_km": 4.8 }, "geometry": { "type": "LineString", "coordinates": [ [ 1.76703, 48.85883 ], [ 1.765, 48.85791 ], [ 1.76873, 48.85484 ], [ 1.76723, 48.85243 ], [ 1.76739, 48.84962 ], [ 1.76458, 48.84513 ], [ 1.76912, 48.83956 ], [ 1.77444, 48.83573 ], [ 1.78401, 48.83357 ], [ 1.79195, 48.82934 ] ] } },
{ "type": "Feature", "properties": { "name": "Fossé 01 de la Commune de la Queue-les-Yvelines", "weight_class": 1, "permanent": false, "length_km": 2.5 }, "geometry": { "type": "LineString", "coordinates": [ [ 1.7618, 48.79807 ], [ 1.77526, 48.81032 ], [ 1.77698, 48.81272 ], [ 1.77553, 48.81693 ] ] } },
{ "type": "Feature", "properties": { "name": "Cours d'Eau 01 de la Commune de Herbeville", "weight_class": 1, "permanent": true, "length_km": 2.2 }, "geometry": { "type": "LineString", "coordinates": [ [ 1.89982, 48.90376 ], [ 1.89785, 48.89958 ], [ 1.88853, 48.89663 ], [ 1.88731, 48.89464 ], [ 1.87887, 48.8955 ] ] } },
{ "type": "Feature", "properties": { "name": "Cours d'Eau 01 de la Commune de Crespieres", "weight_class": 1, "permanent": true, "length_km": 3.5 }, "geometry": { "type": "LineString", "coordinates": [ [ 1.94207, 48.87848 ], [ 1.94136, 48.87756 ], [ 1.94341, 48.87535 ], [ 1.9343, 48.87326 ], [ 1.93419, 48.87233 ], [ 1.92203, 48.87167 ], [ 1.92224, 48.87075 ], [ 1.91636, 48.86934 ], [ 1.90904, 48.86449 ] ] } },
{ "type": "Feature", "properties": { "name": "Cours d'Eau 01 de la Commune de Plaisir", "weight_class": 1, "permanent": true, "length_km": 2.6 }, "geometry": { "type": "LineString", "coordinates": [ [ 1.92111, 48.80542 ], [ 1.92435, 48.80777 ], [ 1.92659, 48.80807 ], [ 1.92788, 48.80965 ], [ 1.93413, 48.81167 ], [ 1.94001, 48.81549 ], [ 1.9424, 48.81596 ], [ 1.94481, 48.81968 ] ] } },
{ "type": "Feature", "properties": { "name": "Fossé 01 de la Commune de Bouafle", "weight_class": 1, "permanent": false, "length_km": 6.0 }, "geometry": { "type": "LineString", "coordinates": [ [ 1.89306, 48.93352 ], [ 1.89572, 48.93678 ], [ 1.8952, 48.93926 ], [ 1.89815, 48.94427 ], [ 1.90289, 48.94658 ], [ 1.90673, 48.94727 ], [ 1.9091, 48.94988 ], [ 1.90869, 48.95313 ], [ 1.90451, 48.95943 ], [ 1.90603, 48.96078 ], [ 1.90632, 48.96639 ], [ 1.90726, 48.96823 ], [ 1.91736, 48.97074 ], [ 1.91894, 48.97219 ], [ 1.9171, 48.97501 ] ] } },
{ "type": "Feature", "properties": { "name": "Ruisseau d'Orgeval", "weight_class": 1, "permanent": true, "length_km": 16.2 }, "geometry": { "type": "LineString", "coordinates": [ [ 1.93568, 48.90482 ], [ 1.94052, 48.90709 ], [ 1.94722, 48.90726 ], [ 1.9538, 48.91024 ], [ 1.95659, 48.91043 ], [ 1.9568, 48.91134 ], [ 1.96195, 48.91061 ], [ 1.96466, 48.91216 ], [ 1.97543, 48.91464 ], [ 1.97671, 48.91688 ], [ 1.97148, 48.92979 ], [ 1.96318, 48.93271 ], [ 1.9566, 48.93364 ], [ 1.95368, 48.9327 ], [ 1.94739, 48.93671 ], [ 1.94013, 48.93913 ], [ 1.93826, 48.94193 ], [ 1.93933, 48.94496 ], [ 1.92752, 48.95274 ], [ 1.92588, 48.9631 ], [ 1.9239, 48.96672 ], [ 1.9236, 48.97418 ], [ 1.92164, 48.97546 ], [ 1.91772, 48.97461 ], [ 1.91364, 48.97923 ], [ 1.9119, 48.98452 ], [ 1.91408, 48.99102 ], [ 1.91384, 48.99707 ], [ 1.9107, 48.99856 ], [ 1.90944, 49.00044 ] ] } },
{ "type": "Feature", "properties": { "name": "Ru de Fontenay", "weight_class": 1, "permanent": true, "length_km": 9.8 }, "geometry": { "type": "LineString", "coordinates": [ [ 1.73905, 49.03593 ], [ 1.74037, 49.03338 ], [ 1.74473, 49.03146 ], [ 1.74729, 49.02512 ], [ 1.7546, 49.02186 ], [ 1.76077, 49.02088 ], [ 1.76297, 49.01934 ], [ 1.76222, 49.0155 ], [ 1.76347, 49.01283 ], [ 1.76758, 49.01011 ], [ 1.77115, 49.00549 ], [ 1.77489, 49.00391 ], [ 1.77993, 48.99942 ], [ 1.77649, 48.99485 ], [ 1.77776, 48.98868 ], [ 1.7766, 48.98632 ], [ 1.76905, 48.98036 ], [ 1.76406, 48.96669 ] ] } },
{ "type": "Feature", "properties": { "name": "Bras de Limay", "weight_class": 4, "permanent": true, "length_km": 5.5 }, "geometry": { "type": "LineString", "coordinates": [ [ 1.74022, 48.97323 ], [ 1.74008, 48.9767 ], [ 1.7257, 48.99181 ], [ 1.71822, 49.00203 ], [ 1.70743, 49.00878 ], [ 1.70187, 49.00992 ], [ 1.69759, 49.00941 ] ] } },
{ "type": "Feature", "properties": { "name": "la Mauldre", "weight_class": 1, "permanent": true, "length_km": 36.6 }, "geometry": { "type": "MultiLineString", "coordinates": [ [ [ 1.86823, 48.89309 ], [ 1.86739, 48.89587 ], [ 1.86613, 48.89644 ], [ 1.86627, 48.89862 ], [ 1.86344, 48.90137 ], [ 1.86427, 48.90247 ], [ 1.86293, 48.90494 ], [ 1.85606, 48.90864 ], [ 1.85351, 48.90809 ], [ 1.84901, 48.91184 ], [ 1.84713, 48.91617 ], [ 1.84824, 48.92259 ], [ 1.84702, 48.92466 ], [ 1.84194, 48.92837 ], [ 1.84413, 48.93034 ], [ 1.84356, 48.93323 ], [ 1.83825, 48.93495 ], [ 1.83406, 48.94247 ], [ 1.8337, 48.9457 ], [ 1.83136, 48.94767 ], [ 1.82192, 48.96354 ], [ 1.82392, 48.96604 ], [ 1.82194, 48.97529 ], [ 1.81736, 48.97437 ], [ 1.81424, 48.97247 ], [ 1.81268, 48.97293 ] ], [ [ 1.87106, 48.88397 ], [ 1.87, 48.88467 ], [ 1.86842, 48.88426 ], [ 1.86717, 48.88638 ], [ 1.86862, 48.88876 ], [ 1.86748, 48.89091 ], [ 1.86823, 48.89309 ] ], [ [ 1.87106, 48.88397 ], [ 1.86823, 48.89309 ] ], [ [ 1.87789, 48.73398 ], [ 1.89253, 48.73622 ], [ 1.89591, 48.73899 ], [ 1.89689, 48.74163 ], [ 1.89492, 48.74351 ], [ 1.89659, 48.74519 ], [ 1.89488, 48.74674 ], [ 1.89583, 48.74807 ], [ 1.89516, 48.75105 ], [ 1.89197, 48.75335 ], [ 1.89283, 48.75668 ], [ 1.89186, 48.76219 ], [ 1.89379, 48.76456 ], [ 1.89184, 48.76969 ], [ 1.89115, 48.77056 ], [ 1.8896, 48.77051 ], [ 1.88841, 48.77729 ], [ 1.88769, 48.77827 ], [ 1.88648, 48.77798 ], [ 1.88548, 48.77986 ], [ 1.88641, 48.78117 ], [ 1.88481, 48.78215 ], [ 1.8897, 48.79161 ], [ 1.88708, 48.79241 ], [ 1.88765, 48.79735 ], [ 1.88553, 48.79743 ], [ 1.88593, 48.80272 ], [ 1.87611, 48.81086 ], [ 1.86886, 48.81209 ], [ 1.86718, 48.81345 ], [ 1.87083, 48.81918 ], [ 1.86441, 48.82204 ], [ 1.86595, 48.82274 ], [ 1.86602, 48.82414 ], [ 1.8709, 48.82664 ], [ 1.87272, 48.83023 ], [ 1.87443, 48.83125 ], [ 1.87457, 48.83367 ], [ 1.87552, 48.83376 ], [ 1.87962, 48.84367 ], [ 1.87897, 48.84683 ], [ 1.87575, 48.84719 ], [ 1.87481, 48.84861 ], [ 1.87599, 48.85202 ], [ 1.87823, 48.85406 ], [ 1.87488, 48.85763 ], [ 1.87183, 48.86621 ], [ 1.87392, 48.8708 ], [ 1.87296, 48.87212 ], [ 1.87593, 48.87463 ], [ 1.87382, 48.87839 ], [ 1.87159, 48.87991 ], [ 1.87106, 48.88397 ] ] ] } },
{ "type": "Feature", "properties": { "name": "la Vaucouleurs", "weight_class": 1, "permanent": true, "length_km": 26.1 }, "geometry": { "type": "MultiLineString", "coordinates": [ [ [ 1.56316, 48.88196 ], [ 1.56227, 48.87877 ], [ 1.56749, 48.87685 ], [ 1.57291, 48.87169 ], [ 1.58601, 48.86954 ], [ 1.60891, 48.87362 ], [ 1.61412, 48.87853 ], [ 1.61802, 48.87988 ], [ 1.62131, 48.88438 ], [ 1.63449, 48.89181 ], [ 1.63668, 48.89254 ], [ 1.64307, 48.89131 ], [ 1.64911, 48.89231 ] ], [ [ 1.64911, 48.89231 ], [ 1.65083, 48.89127 ], [ 1.65385, 48.89359 ], [ 1.66048, 48.89373 ] ], [ [ 1.64911, 48.89231 ], [ 1.64917, 48.89298 ], [ 1.65187, 48.89251 ], [ 1.65325, 48.89343 ], [ 1.65459, 48.89385 ], [ 1.66048, 48.89373 ] ], [ [ 1.66048, 48.89373 ], [ 1.66236, 48.89369 ], [ 1.66907, 48.89794 ], [ 1.67102, 48.89977 ], [ 1.67058, 48.90145 ] ], [ [ 1.6701, 48.9055 ], [ 1.67161, 48.90716 ], [ 1.67216, 48.91071 ], [ 1.67498, 48.91384 ] ], [ [ 1.67058, 48.90145 ], [ 1.66963, 48.90368 ], [ 1.6701, 48.9055 ] ], [ [ 1.6701, 48.9055 ], [ 1.67058, 48.90145 ] ], [ [ 1.67498, 48.91384 ], [ 1.68658, 48.91846 ] ], [ [ 1.67498, 48.91384 ], [ 1.6757, 48.91513 ], [ 1.6808, 48.91734 ], [ 1.68658, 48.91846 ] ], [ [ 1.68658, 48.91846 ], [ 1.68855, 48.91964 ], [ 1.68752, 48.92041 ], [ 1.68919, 48.92479 ], [ 1.69269, 48.92791 ], [ 1.69306, 48.93186 ], [ 1.69159, 48.93568 ], [ 1.69427, 48.93859 ], [ 1.69481, 48.94227 ], [ 1.69719, 48.94321 ], [ 1.69668, 48.94659 ], [ 1.69944, 48.94759 ], [ 1.70186, 48.95007 ], [ 1.70744, 48.95187 ], [ 1.71016, 48.95547 ], [ 1.71043, 48.96486 ], [ 1.71408, 48.96862 ], [ 1.71619, 48.97603 ], [ 1.72353, 48.98017 ], [ 1.72385, 48.98169 ], [ 1.72855, 48.98223 ] ] ] } },
{ "type": "Feature", "properties": { "name": "Ru des Fonds de Romainville", "weight_class": 1, "permanent": true, "length_km": 3.3 }, "geometry": { "type": "LineString", "coordinates": [ [ 1.9028, 48.92921 ], [ 1.90798, 48.93173 ], [ 1.91159, 48.93189 ], [ 1.92337, 48.93614 ], [ 1.92773, 48.94025 ], [ 1.93933, 48.94496 ] ] } },
{ "type": "Feature", "properties": { "name": "la Rouase", "weight_class": 1, "permanent": true, "length_km": 3.5 }, "geometry": { "type": "LineString", "coordinates": [ [ 1.87948, 48.92711 ], [ 1.8747, 48.92984 ], [ 1.86104, 48.93486 ], [ 1.85137, 48.93429 ], [ 1.84623, 48.9374 ], [ 1.83913, 48.93486 ] ] } },
{ "type": "Feature", "properties": { "name": "Ru de Bréval", "weight_class": 1, "permanent": true, "length_km": 2.5 }, "geometry": { "type": "LineString", "coordinates": [ [ 1.94104, 48.91852 ], [ 1.94518, 48.92161 ], [ 1.95368, 48.92415 ], [ 1.95684, 48.92658 ], [ 1.95858, 48.93274 ], [ 1.9555, 48.93342 ] ] } },
{ "type": "Feature", "properties": { "name": "Ru de Riche", "weight_class": 1, "permanent": true, "length_km": 2.9 }, "geometry": { "type": "LineString", "coordinates": [ [ 1.89294, 48.90923 ], [ 1.88985, 48.90226 ], [ 1.88169, 48.89833 ], [ 1.87887, 48.8955 ], [ 1.8677, 48.8943 ] ] } },
{ "type": "Feature", "properties": { "name": "la Flexanville", "weight_class": 1, "permanent": true, "length_km": 13.0 }, "geometry": { "type": "MultiLineString", "coordinates": [ [ [ 1.67572, 48.89524 ], [ 1.67076, 48.9015 ] ], [ [ 1.68014, 48.88619 ], [ 1.67931, 48.89111 ], [ 1.67572, 48.89524 ] ], [ [ 1.68014, 48.88619 ], [ 1.68029, 48.89134 ], [ 1.67899, 48.89387 ], [ 1.67572, 48.89524 ] ], [ [ 1.76079, 48.85976 ], [ 1.75975, 48.85792 ], [ 1.75513, 48.85696 ], [ 1.7515, 48.8572 ], [ 1.74298, 48.84763 ], [ 1.73941, 48.84708 ], [ 1.73052, 48.84816 ], [ 1.71888, 48.85152 ], [ 1.71887, 48.85223 ], [ 1.71449, 48.85314 ], [ 1.70791, 48.85738 ], [ 1.70232, 48.85933 ], [ 1.69831, 48.86573 ], [ 1.69893, 48.86789 ], [ 1.69228, 48.87033 ], [ 1.68869, 48.87351 ], [ 1.68494, 48.87424 ], [ 1.68465, 48.87723 ], [ 1.68191, 48.8792 ], [ 1.68088, 48.88197 ], [ 1.68188, 48.88379 ], [ 1.68014, 48.88619 ] ] ] } },
{ "type": "Feature", "properties": { "name": "Ruisseau de la Péreuse", "weight_class": 1, "permanent": true, "length_km": 2.0 }, "geometry": { "type": "LineString", "coordinates": [ [ 1.72569, 48.87049 ], [ 1.71973, 48.86747 ], [ 1.71709, 48.86381 ], [ 1.70766, 48.85745 ] ] } },
{ "type": "Feature", "properties": { "name": "Ruisseau de Prunay", "weight_class": 1, "permanent": false, "length_km": 5.6 }, "geometry": { "type": "LineString", "coordinates": [ [ 1.63003, 48.84845 ], [ 1.63394, 48.84964 ], [ 1.63718, 48.84933 ], [ 1.64081, 48.85111 ], [ 1.64955, 48.85327 ], [ 1.6612, 48.86033 ], [ 1.67057, 48.86236 ], [ 1.67554, 48.86438 ], [ 1.6799, 48.86868 ], [ 1.68076, 48.87359 ], [ 1.68478, 48.87542 ] ] } },
{ "type": "Feature", "properties": { "name": "Ru de Gally", "weight_class": 1, "permanent": true, "length_km": 23.5 }, "geometry": { "type": "MultiLineString", "coordinates": [ [ [ 1.96991, 48.85371 ], [ 1.96698, 48.85326 ], [ 1.96528, 48.85387 ], [ 1.96021, 48.8521 ], [ 1.95139, 48.85124 ], [ 1.94515, 48.85183 ], [ 1.94185, 48.85108 ], [ 1.93858, 48.8519 ], [ 1.93582, 48.85109 ], [ 1.9209, 48.85128 ], [ 1.91756, 48.85051 ], [ 1.91502, 48.85155 ], [ 1.91364, 48.85124 ], [ 1.90927, 48.85569 ], [ 1.9139, 48.86003 ], [ 1.91324, 48.86192 ], [ 1.91044, 48.86223 ], [ 1.90713, 48.86544 ], [ 1.89316, 48.86827 ], [ 1.88606, 48.87365 ], [ 1.87942, 48.87661 ], [ 1.87456, 48.87708 ] ], [ [ 1.98612, 48.85247 ], [ 1.98114, 48.85226 ], [ 1.97815, 48.85438 ], [ 1.96991, 48.85371 ] ], [ [ 1.98612, 48.85247 ], [ 1.98511, 48.85305 ], [ 1.98082, 48.85257 ], [ 1.97919, 48.85456 ], [ 1.97629, 48.85554 ], [ 1.97119, 48.85521 ], [ 1.96979, 48.85471 ], [ 1.96991, 48.85371 ] ], [ [ 2.09881, 48.81297 ], [ 2.09875, 48.81434 ], [ 2.09427, 48.81588 ], [ 2.09073, 48.81873 ], [ 2.0797, 48.81893 ], [ 2.07461, 48.82212 ], [ 2.0717, 48.82252 ], [ 2.06561, 48.82528 ], [ 2.06206, 48.82977 ], [ 2.05979, 48.82935 ], [ 2.05271, 48.83074 ], [ 2.04978, 48.83343 ], [ 2.04334, 48.8333 ], [ 2.03787, 48.83564 ], [ 2.02725, 48.8347 ], [ 2.02219, 48.83532 ], [ 2.01856, 48.83384 ], [ 2.01561, 48.83439 ], [ 2.01119, 48.83671 ], [ 2.01065, 48.8404 ], [ 2.00766, 48.84267 ], [ 2.0032, 48.84452 ], [ 2.00137, 48.84405 ], [ 1.99827, 48.8449 ], [ 1.99471, 48.8471 ], [ 1.99469, 48.84985 ], [ 1.9912, 48.85045 ], [ 1.98775, 48.8498 ], [ 1.98612, 48.85247 ] ] ] } },
{ "type": "Feature", "properties": { "name": "Ru de Barlé", "weight_class": 1, "permanent": false, "length_km": 2.6 }, "geometry": { "type": "LineString", "coordinates": [ [ 1.82632, 48.83747 ], [ 1.8259, 48.8346 ], [ 1.82152, 48.82831 ], [ 1.82633, 48.82229 ], [ 1.82363, 48.81866 ], [ 1.82488, 48.81798 ] ] } },
{ "type": "Feature", "properties": { "name": "Ru Merdron", "weight_class": 1, "permanent": true, "length_km": 3.4 }, "geometry": { "type": "LineString", "coordinates": [ [ 1.79246, 48.85287 ], [ 1.79242, 48.8473 ], [ 1.79356, 48.8472 ], [ 1.79521, 48.84373 ], [ 1.79976, 48.84074 ], [ 1.80117, 48.83756 ], [ 1.81003, 48.83181 ], [ 1.81024, 48.82742 ] ] } },
{ "type": "Feature", "properties": { "name": "Aqueduc de l'Avre", "weight_class": 1, "permanent": true, "length_km": 66.6 }, "geometry": { "type": "LineString", "coordinates": [ [ 1.38661, 48.77395 ], [ 1.38835, 48.77545 ], [ 1.41412, 48.78502 ], [ 1.45064, 48.79175 ], [ 1.47181, 48.79347 ], [ 1.48201, 48.79681 ], [ 1.49775, 48.80427 ], [ 1.51702, 48.8041 ], [ 1.53481, 48.80139 ], [ 1.54106, 48.80187 ], [ 1.55702, 48.80702 ], [ 1.56633, 48.8057 ], [ 1.59986, 48.80656 ], [ 1.60621, 48.80811 ], [ 1.60834, 48.80754 ], [ 1.6107, 48.80863 ], [ 1.61747, 48.81941 ], [ 1.62469, 48.82141 ], [ 1.62629, 48.81942 ], [ 1.62829, 48.81898 ], [ 1.63491, 48.81935 ], [ 1.66261, 48.83243 ], [ 1.66491, 48.83507 ], [ 1.66777, 48.83507 ], [ 1.69795, 48.82774 ], [ 1.70289, 48.83035 ], [ 1.70562, 48.82961 ], [ 1.7228, 48.83904 ], [ 1.73752, 48.83672 ], [ 1.74527, 48.84207 ], [ 1.76146, 48.85094 ], [ 1.78843, 48.85114 ], [ 1.79078, 48.85176 ], [ 1.79453, 48.85111 ], [ 1.79681, 48.84843 ], [ 1.8086, 48.84596 ], [ 1.81117, 48.84366 ], [ 1.81582, 48.84215 ], [ 1.82013, 48.84367 ], [ 1.8226, 48.84239 ], [ 1.82801, 48.84256 ], [ 1.84174, 48.83522 ], [ 1.84398, 48.8351 ], [ 1.85551, 48.838 ], [ 1.86746, 48.83547 ], [ 1.87018, 48.83651 ], [ 1.88249, 48.83428 ], [ 1.88513, 48.83629 ], [ 1.89306, 48.83517 ], [ 1.90294, 48.82953 ], [ 1.90784, 48.83004 ], [ 1.92153, 48.8263 ], [ 1.92518, 48.82735 ], [ 1.93316, 48.82653 ], [ 1.93463, 48.82445 ], [ 1.93915, 48.82167 ], [ 1.9464, 48.82103 ], [ 1.94859, 48.82316 ], [ 1.96005, 48.8251 ], [ 1.99575, 48.82051 ], [ 1.9999, 48.81848 ], [ 2.00417, 48.81967 ], [ 2.00673, 48.81876 ], [ 2.01578, 48.82029 ], [ 2.02169, 48.81857 ], [ 2.02529, 48.82124 ], [ 2.03249, 48.82115 ], [ 2.03571, 48.81965 ], [ 2.03828, 48.81693 ], [ 2.04451, 48.8203 ], [ 2.0481, 48.82085 ], [ 2.0553, 48.81813 ], [ 2.05916, 48.81552 ], [ 2.06972, 48.81778 ], [ 2.07494, 48.81989 ], [ 2.077, 48.82218 ], [ 2.08235, 48.82124 ], [ 2.08797, 48.82303 ], [ 2.10268, 48.82353 ], [ 2.1219, 48.81979 ], [ 2.1489, 48.82749 ], [ 2.15623, 48.83297 ], [ 2.18674, 48.83723 ] ] } },
{ "type": "Feature", "properties": { "name": "Ru de l'Aunay", "weight_class": 1, "permanent": true, "length_km": 2.0 }, "geometry": { "type": "LineString", "coordinates": [ [ 1.69562, 48.84698 ], [ 1.69259, 48.84741 ], [ 1.69514, 48.85109 ], [ 1.694, 48.85379 ], [ 1.69522, 48.8553 ], [ 1.7009, 48.85697 ], [ 1.70317, 48.8591 ] ] } },
{ "type": "Feature", "properties": { "name": "Ru des Abbesses", "weight_class": 1, "permanent": false, "length_km": 2.0 }, "geometry": { "type": "LineString", "coordinates": [ [ 1.69533, 48.84227 ], [ 1.69938, 48.84448 ], [ 1.70024, 48.84639 ], [ 1.70102, 48.84593 ], [ 1.70329, 48.84705 ], [ 1.71364, 48.85381 ] ] } },
{ "type": "Feature", "properties": { "name": "Ru Maldroit", "weight_class": 1, "permanent": false, "length_km": 12.8 }, "geometry": { "type": "LineString", "coordinates": [ [ 1.98591, 48.80189 ], [ 1.98399, 48.80462 ], [ 1.98193, 48.80492 ], [ 1.97622, 48.80917 ], [ 1.97441, 48.80925 ], [ 1.97301, 48.80751 ], [ 1.97103, 48.80726 ], [ 1.96824, 48.81153 ], [ 1.96339, 48.81083 ], [ 1.95913, 48.81302 ], [ 1.95266, 48.81332 ], [ 1.95314, 48.81673 ], [ 1.94525, 48.81874 ], [ 1.94619, 48.82408 ], [ 1.94319, 48.82578 ], [ 1.94284, 48.82764 ], [ 1.93706, 48.83473 ], [ 1.93518, 48.83446 ], [ 1.93104, 48.83611 ], [ 1.92293, 48.83409 ], [ 1.92008, 48.83565 ], [ 1.91592, 48.83613 ], [ 1.91565, 48.83727 ], [ 1.91264, 48.83641 ], [ 1.9103, 48.83793 ], [ 1.90744, 48.83748 ], [ 1.90626, 48.84053 ], [ 1.90461, 48.84106 ], [ 1.90154, 48.83997 ], [ 1.89893, 48.84335 ], [ 1.8964, 48.84374 ], [ 1.89575, 48.84563 ], [ 1.89375, 48.84648 ], [ 1.89306, 48.84994 ], [ 1.89045, 48.85015 ], [ 1.88994, 48.84948 ], [ 1.88532, 48.851 ], [ 1.88324, 48.85046 ], [ 1.87717, 48.85281 ] ] } },
{ "type": "Feature", "properties": { "name": "Ru de Ponteux", "weight_class": 1, "permanent": false, "length_km": 4.3 }, "geometry": { "type": "LineString", "coordinates": [ [ 1.81155, 48.78603 ], [ 1.80785, 48.78736 ], [ 1.80694, 48.78858 ], [ 1.80548, 48.79151 ], [ 1.8069, 48.79349 ], [ 1.81305, 48.79906 ], [ 1.81975, 48.80048 ], [ 1.82488, 48.80825 ], [ 1.83332, 48.81405 ] ] } },
{ "type": "Feature", "properties": { "name": "Ru de Breuil", "weight_class": 1, "permanent": true, "length_km": 9.6 }, "geometry": { "type": "LineString", "coordinates": [ [ 1.71415, 48.80112 ], [ 1.71678, 48.80467 ], [ 1.72943, 48.80715 ], [ 1.74451, 48.82054 ], [ 1.74787, 48.82246 ], [ 1.75328, 48.8239 ], [ 1.77298, 48.82298 ], [ 1.77635, 48.82366 ], [ 1.78368, 48.82737 ], [ 1.79286, 48.82943 ], [ 1.81189, 48.82702 ], [ 1.81622, 48.82334 ], [ 1.81703, 48.82109 ] ] } },
{ "type": "Feature", "properties": { "name": "Ruisseau du Lieutel", "weight_class": 1, "permanent": true, "length_km": 14.5 }, "geometry": { "type": "LineString", "coordinates": [ [ 1.76813, 48.76661 ], [ 1.76441, 48.76689 ], [ 1.76059, 48.76964 ], [ 1.75834, 48.7763 ], [ 1.75579, 48.77853 ], [ 1.75641, 48.78043 ], [ 1.76554, 48.78574 ], [ 1.76564, 48.7866 ], [ 1.77407, 48.78866 ], [ 1.7774, 48.79044 ], [ 1.77814, 48.79312 ], [ 1.7892, 48.7979 ], [ 1.78965, 48.80306 ], [ 1.79258, 48.80662 ], [ 1.79087, 48.80955 ], [ 1.79386, 48.8117 ], [ 1.79675, 48.81185 ], [ 1.80161, 48.81432 ], [ 1.80776, 48.81575 ], [ 1.81693, 48.82112 ], [ 1.81734, 48.81936 ], [ 1.82504, 48.81799 ], [ 1.82656, 48.81577 ], [ 1.83332, 48.81405 ], [ 1.83906, 48.81431 ], [ 1.84417, 48.81287 ], [ 1.85214, 48.81393 ], [ 1.86317, 48.81286 ], [ 1.86909, 48.8158 ] ] } },
{ "type": "Feature", "properties": { "name": "Ru du Moulin de Letang", "weight_class": 1, "permanent": true, "length_km": 7.1 }, "geometry": { "type": "LineString", "coordinates": [ [ 1.69937, 48.80522 ], [ 1.69736, 48.80609 ], [ 1.69349, 48.80598 ], [ 1.69164, 48.80719 ], [ 1.69261, 48.81093 ], [ 1.68507, 48.81646 ], [ 1.68416, 48.81874 ], [ 1.68483, 48.82291 ], [ 1.68865, 48.8253 ], [ 1.69616, 48.82773 ], [ 1.6988, 48.83026 ], [ 1.70578, 48.83382 ], [ 1.7105, 48.83886 ], [ 1.71182, 48.84232 ], [ 1.71601, 48.84502 ], [ 1.71888, 48.85152 ] ] } },
{ "type": "Feature", "properties": { "name": "le Sausseron", "weight_class": 1, "permanent": true, "length_km": 4.5 }, "geometry": { "type": "LineString", "coordinates": [ [ 1.63496, 48.81775 ], [ 1.63284, 48.81609 ], [ 1.6296, 48.81531 ], [ 1.62772, 48.81274 ], [ 1.62899, 48.80979 ], [ 1.63425, 48.80657 ], [ 1.63409, 48.80463 ], [ 1.63149, 48.80265 ], [ 1.63034, 48.80329 ], [ 1.6283, 48.79926 ], [ 1.61806, 48.79294 ], [ 1.61651, 48.79286 ], [ 1.61654, 48.79207 ], [ 1.61507, 48.79201 ], [ 1.61501, 48.79083 ] ] } },
{ "type": "Feature", "properties": { "name": "Ru de Maurepas", "weight_class": 1, "permanent": true, "length_km": 4.2 }, "geometry": { "type": "LineString", "coordinates": [ [ 1.93914, 48.76749 ], [ 1.93423, 48.76943 ], [ 1.93232, 48.77203 ], [ 1.92875, 48.77333 ], [ 1.92639, 48.77541 ], [ 1.91105, 48.78183 ], [ 1.90954, 48.78556 ], [ 1.91129, 48.79111 ], [ 1.91012, 48.79362 ] ] } },
{ "type": "Feature", "properties": { "name": "Ru d'Élancourt", "weight_class": 1, "permanent": true, "length_km": 7.5 }, "geometry": { "type": "LineString", "coordinates": [ [ 1.96625, 48.78252 ], [ 1.96528, 48.78338 ], [ 1.9603, 48.7838 ], [ 1.95864, 48.78601 ], [ 1.9535, 48.78671 ], [ 1.95218, 48.78836 ], [ 1.94205, 48.78925 ], [ 1.94181, 48.79053 ], [ 1.93743, 48.79052 ], [ 1.9286, 48.79241 ], [ 1.92115, 48.79312 ], [ 1.92091, 48.79255 ], [ 1.91381, 48.79414 ], [ 1.9095, 48.79364 ], [ 1.89758, 48.79793 ], [ 1.88796, 48.79915 ], [ 1.88636, 48.80406 ], [ 1.88424, 48.80429 ] ] } },
{ "type": "Feature", "properties": { "name": "la Guyonne", "weight_class": 1, "permanent": true, "length_km": 12.2 }, "geometry": { "type": "MultiLineString", "coordinates": [ [ [ 1.78948, 48.75293 ], [ 1.79084, 48.75467 ], [ 1.79642, 48.75599 ] ], [ [ 1.79561, 48.75643 ], [ 1.79642, 48.75599 ] ], [ [ 1.79642, 48.75599 ], [ 1.80092, 48.75604 ], [ 1.8034, 48.75755 ], [ 1.80782, 48.75789 ], [ 1.81651, 48.75392 ], [ 1.82441, 48.75486 ], [ 1.82736, 48.75431 ], [ 1.83022, 48.75563 ], [ 1.83028, 48.75812 ], [ 1.83252, 48.75713 ], [ 1.83494, 48.75804 ], [ 1.83542, 48.76035 ], [ 1.84041, 48.76487 ], [ 1.84113, 48.76751 ], [ 1.84236, 48.76706 ], [ 1.8449, 48.76939 ], [ 1.8437, 48.77386 ], [ 1.84511, 48.77586 ], [ 1.84415, 48.77658 ], [ 1.84545, 48.78075 ], [ 1.84506, 48.78545 ], [ 1.85003, 48.79094 ], [ 1.851, 48.79894 ], [ 1.85403, 48.80242 ], [ 1.86019, 48.80563 ], [ 1.86395, 48.81217 ], [ 1.86673, 48.81437 ] ] ] } },
{ "type": "Feature", "properties": { "name": "Ruisseau de la Couarde", "weight_class": 1, "permanent": true, "length_km": 3.9 }, "geometry": { "type": "LineString", "coordinates": [ [ 1.72521, 48.79806 ], [ 1.72499, 48.79538 ], [ 1.7321, 48.79329 ], [ 1.75158, 48.79126 ], [ 1.76182, 48.78511 ], [ 1.76541, 48.78647 ] ] } },
{ "type": "Feature", "properties": { "name": "Ruisseau des Ponts Quentin", "weight_class": 1, "permanent": true, "length_km": 17.5 }, "geometry": { "type": "LineString", "coordinates": [ [ 1.82129, 48.72117 ], [ 1.78648, 48.73377 ], [ 1.7801, 48.73698 ], [ 1.77322, 48.73887 ], [ 1.76732, 48.74301 ], [ 1.76362, 48.74236 ], [ 1.75935, 48.74752 ], [ 1.757, 48.74721 ], [ 1.75423, 48.74812 ], [ 1.75104, 48.74723 ], [ 1.73945, 48.75068 ], [ 1.73806, 48.75275 ], [ 1.73927, 48.75459 ], [ 1.73589, 48.75633 ], [ 1.73394, 48.75907 ], [ 1.72575, 48.76255 ], [ 1.71551, 48.76389 ], [ 1.71046, 48.76835 ], [ 1.7044, 48.77093 ], [ 1.70313, 48.77352 ], [ 1.69413, 48.77654 ], [ 1.68646, 48.77739 ], [ 1.67999, 48.78131 ], [ 1.6736, 48.78249 ], [ 1.67386, 48.78367 ], [ 1.66562, 48.78146 ], [ 1.65514, 48.77387 ], [ 1.65192, 48.77314 ], [ 1.65244, 48.7714 ] ] } },
{ "type": "Feature", "properties": { "name": "l'Opton", "weight_class": 1, "permanent": true, "length_km": 14.1 }, "geometry": { "type": "MultiLineString", "coordinates": [ [ [ 1.64114, 48.69768 ], [ 1.63836, 48.69594 ], [ 1.63222, 48.69502 ], [ 1.62607, 48.69487 ], [ 1.61964, 48.69602 ], [ 1.61718, 48.69678 ], [ 1.61542, 48.69908 ], [ 1.60708, 48.7015 ], [ 1.60168, 48.70532 ], [ 1.59623, 48.70602 ], [ 1.59504, 48.70944 ], [ 1.59665, 48.71568 ], [ 1.59073, 48.71978 ], [ 1.58293, 48.72126 ], [ 1.58274, 48.72341 ], [ 1.58691, 48.72983 ] ], [ [ 1.59855, 48.78784 ], [ 1.59668, 48.78984 ], [ 1.5973, 48.79415 ] ], [ [ 1.61007, 48.78364 ], [ 1.60918, 48.78475 ], [ 1.60109, 48.7865 ], [ 1.59926, 48.788 ], [ 1.59855, 48.78784 ] ], [ [ 1.61007, 48.78364 ], [ 1.60131, 48.78589 ], [ 1.59855, 48.78784 ] ], [ [ 1.6054, 48.7603 ], [ 1.60476, 48.76231 ], [ 1.6064, 48.769 ], [ 1.6103, 48.77628 ] ], [ [ 1.6103, 48.77628 ], [ 1.61117, 48.77874 ], [ 1.60958, 48.7813 ], [ 1.6111, 48.78208 ], [ 1.61007, 48.78364 ] ], [ [ 1.6103, 48.77628 ], [ 1.61243, 48.77848 ], [ 1.61217, 48.78111 ], [ 1.61007, 48.78364 ] ] ] } },
{ "type": "Feature", "properties": { "name": "Fossé 01 du Ravin des Fondrières", "weight_class": 1, "permanent": false, "length_km": 2.2 }, "geometry": { "type": "LineString", "coordinates": [ [ 1.48577, 48.99192 ], [ 1.4841, 48.99417 ], [ 1.48144, 48.99552 ], [ 1.47465, 48.99208 ], [ 1.46847, 48.99048 ], [ 1.46233, 48.99275 ] ] } },
{ "type": "Feature", "properties": { "name": "Fossé 07 de la Commune de Blaru", "weight_class": 1, "permanent": false, "length_km": 5.6 }, "geometry": { "type": "LineString", "coordinates": [ [ 1.4913, 49.02576 ], [ 1.50456, 49.028 ], [ 1.50578, 49.03231 ], [ 1.50766, 49.03437 ], [ 1.50642, 49.03696 ], [ 1.51055, 49.04149 ], [ 1.50891, 49.04668 ], [ 1.51036, 49.04952 ], [ 1.51283, 49.05262 ], [ 1.5189, 49.05683 ], [ 1.52341, 49.06264 ], [ 1.52567, 49.06292 ] ] } },
{ "type": "Feature", "properties": { "name": "Fossé 01 de la Commune de la Villeneuve-en-Chevrie", "weight_class": 1, "permanent": false, "length_km": 3.3 }, "geometry": { "type": "LineString", "coordinates": [ [ 1.54151, 48.99962 ], [ 1.54513, 48.99896 ], [ 1.54606, 48.99682 ], [ 1.54458, 48.99351 ], [ 1.54995, 48.99343 ], [ 1.55602, 48.99703 ], [ 1.56495, 48.99973 ], [ 1.56751, 49.00352 ] ] } },
{ "type": "Feature", "properties": { "name": "Ruisseau de la Vallée aux Peines", "weight_class": 1, "permanent": false, "length_km": 3.0 }, "geometry": { "type": "LineString", "coordinates": [ [ 1.56551, 48.96516 ], [ 1.57833, 48.97007 ], [ 1.58373, 48.97073 ], [ 1.58775, 48.97247 ], [ 1.59509, 48.97281 ], [ 1.60338, 48.97163 ] ] } },
{ "type": "Feature", "properties": { "name": "Ru d'Ouville", "weight_class": 1, "permanent": true, "length_km": 10.4 }, "geometry": { "type": "LineString", "coordinates": [ [ 1.56582, 48.94443 ], [ 1.56902, 48.94256 ], [ 1.571, 48.94002 ], [ 1.57034, 48.93894 ], [ 1.57603, 48.93683 ], [ 1.57838, 48.93481 ], [ 1.57773, 48.93084 ], [ 1.58364, 48.92848 ], [ 1.58523, 48.9269 ], [ 1.58373, 48.92426 ], [ 1.57911, 48.92174 ], [ 1.57761, 48.91723 ], [ 1.58583, 48.91547 ], [ 1.58819, 48.91194 ], [ 1.59188, 48.90971 ], [ 1.59243, 48.90735 ], [ 1.59595, 48.9057 ], [ 1.59551, 48.90376 ], [ 1.59823, 48.90107 ], [ 1.59802, 48.89933 ], [ 1.6009, 48.8976 ], [ 1.60666, 48.89822 ], [ 1.6108, 48.89667 ], [ 1.61762, 48.89666 ], [ 1.62136, 48.89432 ], [ 1.62763, 48.89493 ], [ 1.63508, 48.89402 ], [ 1.63668, 48.89254 ] ] } },
{ "type": "Feature", "properties": { "name": "Ruisseau de l'Étang/Ru de la Fieffe", "weight_class": 1, "permanent": true, "length_km": 6.6 }, "geometry": { "type": "LineString", "coordinates": [ [ 1.50997, 48.96463 ], [ 1.51749, 48.96416 ], [ 1.52221, 48.95883 ], [ 1.53514, 48.95589 ], [ 1.536, 48.9548 ], [ 1.53515, 48.94617 ], [ 1.53804, 48.94202 ], [ 1.53452, 48.93891 ], [ 1.53477, 48.93483 ], [ 1.52327, 48.92634 ], [ 1.52276, 48.92459 ] ] } },
{ "type": "Feature", "properties": { "name": "Ru de Flins", "weight_class": 1, "permanent": false, "length_km": 2.3 }, "geometry": { "type": "LineString", "coordinates": [ [ 1.57188, 48.88955 ], [ 1.58635, 48.89557 ], [ 1.59829, 48.89918 ] ] } },
{ "type": "Feature", "properties": { "name": "la Vesgre", "weight_class": 1, "permanent": true, "length_km": 27.5 }, "geometry": { "type": "MultiLineString", "coordinates": [ [ [ 1.5896, 48.79869 ], [ 1.58986, 48.80128 ], [ 1.58712, 48.80364 ], [ 1.58733, 48.80583 ], [ 1.57894, 48.80905 ] ], [ [ 1.59127, 48.79486 ], [ 1.58909, 48.79424 ], [ 1.5873, 48.79556 ], [ 1.5896, 48.79869 ] ], [ [ 1.59127, 48.79486 ], [ 1.58924, 48.7964 ], [ 1.5896, 48.79869 ] ], [ [ 1.60446, 48.79349 ], [ 1.59748, 48.79411 ], [ 1.59614, 48.79526 ], [ 1.59127, 48.79486 ] ], [ [ 1.62428, 48.78721 ], [ 1.62076, 48.7875 ], [ 1.61477, 48.79034 ], [ 1.60444, 48.79277 ], [ 1.60446, 48.79349 ] ], [ [ 1.62428, 48.78721 ], [ 1.62555, 48.78817 ], [ 1.62142, 48.78972 ], [ 1.60446, 48.79349 ] ], [ [ 1.65964, 48.76022 ], [ 1.65277, 48.76865 ], [ 1.65244, 48.7714 ], [ 1.64434, 48.77332 ], [ 1.6402, 48.78071 ], [ 1.63701, 48.78104 ], [ 1.63315, 48.78433 ], [ 1.62428, 48.78721 ] ], [ [ 1.66042, 48.75559 ], [ 1.65964, 48.76022 ] ], [ [ 1.66042, 48.75559 ], [ 1.66052, 48.75555 ], [ 1.66086, 48.75596 ], [ 1.66106, 48.75689 ], [ 1.65964, 48.76022 ] ], [ [ 1.77766, 48.70838 ], [ 1.78029, 48.70993 ], [ 1.77471, 48.71325 ], [ 1.77386, 48.71897 ], [ 1.77121, 48.7211 ], [ 1.76557, 48.72337 ], [ 1.75255, 48.72157 ], [ 1.74294, 48.72379 ], [ 1.73226, 48.72024 ], [ 1.73022, 48.72088 ], [ 1.72659, 48.71976 ], [ 1.72503, 48.72242 ], [ 1.71669, 48.72295 ], [ 1.71614, 48.72405 ], [ 1.71318, 48.72419 ], [ 1.7114, 48.72698 ], [ 1.70816, 48.72791 ], [ 1.70203, 48.7257 ], [ 1.70062, 48.72429 ], [ 1.69913, 48.72522 ], [ 1.69331, 48.72397 ], [ 1.68722, 48.72695 ], [ 1.6802, 48.72861 ], [ 1.67529, 48.72791 ], [ 1.66633, 48.73318 ], [ 1.66558, 48.73653 ], [ 1.66226, 48.73884 ], [ 1.66182, 48.74362 ], [ 1.65928, 48.74675 ], [ 1.66042, 48.75559 ] ] ] } },
{ "type": "Feature", "properties": { "name": "Fossé 01 de la Commune de Gazeran", "weight_class": 1, "permanent": false, "length_km": 3.7 }, "geometry": { "type": "LineString", "coordinates": [ [ 1.76705, 48.65594 ], [ 1.77188, 48.65979 ], [ 1.77647, 48.66165 ], [ 1.77781, 48.6652 ], [ 1.7796, 48.66648 ], [ 1.77817, 48.66792 ], [ 1.77124, 48.67041 ], [ 1.76782, 48.67302 ], [ 1.7705, 48.6804 ] ] } },
{ "type": "Feature", "properties": { "name": "Rigole des Yvelines", "weight_class": 1, "permanent": false, "length_km": 6.5 }, "geometry": { "type": "LineString", "coordinates": [ [ 1.81452, 48.74253 ], [ 1.81757, 48.74383 ], [ 1.82093, 48.74326 ], [ 1.82343, 48.74204 ], [ 1.82617, 48.73865 ], [ 1.82035, 48.72894 ], [ 1.81468, 48.72576 ], [ 1.85807, 48.71067 ] ] } },
{ "type": "Feature", "properties": { "name": "Fossé 02 de la Commune de Rambouillet", "weight_class": 1, "permanent": false, "length_km": 2.5 }, "geometry": { "type": "LineString", "coordinates": [ [ 1.80791, 48.67426 ], [ 1.81413, 48.67428 ], [ 1.81938, 48.67317 ], [ 1.82344, 48.66969 ], [ 1.82251, 48.66781 ], [ 1.82531, 48.66401 ], [ 1.83021, 48.66218 ] ] } },
{ "type": "Feature", "properties": { "name": "Fossé 01 de l'Etang de Gruyer", "weight_class": 1, "permanent": true, "length_km": 7.4 }, "geometry": { "type": "LineString", "coordinates": [ [ 1.8285, 48.69837 ], [ 1.82265, 48.7 ], [ 1.82175, 48.69927 ], [ 1.81271, 48.69997 ], [ 1.80817, 48.69626 ], [ 1.81169, 48.68932 ], [ 1.80964, 48.6869 ], [ 1.81157, 48.6858 ], [ 1.81266, 48.67797 ], [ 1.81495, 48.67709 ], [ 1.8236, 48.67716 ], [ 1.83065, 48.67108 ], [ 1.832, 48.66861 ], [ 1.83507, 48.66678 ], [ 1.83499, 48.66439 ], [ 1.83032, 48.66251 ], [ 1.83054, 48.65998 ] ] } },
{ "type": "Feature", "properties": { "name": "Canal 02 de la Commune des Bréviaires", "weight_class": 1, "permanent": false, "length_km": 2.1 }, "geometry": { "type": "LineString", "coordinates": [ [ 1.79406, 48.67701 ], [ 1.79582, 48.68037 ], [ 1.79582, 48.6842 ], [ 1.79901, 48.68686 ], [ 1.81, 48.68756 ] ] } },
{ "type": "Feature", "properties": { "name": "Rigole des Plauviettes", "weight_class": 1, "permanent": false, "length_km": 3.1 }, "geometry": { "type": "LineString", "coordinates": [ [ 1.80817, 48.69626 ], [ 1.80585, 48.70168 ], [ 1.79514, 48.70565 ], [ 1.7945, 48.70678 ], [ 1.79769, 48.71167 ], [ 1.79643, 48.71268 ], [ 1.79691, 48.71457 ], [ 1.79798, 48.71548 ], [ 1.80089, 48.71483 ], [ 1.80149, 48.71538 ] ] } },
{ "type": "Feature", "properties": { "name": "Canal 01 de la Commune du Perray-en-Yvelines", "weight_class": 1, "permanent": false, "length_km": 6.7 }, "geometry": { "type": "LineString", "coordinates": [ [ 1.83632, 48.69635 ], [ 1.84032, 48.69201 ], [ 1.84513, 48.68898 ], [ 1.85135, 48.69111 ], [ 1.86853, 48.68915 ], [ 1.86845, 48.69246 ], [ 1.86413, 48.69388 ], [ 1.86329, 48.69562 ], [ 1.87175, 48.69829 ], [ 1.87153, 48.70028 ], [ 1.87003, 48.70214 ], [ 1.86686, 48.70263 ], [ 1.86092, 48.70587 ], [ 1.85503, 48.70776 ], [ 1.85744, 48.71015 ] ] } },
{ "type": "Feature", "properties": { "name": "Fossé 04 des Vallées", "weight_class": 1, "permanent": false, "length_km": 2.3 }, "geometry": { "type": "LineString", "coordinates": [ [ 1.89721, 48.68301 ], [ 1.90029, 48.68349 ], [ 1.90894, 48.68153 ], [ 1.91107, 48.68376 ], [ 1.91048, 48.68574 ], [ 1.91155, 48.687 ], [ 1.91924, 48.69023 ] ] } },
{ "type": "Feature", "properties": { "name": "Fossé 01 du Bois de l'Etrille", "weight_class": 1, "permanent": false, "length_km": 2.1 }, "geometry": { "type": "LineString", "coordinates": [ [ 1.92398, 48.70836 ], [ 1.93127, 48.71043 ], [ 1.93399, 48.71248 ], [ 1.93729, 48.71319 ], [ 1.93858, 48.71471 ], [ 1.94463, 48.71677 ], [ 1.94564, 48.71899 ] ] } },
{ "type": "Feature", "properties": { "name": "l'Yvette", "weight_class": 1, "permanent": true, "length_km": 4.9 }, "geometry": { "type": "LineString", "coordinates": [ [ 1.86025, 48.72958 ], [ 1.86267, 48.7296 ], [ 1.86621, 48.73173 ], [ 1.88208, 48.7263 ], [ 1.88844, 48.72521 ], [ 1.89054, 48.72352 ], [ 1.8954, 48.72223 ], [ 1.89959, 48.72239 ], [ 1.91231, 48.72063 ], [ 1.91723, 48.72316 ] ] } },
{ "type": "Feature", "properties": { "name": "Fossé 01 du Bois Départemental des Gaules", "weight_class": 1, "permanent": false, "length_km": 4.1 }, "geometry": { "type": "LineString", "coordinates": [ [ 1.92261, 48.65456 ], [ 1.93976, 48.6557 ], [ 1.94754, 48.65139 ], [ 1.95336, 48.65025 ], [ 1.95284, 48.64668 ], [ 1.95417, 48.64579 ], [ 1.95236, 48.645 ], [ 1.95298, 48.64345 ], [ 1.94957, 48.6387 ] ] } },
{ "type": "Feature", "properties": { "name": "Aqueduc la Voûte", "weight_class": 1, "permanent": false, "length_km": 8.8 }, "geometry": { "type": "LineString", "coordinates": [ [ 1.86329, 48.69562 ], [ 1.8468, 48.69797 ], [ 1.83031, 48.70409 ], [ 1.82911, 48.70558 ], [ 1.81127, 48.71118 ], [ 1.81066, 48.71061 ], [ 1.79888, 48.71743 ], [ 1.80728, 48.72444 ], [ 1.82957, 48.7164 ], [ 1.83075, 48.71789 ] ] } },
{ "type": "Feature", "properties": { "name": "Aqueduc de Vieille Église", "weight_class": 1, "permanent": true, "length_km": 6.3 }, "geometry": { "type": "LineString", "coordinates": [ [ 1.85802, 48.70986 ], [ 1.86277, 48.70614 ], [ 1.8673, 48.70406 ], [ 1.86522, 48.69535 ], [ 1.87112, 48.67927 ], [ 1.87011, 48.67269 ], [ 1.87646, 48.66078 ], [ 1.87976, 48.65919 ] ] } },
{ "type": "Feature", "properties": { "name": "Fossé 06 de la Commune de Saint-Léger-en-Yvelines", "weight_class": 1, "permanent": false, "length_km": 3.5 }, "geometry": { "type": "LineString", "coordinates": [ [ 1.78407, 48.76121 ], [ 1.77899, 48.75175 ], [ 1.77695, 48.75161 ], [ 1.77379, 48.74799 ], [ 1.77345, 48.74692 ], [ 1.77534, 48.74618 ], [ 1.77547, 48.74415 ], [ 1.7775, 48.74192 ], [ 1.77443, 48.73883 ] ] } },
{ "type": "Feature", "properties": { "name": "Fossé 04 de la Commune de Saint-Léger-en-Yvelines", "weight_class": 1, "permanent": false, "length_km": 2.1 }, "geometry": { "type": "LineString", "coordinates": [ [ 1.79365, 48.74738 ], [ 1.79402, 48.7462 ], [ 1.79038, 48.744 ], [ 1.78477, 48.74575 ], [ 1.78421, 48.74005 ], [ 1.7824, 48.73733 ], [ 1.78064, 48.73661 ] ] } },
{ "type": "Feature", "properties": { "name": "la Vesgre", "weight_class": 1, "permanent": true, "length_km": 6.0 }, "geometry": { "type": "LineString", "coordinates": [ [ 1.71837, 48.74395 ], [ 1.71149, 48.73872 ], [ 1.70221, 48.73732 ], [ 1.69754, 48.73801 ], [ 1.68646, 48.74164 ], [ 1.67415, 48.74325 ], [ 1.66976, 48.74546 ], [ 1.66687, 48.74535 ], [ 1.66375, 48.74404 ], [ 1.66099, 48.74476 ], [ 1.65987, 48.7463 ], [ 1.66097, 48.75262 ], [ 1.65995, 48.75427 ] ] } },
{ "type": "Feature", "properties": { "name": "Cours d'Eau 01 de Houel", "weight_class": 1, "permanent": false, "length_km": 2.5 }, "geometry": { "type": "LineString", "coordinates": [ [ 1.6307, 48.74484 ], [ 1.63544, 48.74448 ], [ 1.63528, 48.74265 ], [ 1.63759, 48.74339 ], [ 1.6447, 48.74237 ], [ 1.65939, 48.74638 ] ] } },
{ "type": "Feature", "properties": { "name": "Cours d'Eau 02 de la Commune de Condé-sur-Gesvre", "weight_class": 1, "permanent": true, "length_km": 2.6 }, "geometry": { "type": "LineString", "coordinates": [ [ 1.68255, 48.72634 ], [ 1.67452, 48.72693 ], [ 1.67092, 48.73029 ], [ 1.66642, 48.73136 ], [ 1.66553, 48.73542 ], [ 1.66185, 48.73881 ], [ 1.66198, 48.74046 ] ] } },
{ "type": "Feature", "properties": { "name": "Fossé 01 de la Commune de Condé-sur-Vesgre", "weight_class": 1, "permanent": false, "length_km": 2.2 }, "geometry": { "type": "LineString", "coordinates": [ [ 1.6972, 48.73281 ], [ 1.68296, 48.73333 ], [ 1.68155, 48.7324 ], [ 1.6779, 48.73316 ], [ 1.67321, 48.7305 ], [ 1.67007, 48.731 ] ] } },
{ "type": "Feature", "properties": { "name": "Cours d'Eau 01 du Rouvray", "weight_class": 1, "permanent": true, "length_km": 3.2 }, "geometry": { "type": "MultiLineString", "coordinates": [ [ [ 1.7167, 48.72628 ], [ 1.71204, 48.72939 ], [ 1.70728, 48.72963 ], [ 1.69952, 48.72564 ], [ 1.6942, 48.72418 ] ], [ [ 1.72639, 48.73457 ], [ 1.72056, 48.72991 ], [ 1.7191, 48.72727 ], [ 1.71683, 48.7262 ] ] ] } },
{ "type": "Feature", "properties": { "name": "Fossé 01 de l'Etang d'Adainville", "weight_class": 1, "permanent": true, "length_km": 2.3 }, "geometry": { "type": "LineString", "coordinates": [ [ 1.64781, 48.72047 ], [ 1.6493, 48.72377 ], [ 1.65321, 48.7255 ], [ 1.65628, 48.72981 ], [ 1.65996, 48.73234 ], [ 1.66502, 48.73406 ], [ 1.66553, 48.73542 ] ] } },
{ "type": "Feature", "properties": { "name": "Fossé 01 des Minières", "weight_class": 1, "permanent": false, "length_km": 2.2 }, "geometry": { "type": "LineString", "coordinates": [ [ 1.65796, 48.71716 ], [ 1.65952, 48.72035 ], [ 1.66441, 48.72486 ], [ 1.66592, 48.72846 ], [ 1.66518, 48.73449 ] ] } },
{ "type": "Feature", "properties": { "name": "Cours d'Eau 01 de la Chesnaie", "weight_class": 1, "permanent": true, "length_km": 3.1 }, "geometry": { "type": "LineString", "coordinates": [ [ 1.71057, 48.7105 ], [ 1.70764, 48.71356 ], [ 1.70428, 48.71478 ], [ 1.70188, 48.72029 ], [ 1.69918, 48.72273 ], [ 1.69226, 48.72306 ], [ 1.68652, 48.72573 ], [ 1.68255, 48.72634 ] ] } },
{ "type": "Feature", "properties": { "name": "Bras de la Vesgre", "weight_class": 1, "permanent": true, "length_km": 3.6 }, "geometry": { "type": "MultiLineString", "coordinates": [ [ [ 1.72316, 48.72266 ], [ 1.72035, 48.72307 ], [ 1.71176, 48.72809 ], [ 1.70878, 48.72876 ], [ 1.69913, 48.72522 ] ], [ [ 1.74294, 48.72379 ], [ 1.72526, 48.72217 ] ] ] } },
{ "type": "Feature", "properties": { "name": "Fossé 01 de la Commune de Saint-Léger-en-Yvelines", "weight_class": 1, "permanent": false, "length_km": 2.1 }, "geometry": { "type": "LineString", "coordinates": [ [ 1.77797, 48.72893 ], [ 1.78191, 48.72798 ], [ 1.78525, 48.72543 ], [ 1.78398, 48.72372 ], [ 1.77914, 48.72341 ], [ 1.77519, 48.71993 ], [ 1.77265, 48.71974 ] ] } },
{ "type": "Feature", "properties": { "name": "Fossé 01 des Roches", "weight_class": 1, "permanent": false, "length_km": 3.3 }, "geometry": { "type": "LineString", "coordinates": [ [ 1.67846, 48.66139 ], [ 1.66555, 48.66655 ], [ 1.66372, 48.66671 ], [ 1.66172, 48.66445 ], [ 1.64553, 48.67012 ], [ 1.64099, 48.67048 ] ] } },
{ "type": "Feature", "properties": { "name": "Fossé 01 de Roard", "weight_class": 1, "permanent": false, "length_km": 4.2 }, "geometry": { "type": "LineString", "coordinates": [ [ 1.69524, 48.67142 ], [ 1.70009, 48.67433 ], [ 1.69929, 48.67613 ], [ 1.67748, 48.67765 ], [ 1.66622, 48.68478 ], [ 1.65897, 48.68524 ] ] } },
{ "type": "Feature", "properties": { "name": "Fossé 04 de la Commune de Poigny-la-Forêt", "weight_class": 1, "permanent": false, "length_km": 2.5 }, "geometry": { "type": "LineString", "coordinates": [ [ 1.71472, 48.68531 ], [ 1.71238, 48.68248 ], [ 1.71125, 48.67786 ], [ 1.72434, 48.67362 ], [ 1.72689, 48.6718 ], [ 1.72675, 48.66935 ] ] } },
{ "type": "Feature", "properties": { "name": "Fossé 03 de la Commune de Poigny-la-Forêt", "weight_class": 1, "permanent": false, "length_km": 3.3 }, "geometry": { "type": "LineString", "coordinates": [ [ 1.70752, 48.69529 ], [ 1.71479, 48.69492 ], [ 1.72168, 48.69013 ], [ 1.72613, 48.69108 ], [ 1.73155, 48.68721 ], [ 1.73779, 48.68512 ], [ 1.74464, 48.68449 ] ] } },
{ "type": "Feature", "properties": { "name": "Cours d'Eau 01 de la Commune de Poigny-la-Forêt", "weight_class": 1, "permanent": false, "length_km": 6.2 }, "geometry": { "type": "LineString", "coordinates": [ [ 1.72275, 48.70775 ], [ 1.73073, 48.71 ], [ 1.74566, 48.70261 ], [ 1.74632, 48.7016 ], [ 1.74457, 48.69753 ], [ 1.74945, 48.69323 ], [ 1.75175, 48.68906 ], [ 1.75037, 48.68798 ], [ 1.74273, 48.68843 ], [ 1.74217, 48.68668 ], [ 1.74546, 48.68336 ], [ 1.75648, 48.67851 ] ] } },
{ "type": "Feature", "properties": { "name": "Canal 03 de Rambouillet", "weight_class": 1, "permanent": false, "length_km": 2.4 }, "geometry": { "type": "LineString", "coordinates": [ [ 1.79028, 48.65276 ], [ 1.78445, 48.65304 ], [ 1.79209, 48.65944 ], [ 1.78938, 48.66094 ], [ 1.78226, 48.65507 ] ] } },
{ "type": "Feature", "properties": { "name": "Rigole du Lit de Rivière", "weight_class": 1, "permanent": true, "length_km": 15.1 }, "geometry": { "type": "LineString", "coordinates": [ [ 1.85802, 48.70986 ], [ 1.86611, 48.70822 ], [ 1.89558, 48.71464 ], [ 1.897, 48.72268 ], [ 1.90021, 48.72674 ], [ 1.89859, 48.7286 ], [ 1.90618, 48.73556 ], [ 1.91553, 48.73344 ], [ 1.91914, 48.73355 ], [ 1.92383, 48.73957 ], [ 1.92357, 48.74127 ], [ 1.92742, 48.74308 ], [ 1.9281, 48.74644 ], [ 1.92966, 48.74725 ], [ 1.94045, 48.74451 ], [ 1.95943, 48.75022 ], [ 1.96593, 48.74988 ], [ 1.96731, 48.75567 ], [ 1.96619, 48.77197 ], [ 1.97003, 48.7738 ], [ 1.97637, 48.7741 ], [ 1.98072, 48.77779 ] ] } },
{ "type": "Feature", "properties": { "name": "Ruisseau des Gaudigny", "weight_class": 1, "permanent": true, "length_km": 4.6 }, "geometry": { "type": "LineString", "coordinates": [ [ 1.79655, 48.77443 ], [ 1.79977, 48.7755 ], [ 1.81042, 48.77528 ], [ 1.81237, 48.77721 ], [ 1.81513, 48.77771 ], [ 1.82108, 48.77578 ], [ 1.82339, 48.77645 ], [ 1.82846, 48.77503 ], [ 1.83564, 48.77093 ], [ 1.83857, 48.77039 ], [ 1.84244, 48.77186 ], [ 1.84415, 48.77658 ] ] } },
{ "type": "Feature", "properties": { "name": "Ru du Pommeret", "weight_class": 1, "permanent": true, "length_km": 4.7 }, "geometry": { "type": "LineString", "coordinates": [ [ 1.92799, 48.74592 ], [ 1.93217, 48.74589 ], [ 1.93567, 48.74433 ], [ 1.9326, 48.74173 ], [ 1.93217, 48.73998 ], [ 1.93541, 48.73734 ], [ 1.94069, 48.7364 ], [ 1.9446, 48.73295 ], [ 1.94969, 48.73283 ], [ 1.95171, 48.73197 ], [ 1.95345, 48.72604 ], [ 1.95731, 48.72248 ], [ 1.95721, 48.71973 ] ] } },
{ "type": "Feature", "properties": { "name": "l'Yvette", "weight_class": 2, "permanent": true, "length_km": 18.7 }, "geometry": { "type": "MultiLineString", "coordinates": [ [ [ 1.90042, 48.73027 ], [ 1.90419, 48.72887 ], [ 1.90429, 48.7279 ], [ 1.90808, 48.72719 ], [ 1.91723, 48.72316 ], [ 1.92544, 48.72156 ], [ 1.9328, 48.71876 ], [ 1.94284, 48.71915 ], [ 1.95239, 48.72146 ], [ 1.95539, 48.72087 ], [ 1.95623, 48.71965 ], [ 1.96979, 48.7177 ], [ 1.97429, 48.71613 ], [ 1.97705, 48.7139 ], [ 1.97958, 48.71413 ], [ 1.99212, 48.71016 ], [ 1.99457, 48.70623 ], [ 1.9991, 48.70496 ], [ 2.00133, 48.70264 ], [ 2.00323, 48.70212 ], [ 2.01193, 48.70122 ], [ 2.01578, 48.70223 ], [ 2.02281, 48.70087 ], [ 2.02641, 48.70114 ], [ 2.03117, 48.70392 ], [ 2.03806, 48.70525 ] ], [ [ 2.03806, 48.70525 ], [ 2.04472, 48.70636 ], [ 2.0493, 48.70492 ], [ 2.05232, 48.70533 ] ], [ [ 2.03806, 48.70525 ], [ 2.03976, 48.70666 ], [ 2.04365, 48.7068 ], [ 2.05152, 48.7061 ], [ 2.05232, 48.70533 ] ], [ [ 2.05232, 48.70533 ], [ 2.05823, 48.70413 ], [ 2.06635, 48.70646 ], [ 2.07334, 48.70476 ], [ 2.07645, 48.70599 ], [ 2.08095, 48.70619 ], [ 2.09347, 48.70449 ], [ 2.09697, 48.70284 ] ] ] } },
{ "type": "Feature", "properties": { "name": "le Guyon", "weight_class": 1, "permanent": true, "length_km": 7.4 }, "geometry": { "type": "LineString", "coordinates": [ [ 1.85939, 48.723 ], [ 1.85118, 48.73376 ], [ 1.85365, 48.73717 ], [ 1.86049, 48.74078 ], [ 1.85994, 48.74301 ], [ 1.85746, 48.74482 ], [ 1.8604, 48.74808 ], [ 1.85855, 48.75225 ], [ 1.86398, 48.75417 ], [ 1.86702, 48.75963 ], [ 1.85928, 48.76476 ], [ 1.85442, 48.76485 ], [ 1.85083, 48.76741 ], [ 1.84491, 48.76943 ] ] } },
{ "type": "Feature", "properties": { "name": "Ru des Vaux", "weight_class": 1, "permanent": true, "length_km": 19.2 }, "geometry": { "type": "MultiLineString", "coordinates": [ [ [ 1.82129, 48.72117 ], [ 1.86463, 48.70766 ], [ 1.87552, 48.70617 ], [ 1.87715, 48.70449 ], [ 1.87977, 48.70421 ], [ 1.88157, 48.70293 ], [ 1.88446, 48.70403 ], [ 1.88757, 48.7039 ], [ 1.89129, 48.70238 ], [ 1.89594, 48.70241 ], [ 1.89798, 48.69983 ], [ 1.90679, 48.7003 ], [ 1.90898, 48.69869 ], [ 1.9118, 48.69923 ], [ 1.91381, 48.69829 ], [ 1.91357, 48.69496 ], [ 1.91652, 48.69119 ], [ 1.92355, 48.68905 ], [ 1.92929, 48.68586 ], [ 1.93548, 48.68545 ], [ 1.94549, 48.68058 ], [ 1.94908, 48.68069 ], [ 1.95011, 48.67948 ], [ 1.95934, 48.67653 ], [ 1.96414, 48.6767 ], [ 1.96632, 48.68174 ], [ 1.97518, 48.68356 ], [ 1.97568, 48.68516 ], [ 1.97953, 48.68685 ], [ 1.98156, 48.69074 ] ], [ [ 1.98156, 48.69074 ], [ 1.98202, 48.69081 ], [ 1.98311, 48.69222 ], [ 1.98465, 48.6966 ] ], [ [ 1.98156, 48.69074 ], [ 1.9826, 48.69558 ], [ 1.98465, 48.6966 ] ], [ [ 1.98465, 48.6966 ], [ 1.98476, 48.7005 ], [ 1.98665, 48.70363 ], [ 1.99404, 48.70551 ], [ 1.9934, 48.70709 ] ] ] } },
{ "type": "Feature", "properties": { "name": "la Maltorne", "weight_class": 1, "permanent": true, "length_km": 8.7 }, "geometry": { "type": "LineString", "coordinates": [ [ 1.68978, 48.69113 ], [ 1.68531, 48.69393 ], [ 1.67946, 48.69439 ], [ 1.66263, 48.69039 ], [ 1.65853, 48.68471 ], [ 1.65574, 48.68378 ], [ 1.65368, 48.67983 ], [ 1.647, 48.67656 ], [ 1.63898, 48.66771 ], [ 1.63286, 48.66616 ], [ 1.62898, 48.66398 ], [ 1.62984, 48.66028 ], [ 1.62804, 48.65661 ], [ 1.62304, 48.65249 ], [ 1.62421, 48.65125 ], [ 1.62352, 48.65035 ], [ 1.61943, 48.64913 ] ] } },
{ "type": "Feature", "properties": { "name": "la Drouette", "weight_class": 1, "permanent": true, "length_km": 25.9 }, "geometry": { "type": "LineString", "coordinates": [ [ 1.91378, 48.67108 ], [ 1.90318, 48.666 ], [ 1.90026, 48.66677 ], [ 1.89417, 48.6662 ], [ 1.88999, 48.6646 ], [ 1.8844, 48.66559 ], [ 1.8792, 48.66154 ], [ 1.87976, 48.65919 ], [ 1.88351, 48.65783 ], [ 1.88481, 48.65123 ], [ 1.87866, 48.65207 ], [ 1.86983, 48.64906 ], [ 1.86547, 48.64553 ], [ 1.86518, 48.6441 ], [ 1.85893, 48.64196 ], [ 1.85711, 48.63511 ], [ 1.85465, 48.63236 ], [ 1.8436, 48.6283 ], [ 1.84159, 48.62687 ], [ 1.84266, 48.62565 ], [ 1.83884, 48.62365 ], [ 1.83272, 48.62258 ], [ 1.83027, 48.62159 ], [ 1.82838, 48.61932 ], [ 1.82473, 48.61908 ], [ 1.82303, 48.61763 ], [ 1.82011, 48.61745 ], [ 1.81592, 48.61309 ], [ 1.80951, 48.61085 ], [ 1.80799, 48.60847 ], [ 1.80885, 48.60625 ], [ 1.80633, 48.60385 ], [ 1.80774, 48.60225 ], [ 1.81042, 48.60245 ], [ 1.81185, 48.60034 ], [ 1.81032, 48.59819 ], [ 1.81058, 48.59321 ], [ 1.80807, 48.59249 ], [ 1.8107, 48.59009 ], [ 1.80651, 48.58896 ], [ 1.80247, 48.58376 ], [ 1.79943, 48.58257 ], [ 1.7961, 48.58267 ], [ 1.79488, 48.58082 ], [ 1.79031, 48.58107 ], [ 1.78544, 48.5798 ], [ 1.78006, 48.58266 ], [ 1.77724, 48.58135 ], [ 1.77251, 48.58197 ], [ 1.77069, 48.58077 ], [ 1.76294, 48.58407 ], [ 1.75949, 48.58226 ], [ 1.75731, 48.58397 ], [ 1.75399, 48.58393 ], [ 1.75419, 48.58475 ], [ 1.75226, 48.58559 ], [ 1.7448, 48.58662 ], [ 1.74076, 48.58551 ], [ 1.73893, 48.59007 ], [ 1.73328, 48.59052 ], [ 1.73232, 48.59187 ], [ 1.7287, 48.59243 ], [ 1.72633, 48.5939 ], [ 1.72306, 48.59385 ], [ 1.72066, 48.59506 ], [ 1.71285, 48.59607 ], [ 1.70985, 48.59947 ] ] } },
{ "type": "Feature", "properties": { "name": "la Guéville", "weight_class": 2, "permanent": true, "length_km": 16.5 }, "geometry": { "type": "MultiLineString", "coordinates": [ [ [ 1.68922, 48.61154 ], [ 1.68646, 48.61152 ] ], [ [ 1.69523, 48.61368 ], [ 1.69165, 48.61469 ], [ 1.69047, 48.61321 ] ], [ [ 1.85624, 48.66908 ], [ 1.85224, 48.66802 ], [ 1.84789, 48.66876 ], [ 1.84215, 48.66281 ], [ 1.83795, 48.66312 ], [ 1.83216, 48.66163 ], [ 1.82909, 48.65656 ], [ 1.82315, 48.65378 ], [ 1.81396, 48.64579 ], [ 1.80838, 48.64463 ], [ 1.80888, 48.64413 ], [ 1.80486, 48.64193 ], [ 1.80051, 48.64112 ], [ 1.79538, 48.63786 ], [ 1.79127, 48.63292 ], [ 1.78524, 48.63258 ], [ 1.77894, 48.63082 ], [ 1.77556, 48.63262 ], [ 1.77364, 48.63528 ], [ 1.77153, 48.63569 ], [ 1.76045, 48.63404 ], [ 1.75828, 48.6328 ], [ 1.75892, 48.63005 ], [ 1.75415, 48.62728 ], [ 1.74108, 48.62343 ], [ 1.7377, 48.61875 ], [ 1.73254, 48.61799 ], [ 1.72993, 48.61574 ], [ 1.72091, 48.61451 ], [ 1.71519, 48.61488 ], [ 1.70529, 48.61299 ], [ 1.70342, 48.61178 ], [ 1.70088, 48.61221 ] ] ] } },
{ "type": "Feature", "properties": { "name": "la Guesle", "weight_class": 1, "permanent": true, "length_km": 19.3 }, "geometry": { "type": "MultiLineString", "coordinates": [ [ [ 1.67898, 48.62084 ], [ 1.67396, 48.61648 ], [ 1.67321, 48.6136 ] ], [ [ 1.68116, 48.624 ], [ 1.68148, 48.6223 ], [ 1.67898, 48.62084 ] ], [ [ 1.68116, 48.624 ], [ 1.67986, 48.62405 ], [ 1.67898, 48.62084 ] ], [ [ 1.68189, 48.62778 ], [ 1.68082, 48.62705 ], [ 1.68116, 48.624 ] ], [ [ 1.6838, 48.63583 ], [ 1.68543, 48.63273 ], [ 1.68189, 48.62778 ] ], [ [ 1.6838, 48.63583 ], [ 1.68189, 48.62778 ] ], [ [ 1.68922, 48.64822 ], [ 1.68409, 48.64282 ], [ 1.68291, 48.63951 ], [ 1.6838, 48.63583 ] ], [ [ 1.69164, 48.65529 ], [ 1.69093, 48.64953 ], [ 1.68922, 48.64822 ] ], [ [ 1.69164, 48.65529 ], [ 1.69033, 48.6549 ], [ 1.68922, 48.64822 ] ], [ [ 1.80126, 48.66273 ], [ 1.79631, 48.66413 ], [ 1.79634, 48.66608 ], [ 1.79811, 48.66746 ], [ 1.79688, 48.66953 ], [ 1.79195, 48.67059 ], [ 1.78984, 48.67349 ], [ 1.7862, 48.67538 ], [ 1.77652, 48.67602 ], [ 1.77244, 48.68052 ], [ 1.75895, 48.67963 ], [ 1.75552, 48.67706 ], [ 1.75193, 48.67671 ], [ 1.74766, 48.67408 ], [ 1.73293, 48.67226 ], [ 1.72952, 48.66874 ], [ 1.72658, 48.66934 ], [ 1.72586, 48.66506 ], [ 1.71769, 48.66286 ], [ 1.71579, 48.66137 ], [ 1.7079, 48.66133 ], [ 1.70048, 48.65783 ], [ 1.69164, 48.65529 ] ] ] } },
{ "type": "Feature", "properties": { "name": "Fossé 01 de la Commune de Clairefontaine-en-Yvelines", "weight_class": 1, "permanent": false, "length_km": 3.9 }, "geometry": { "type": "LineString", "coordinates": [ [ 1.89356, 48.64149 ], [ 1.89822, 48.6376 ], [ 1.89189, 48.62974 ], [ 1.89752, 48.6284 ], [ 1.9003, 48.626 ], [ 1.90072, 48.62414 ], [ 1.90443, 48.62214 ], [ 1.90377, 48.61717 ], [ 1.90043, 48.61433 ] ] } },
{ "type": "Feature", "properties": { "name": "Fossé 04 de la Commune de Sonchamp", "weight_class": 1, "permanent": false, "length_km": 2.1 }, "geometry": { "type": "LineString", "coordinates": [ [ 1.86654, 48.62469 ], [ 1.8613, 48.62343 ], [ 1.85718, 48.62387 ], [ 1.85581, 48.62519 ], [ 1.84595, 48.62305 ], [ 1.84142, 48.62488 ] ] } },
{ "type": "Feature", "properties": { "name": "Cours d'Eau 01 de Baudicourt", "weight_class": 1, "permanent": true, "length_km": 3.8 }, "geometry": { "type": "LineString", "coordinates": [ [ 1.83229, 48.58574 ], [ 1.84101, 48.5838 ], [ 1.842, 48.5819 ], [ 1.84494, 48.58174 ], [ 1.8468, 48.57903 ], [ 1.8474, 48.57495 ], [ 1.85055, 48.57086 ], [ 1.85637, 48.56839 ], [ 1.85936, 48.56581 ], [ 1.85939, 48.56437 ], [ 1.85669, 48.56213 ] ] } },
{ "type": "Feature", "properties": { "name": "Fossé 01 de la Hunière", "weight_class": 1, "permanent": false, "length_km": 3.7 }, "geometry": { "type": "LineString", "coordinates": [ [ 1.84636, 48.5961 ], [ 1.84451, 48.60013 ], [ 1.85016, 48.60309 ], [ 1.85326, 48.60367 ], [ 1.85878, 48.60178 ], [ 1.8599, 48.5988 ], [ 1.86137, 48.59809 ], [ 1.86903, 48.60028 ], [ 1.87421, 48.59766 ], [ 1.87867, 48.59809 ] ] } },
{ "type": "Feature", "properties": { "name": "les Noues", "weight_class": 1, "permanent": true, "length_km": 2.3 }, "geometry": { "type": "LineString", "coordinates": [ [ 1.66128, 48.64618 ], [ 1.66075, 48.64227 ], [ 1.6681, 48.639 ], [ 1.67128, 48.63873 ], [ 1.6762, 48.64048 ], [ 1.68295, 48.64002 ] ] } },
{ "type": "Feature", "properties": { "name": "les Ruisseaux", "weight_class": 1, "permanent": false, "length_km": 3.0 }, "geometry": { "type": "LineString", "coordinates": [ [ 1.71914, 48.64377 ], [ 1.71665, 48.64104 ], [ 1.71459, 48.64251 ], [ 1.70403, 48.6454 ], [ 1.68792, 48.63699 ] ] } },
{ "type": "Feature", "properties": { "name": "Fossé 01 du Puits Fondu", "weight_class": 1, "permanent": false, "length_km": 2.5 }, "geometry": { "type": "LineString", "coordinates": [ [ 1.74518, 48.64809 ], [ 1.74974, 48.64557 ], [ 1.74378, 48.62848 ] ] } },
{ "type": "Feature", "properties": { "name": "Fossé 02 du Gâteau", "weight_class": 1, "permanent": false, "length_km": 2.0 }, "geometry": { "type": "LineString", "coordinates": [ [ 1.7822, 48.65107 ], [ 1.77931, 48.65129 ], [ 1.77606, 48.6495 ], [ 1.7763, 48.64504 ], [ 1.76728, 48.63913 ] ] } },
{ "type": "Feature", "properties": { "name": "Cours d'Eau 01 du Gâteau", "weight_class": 1, "permanent": false, "length_km": 4.5 }, "geometry": { "type": "LineString", "coordinates": [ [ 1.74518, 48.64809 ], [ 1.74142, 48.65031 ], [ 1.74995, 48.65429 ], [ 1.75829, 48.65183 ], [ 1.76343, 48.65284 ], [ 1.76488, 48.65236 ], [ 1.76448, 48.64244 ], [ 1.7676, 48.63826 ], [ 1.76593, 48.63463 ] ] } },
{ "type": "Feature", "properties": { "name": "Bras 01 de la Commune de Gazeran", "weight_class": 1, "permanent": false, "length_km": 2.1 }, "geometry": { "type": "LineString", "coordinates": [ [ 1.74998, 48.65429 ], [ 1.74595, 48.6589 ], [ 1.7515, 48.65931 ], [ 1.76302, 48.65274 ] ] } },
{ "type": "Feature", "properties": { "name": "Fossé 01 de la Pente du Bois", "weight_class": 1, "permanent": false, "length_km": 3.0 }, "geometry": { "type": "LineString", "coordinates": [ [ 1.78053, 48.54353 ], [ 1.77995, 48.54113 ], [ 1.79336, 48.53696 ], [ 1.79408, 48.5352 ], [ 1.80075, 48.53241 ], [ 1.80442, 48.52904 ], [ 1.80447, 48.52753 ], [ 1.80602, 48.52703 ] ] } },
{ "type": "Feature", "properties": { "name": "Ruisseau du Fossé Broux", "weight_class": 1, "permanent": false, "length_km": 4.1 }, "geometry": { "type": "LineString", "coordinates": [ [ 1.91531, 48.63831 ], [ 1.91273, 48.63865 ], [ 1.91186, 48.63788 ], [ 1.91096, 48.63506 ], [ 1.91287, 48.63176 ], [ 1.92773, 48.63341 ], [ 1.93787, 48.63826 ], [ 1.94974, 48.63846 ] ] } },
{ "type": "Feature", "properties": { "name": "l'Aulne", "weight_class": 1, "permanent": true, "length_km": 13.1 }, "geometry": { "type": "LineString", "coordinates": [ [ 1.90588, 48.65378 ], [ 1.90992, 48.65233 ], [ 1.91293, 48.64784 ], [ 1.91447, 48.64717 ], [ 1.91504, 48.64433 ], [ 1.92853, 48.64436 ], [ 1.93813, 48.64297 ], [ 1.94585, 48.64293 ], [ 1.95148, 48.63734 ], [ 1.95894, 48.63467 ], [ 1.96462, 48.63534 ], [ 1.97062, 48.63093 ], [ 1.97733, 48.63083 ], [ 1.97915, 48.62997 ], [ 1.98497, 48.6304 ], [ 1.98786, 48.6296 ], [ 1.9895, 48.63057 ], [ 1.99076, 48.63023 ], [ 1.9924, 48.62883 ], [ 1.99323, 48.62559 ], [ 1.99193, 48.6237 ], [ 1.99327, 48.6228 ], [ 1.99372, 48.61947 ], [ 1.98784, 48.61639 ], [ 1.98664, 48.61337 ], [ 1.98716, 48.61059 ], [ 1.99287, 48.60619 ], [ 1.99455, 48.60362 ], [ 2.00565, 48.59979 ], [ 2.00908, 48.59684 ] ] } },
{ "type": "Feature", "properties": { "name": "la Rémarde", "weight_class": 1, "permanent": true, "length_km": 20.0 }, "geometry": { "type": "MultiLineString", "coordinates": [ [ [ 1.87358, 48.61418 ], [ 1.88146, 48.60582 ], [ 1.87767, 48.6027 ], [ 1.87899, 48.60022 ], [ 1.87851, 48.59828 ], [ 1.88182, 48.59471 ], [ 1.88134, 48.59318 ], [ 1.88657, 48.59019 ], [ 1.88302, 48.58689 ], [ 1.87639, 48.58327 ], [ 1.87833, 48.57931 ], [ 1.88207, 48.57661 ], [ 1.87933, 48.57195 ], [ 1.88201, 48.57154 ], [ 1.88344, 48.56925 ], [ 1.88781, 48.56779 ], [ 1.893, 48.56876 ], [ 1.90385, 48.56776 ], [ 1.90742, 48.56867 ], [ 1.91011, 48.56719 ], [ 1.91294, 48.56759 ], [ 1.91695, 48.56683 ], [ 1.9181, 48.56807 ], [ 1.92156, 48.56889 ], [ 1.93148, 48.56796 ], [ 1.93423, 48.56912 ] ], [ [ 1.93423, 48.56912 ], [ 1.93873, 48.57049 ], [ 1.93944, 48.56997 ], [ 1.94127, 48.5706 ], [ 1.94606, 48.57089 ], [ 1.94739, 48.57012 ] ], [ [ 1.93423, 48.56912 ], [ 1.93447, 48.56907 ], [ 1.93582, 48.56957 ], [ 1.94048, 48.5698 ], [ 1.94238, 48.57046 ], [ 1.94739, 48.57012 ] ], [ [ 1.94739, 48.57012 ], [ 1.95117, 48.57101 ], [ 1.9571, 48.57423 ], [ 1.96315, 48.57379 ], [ 1.96672, 48.57534 ], [ 1.97682, 48.57541 ], [ 1.9923, 48.57735 ], [ 1.99873, 48.57535 ], [ 2.0016, 48.57532 ], [ 2.00402, 48.57583 ], [ 2.00404, 48.57753 ], [ 2.0087, 48.57705 ], [ 2.01454, 48.57871 ], [ 2.02017, 48.57776 ], [ 2.0224, 48.579 ] ] ] } },
{ "type": "Feature", "properties": { "name": "Ruisseau des Vallées Noires", "weight_class": 1, "permanent": false, "length_km": 3.9 }, "geometry": { "type": "LineString", "coordinates": [ [ 1.92223, 48.62268 ], [ 1.92741, 48.62258 ], [ 1.93014, 48.62117 ], [ 1.93649, 48.62207 ], [ 1.94264, 48.62121 ], [ 1.94787, 48.61743 ], [ 1.95328, 48.61658 ], [ 1.95803, 48.61688 ], [ 1.96036, 48.61433 ], [ 1.96404, 48.61436 ], [ 1.96555, 48.61214 ] ] } },
{ "type": "Feature", "properties": { "name": "la Rabette", "weight_class": 1, "permanent": true, "length_km": 12.7 }, "geometry": { "type": "LineString", "coordinates": [ [ 1.88427, 48.61478 ], [ 1.88432, 48.61585 ], [ 1.89164, 48.61619 ], [ 1.89457, 48.61517 ], [ 1.89753, 48.61549 ], [ 1.90433, 48.61323 ], [ 1.90613, 48.61401 ], [ 1.91031, 48.60995 ], [ 1.91741, 48.60858 ], [ 1.91774, 48.60585 ], [ 1.92042, 48.60446 ], [ 1.92624, 48.60373 ], [ 1.93037, 48.60114 ], [ 1.93909, 48.60045 ], [ 1.94242, 48.59859 ], [ 1.94995, 48.59812 ], [ 1.9633, 48.59149 ], [ 1.97711, 48.58925 ], [ 1.98202, 48.59026 ], [ 1.98468, 48.58942 ], [ 1.98727, 48.59177 ], [ 1.9906, 48.59024 ], [ 1.98917, 48.58821 ], [ 1.98695, 48.58821 ], [ 1.98745, 48.58402 ], [ 1.99531, 48.58146 ], [ 2.00228, 48.57654 ], [ 2.00372, 48.57719 ] ] } },
{ "type": "Feature", "properties": { "name": "Ruisseau de l'Étang de la Plaine", "weight_class": 1, "permanent": false, "length_km": 4.0 }, "geometry": { "type": "LineString", "coordinates": [ [ 1.76656, 48.60841 ], [ 1.77168, 48.60733 ], [ 1.77626, 48.6041 ], [ 1.77418, 48.60032 ], [ 1.77692, 48.59658 ], [ 1.7765, 48.59376 ], [ 1.77154, 48.58917 ], [ 1.7685, 48.58954 ], [ 1.76427, 48.58817 ], [ 1.76357, 48.58391 ] ] } },
{ "type": "Feature", "properties": { "name": "Ruisseau de la Mare Plate", "weight_class": 1, "permanent": false, "length_km": 2.6 }, "geometry": { "type": "LineString", "coordinates": [ [ 1.7118, 48.62814 ], [ 1.71529, 48.62597 ], [ 1.71425, 48.62339 ], [ 1.70485, 48.61885 ], [ 1.70522, 48.61688 ], [ 1.70013, 48.61532 ], [ 1.69836, 48.61244 ] ] } },
{ "type": "Feature", "properties": { "name": "Ruisseau de Pampelune", "weight_class": 1, "permanent": false, "length_km": 4.0 }, "geometry": { "type": "LineString", "coordinates": [ [ 1.90652, 48.58965 ], [ 1.91167, 48.58858 ], [ 1.91706, 48.58613 ], [ 1.92421, 48.5849 ], [ 1.92585, 48.58265 ], [ 1.92043, 48.57901 ], [ 1.92067, 48.57695 ], [ 1.92512, 48.57628 ], [ 1.92496, 48.5745 ], [ 1.9264, 48.5735 ], [ 1.92841, 48.56825 ] ] } },
{ "type": "Feature", "properties": { "name": "Ruisseau de la Vigne", "weight_class": 1, "permanent": true, "length_km": 3.8 }, "geometry": { "type": "LineString", "coordinates": [ [ 1.82128, 48.58181 ], [ 1.81588, 48.57912 ], [ 1.81369, 48.57624 ], [ 1.80063, 48.57134 ], [ 1.7949, 48.57324 ], [ 1.78859, 48.57332 ], [ 1.79, 48.57766 ], [ 1.7886, 48.58075 ] ] } },
{ "type": "Feature", "properties": { "name": "la Gironde", "weight_class": 1, "permanent": false, "length_km": 6.4 }, "geometry": { "type": "LineString", "coordinates": [ [ 1.90844, 48.54938 ], [ 1.92019, 48.55166 ], [ 1.92323, 48.54915 ], [ 1.9261, 48.54831 ], [ 1.93215, 48.5484 ], [ 1.9381, 48.54452 ], [ 1.94209, 48.53862 ], [ 1.94419, 48.53882 ], [ 1.94792, 48.53674 ], [ 1.95182, 48.53803 ], [ 1.95501, 48.53599 ], [ 1.96511, 48.53263 ], [ 1.96377, 48.53012 ], [ 1.96958, 48.52826 ] ] } },
{ "type": "Feature", "properties": { "name": "la Rémarde/le Perray", "weight_class": 1, "permanent": true, "length_km": 13.8 }, "geometry": { "type": "LineString", "coordinates": [ [ 1.86903, 48.55021 ], [ 1.86618, 48.5524 ], [ 1.86489, 48.55854 ], [ 1.86002, 48.56185 ], [ 1.85306, 48.56242 ], [ 1.84718, 48.55989 ], [ 1.84256, 48.55965 ], [ 1.83974, 48.55716 ], [ 1.83797, 48.55322 ], [ 1.84544, 48.54542 ], [ 1.84365, 48.54259 ], [ 1.84519, 48.54083 ], [ 1.84323, 48.53674 ], [ 1.84136, 48.53576 ], [ 1.84156, 48.53368 ], [ 1.83987, 48.5294 ], [ 1.83778, 48.52759 ], [ 1.83737, 48.52456 ], [ 1.83234, 48.52177 ], [ 1.82872, 48.52169 ], [ 1.82532, 48.52404 ], [ 1.80876, 48.52805 ], [ 1.80593, 48.52689 ], [ 1.80288, 48.52684 ], [ 1.79911, 48.52486 ], [ 1.79207, 48.52589 ], [ 1.78893, 48.52267 ], [ 1.78266, 48.52269 ], [ 1.76743, 48.52034 ] ] } },
{ "type": "Feature", "properties": { "name": "Fossé 01 de la Côte Rôtie", "weight_class": 1, "permanent": false, "length_km": 3.2 }, "geometry": { "type": "LineString", "coordinates": [ [ 1.56137, 48.77527 ], [ 1.57307, 48.77761 ], [ 1.57972, 48.7774 ], [ 1.58805, 48.78146 ], [ 1.59798, 48.78811 ] ] } },
{ "type": "Feature", "properties": { "name": "l'Andusse", "weight_class": 1, "permanent": false, "length_km": 2.6 }, "geometry": { "type": "LineString", "coordinates": [ [ 1.58194, 48.76186 ], [ 1.58793, 48.76517 ], [ 1.59568, 48.76716 ], [ 1.60212, 48.77354 ], [ 1.60925, 48.77529 ] ] } },
{ "type": "Feature", "properties": { "name": "les Petites Rivières", "weight_class": 2, "permanent": true, "length_km": 3.1 }, "geometry": { "type": "MultiLineString", "coordinates": [ [ [ 2.12337, 48.89148 ], [ 2.12076, 48.89378 ], [ 2.12091, 48.89678 ] ], [ [ 2.12355, 48.8913 ], [ 2.12337, 48.89148 ] ], [ [ 2.12372, 48.89128 ], [ 2.12337, 48.89148 ] ], [ [ 2.12356, 48.88503 ], [ 2.12166, 48.8869 ], [ 2.12355, 48.8913 ] ], [ [ 2.12372, 48.89128 ], [ 2.12355, 48.8913 ] ], [ [ 2.13979, 48.88823 ], [ 2.1385, 48.88715 ], [ 2.13401, 48.88754 ], [ 2.13077, 48.88663 ], [ 2.12372, 48.89128 ] ] ] } },
{ "type": "Feature", "properties": { "name": "Rigole de Coupe-Gorge", "weight_class": 1, "permanent": false, "length_km": 5.5 }, "geometry": { "type": "LineString", "coordinates": [ [ 1.85262, 48.69063 ], [ 1.85264, 48.68735 ], [ 1.85105, 48.68652 ], [ 1.84987, 48.68356 ], [ 1.84751, 48.68161 ], [ 1.84763, 48.6797 ], [ 1.84521, 48.6777 ], [ 1.84283, 48.67675 ], [ 1.83436, 48.67657 ], [ 1.82556, 48.6823 ], [ 1.81516, 48.68309 ], [ 1.81347, 48.68676 ], [ 1.81583, 48.68942 ], [ 1.81052, 48.69263 ] ] } },
{ "type": "Feature", "properties": { "name": "Bras de Gloton", "weight_class": 3, "permanent": true, "length_km": 2.3 }, "geometry": { "type": "LineString", "coordinates": [ [ 1.58459, 49.04448 ], [ 1.5769, 49.04292 ], [ 1.56577, 49.03856 ], [ 1.55547, 49.03711 ] ] } }
]
}
