{
"type": "FeatureCollection",
"name": "dep75_overview.geojson",
"crs": { "type": "name", "properties": { "name": "urn:ogc:def:crs:OGC:1.3:CRS84" } },
"xy_coordinate_resolution": 1e-05,
"features": [
{ "type": "Feature", "properties": { "name": "Aqueduc de la Dhuis", "weight_class": 1, "permanent": true, "length_km": 4.7 }, "geometry": { "type": "LineString", "coordinates": [ [ 2.46986, 48.87694 ], [ 2.4443, 48.87645 ], [ 2.40693, 48.87137 ] ] } },
{ "type": "Feature", "properties": { "name": "Canal de l'Ourcq", "weight_class": 3, "permanent": true, "length_km": 2.6 }, "geometry": { "type": "LineString", "coordinates": [ [ 2.39681, 48.89606 ], [ 2.39227, 48.89483 ], [ 2.37156, 48.88442 ], [ 2.36925, 48.88175 ] ] } },
{ "type": "Feature", "properties": { "name": "Canal Saint-Martin", "weight_class": 3, "permanent": true, "length_km": 4.4 }, "geometry": { "type": "LineString", "coordinates": [ [ 2.36925, 48.88175 ], [ 2.36318, 48.87426 ], [ 2.37257, 48.86117 ], [ 2.36644, 48.84731 ], [ 2.36446, 48.84619 ] ] } },
{ "type": "Feature", "properties": { "name": "Ruisseau de Gravelle", "weight_class": 1, "permanent": true, "length_km": 6.8 }, "geometry": { "type": "MultiLineString", "coordinates": [ [ [ 2.41964, 48.84187 ], [ 2.41237, 48.8318 ], [ 2.41064, 48.81696 ] ], [ [ 2.44731, 48.81972 ], [ 2.44204, 48.82187 ], [ 2.43507, 48.82255 ], [ 2.43183, 48.82419 ], [ 2.42925, 48.82862 ], [ 2.42897, 48.83447 ], [ 2.42483, 48.83868 ], [ 2.42621, 48.84122 ], [ 2.42007, 48.84197 ] ] ] } },
{ "type": "Feature", "properties": { "name": "Ruisseau de Longchamp", "weight_class": 1, "permanent": true, "length_km": 6.2 }, "geometry": { "type": "LineString", "coordinates": [ [ 2.26812, 48.87686 ], [ 2.26796, 48.87599 ], [ 2.26639, 48.87584 ], [ 2.26663, 48.87405 ], [ 2.27302, 48.87647 ], [ 2.27506, 48.87657 ], [ 2.27546, 48.87565 ], [ 2.27003, 48.87412 ], [ 2.26288, 48.86871 ], [ 2.25488, 48.8678 ], [ 2.25065, 48.86536 ], [ 2.24342, 48.86448 ], [ 2.24229, 48.86311 ], [ 2.23714, 48.86313 ], [ 2.23232, 48.86413 ], [ 2.23379, 48.86483 ], [ 2.23309, 48.86671 ], [ 2.23034, 48.8677 ] ] } },
{ "type": "Feature", "properties": { "name": "Bras de la Seine", "weight_class": 4, "permanent": true, "length_km": 2.9 }, "geometry": { "type": "LineString", "coordinates": [ [ 2.23174, 48.86907 ], [ 2.24272, 48.87354 ], [ 2.25194, 48.88208 ], [ 2.25713, 48.88866 ] ] } },
{ "type": "Feature", "properties": { "name": "la Bièvre", "weight_class": 1, "permanent": true, "length_km": 4.8 }, "geometry": { "type": "LineString", "coordinates": [ [ 2.34325, 48.80873 ], [ 2.34441, 48.83318 ], [ 2.36618, 48.84489 ] ] } },
{ "type": "Feature", "properties": { "name": "Aqueduc de la Vanne", "weight_class": 1, "permanent": true, "length_km": 2.5 }, "geometry": { "type": "LineString", "coordinates": [ [ 2.32546, 48.80426 ], [ 2.32336, 48.80478 ], [ 2.32362, 48.80545 ], [ 2.32558, 48.80946 ], [ 2.33188, 48.81697 ], [ 2.33449, 48.82234 ], [ 2.33419, 48.82427 ] ] } },
{ "type": "Feature", "properties": { "name": "Aqueduc du Loing", "weight_class": 1, "permanent": true, "length_km": 2.5 }, "geometry": { "type": "LineString", "coordinates": [ [ 2.32546, 48.80426 ], [ 2.32384, 48.80477 ], [ 2.32616, 48.8099 ], [ 2.33241, 48.81722 ], [ 2.33431, 48.82428 ] ] } },
{ "type": "Feature", "properties": { "name": "la Seine", "weight_class": 4, "permanent": true, "length_km": 20.7 }, "geometry": { "type": "MultiLineString", "coordinates": [ [ [ 2.22356, 48.84117 ], [ 2.22559, 48.84837 ], [ 2.22431, 48.8557 ], [ 2.22838, 48.86538 ], [ 2.23472, 48.87182 ], [ 2.25796, 48.89028 ] ], [ [ 2.40541, 48.81813 ], [ 2.39753, 48.82089 ], [ 2.38851, 48.82674 ], [ 2.36226, 48.84781 ], [ 2.35405, 48.85113 ], [ 2.35239, 48.85457 ], [ 2.3446, 48.85726 ], [ 2.33121, 48.85968 ], [ 2.31868, 48.86372 ], [ 2.30014, 48.86339 ], [ 2.29369, 48.86125 ], [ 2.27907, 48.85037 ], [ 2.26051, 48.83164 ] ] ] } }
]
}
