{
"type": "FeatureCollection",
"name": "dep94_overview.geojson",
"crs": { "type": "name", "properties": { "name": "urn:ogc:def:crs:OGC:1.3:CRS84" } },
"xy_coordinate_resolution": 1e-05,
"features": [
{ "type": "Feature", "properties": { "name": "la Marne", "weight_class": 4, "permanent": true, "length_km": 25.3 }, "geometry": { "type": "LineString", "coordinates": [ [ 2.53544, 48.85369 ], [ 2.51699, 48.85174 ], [ 2.5124, 48.84901 ], [ 2.51128, 48.84558 ], [ 2.51255, 48.84108 ], [ 2.51767, 48.83483 ], [ 2.51657, 48.83175 ], [ 2.51412, 48.83024 ], [ 2.50781, 48.829 ], [ 2.49096, 48.83127 ], [ 2.47761, 48.8309 ], [ 2.4717, 48.8292 ], [ 2.46714, 48.82411 ], [ 2.46847, 48.81916 ], [ 2.47376, 48.81576 ], [ 2.4801, 48.81348 ], [ 2.49723, 48.81044 ], [ 2.50801, 48.81031 ], [ 2.5146, 48.80929 ], [ 2.52001, 48.80715 ], [ 2.52286, 48.80231 ], [ 2.52267, 48.79269 ], [ 2.51901, 48.78756 ], [ 2.51143, 48.78436 ], [ 2.48635, 48.7842 ], [ 2.47463, 48.78767 ], [ 2.4721, 48.79107 ], [ 2.46813, 48.80456 ], [ 2.45673, 48.81122 ], [ 2.45112, 48.81575 ], [ 2.43704, 48.81688 ], [ 2.43237, 48.81612 ], [ 2.42017, 48.81686 ], [ 2.41059, 48.81641 ] ] } },
{ "type": "Feature", "properties": { "name": "l'Yerres", "weight_class": 2, "permanent": true, "length_km": 5.5 }, "geometry": { "type": "MultiLineString", "coordinates": [ [ [ 2.45065, 48.71588 ], [ 2.44809, 48.71779 ], [ 2.44808, 48.72306 ], [ 2.44303, 48.72679 ] ], [ [ 2.53161, 48.69571 ], [ 2.53211, 48.69846 ], [ 2.52864, 48.70359 ], [ 2.52478, 48.7052 ], [ 2.52228, 48.70457 ], [ 2.5215, 48.70103 ], [ 2.51666, 48.69771 ] ], [ [ 2.5423, 48.68509 ], [ 2.54451, 48.68762 ], [ 2.55096, 48.69011 ], [ 2.54898, 48.69249 ] ], [ [ 2.54898, 48.69249 ], [ 2.54727, 48.69319 ], [ 2.54658, 48.69299 ], [ 2.54845, 48.69253 ], [ 2.54898, 48.69249 ] ] ] } },
{ "type": "Feature", "properties": { "name": "Fossé 01 de la Commune de la Queue-en-Brie", "weight_class": 1, "permanent": false, "length_km": 2.2 }, "geometry": { "type": "LineString", "coordinates": [ [ 2.59645, 48.79901 ], [ 2.59219, 48.79808 ], [ 2.59153, 48.79492 ], [ 2.5872, 48.79299 ], [ 2.58653, 48.79002 ], [ 2.58461, 48.78878 ], [ 2.58394, 48.78432 ] ] } },
{ "type": "Feature", "properties": { "name": "Fossé 01 du Bois de Marolles", "weight_class": 1, "permanent": false, "length_km": 2.1 }, "geometry": { "type": "LineString", "coordinates": [ [ 2.58824, 48.75903 ], [ 2.58388, 48.75561 ], [ 2.57698, 48.75499 ], [ 2.57545, 48.75236 ], [ 2.57069, 48.75183 ], [ 2.56851, 48.74828 ] ] } },
{ "type": "Feature", "properties": { "name": "le Morbras", "weight_class": 1, "permanent": true, "length_km": 10.8 }, "geometry": { "type": "MultiLineString", "coordinates": [ [ [ 2.53188, 48.77669 ], [ 2.5305, 48.77649 ], [ 2.52922, 48.77822 ], [ 2.52672, 48.77706 ], [ 2.5204, 48.77677 ], [ 2.51638, 48.77826 ], [ 2.51196, 48.77866 ], [ 2.50804, 48.78032 ], [ 2.50786, 48.78415 ] ], [ [ 2.53805, 48.77884 ], [ 2.53342, 48.77793 ], [ 2.53188, 48.77669 ] ], [ [ 2.53805, 48.77884 ], [ 2.53609, 48.77707 ], [ 2.53227, 48.77693 ], [ 2.5321, 48.77677 ], [ 2.53195, 48.77668 ], [ 2.53188, 48.77669 ] ], [ [ 2.61619, 48.78369 ], [ 2.60633, 48.78225 ], [ 2.60051, 48.78334 ], [ 2.59457, 48.78254 ], [ 2.5905, 48.78373 ], [ 2.58835, 48.78301 ], [ 2.58383, 48.78433 ], [ 2.57928, 48.78358 ], [ 2.57637, 48.78489 ], [ 2.57294, 48.7849 ], [ 2.57024, 48.78695 ], [ 2.56668, 48.78673 ], [ 2.56269, 48.78811 ], [ 2.55718, 48.78634 ], [ 2.55369, 48.78328 ], [ 2.54962, 48.78232 ], [ 2.54474, 48.78252 ], [ 2.53805, 48.77884 ] ] ] } },
{ "type": "Feature", "properties": { "name": "Ruisseau des Nageoires", "weight_class": 1, "permanent": false, "length_km": 2.2 }, "geometry": { "type": "LineString", "coordinates": [ [ 2.57458, 48.77326 ], [ 2.56678, 48.77543 ], [ 2.56575, 48.77732 ], [ 2.56654, 48.7782 ], [ 2.56369, 48.7829 ], [ 2.56385, 48.78527 ], [ 2.56179, 48.78781 ] ] } },
{ "type": "Feature", "properties": { "name": "Fossé 02 de la Commune de Santeny", "weight_class": 1, "permanent": false, "length_km": 3.4 }, "geometry": { "type": "LineString", "coordinates": [ [ 2.58677, 48.7504 ], [ 2.58715, 48.7479 ], [ 2.58243, 48.74288 ], [ 2.58127, 48.73958 ], [ 2.58334, 48.73687 ], [ 2.58197, 48.73418 ], [ 2.58282, 48.72974 ], [ 2.5756, 48.7231 ] ] } },
{ "type": "Feature", "properties": { "name": "le Réveillon", "weight_class": 1, "permanent": true, "length_km": 6.8 }, "geometry": { "type": "LineString", "coordinates": [ [ 2.58524, 48.72145 ], [ 2.56872, 48.72431 ], [ 2.56502, 48.72689 ], [ 2.56072, 48.72758 ], [ 2.55821, 48.72912 ], [ 2.55363, 48.72831 ], [ 2.55103, 48.73039 ], [ 2.54582, 48.72879 ], [ 2.54544, 48.72675 ], [ 2.54333, 48.72502 ], [ 2.54482, 48.72314 ], [ 2.54242, 48.71961 ], [ 2.53786, 48.71707 ], [ 2.5348, 48.71681 ], [ 2.52895, 48.71425 ], [ 2.52434, 48.71317 ], [ 2.52135, 48.71427 ], [ 2.52061, 48.71298 ] ] } },
{ "type": "Feature", "properties": { "name": "Fossé 02 de la Commune de Marolles-en-Brie", "weight_class": 1, "permanent": false, "length_km": 4.8 }, "geometry": { "type": "LineString", "coordinates": [ [ 2.5614, 48.76219 ], [ 2.56349, 48.76019 ], [ 2.56402, 48.75669 ], [ 2.56042, 48.75321 ], [ 2.55575, 48.75073 ], [ 2.55498, 48.74693 ], [ 2.54977, 48.73877 ], [ 2.54125, 48.73278 ], [ 2.54036, 48.73047 ], [ 2.54117, 48.72941 ], [ 2.54546, 48.72781 ] ] } },
{ "type": "Feature", "properties": { "name": "Fossé 01 de la Commune de Villecresnes", "weight_class": 1, "permanent": false, "length_km": 2.0 }, "geometry": { "type": "LineString", "coordinates": [ [ 2.56132, 48.70896 ], [ 2.56148, 48.70996 ], [ 2.55043, 48.71461 ], [ 2.54854, 48.71612 ], [ 2.54829, 48.71786 ], [ 2.5431, 48.72052 ] ] } },
{ "type": "Feature", "properties": { "name": "Ruisseau de Gravelle", "weight_class": 1, "permanent": true, "length_km": 2.9 }, "geometry": { "type": "MultiLineString", "coordinates": [ [ [ 2.41247, 48.83002 ], [ 2.41059, 48.81641 ] ], [ [ 2.42371, 48.84182 ], [ 2.41964, 48.84187 ], [ 2.41293, 48.8329 ] ] ] } },
{ "type": "Feature", "properties": { "name": "Bras de la Marne", "weight_class": 3, "permanent": true, "length_km": 3.1 }, "geometry": { "type": "LineString", "coordinates": [ [ 2.45423, 48.81358 ], [ 2.45774, 48.81573 ], [ 2.43863, 48.81794 ], [ 2.42275, 48.81765 ], [ 2.42213, 48.81662 ] ] } },
{ "type": "Feature", "properties": { "name": "Bras de la Marne", "weight_class": 3, "permanent": true, "length_km": 2.0 }, "geometry": { "type": "LineString", "coordinates": [ [ 2.47463, 48.78767 ], [ 2.47246, 48.78724 ], [ 2.47073, 48.78848 ], [ 2.46731, 48.79893 ], [ 2.46878, 48.80266 ] ] } },
{ "type": "Feature", "properties": { "name": "Ruisseau de la Fontaine de Villiers", "weight_class": 1, "permanent": true, "length_km": 2.1 }, "geometry": { "type": "LineString", "coordinates": [ [ 2.54627, 48.7618 ], [ 2.53994, 48.76623 ], [ 2.54056, 48.77068 ], [ 2.5368, 48.77326 ], [ 2.53545, 48.77704 ] ] } },
{ "type": "Feature", "properties": { "name": "la Bièvre", "weight_class": 1, "permanent": true, "length_km": 9.3 }, "geometry": { "type": "LineString", "coordinates": [ [ 2.30759, 48.75672 ], [ 2.31619, 48.7621 ], [ 2.3171, 48.76556 ], [ 2.32222, 48.77035 ], [ 2.33464, 48.79339 ], [ 2.33812, 48.80475 ], [ 2.34314, 48.80845 ], [ 2.34441, 48.83318 ] ] } },
{ "type": "Feature", "properties": { "name": "Aqueduc de la Vanne", "weight_class": 1, "permanent": true, "length_km": 9.1 }, "geometry": { "type": "LineString", "coordinates": [ [ 2.35336, 48.75347 ], [ 2.34487, 48.76253 ], [ 2.34603, 48.77071 ], [ 2.34261, 48.7772 ], [ 2.33949, 48.7812 ], [ 2.33603, 48.78288 ], [ 2.33868, 48.78661 ], [ 2.34068, 48.79789 ], [ 2.32824, 48.80017 ], [ 2.32682, 48.80372 ], [ 2.32336, 48.80478 ], [ 2.334, 48.82112 ] ] } },
{ "type": "Feature", "properties": { "name": "Aqueduc du Loing", "weight_class": 1, "permanent": true, "length_km": 10.9 }, "geometry": { "type": "LineString", "coordinates": [ [ 2.3614, 48.74308 ], [ 2.36173, 48.74492 ], [ 2.34491, 48.76295 ], [ 2.34614, 48.77149 ], [ 2.34192, 48.77914 ], [ 2.34009, 48.78116 ], [ 2.33655, 48.78271 ], [ 2.33948, 48.78874 ], [ 2.32121, 48.79409 ], [ 2.32548, 48.80432 ], [ 2.32384, 48.80477 ], [ 2.32616, 48.8099 ], [ 2.33241, 48.81722 ], [ 2.33431, 48.82428 ] ] } },
{ "type": "Feature", "properties": { "name": "Ruisseau de Rungis", "weight_class": 1, "permanent": false, "length_km": 3.2 }, "geometry": { "type": "MultiLineString", "coordinates": [ [ [ 2.32478, 48.74862 ], [ 2.31751, 48.75052 ], [ 2.30759, 48.75672 ] ], [ [ 2.34767, 48.7469 ], [ 2.34758, 48.7439 ], [ 2.34449, 48.7403 ], [ 2.34021, 48.74039 ], [ 2.33536, 48.74235 ] ] ] } },
{ "type": "Feature", "properties": { "name": "la Seine", "weight_class": 4, "permanent": true, "length_km": 18.2 }, "geometry": { "type": "LineString", "coordinates": [ [ 2.41472, 48.71788 ], [ 2.42332, 48.72208 ], [ 2.43715, 48.7247 ], [ 2.44278, 48.72661 ], [ 2.44474, 48.73038 ], [ 2.44453, 48.73629 ], [ 2.43505, 48.74655 ], [ 2.42272, 48.75415 ], [ 2.41875, 48.76117 ], [ 2.41197, 48.76677 ], [ 2.41195, 48.77446 ], [ 2.41968, 48.78413 ], [ 2.42283, 48.7911 ], [ 2.42074, 48.79569 ], [ 2.40931, 48.80607 ], [ 2.40974, 48.81626 ], [ 2.39495, 48.82237 ], [ 2.36618, 48.84489 ] ] } },
{ "type": "Feature", "properties": { "name": "Darse Sud", "weight_class": 1, "permanent": true, "length_km": 2.0 }, "geometry": { "type": "LineString", "coordinates": [ [ 2.50113, 48.77883 ], [ 2.49387, 48.77674 ], [ 2.49062, 48.77683 ], [ 2.4826, 48.77927 ], [ 2.47896, 48.78335 ] ] } }
]
}
