{
"type": "FeatureCollection",
"name": "dep90_overview.geojson",
"crs": { "type": "name", "properties": { "name": "urn:ogc:def:crs:OGC:1.3:CRS84" } },
"xy_coordinate_resolution": 1e-05,
"features": [
{ "type": "Feature", "properties": { "name": "le Préra", "weight_class": 1, "permanent": true, "length_km": 6.2 }, "geometry": { "type": "LineString", "coordinates": [ [ 7.0971, 47.52578 ], [ 7.10024, 47.52766 ], [ 7.10104, 47.5323 ], [ 7.1002, 47.53324 ], [ 7.10159, 47.53402 ], [ 7.0983, 47.53636 ], [ 7.09788, 47.53877 ], [ 7.09495, 47.53979 ], [ 7.09432, 47.54266 ], [ 7.09075, 47.5451 ], [ 7.08746, 47.55016 ], [ 7.08317, 47.55145 ], [ 7.08246, 47.55099 ], [ 7.07933, 47.5536 ], [ 7.07629, 47.55455 ], [ 7.07309, 47.55773 ], [ 7.06956, 47.56457 ], [ 7.0727, 47.56602 ] ] } },
{ "type": "Feature", "properties": { "name": "la Vendeline", "weight_class": 1, "permanent": true, "length_km": 5.1 }, "geometry": { "type": "MultiLineString", "coordinates": [ [ [ 7.07004, 47.51351 ], [ 7.0677, 47.51276 ], [ 7.06675, 47.51327 ], [ 7.06563, 47.51236 ] ], [ [ 7.12252, 47.49984 ], [ 7.12039, 47.50163 ], [ 7.11611, 47.50232 ], [ 7.11201, 47.50422 ], [ 7.11062, 47.50728 ], [ 7.09999, 47.51113 ], [ 7.09761, 47.51359 ], [ 7.09559, 47.51391 ], [ 7.09446, 47.51544 ], [ 7.09069, 47.51719 ], [ 7.08497, 47.51743 ], [ 7.08478, 47.51678 ], [ 7.08149, 47.51655 ] ] ] } },
{ "type": "Feature", "properties": { "name": "la Coeuvatte", "weight_class": 1, "permanent": true, "length_km": 10.1 }, "geometry": { "type": "MultiLineString", "coordinates": [ [ [ 7.02435, 47.51958 ], [ 7.02045, 47.51938 ], [ 7.01951, 47.5201 ], [ 7.01712, 47.51938 ], [ 7.01632, 47.51997 ], [ 7.01481, 47.51864 ], [ 7.00849, 47.5188 ], [ 7.00706, 47.52104 ], [ 7.00067, 47.52248 ], [ 6.99854, 47.52452 ] ], [ [ 7.05377, 47.51683 ], [ 7.05173, 47.51773 ], [ 7.04929, 47.51672 ], [ 7.0458, 47.51686 ], [ 7.04395, 47.51866 ], [ 7.03637, 47.51929 ], [ 7.0347, 47.51848 ], [ 7.02941, 47.52001 ], [ 7.02902, 47.51911 ], [ 7.02653, 47.51948 ] ], [ [ 7.09168, 47.48757 ], [ 7.08155, 47.49031 ], [ 7.08191, 47.491 ], [ 7.07777, 47.49471 ], [ 7.07662, 47.499 ], [ 7.0726, 47.5007 ], [ 7.0749, 47.50394 ], [ 7.07435, 47.50691 ], [ 7.07169, 47.50938 ], [ 7.06563, 47.51236 ] ] ] } },
{ "type": "Feature", "properties": { "name": null, "weight_class": 1, "permanent": false, "length_km": 3.2 }, "geometry": { "type": "LineString", "coordinates": [ [ 7.00668, 47.54948 ], [ 7.00799, 47.55262 ], [ 7.00664, 47.5565 ], [ 6.99731, 47.5611 ], [ 6.9998, 47.56661 ], [ 6.99602, 47.57268 ] ] } },
{ "type": "Feature", "properties": { "name": "la Madeleine", "weight_class": 1, "permanent": true, "length_km": 26.2 }, "geometry": { "type": "MultiLineString", "coordinates": [ [ [ 6.91182, 47.776 ], [ 6.91134, 47.77375 ], [ 6.90926, 47.77202 ], [ 6.90981, 47.76868 ], [ 6.91254, 47.7667 ], [ 6.91425, 47.76351 ], [ 6.91158, 47.75766 ], [ 6.91213, 47.75322 ], [ 6.91438, 47.74964 ], [ 6.91417, 47.74835 ], [ 6.91081, 47.74723 ], [ 6.9099, 47.74527 ], [ 6.91111, 47.74095 ], [ 6.91267, 47.74001 ], [ 6.91603, 47.7324 ], [ 6.92165, 47.7247 ], [ 6.91975, 47.7207 ], [ 6.92294, 47.71633 ], [ 6.92216, 47.71179 ], [ 6.92079, 47.71046 ], [ 6.92081, 47.7079 ], [ 6.92231, 47.7067 ], [ 6.92154, 47.70626 ], [ 6.92387, 47.70462 ], [ 6.92826, 47.70379 ], [ 6.93169, 47.70101 ], [ 6.93984, 47.69943 ], [ 6.9405, 47.69755 ], [ 6.94434, 47.69523 ], [ 6.95251, 47.69253 ], [ 6.95469, 47.69282 ], [ 6.9578, 47.68889 ], [ 6.96002, 47.68232 ], [ 6.96198, 47.68049 ], [ 6.96259, 47.67548 ], [ 6.96083, 47.66557 ], [ 6.96339, 47.66003 ], [ 6.96183, 47.65838 ], [ 6.96247, 47.65693 ], [ 6.96031, 47.65474 ], [ 6.95977, 47.65094 ], [ 6.96302, 47.64697 ], [ 6.96258, 47.64451 ], [ 6.9649, 47.64194 ], [ 6.9642, 47.64102 ], [ 6.96566, 47.63969 ], [ 6.96484, 47.63902 ], [ 6.96665, 47.6374 ], [ 6.96245, 47.63365 ], [ 6.96202, 47.6316 ], [ 6.96441, 47.62777 ], [ 6.96332, 47.6265 ], [ 6.96536, 47.62493 ] ], [ [ 6.96495, 47.62207 ], [ 6.9665, 47.61951 ], [ 6.96565, 47.61655 ], [ 6.96345, 47.61592 ], [ 6.96394, 47.61485 ], [ 6.96657, 47.61248 ], [ 6.96821, 47.61324 ], [ 6.9696, 47.61078 ], [ 6.97231, 47.61005 ], [ 6.97699, 47.60533 ], [ 6.97638, 47.60338 ], [ 6.97746, 47.60276 ], [ 6.97779, 47.59815 ], [ 6.97477, 47.59324 ] ] ] } },
{ "type": "Feature", "properties": { "name": "la Sainte-Catherine", "weight_class": 1, "permanent": false, "length_km": 2.5 }, "geometry": { "type": "LineString", "coordinates": [ [ 6.96721, 47.7509 ], [ 6.96505, 47.7491 ], [ 6.95772, 47.74629 ], [ 6.95319, 47.7465 ], [ 6.94712, 47.74371 ], [ 6.94717, 47.74019 ], [ 6.94971, 47.73861 ] ] } },
{ "type": "Feature", "properties": { "name": "le Reflet", "weight_class": 1, "permanent": true, "length_km": 2.3 }, "geometry": { "type": "LineString", "coordinates": [ [ 6.94644, 47.7607 ], [ 6.9435, 47.75949 ], [ 6.94409, 47.75721 ], [ 6.94167, 47.75275 ], [ 6.94805, 47.74416 ] ] } },
{ "type": "Feature", "properties": { "name": "la Bourbeuse", "weight_class": 3, "permanent": true, "length_km": 42.5 }, "geometry": { "type": "MultiLineString", "coordinates": [ [ [ 7.00722, 47.62256 ], [ 7.00887, 47.61753 ], [ 7.00718, 47.61485 ], [ 7.0077, 47.6139 ], [ 7.00592, 47.61356 ], [ 7.00887, 47.60949 ], [ 7.00873, 47.60742 ], [ 7.00736, 47.60729 ], [ 7.00792, 47.60474 ], [ 7.00238, 47.60323 ], [ 6.99801, 47.60415 ], [ 6.9952, 47.60006 ], [ 6.99334, 47.59937 ], [ 6.99426, 47.59787 ], [ 6.98555, 47.59522 ], [ 6.98439, 47.59573 ], [ 6.98308, 47.59511 ], [ 6.98302, 47.59592 ], [ 6.98082, 47.59486 ], [ 6.97961, 47.59536 ], [ 6.97771, 47.59424 ], [ 6.97735, 47.59249 ], [ 6.97488, 47.59332 ], [ 6.97278, 47.58839 ], [ 6.96879, 47.58591 ], [ 6.96752, 47.58724 ], [ 6.96521, 47.58624 ], [ 6.96653, 47.58514 ], [ 6.96381, 47.58468 ], [ 6.96467, 47.58318 ], [ 6.96192, 47.58256 ], [ 6.95984, 47.57963 ], [ 6.95866, 47.57937 ], [ 6.95552, 47.58092 ], [ 6.95245, 47.57883 ], [ 6.95164, 47.57603 ], [ 6.95013, 47.57436 ], [ 6.94837, 47.57405 ], [ 6.94841, 47.57299 ], [ 6.9498, 47.57265 ], [ 6.94931, 47.5702 ], [ 6.94639, 47.57015 ], [ 6.94263, 47.56566 ], [ 6.93964, 47.56495 ], [ 6.93689, 47.56688 ], [ 6.9315, 47.56128 ], [ 6.92712, 47.56088 ], [ 6.92367, 47.55935 ], [ 6.92166, 47.5603 ], [ 6.91562, 47.55946 ], [ 6.90898, 47.55442 ], [ 6.90572, 47.54904 ], [ 6.90605, 47.54674 ] ], [ [ 6.93518, 47.76991 ], [ 6.937, 47.76636 ], [ 6.93604, 47.7632 ], [ 6.93376, 47.76213 ], [ 6.93283, 47.76006 ], [ 6.93511, 47.75746 ], [ 6.93394, 47.75409 ], [ 6.93782, 47.74937 ], [ 6.93819, 47.7467 ], [ 6.94254, 47.74362 ], [ 6.94493, 47.73933 ], [ 6.95059, 47.73853 ], [ 6.95502, 47.73605 ], [ 6.96896, 47.73266 ], [ 6.97772, 47.72942 ], [ 6.9901, 47.72757 ], [ 6.99564, 47.72478 ], [ 6.99641, 47.7235 ], [ 7.00229, 47.72402 ], [ 7.00625, 47.722 ], [ 7.00941, 47.72152 ], [ 7.01205, 47.71872 ], [ 7.01156, 47.71656 ], [ 7.01677, 47.70766 ], [ 7.01565, 47.70672 ], [ 7.01725, 47.7053 ], [ 7.01561, 47.70425 ], [ 7.01786, 47.69777 ], [ 7.01501, 47.69554 ], [ 7.01597, 47.6947 ], [ 7.01463, 47.69325 ], [ 7.01559, 47.69236 ], [ 7.01481, 47.6911 ], [ 7.00766, 47.68589 ], [ 7.0065, 47.6836 ], [ 7.00758, 47.68256 ], [ 7.00467, 47.68071 ], [ 7.0033, 47.6773 ], [ 7.00409, 47.67558 ], [ 7.00279, 47.67197 ], [ 6.99824, 47.66668 ], [ 6.99838, 47.66447 ], [ 6.99671, 47.66192 ], [ 6.99242, 47.66158 ], [ 6.99076, 47.65884 ], [ 6.99199, 47.65702 ], [ 6.99087, 47.64906 ], [ 6.99253, 47.64886 ], [ 6.99069, 47.64683 ], [ 6.99166, 47.64621 ], [ 6.99107, 47.64447 ], [ 6.99299, 47.64371 ], [ 6.99332, 47.64046 ], [ 6.99862, 47.63907 ], [ 6.998, 47.6383 ], [ 6.99951, 47.63689 ], [ 6.99808, 47.63468 ], [ 6.9988, 47.63323 ], [ 7.00398, 47.63018 ], [ 7.00369, 47.62819 ], [ 7.00545, 47.62568 ], [ 7.00724, 47.62511 ] ] ] } },
{ "type": "Feature", "properties": { "name": "la Rapène", "weight_class": 1, "permanent": true, "length_km": 3.5 }, "geometry": { "type": "LineString", "coordinates": [ [ 7.03777, 47.71795 ], [ 7.03452, 47.71625 ], [ 7.02951, 47.70874 ], [ 7.02659, 47.70106 ], [ 7.02151, 47.69849 ], [ 7.01544, 47.69273 ] ] } },
{ "type": "Feature", "properties": { "name": "Goutte de Felon", "weight_class": 1, "permanent": true, "length_km": 3.4 }, "geometry": { "type": "LineString", "coordinates": [ [ 6.98954, 47.71709 ], [ 6.9919, 47.71454 ], [ 6.99286, 47.70803 ], [ 6.99172, 47.70603 ], [ 6.98978, 47.7054 ], [ 6.98955, 47.70191 ], [ 6.98723, 47.69955 ], [ 6.98472, 47.69394 ], [ 6.98486, 47.69128 ], [ 6.9835, 47.69029 ] ] } },
{ "type": "Feature", "properties": { "name": "la Goutte", "weight_class": 1, "permanent": true, "length_km": 2.3 }, "geometry": { "type": "LineString", "coordinates": [ [ 7.01409, 47.73679 ], [ 7.0111, 47.73043 ], [ 7.00438, 47.72751 ], [ 7.00457, 47.72651 ], [ 7.00773, 47.72479 ], [ 7.00941, 47.72152 ] ] } },
{ "type": "Feature", "properties": { "name": "le Margrabant", "weight_class": 1, "permanent": true, "length_km": 7.4 }, "geometry": { "type": "LineString", "coordinates": [ [ 6.96745, 47.71834 ], [ 6.96733, 47.71585 ], [ 6.97086, 47.71375 ], [ 6.97394, 47.7079 ], [ 6.97486, 47.70251 ], [ 6.97333, 47.70065 ], [ 6.97549, 47.69947 ], [ 6.97775, 47.69461 ], [ 6.97948, 47.6949 ], [ 6.98291, 47.69128 ], [ 6.98461, 47.68694 ], [ 6.98757, 47.68458 ], [ 6.98938, 47.67591 ], [ 6.99586, 47.67203 ], [ 6.99815, 47.66926 ], [ 6.99836, 47.66682 ] ] } },
{ "type": "Feature", "properties": { "name": "Ruisseau de l'Étang Virgie", "weight_class": 1, "permanent": true, "length_km": 3.4 }, "geometry": { "type": "LineString", "coordinates": [ [ 7.0052, 47.69946 ], [ 7.00199, 47.6958 ], [ 7.00067, 47.68997 ], [ 6.9965, 47.68305 ], [ 6.9953, 47.67476 ], [ 6.99642, 47.6726 ], [ 6.99522, 47.67216 ] ] } },
{ "type": "Feature", "properties": { "name": "le Reppe", "weight_class": 1, "permanent": true, "length_km": 6.3 }, "geometry": { "type": "LineString", "coordinates": [ [ 7.02162, 47.68544 ], [ 7.02414, 47.68202 ], [ 7.02393, 47.6741 ], [ 7.02677, 47.66852 ], [ 7.02516, 47.66325 ], [ 7.02256, 47.66182 ], [ 7.0225, 47.65543 ], [ 7.02018, 47.65345 ], [ 7.02093, 47.65292 ], [ 7.01923, 47.65193 ], [ 7.01909, 47.6504 ], [ 7.01748, 47.64986 ], [ 7.01776, 47.64825 ], [ 7.01651, 47.64695 ], [ 7.0168, 47.64406 ], [ 7.02067, 47.64013 ] ] } },
{ "type": "Feature", "properties": { "name": "Ruisseau des Perches", "weight_class": 1, "permanent": true, "length_km": 2.9 }, "geometry": { "type": "LineString", "coordinates": [ [ 6.93024, 47.69055 ], [ 6.94099, 47.68718 ], [ 6.94782, 47.68662 ], [ 6.95381, 47.68345 ], [ 6.95502, 47.68091 ], [ 6.95803, 47.67973 ], [ 6.95886, 47.67717 ] ] } },
{ "type": "Feature", "properties": { "name": "l'Autruche", "weight_class": 1, "permanent": true, "length_km": 13.7 }, "geometry": { "type": "LineString", "coordinates": [ [ 6.90347, 47.70713 ], [ 6.90034, 47.70711 ], [ 6.8993, 47.70622 ], [ 6.89954, 47.70327 ], [ 6.89719, 47.70121 ], [ 6.89937, 47.69995 ], [ 6.90085, 47.69551 ], [ 6.9024, 47.69468 ], [ 6.90609, 47.68841 ], [ 6.91387, 47.683 ], [ 6.91395, 47.67763 ], [ 6.91849, 47.66731 ], [ 6.91803, 47.66483 ], [ 6.92141, 47.65914 ], [ 6.92612, 47.65578 ], [ 6.93013, 47.65719 ], [ 6.93513, 47.65582 ], [ 6.93508, 47.65205 ], [ 6.94447, 47.63826 ], [ 6.9473, 47.63645 ], [ 6.9489, 47.6313 ], [ 6.95206, 47.62754 ], [ 6.95222, 47.62554 ], [ 6.95006, 47.62455 ], [ 6.95038, 47.62281 ], [ 6.9522, 47.62179 ], [ 6.95797, 47.62115 ], [ 6.96345, 47.61592 ] ] } },
{ "type": "Feature", "properties": { "name": "Ruisseau de l'Ermite", "weight_class": 1, "permanent": true, "length_km": 3.9 }, "geometry": { "type": "LineString", "coordinates": [ [ 6.92361, 47.68573 ], [ 6.92948, 47.68341 ], [ 6.93, 47.68221 ], [ 6.92828, 47.67823 ], [ 6.92992, 47.67588 ], [ 6.92955, 47.67167 ], [ 6.93236, 47.66908 ], [ 6.93253, 47.66579 ], [ 6.93122, 47.66389 ], [ 6.93407, 47.65624 ] ] } },
{ "type": "Feature", "properties": { "name": "Ruisseau de la Femme", "weight_class": 1, "permanent": true, "length_km": 2.7 }, "geometry": { "type": "LineString", "coordinates": [ [ 6.8935, 47.65977 ], [ 6.8988, 47.66336 ], [ 6.90935, 47.66495 ], [ 6.91158, 47.66436 ], [ 6.91439, 47.66091 ], [ 6.92141, 47.65914 ] ] } },
{ "type": "Feature", "properties": { "name": "Ruisseau de la Mèche", "weight_class": 1, "permanent": true, "length_km": 3.0 }, "geometry": { "type": "LineString", "coordinates": [ [ 6.9188, 47.64371 ], [ 6.92271, 47.64313 ], [ 6.92586, 47.64056 ], [ 6.93142, 47.63849 ], [ 6.9311, 47.63785 ], [ 6.93668, 47.63734 ], [ 6.93832, 47.63475 ], [ 6.94082, 47.63392 ], [ 6.94202, 47.63221 ], [ 6.9489, 47.6313 ] ] } },
{ "type": "Feature", "properties": { "name": "Ruisseau du Trovaire", "weight_class": 1, "permanent": true, "length_km": 4.9 }, "geometry": { "type": "LineString", "coordinates": [ [ 6.89233, 47.63508 ], [ 6.89786, 47.63293 ], [ 6.91488, 47.63221 ], [ 6.91955, 47.62994 ], [ 6.92593, 47.63026 ], [ 6.93092, 47.62717 ], [ 6.94323, 47.62564 ], [ 6.94885, 47.62426 ], [ 6.95014, 47.62319 ] ] } },
{ "type": "Feature", "properties": { "name": "l'Esclauses/Grande Goutte", "weight_class": 1, "permanent": true, "length_km": 3.5 }, "geometry": { "type": "LineString", "coordinates": [ [ 7.02096, 47.57767 ], [ 7.02241, 47.57939 ], [ 7.0288, 47.58233 ], [ 7.03435, 47.59502 ], [ 7.04124, 47.60317 ] ] } },
{ "type": "Feature", "properties": { "name": "la Lutter", "weight_class": 1, "permanent": true, "length_km": 7.1 }, "geometry": { "type": "MultiLineString", "coordinates": [ [ [ 7.08623, 47.59137 ], [ 7.08612, 47.59292 ], [ 7.08184, 47.59393 ], [ 7.08063, 47.59633 ], [ 7.0784, 47.5966 ], [ 7.07748, 47.59801 ], [ 7.07325, 47.59947 ], [ 7.07386, 47.60016 ], [ 7.07227, 47.60203 ], [ 7.07911, 47.61027 ] ], [ [ 7.09193, 47.57876 ], [ 7.09045, 47.57935 ], [ 7.08975, 47.58316 ], [ 7.0851, 47.58612 ], [ 7.08672, 47.58783 ] ], [ [ 7.10909, 47.56897 ], [ 7.10527, 47.56924 ], [ 7.0982, 47.5733 ], [ 7.09428, 47.57338 ], [ 7.09378, 47.57561 ] ] ] } },
{ "type": "Feature", "properties": { "name": "la Suarcine", "weight_class": 1, "permanent": true, "length_km": 14.8 }, "geometry": { "type": "MultiLineString", "coordinates": [ [ [ 7.01082, 47.6049 ], [ 7.00613, 47.60261 ], [ 6.99487, 47.60066 ] ], [ [ 7.11205, 47.54866 ], [ 7.10297, 47.55274 ], [ 7.10252, 47.55372 ], [ 7.0962, 47.55525 ], [ 7.08981, 47.56017 ], [ 7.08739, 47.56017 ], [ 7.0837, 47.56278 ], [ 7.08045, 47.56348 ], [ 7.07915, 47.56292 ], [ 7.07867, 47.5644 ], [ 7.07468, 47.56459 ], [ 7.07452, 47.56578 ], [ 7.07096, 47.56641 ], [ 7.06687, 47.57139 ], [ 7.06707, 47.57527 ], [ 7.06395, 47.58056 ], [ 7.06545, 47.58144 ], [ 7.06471, 47.58324 ], [ 7.0667, 47.58688 ], [ 7.06576, 47.59138 ], [ 7.06367, 47.59346 ], [ 7.06385, 47.59585 ], [ 7.06227, 47.59757 ], [ 7.05689, 47.59959 ], [ 7.05239, 47.60275 ] ], [ [ 7.13871, 47.52735 ], [ 7.13844, 47.53054 ], [ 7.136, 47.53329 ], [ 7.13731, 47.53398 ], [ 7.13584, 47.53527 ], [ 7.13609, 47.53719 ], [ 7.13367, 47.53817 ], [ 7.13313, 47.53991 ], [ 7.13077, 47.54123 ], [ 7.12427, 47.54345 ] ] ] } },
{ "type": "Feature", "properties": { "name": "la Mèche", "weight_class": 1, "permanent": true, "length_km": 3.2 }, "geometry": { "type": "LineString", "coordinates": [ [ 6.97371, 47.61022 ], [ 6.97551, 47.608 ], [ 6.97938, 47.60616 ], [ 6.97984, 47.60431 ], [ 6.9787, 47.60409 ], [ 6.98007, 47.60225 ], [ 6.97924, 47.60156 ], [ 6.98094, 47.60076 ], [ 6.98, 47.59956 ], [ 6.98158, 47.59946 ], [ 6.9799, 47.59844 ], [ 6.98119, 47.59769 ], [ 6.9802, 47.59698 ], [ 6.9783, 47.59747 ], [ 6.97783, 47.59604 ], [ 6.9795, 47.59594 ], [ 6.97801, 47.59456 ] ] } },
{ "type": "Feature", "properties": { "name": "les Breuleux", "weight_class": 1, "permanent": false, "length_km": 2.8 }, "geometry": { "type": "LineString", "coordinates": [ [ 6.9187, 47.61468 ], [ 6.92773, 47.6172 ], [ 6.93789, 47.61773 ], [ 6.94318, 47.62135 ], [ 6.94403, 47.62339 ], [ 6.94962, 47.62363 ] ] } },
{ "type": "Feature", "properties": { "name": "Ruisseau de l'Étang", "weight_class": 1, "permanent": true, "length_km": 6.4 }, "geometry": { "type": "LineString", "coordinates": [ [ 6.89769, 47.60461 ], [ 6.89868, 47.60379 ], [ 6.89736, 47.59929 ], [ 6.90288, 47.59726 ], [ 6.90176, 47.59604 ], [ 6.91078, 47.59299 ], [ 6.91505, 47.59258 ], [ 6.91467, 47.5917 ], [ 6.91814, 47.58689 ], [ 6.92541, 47.5861 ], [ 6.92828, 47.58309 ], [ 6.93386, 47.58025 ], [ 6.93391, 47.57589 ], [ 6.93767, 47.57328 ], [ 6.93756, 47.56676 ] ] } },
{ "type": "Feature", "properties": { "name": "Ruisseau de la Prelle", "weight_class": 1, "permanent": true, "length_km": 8.0 }, "geometry": { "type": "LineString", "coordinates": [ [ 6.89048, 47.61203 ], [ 6.89715, 47.61111 ], [ 6.90601, 47.61117 ], [ 6.91736, 47.60536 ], [ 6.93666, 47.60579 ], [ 6.94375, 47.60485 ], [ 6.94966, 47.60264 ], [ 6.9524, 47.5975 ], [ 6.95137, 47.59053 ], [ 6.95672, 47.58771 ], [ 6.95709, 47.58632 ], [ 6.9587, 47.58617 ], [ 6.95768, 47.58168 ], [ 6.95645, 47.58076 ] ] } },
{ "type": "Feature", "properties": { "name": "Ruisseau des Neuf Fontaines", "weight_class": 1, "permanent": true, "length_km": 2.5 }, "geometry": { "type": "LineString", "coordinates": [ [ 6.9046, 47.62053 ], [ 6.90802, 47.62006 ], [ 6.91248, 47.62071 ], [ 6.91974, 47.62368 ], [ 6.92404, 47.62392 ], [ 6.93305, 47.62705 ] ] } },
{ "type": "Feature", "properties": { "name": "Ruisseau de la Madamelle", "weight_class": 1, "permanent": false, "length_km": 6.4 }, "geometry": { "type": "LineString", "coordinates": [ [ 7.05254, 47.53571 ], [ 7.04996, 47.5374 ], [ 7.04336, 47.54631 ], [ 7.03943, 47.54698 ], [ 7.03656, 47.54923 ], [ 7.03329, 47.55021 ], [ 7.03327, 47.55609 ], [ 7.03198, 47.55732 ], [ 7.02485, 47.5585 ], [ 7.01839, 47.5582 ], [ 7.01366, 47.55938 ], [ 7.01077, 47.56128 ], [ 7.00703, 47.5681 ], [ 7.00757, 47.57218 ] ] } },
{ "type": "Feature", "properties": { "name": "l'Écrevisse", "weight_class": 1, "permanent": true, "length_km": 12.7 }, "geometry": { "type": "LineString", "coordinates": [ [ 7.07983, 47.52694 ], [ 7.07977, 47.52822 ], [ 7.07676, 47.53042 ], [ 7.07813, 47.53215 ], [ 7.07525, 47.53492 ], [ 7.07574, 47.53726 ], [ 7.07275, 47.53807 ], [ 7.07206, 47.53973 ], [ 7.06334, 47.54359 ], [ 7.06363, 47.54528 ], [ 7.05908, 47.55465 ], [ 7.05362, 47.55844 ], [ 7.04536, 47.56113 ], [ 7.04185, 47.56451 ], [ 7.03647, 47.5673 ], [ 7.03248, 47.56884 ], [ 7.0192, 47.5692 ], [ 7.00275, 47.57343 ], [ 6.99926, 47.57365 ], [ 6.99602, 47.57268 ], [ 6.98738, 47.57554 ], [ 6.98241, 47.57498 ], [ 6.97681, 47.57553 ], [ 6.96691, 47.58291 ], [ 6.96465, 47.58317 ] ] } },
{ "type": "Feature", "properties": { "name": "l'Allan", "weight_class": 3, "permanent": true, "length_km": 17.1 }, "geometry": { "type": "MultiLineString", "coordinates": [ [ [ 6.91077, 47.53938 ], [ 6.91617, 47.53245 ], [ 6.916, 47.52966 ], [ 6.91033, 47.52699 ], [ 6.90308, 47.52715 ], [ 6.90213, 47.5265 ], [ 6.90074, 47.52725 ] ], [ [ 7.01317, 47.49837 ], [ 7.01134, 47.49942 ], [ 7.01205, 47.50277 ], [ 6.99978, 47.50732 ], [ 6.99956, 47.50997 ], [ 6.99691, 47.51173 ], [ 6.99624, 47.514 ], [ 6.99733, 47.5163 ], [ 6.99476, 47.51907 ], [ 6.99568, 47.52154 ], [ 6.9972, 47.52212 ], [ 6.99666, 47.52439 ], [ 6.99853, 47.52458 ], [ 6.99743, 47.52511 ], [ 6.99784, 47.52683 ], [ 6.9963, 47.52641 ], [ 6.99548, 47.52932 ], [ 6.99422, 47.52928 ], [ 6.99402, 47.5315 ], [ 6.99147, 47.53138 ], [ 6.98266, 47.53438 ], [ 6.97903, 47.53346 ], [ 6.97809, 47.53453 ], [ 6.97246, 47.53555 ], [ 6.9704, 47.53473 ], [ 6.96983, 47.53608 ], [ 6.96591, 47.53442 ], [ 6.96413, 47.5365 ], [ 6.95316, 47.53959 ], [ 6.95306, 47.54165 ], [ 6.94984, 47.54188 ], [ 6.94886, 47.54396 ], [ 6.94727, 47.5437 ], [ 6.94631, 47.54487 ], [ 6.94244, 47.54342 ], [ 6.93822, 47.54355 ], [ 6.93639, 47.54688 ], [ 6.93234, 47.54931 ], [ 6.93038, 47.54933 ], [ 6.92467, 47.54634 ], [ 6.92116, 47.54708 ], [ 6.91206, 47.54627 ], [ 6.90605, 47.54674 ] ] ] } },
{ "type": "Feature", "properties": { "name": "la Batte", "weight_class": 2, "permanent": true, "length_km": 6.5 }, "geometry": { "type": "LineString", "coordinates": [ [ 6.969, 47.46575 ], [ 6.96865, 47.4686 ], [ 6.97034, 47.46965 ], [ 6.97145, 47.4736 ], [ 6.97066, 47.47514 ], [ 6.98079, 47.49376 ], [ 6.97978, 47.49815 ], [ 6.98068, 47.49753 ], [ 6.98131, 47.49899 ], [ 6.98876, 47.50054 ], [ 6.9902, 47.50125 ], [ 6.99117, 47.50382 ], [ 6.99626, 47.50602 ], [ 6.99982, 47.50591 ], [ 6.99969, 47.50743 ] ] } },
{ "type": "Feature", "properties": { "name": "la Savoureuse", "weight_class": 1, "permanent": true, "length_km": 36.4 }, "geometry": { "type": "LineString", "coordinates": [ [ 6.83935, 47.82072 ], [ 6.83699, 47.81888 ], [ 6.83659, 47.81359 ], [ 6.83481, 47.81165 ], [ 6.83031, 47.80943 ], [ 6.83275, 47.80685 ], [ 6.83022, 47.80351 ], [ 6.834, 47.79734 ], [ 6.83141, 47.79292 ], [ 6.83092, 47.78855 ], [ 6.8344, 47.78485 ], [ 6.83404, 47.77828 ], [ 6.82951, 47.77658 ], [ 6.82802, 47.77359 ], [ 6.82552, 47.77203 ], [ 6.8267, 47.77015 ], [ 6.8261, 47.76793 ], [ 6.82468, 47.76795 ], [ 6.82471, 47.76572 ], [ 6.82028, 47.76055 ], [ 6.81924, 47.75618 ], [ 6.82084, 47.75415 ], [ 6.81964, 47.75053 ], [ 6.82655, 47.74588 ], [ 6.82619, 47.74269 ], [ 6.83021, 47.74039 ], [ 6.83106, 47.7362 ], [ 6.83459, 47.73103 ], [ 6.83358, 47.72904 ], [ 6.83612, 47.72723 ], [ 6.83469, 47.72543 ], [ 6.83631, 47.7206 ], [ 6.83553, 47.71779 ], [ 6.83641, 47.71194 ], [ 6.84055, 47.70714 ], [ 6.83863, 47.70046 ], [ 6.83997, 47.69744 ], [ 6.83679, 47.69226 ], [ 6.83644, 47.68806 ], [ 6.83309, 47.68478 ], [ 6.82739, 47.68365 ], [ 6.82913, 47.68078 ], [ 6.82748, 47.67774 ], [ 6.83027, 47.67633 ], [ 6.82989, 47.67355 ], [ 6.83776, 47.66902 ], [ 6.83836, 47.66672 ], [ 6.8416, 47.66627 ], [ 6.84626, 47.66293 ], [ 6.84873, 47.6629 ], [ 6.85453, 47.65497 ], [ 6.85427, 47.65212 ], [ 6.85996, 47.64595 ], [ 6.86111, 47.64284 ], [ 6.85892, 47.64065 ], [ 6.85827, 47.63783 ], [ 6.86258, 47.6309 ], [ 6.86307, 47.62785 ], [ 6.86306, 47.62406 ], [ 6.86122, 47.62179 ], [ 6.8601, 47.61423 ], [ 6.8648, 47.61071 ], [ 6.86581, 47.6078 ], [ 6.86811, 47.60678 ], [ 6.86612, 47.59602 ], [ 6.86246, 47.59105 ], [ 6.86546, 47.58943 ], [ 6.86259, 47.58633 ], [ 6.86191, 47.5838 ], [ 6.85833, 47.58184 ], [ 6.85525, 47.57779 ], [ 6.85615, 47.57128 ], [ 6.85463, 47.56661 ], [ 6.86085, 47.55687 ], [ 6.86024, 47.55333 ], [ 6.85701, 47.54839 ], [ 6.85741, 47.54611 ] ] } },
{ "type": "Feature", "properties": { "name": "Goutte des Canals", "weight_class": 1, "permanent": false, "length_km": 2.4 }, "geometry": { "type": "LineString", "coordinates": [ [ 6.88984, 47.77759 ], [ 6.87915, 47.77607 ], [ 6.87563, 47.7728 ], [ 6.87508, 47.76953 ], [ 6.871, 47.76725 ], [ 6.86947, 47.76451 ] ] } },
{ "type": "Feature", "properties": { "name": "Goutte des Forges", "weight_class": 1, "permanent": true, "length_km": 2.8 }, "geometry": { "type": "LineString", "coordinates": [ [ 6.86352, 47.78333 ], [ 6.85827, 47.77997 ], [ 6.84801, 47.77896 ], [ 6.84143, 47.77663 ], [ 6.83332, 47.77638 ], [ 6.83113, 47.77704 ] ] } },
{ "type": "Feature", "properties": { "name": "Goutte du Bon Pommier", "weight_class": 1, "permanent": true, "length_km": 2.4 }, "geometry": { "type": "LineString", "coordinates": [ [ 6.85981, 47.79126 ], [ 6.85036, 47.79128 ], [ 6.84325, 47.78807 ], [ 6.84328, 47.78615 ], [ 6.84168, 47.7852 ], [ 6.8344, 47.78485 ] ] } },
{ "type": "Feature", "properties": { "name": "la Beusinière", "weight_class": 1, "permanent": false, "length_km": 2.7 }, "geometry": { "type": "LineString", "coordinates": [ [ 6.80438, 47.79064 ], [ 6.80546, 47.78239 ], [ 6.80272, 47.77266 ], [ 6.80028, 47.77029 ], [ 6.80204, 47.76809 ] ] } },
{ "type": "Feature", "properties": { "name": "Ruisseau des Belles Filles", "weight_class": 1, "permanent": true, "length_km": 4.1 }, "geometry": { "type": "LineString", "coordinates": [ [ 6.79431, 47.78457 ], [ 6.79163, 47.78047 ], [ 6.79505, 47.77659 ], [ 6.79536, 47.77371 ], [ 6.79801, 47.77044 ], [ 6.80697, 47.76464 ], [ 6.80825, 47.762 ], [ 6.81714, 47.75988 ], [ 6.81961, 47.75853 ] ] } },
{ "type": "Feature", "properties": { "name": "la Rougegoutte", "weight_class": 1, "permanent": true, "length_km": 4.6 }, "geometry": { "type": "LineString", "coordinates": [ [ 6.88309, 47.74811 ], [ 6.88122, 47.74645 ], [ 6.8824, 47.74222 ], [ 6.87719, 47.73713 ], [ 6.86626, 47.73537 ], [ 6.86056, 47.73581 ], [ 6.85893, 47.73437 ], [ 6.85418, 47.73292 ], [ 6.84818, 47.73381 ], [ 6.84545, 47.72883 ] ] } },
{ "type": "Feature", "properties": { "name": "Goutte de la Louvière", "weight_class": 1, "permanent": false, "length_km": 2.5 }, "geometry": { "type": "LineString", "coordinates": [ [ 6.88914, 47.75499 ], [ 6.88111, 47.75525 ], [ 6.87559, 47.75681 ], [ 6.86242, 47.75512 ], [ 6.85821, 47.75668 ] ] } },
{ "type": "Feature", "properties": { "name": "la Rosemontoise", "weight_class": 1, "permanent": true, "length_km": 18.4 }, "geometry": { "type": "LineString", "coordinates": [ [ 6.89341, 47.7755 ], [ 6.89433, 47.77134 ], [ 6.89303, 47.76761 ], [ 6.89106, 47.76624 ], [ 6.86617, 47.76404 ], [ 6.8612, 47.76118 ], [ 6.85677, 47.75537 ], [ 6.8481, 47.75257 ], [ 6.84313, 47.74572 ], [ 6.84482, 47.73924 ], [ 6.84275, 47.73484 ], [ 6.84401, 47.73462 ], [ 6.84283, 47.73146 ], [ 6.84382, 47.72961 ], [ 6.84534, 47.72911 ], [ 6.84554, 47.72725 ], [ 6.84828, 47.72418 ], [ 6.85495, 47.72024 ], [ 6.85478, 47.71792 ], [ 6.86008, 47.71498 ], [ 6.86193, 47.7124 ], [ 6.86101, 47.71031 ], [ 6.86263, 47.70712 ], [ 6.87211, 47.70073 ], [ 6.87347, 47.69678 ], [ 6.87333, 47.69107 ], [ 6.87164, 47.68881 ], [ 6.86979, 47.68879 ], [ 6.86022, 47.68427 ], [ 6.85844, 47.68444 ], [ 6.85749, 47.68301 ], [ 6.85346, 47.68142 ], [ 6.85059, 47.67785 ], [ 6.85005, 47.67515 ], [ 6.84754, 47.67464 ], [ 6.84816, 47.67275 ], [ 6.84609, 47.67037 ], [ 6.84724, 47.66929 ], [ 6.84708, 47.66547 ], [ 6.84911, 47.66415 ], [ 6.84866, 47.66296 ] ] } },
{ "type": "Feature", "properties": { "name": "le Rhôme", "weight_class": 1, "permanent": true, "length_km": 11.6 }, "geometry": { "type": "LineString", "coordinates": [ [ 6.77514, 47.76173 ], [ 6.77719, 47.75681 ], [ 6.77342, 47.74754 ], [ 6.77353, 47.7427 ], [ 6.77519, 47.74216 ], [ 6.77824, 47.73757 ], [ 6.78213, 47.73445 ], [ 6.78167, 47.73161 ], [ 6.77948, 47.73101 ], [ 6.77845, 47.72946 ], [ 6.78245, 47.72545 ], [ 6.78366, 47.72574 ], [ 6.78405, 47.72458 ], [ 6.78824, 47.72214 ], [ 6.79896, 47.72176 ], [ 6.8036, 47.71893 ], [ 6.80518, 47.71911 ], [ 6.80689, 47.71609 ], [ 6.81194, 47.71324 ], [ 6.8134, 47.70936 ], [ 6.81573, 47.70846 ], [ 6.81636, 47.70521 ], [ 6.82076, 47.69938 ], [ 6.8219, 47.6945 ], [ 6.82419, 47.69307 ], [ 6.82514, 47.68942 ], [ 6.82704, 47.68826 ], [ 6.82907, 47.68423 ] ] } },
{ "type": "Feature", "properties": { "name": "le Quet", "weight_class": 1, "permanent": true, "length_km": 2.5 }, "geometry": { "type": "LineString", "coordinates": [ [ 6.88313, 47.73491 ], [ 6.87879, 47.73307 ], [ 6.87132, 47.73354 ], [ 6.86352, 47.73085 ], [ 6.86019, 47.73304 ], [ 6.85448, 47.73301 ] ] } },
{ "type": "Feature", "properties": { "name": "le Combois", "weight_class": 1, "permanent": true, "length_km": 4.9 }, "geometry": { "type": "LineString", "coordinates": [ [ 6.80791, 47.74303 ], [ 6.80674, 47.73797 ], [ 6.80376, 47.73705 ], [ 6.80173, 47.73295 ], [ 6.80552, 47.72932 ], [ 6.80789, 47.72375 ], [ 6.81367, 47.72205 ], [ 6.81482, 47.71827 ], [ 6.81356, 47.71641 ], [ 6.81532, 47.71407 ], [ 6.81558, 47.70851 ] ] } },
{ "type": "Feature", "properties": { "name": "Ruisseau de la Goutte", "weight_class": 1, "permanent": true, "length_km": 2.3 }, "geometry": { "type": "LineString", "coordinates": [ [ 6.76472, 47.74508 ], [ 6.76864, 47.73872 ], [ 6.76802, 47.73483 ], [ 6.76366, 47.73305 ], [ 6.76238, 47.73073 ], [ 6.759, 47.72837 ] ] } },
{ "type": "Feature", "properties": { "name": "Ruisseau du Verbot", "weight_class": 1, "permanent": true, "length_km": 3.8 }, "geometry": { "type": "LineString", "coordinates": [ [ 6.79242, 47.69161 ], [ 6.7983, 47.69054 ], [ 6.80265, 47.68595 ], [ 6.81027, 47.68041 ], [ 6.81486, 47.68 ], [ 6.81602, 47.6784 ], [ 6.8227, 47.67751 ], [ 6.82457, 47.67532 ], [ 6.82982, 47.67363 ] ] } },
{ "type": "Feature", "properties": { "name": "la Douce", "weight_class": 1, "permanent": true, "length_km": 11.7 }, "geometry": { "type": "MultiLineString", "coordinates": [ [ [ 6.77891, 47.6546 ], [ 6.78189, 47.65555 ], [ 6.78638, 47.65379 ], [ 6.79047, 47.64814 ] ], [ [ 6.79937, 47.63936 ], [ 6.80264, 47.63752 ], [ 6.80275, 47.6364 ], [ 6.80629, 47.63368 ], [ 6.80574, 47.63319 ], [ 6.81483, 47.6318 ], [ 6.81962, 47.62837 ], [ 6.82216, 47.62828 ], [ 6.82404, 47.62593 ], [ 6.82772, 47.62468 ], [ 6.83069, 47.62484 ], [ 6.83172, 47.62396 ], [ 6.83162, 47.62208 ], [ 6.83561, 47.61885 ], [ 6.83862, 47.61301 ], [ 6.83872, 47.60673 ], [ 6.84061, 47.60416 ], [ 6.83966, 47.6031 ], [ 6.84634, 47.60463 ], [ 6.8484, 47.6043 ], [ 6.85172, 47.59922 ], [ 6.85486, 47.59799 ], [ 6.85657, 47.59281 ], [ 6.85389, 47.58896 ], [ 6.85543, 47.58637 ], [ 6.85431, 47.5843 ], [ 6.85686, 47.58018 ] ] ] } },
{ "type": "Feature", "properties": { "name": "Canal du Rhône au Rhin", "weight_class": 3, "permanent": true, "length_km": 10.8 }, "geometry": { "type": "LineString", "coordinates": [ [ 7.01576, 47.60594 ], [ 7.00738, 47.60135 ], [ 6.99992, 47.60137 ], [ 6.99354, 47.59657 ], [ 6.98625, 47.59526 ], [ 6.95679, 47.57611 ], [ 6.9429, 47.56546 ], [ 6.93535, 47.56122 ], [ 6.92534, 47.55729 ], [ 6.90648, 47.5469 ] ] } },
{ "type": "Feature", "properties": { "name": "Canal de Montbéliard à la Haute-Saône", "weight_class": 3, "permanent": true, "length_km": 16.0 }, "geometry": { "type": "LineString", "coordinates": [ [ 6.79836, 47.64003 ], [ 6.80225, 47.6387 ], [ 6.80911, 47.63408 ], [ 6.82602, 47.63318 ], [ 6.83345, 47.62839 ], [ 6.84104, 47.62208 ], [ 6.84149, 47.61852 ], [ 6.83942, 47.61568 ], [ 6.83908, 47.61292 ], [ 6.83971, 47.6054 ], [ 6.84193, 47.60427 ], [ 6.84829, 47.60461 ], [ 6.85144, 47.60065 ], [ 6.85935, 47.59528 ], [ 6.85701, 47.58224 ], [ 6.8592, 47.58024 ], [ 6.85941, 47.57001 ], [ 6.86452, 47.5592 ], [ 6.86647, 47.54958 ], [ 6.85982, 47.52949 ], [ 6.86187, 47.52564 ] ] } }
]
}
