{
"type": "FeatureCollection",
"name": "dep91_overview.geojson",
"crs": { "type": "name", "properties": { "name": "urn:ogc:def:crs:OGC:1.3:CRS84" } },
"xy_coordinate_resolution": 1e-05,
"features": [
{ "type": "Feature", "properties": { "name": "l'Yerres", "weight_class": 2, "permanent": true, "length_km": 24.3 }, "geometry": { "type": "MultiLineString", "coordinates": [ [ [ 2.44783, 48.72009 ], [ 2.44808, 48.72306 ], [ 2.44363, 48.72631 ] ], [ [ 2.45177, 48.71529 ], [ 2.44809, 48.71779 ] ], [ [ 2.46895, 48.71216 ], [ 2.4642, 48.71218 ], [ 2.45673, 48.71539 ], [ 2.45554, 48.7167 ], [ 2.45177, 48.71529 ] ], [ [ 2.46895, 48.71216 ], [ 2.46797, 48.7111 ], [ 2.46292, 48.71085 ], [ 2.45866, 48.71179 ], [ 2.45613, 48.71379 ], [ 2.45177, 48.71529 ] ], [ [ 2.4938, 48.71294 ], [ 2.48165, 48.71594 ], [ 2.47567, 48.71492 ], [ 2.46895, 48.71216 ] ], [ [ 2.49686, 48.70859 ], [ 2.4928, 48.7117 ], [ 2.4938, 48.71294 ] ], [ [ 2.49686, 48.70859 ], [ 2.4938, 48.71294 ] ], [ [ 2.50202, 48.69635 ], [ 2.49385, 48.70215 ], [ 2.49659, 48.70581 ], [ 2.49686, 48.70859 ] ], [ [ 2.51182, 48.69684 ], [ 2.50202, 48.69635 ] ], [ [ 2.51182, 48.69684 ], [ 2.50681, 48.69531 ], [ 2.50202, 48.69635 ] ], [ [ 2.54658, 48.69299 ], [ 2.54423, 48.6929 ], [ 2.53036, 48.68737 ], [ 2.52341, 48.68726 ], [ 2.521, 48.6896 ], [ 2.52128, 48.69057 ], [ 2.52522, 48.69329 ], [ 2.5311, 48.69492 ], [ 2.53211, 48.69823 ], [ 2.52838, 48.70389 ], [ 2.52478, 48.7052 ], [ 2.52228, 48.70457 ], [ 2.5215, 48.70103 ], [ 2.51786, 48.69839 ], [ 2.51182, 48.69684 ] ], [ [ 2.54658, 48.69299 ], [ 2.54727, 48.69319 ], [ 2.54898, 48.69249 ], [ 2.54845, 48.69253 ], [ 2.54658, 48.69299 ] ], [ [ 2.54891, 48.66949 ], [ 2.54723, 48.67451 ], [ 2.54122, 48.68031 ], [ 2.54047, 48.68266 ], [ 2.54375, 48.68713 ], [ 2.54986, 48.68939 ], [ 2.55089, 48.69061 ] ], [ [ 2.56527, 48.6672 ], [ 2.56323, 48.66798 ], [ 2.55606, 48.67605 ], [ 2.55247, 48.67405 ], [ 2.55131, 48.67035 ] ], [ [ 2.57354, 48.67611 ], [ 2.57105, 48.67495 ], [ 2.57045, 48.67248 ], [ 2.5716, 48.67023 ] ], [ [ 2.57354, 48.67611 ], [ 2.57267, 48.67378 ] ], [ [ 2.5839, 48.67729 ], [ 2.57943, 48.67782 ], [ 2.57354, 48.67611 ] ] ] } },
{ "type": "Feature", "properties": { "name": "le Réveillon", "weight_class": 1, "permanent": true, "length_km": 4.1 }, "geometry": { "type": "LineString", "coordinates": [ [ 2.53884, 48.71798 ], [ 2.5252, 48.71318 ], [ 2.52135, 48.71427 ], [ 2.52007, 48.71262 ], [ 2.51757, 48.71351 ], [ 2.5136, 48.71225 ], [ 2.5084, 48.71227 ], [ 2.50131, 48.70931 ], [ 2.50033, 48.70743 ], [ 2.49814, 48.70774 ], [ 2.49665, 48.7091 ] ] } },
{ "type": "Feature", "properties": { "name": "Canal 01 de la Forêt Domaniale de Sénart", "weight_class": 1, "permanent": false, "length_km": 2.8 }, "geometry": { "type": "LineString", "coordinates": [ [ 2.46675, 48.67726 ], [ 2.47456, 48.67959 ], [ 2.48129, 48.67481 ], [ 2.47614, 48.67603 ], [ 2.46934, 48.67219 ], [ 2.4638, 48.67289 ] ] } },
{ "type": "Feature", "properties": { "name": "Fossé Daniel", "weight_class": 1, "permanent": false, "length_km": 4.6 }, "geometry": { "type": "LineString", "coordinates": [ [ 2.50899, 48.69034 ], [ 2.50774, 48.68791 ], [ 2.50916, 48.68323 ], [ 2.50479, 48.68159 ], [ 2.49945, 48.67588 ], [ 2.48182, 48.67074 ], [ 2.47491, 48.67075 ], [ 2.47063, 48.66935 ], [ 2.46769, 48.67074 ] ] } },
{ "type": "Feature", "properties": { "name": "l'Orge", "weight_class": 2, "permanent": true, "length_km": 48.5 }, "geometry": { "type": "MultiLineString", "coordinates": [ [ [ 1.94585, 48.51359 ], [ 1.94567, 48.51638 ] ], [ [ 1.9457, 48.51756 ], [ 1.95262, 48.52065 ], [ 1.95314, 48.52291 ] ], [ [ 1.97755, 48.52876 ], [ 1.99096, 48.52901 ], [ 2.00092, 48.53117 ], [ 2.00151, 48.53252 ] ], [ [ 2.00151, 48.53252 ], [ 2.00341, 48.53258 ], [ 2.00592, 48.53203 ], [ 2.008, 48.52923 ] ], [ [ 2.00151, 48.53252 ], [ 2.0057, 48.53148 ], [ 2.008, 48.52923 ] ], [ [ 2.008, 48.52923 ], [ 2.0101, 48.52763 ], [ 2.01785, 48.52507 ], [ 2.01827, 48.52584 ], [ 2.02773, 48.52847 ], [ 2.03149, 48.52882 ], [ 2.03332, 48.52731 ], [ 2.03841, 48.52706 ], [ 2.04478, 48.52976 ], [ 2.06128, 48.53057 ], [ 2.06797, 48.53204 ], [ 2.08172, 48.53984 ], [ 2.08785, 48.54049 ], [ 2.09567, 48.53927 ], [ 2.10188, 48.54037 ], [ 2.10642, 48.54242 ], [ 2.11193, 48.5434 ], [ 2.1204, 48.54774 ], [ 2.12463, 48.54838 ], [ 2.13412, 48.55223 ], [ 2.14771, 48.55402 ], [ 2.16368, 48.55931 ], [ 2.16547, 48.56181 ], [ 2.1821, 48.5668 ], [ 2.18505, 48.5689 ], [ 2.18888, 48.5698 ], [ 2.19433, 48.57397 ], [ 2.19847, 48.57566 ], [ 2.20006, 48.57761 ], [ 2.20708, 48.57878 ], [ 2.21016, 48.58202 ], [ 2.21361, 48.58252 ] ], [ [ 2.21361, 48.58252 ], [ 2.21463, 48.5834 ], [ 2.22134, 48.58395 ] ], [ [ 2.21361, 48.58252 ], [ 2.21701, 48.58186 ], [ 2.22134, 48.58395 ] ], [ [ 2.22134, 48.58395 ], [ 2.22752, 48.58488 ], [ 2.23526, 48.58904 ], [ 2.24735, 48.59015 ] ], [ [ 2.24735, 48.59015 ], [ 2.25266, 48.59191 ] ], [ [ 2.24735, 48.59015 ], [ 2.24774, 48.58999 ], [ 2.25325, 48.59048 ] ], [ [ 2.25266, 48.59191 ], [ 2.25499, 48.59324 ], [ 2.25685, 48.59308 ] ], [ [ 2.25266, 48.59191 ], [ 2.25325, 48.59048 ] ], [ [ 2.25325, 48.59048 ], [ 2.25762, 48.5915 ], [ 2.25685, 48.59308 ] ], [ [ 2.25685, 48.59308 ], [ 2.26135, 48.59564 ], [ 2.26211, 48.5976 ], [ 2.26457, 48.59902 ], [ 2.26604, 48.6052 ], [ 2.2729, 48.60895 ], [ 2.27774, 48.61465 ], [ 2.28373, 48.61678 ], [ 2.29181, 48.61726 ], [ 2.29391, 48.63494 ], [ 2.29863, 48.63954 ], [ 2.29805, 48.64923 ], [ 2.30112, 48.65229 ], [ 2.31213, 48.65875 ], [ 2.31652, 48.66499 ], [ 2.31888, 48.6659 ], [ 2.32038, 48.66822 ], [ 2.32442, 48.66939 ], [ 2.33357, 48.66657 ], [ 2.34356, 48.66784 ], [ 2.35281, 48.67128 ], [ 2.35528, 48.67085 ], [ 2.35732, 48.67169 ], [ 2.35895, 48.67318 ], [ 2.35971, 48.67649 ], [ 2.36606, 48.67927 ], [ 2.37003, 48.68461 ], [ 2.37361, 48.68661 ], [ 2.37911, 48.69721 ], [ 2.38294, 48.70178 ], [ 2.39501, 48.70747 ], [ 2.39971, 48.7113 ], [ 2.40479, 48.71131 ] ] ] } },
{ "type": "Feature", "properties": { "name": "le Madereau", "weight_class": 1, "permanent": false, "length_km": 5.7 }, "geometry": { "type": "LineString", "coordinates": [ [ 2.47511, 48.68915 ], [ 2.4821, 48.67276 ], [ 2.4823, 48.66834 ], [ 2.48663, 48.66125 ], [ 2.48903, 48.66042 ], [ 2.49215, 48.65461 ], [ 2.49206, 48.65187 ], [ 2.4971, 48.64997 ], [ 2.50367, 48.64528 ] ] } },
{ "type": "Feature", "properties": { "name": "Canal 01 de la Commune d'Epinay-sous-Sénart", "weight_class": 1, "permanent": false, "length_km": 3.3 }, "geometry": { "type": "LineString", "coordinates": [ [ 2.52973, 48.6706 ], [ 2.52594, 48.67254 ], [ 2.52431, 48.67082 ], [ 2.52538, 48.66921 ], [ 2.52401, 48.66821 ], [ 2.52253, 48.66895 ], [ 2.52208, 48.67063 ], [ 2.52487, 48.67561 ], [ 2.51938, 48.67961 ], [ 2.51722, 48.6829 ], [ 2.51411, 48.68452 ] ] } },
{ "type": "Feature", "properties": { "name": "Ru de Fleury", "weight_class": 1, "permanent": false, "length_km": 2.3 }, "geometry": { "type": "LineString", "coordinates": [ [ 2.37094, 48.64051 ], [ 2.37227, 48.64011 ], [ 2.37135, 48.63807 ], [ 2.36894, 48.63711 ], [ 2.36612, 48.63354 ], [ 2.36385, 48.63499 ], [ 2.35047, 48.63543 ] ] } },
{ "type": "Feature", "properties": { "name": "Canal 04 de la Forêt Domaniale de Sénart", "weight_class": 1, "permanent": false, "length_km": 3.4 }, "geometry": { "type": "LineString", "coordinates": [ [ 2.46324, 48.6533 ], [ 2.46545, 48.65538 ], [ 2.45807, 48.65904 ], [ 2.46023, 48.66252 ], [ 2.45724, 48.6648 ], [ 2.4599, 48.66592 ], [ 2.46457, 48.6651 ], [ 2.46482, 48.66422 ], [ 2.46634, 48.66468 ], [ 2.46872, 48.66754 ], [ 2.46769, 48.67074 ] ] } },
{ "type": "Feature", "properties": { "name": "Canal 05 de la Forêt Domaniale de Sénart", "weight_class": 1, "permanent": false, "length_km": 2.7 }, "geometry": { "type": "LineString", "coordinates": [ [ 2.49696, 48.65241 ], [ 2.4976, 48.65444 ], [ 2.49529, 48.65985 ], [ 2.49564, 48.66602 ], [ 2.49855, 48.67045 ], [ 2.49893, 48.67576 ] ] } },
{ "type": "Feature", "properties": { "name": "Ru de l'Écoute-s'il-pleut", "weight_class": 1, "permanent": true, "length_km": 3.5 }, "geometry": { "type": "LineString", "coordinates": [ [ 2.40573, 48.63108 ], [ 2.4069, 48.63444 ], [ 2.41182, 48.63535 ], [ 2.41398, 48.63849 ], [ 2.41596, 48.63831 ], [ 2.41704, 48.63934 ], [ 2.41686, 48.64287 ], [ 2.42266, 48.65176 ], [ 2.42618, 48.65521 ] ] } },
{ "type": "Feature", "properties": { "name": "Fossé 01 du Bois de Tigery", "weight_class": 1, "permanent": false, "length_km": 2.1 }, "geometry": { "type": "LineString", "coordinates": [ [ 2.53613, 48.65637 ], [ 2.53187, 48.65255 ], [ 2.51867, 48.65131 ], [ 2.5128, 48.64772 ] ] } },
{ "type": "Feature", "properties": { "name": "Fossé 01 du Bois Labrune", "weight_class": 1, "permanent": false, "length_km": 3.2 }, "geometry": { "type": "LineString", "coordinates": [ [ 2.55876, 48.64915 ], [ 2.55498, 48.65004 ], [ 2.54635, 48.64916 ], [ 2.54373, 48.65151 ], [ 2.54238, 48.65002 ], [ 2.53467, 48.64999 ], [ 2.53217, 48.64799 ], [ 2.52632, 48.647 ], [ 2.52375, 48.64509 ] ] } },
{ "type": "Feature", "properties": { "name": "Canal 02 des Closeaux", "weight_class": 1, "permanent": false, "length_km": 3.2 }, "geometry": { "type": "LineString", "coordinates": [ [ 2.41464, 48.57815 ], [ 2.41781, 48.58011 ], [ 2.41012, 48.58924 ], [ 2.40756, 48.58876 ], [ 2.40838, 48.58741 ], [ 2.40685, 48.58416 ], [ 2.41367, 48.57755 ] ] } },
{ "type": "Feature", "properties": { "name": "Ru de l'Ecoute-s'il-pleut", "weight_class": 1, "permanent": true, "length_km": 4.8 }, "geometry": { "type": "LineString", "coordinates": [ [ 2.37275, 48.6023 ], [ 2.37772, 48.6031 ], [ 2.38253, 48.60271 ], [ 2.3843, 48.60525 ], [ 2.3859, 48.60552 ], [ 2.38673, 48.60914 ], [ 2.3908, 48.61008 ], [ 2.39143, 48.61828 ], [ 2.39354, 48.62057 ], [ 2.4008, 48.62349 ], [ 2.40445, 48.62731 ], [ 2.40414, 48.6292 ], [ 2.40573, 48.63108 ] ] } },
{ "type": "Feature", "properties": { "name": "Bras l'Essonne", "weight_class": 2, "permanent": true, "length_km": 2.3 }, "geometry": { "type": "LineString", "coordinates": [ [ 2.41729, 48.56766 ], [ 2.42342, 48.57082 ], [ 2.42797, 48.57071 ], [ 2.43082, 48.57157 ], [ 2.43318, 48.57443 ], [ 2.44115, 48.57697 ] ] } },
{ "type": "Feature", "properties": { "name": "Fossé 01 de Braseux", "weight_class": 1, "permanent": false, "length_km": 2.7 }, "geometry": { "type": "LineString", "coordinates": [ [ 2.41034, 48.59764 ], [ 2.41067, 48.59605 ], [ 2.39337, 48.59123 ], [ 2.39466, 48.59005 ], [ 2.39222, 48.58792 ], [ 2.39386, 48.58711 ], [ 2.39115, 48.58291 ] ] } },
{ "type": "Feature", "properties": { "name": "Fossé 01 de la Croix Saint-André", "weight_class": 1, "permanent": false, "length_km": 3.4 }, "geometry": { "type": "LineString", "coordinates": [ [ 2.39929, 48.5844 ], [ 2.39525, 48.58147 ], [ 2.39115, 48.58291 ], [ 2.38979, 48.58134 ], [ 2.38097, 48.58234 ], [ 2.3733, 48.58426 ], [ 2.37234, 48.58356 ], [ 2.37078, 48.58389 ], [ 2.36779, 48.58104 ], [ 2.36366, 48.57907 ], [ 2.3622, 48.57988 ] ] } },
{ "type": "Feature", "properties": { "name": "Fossé 02 de la Marnière", "weight_class": 1, "permanent": false, "length_km": 2.3 }, "geometry": { "type": "LineString", "coordinates": [ [ 2.42363, 48.53971 ], [ 2.42498, 48.53764 ], [ 2.42351, 48.53589 ], [ 2.42468, 48.53459 ], [ 2.42313, 48.53203 ], [ 2.42227, 48.53236 ], [ 2.42124, 48.53135 ], [ 2.41665, 48.53259 ], [ 2.41495, 48.53024 ], [ 2.41266, 48.53084 ], [ 2.4116, 48.52968 ] ] } },
{ "type": "Feature", "properties": { "name": "Ravin du Gouffre", "weight_class": 1, "permanent": false, "length_km": 4.1 }, "geometry": { "type": "MultiLineString", "coordinates": [ [ [ 2.52657, 48.58638 ], [ 2.52201, 48.586 ], [ 2.51843, 48.58456 ], [ 2.51927, 48.57945 ], [ 2.52207, 48.57706 ], [ 2.52223, 48.57444 ] ], [ [ 2.53582, 48.60505 ], [ 2.5374, 48.60096 ], [ 2.54009, 48.59918 ], [ 2.54084, 48.59723 ], [ 2.53246, 48.58856 ] ] ] } },
{ "type": "Feature", "properties": { "name": "la Grande Vidange", "weight_class": 1, "permanent": false, "length_km": 6.7 }, "geometry": { "type": "LineString", "coordinates": [ [ 2.4478, 48.52822 ], [ 2.44565, 48.5241 ], [ 2.45709, 48.52129 ], [ 2.46067, 48.51868 ], [ 2.46015, 48.51586 ], [ 2.4636, 48.51558 ], [ 2.47253, 48.51164 ], [ 2.47532, 48.51263 ], [ 2.48319, 48.51147 ], [ 2.48803, 48.51195 ], [ 2.49632, 48.51733 ], [ 2.50197, 48.51703 ], [ 2.50515, 48.51599 ], [ 2.50775, 48.51244 ], [ 2.50698, 48.5111 ] ] } },
{ "type": "Feature", "properties": { "name": "Canal 01 de la Commune de Soisy-sur-Seine", "weight_class": 1, "permanent": false, "length_km": 4.3 }, "geometry": { "type": "LineString", "coordinates": [ [ 2.53881, 48.66353 ], [ 2.5334, 48.66155 ], [ 2.52345, 48.66152 ], [ 2.51943, 48.65978 ], [ 2.51271, 48.67263 ], [ 2.51204, 48.67623 ], [ 2.50865, 48.67737 ], [ 2.5061, 48.67969 ], [ 2.50389, 48.67998 ] ] } },
{ "type": "Feature", "properties": { "name": "Ru d'Oly", "weight_class": 1, "permanent": false, "length_km": 7.2 }, "geometry": { "type": "LineString", "coordinates": [ [ 2.46769, 48.67074 ], [ 2.46121, 48.67482 ], [ 2.4579, 48.67965 ], [ 2.45453, 48.68235 ], [ 2.45183, 48.68875 ], [ 2.44817, 48.68916 ], [ 2.44651, 48.6906 ], [ 2.44391, 48.69719 ], [ 2.4397, 48.70304 ], [ 2.43322, 48.70815 ], [ 2.43586, 48.71403 ], [ 2.4413, 48.72001 ], [ 2.44845, 48.72166 ] ] } },
{ "type": "Feature", "properties": { "name": "Ruisseau des Hauldres", "weight_class": 1, "permanent": true, "length_km": 7.2 }, "geometry": { "type": "LineString", "coordinates": [ [ 2.54283, 48.6405 ], [ 2.53772, 48.64137 ], [ 2.52801, 48.64129 ], [ 2.52555, 48.64236 ], [ 2.5237, 48.64512 ], [ 2.5164, 48.64519 ], [ 2.51445, 48.64742 ], [ 2.51125, 48.64807 ], [ 2.49022, 48.64022 ], [ 2.48774, 48.63796 ], [ 2.47723, 48.63713 ], [ 2.47451, 48.63661 ], [ 2.47294, 48.63513 ], [ 2.47012, 48.63526 ], [ 2.46381, 48.63071 ] ] } },
{ "type": "Feature", "properties": { "name": "Ruisseau des Pres Hauts", "weight_class": 1, "permanent": false, "length_km": 6.0 }, "geometry": { "type": "LineString", "coordinates": [ [ 2.50877, 48.60997 ], [ 2.51487, 48.61173 ], [ 2.52018, 48.61563 ], [ 2.51928, 48.62085 ], [ 2.51672, 48.62282 ], [ 2.5133, 48.62269 ], [ 2.50903, 48.62423 ], [ 2.50536, 48.62907 ], [ 2.50359, 48.62977 ], [ 2.49999, 48.62993 ], [ 2.49555, 48.62696 ], [ 2.48944, 48.62573 ], [ 2.48391, 48.62301 ], [ 2.48253, 48.62076 ], [ 2.48012, 48.62056 ], [ 2.48006, 48.61892 ], [ 2.47762, 48.61848 ] ] } },
{ "type": "Feature", "properties": { "name": "l'Essonne", "weight_class": 3, "permanent": true, "length_km": 62.8 }, "geometry": { "type": "MultiLineString", "coordinates": [ [ [ 2.35236, 48.48996 ], [ 2.35434, 48.49207 ] ], [ [ 2.386, 48.39513 ], [ 2.39049, 48.3972 ], [ 2.39176, 48.40024 ], [ 2.38376, 48.42006 ], [ 2.37933, 48.42485 ], [ 2.37969, 48.42877 ], [ 2.37534, 48.43348 ], [ 2.36856, 48.43533 ], [ 2.36508, 48.43731 ], [ 2.36535, 48.4383 ], [ 2.3624, 48.43857 ], [ 2.36124, 48.43958 ], [ 2.36065, 48.44273 ], [ 2.36208, 48.44517 ], [ 2.3607, 48.44681 ], [ 2.36314, 48.44994 ], [ 2.3606, 48.45236 ], [ 2.35319, 48.45134 ], [ 2.34554, 48.45341 ], [ 2.34538, 48.45888 ], [ 2.34752, 48.46306 ], [ 2.34649, 48.46578 ], [ 2.34744, 48.46679 ], [ 2.34581, 48.46835 ], [ 2.34717, 48.46916 ], [ 2.34617, 48.47008 ], [ 2.34757, 48.47026 ], [ 2.34787, 48.47218 ], [ 2.34995, 48.47274 ], [ 2.35125, 48.47644 ], [ 2.34747, 48.47918 ], [ 2.34576, 48.47934 ], [ 2.34495, 48.48058 ], [ 2.34611, 48.48293 ], [ 2.34414, 48.48619 ], [ 2.34603, 48.4864 ], [ 2.34693, 48.48755 ], [ 2.35006, 48.48779 ], [ 2.35236, 48.48996 ] ], [ [ 2.35236, 48.48996 ], [ 2.35258, 48.48994 ], [ 2.35294, 48.49001 ], [ 2.35466, 48.49083 ], [ 2.35531, 48.4914 ], [ 2.35434, 48.49207 ] ], [ [ 2.35434, 48.49207 ], [ 2.3568, 48.49284 ], [ 2.35824, 48.49692 ], [ 2.35967, 48.49764 ], [ 2.36016, 48.50309 ], [ 2.36281, 48.50618 ], [ 2.36563, 48.50656 ], [ 2.3659, 48.50896 ] ], [ [ 2.36206, 48.52389 ], [ 2.36263, 48.52824 ], [ 2.36881, 48.53182 ], [ 2.36835, 48.53347 ], [ 2.37306, 48.53714 ], [ 2.3729, 48.54098 ], [ 2.37404, 48.54197 ], [ 2.37309, 48.54447 ], [ 2.37586, 48.54897 ], [ 2.38553, 48.55581 ], [ 2.39949, 48.55987 ], [ 2.39954, 48.56159 ], [ 2.40412, 48.56425 ], [ 2.40732, 48.56495 ] ], [ [ 2.3659, 48.50896 ], [ 2.36367, 48.51287 ], [ 2.36364, 48.51597 ], [ 2.36215, 48.51613 ], [ 2.36233, 48.51851 ], [ 2.35987, 48.51873 ], [ 2.36206, 48.52389 ] ], [ [ 2.3659, 48.50896 ], [ 2.36334, 48.52286 ], [ 2.36206, 48.52389 ] ], [ [ 2.38311, 48.36187 ], [ 2.38436, 48.366 ] ], [ [ 2.38324, 48.36083 ], [ 2.38311, 48.36187 ] ], [ [ 2.38324, 48.36083 ], [ 2.38373, 48.36142 ], [ 2.38311, 48.36187 ] ], [ [ 2.38523, 48.34959 ], [ 2.38222, 48.35511 ], [ 2.384, 48.35691 ], [ 2.38324, 48.36083 ] ], [ [ 2.38436, 48.366 ], [ 2.3822, 48.36992 ], [ 2.3826, 48.37287 ], [ 2.37937, 48.37527 ], [ 2.38267, 48.3789 ], [ 2.38102, 48.3817 ], [ 2.38246, 48.3837 ], [ 2.38246, 48.38676 ], [ 2.37966, 48.3919 ], [ 2.38093, 48.39395 ], [ 2.386, 48.39513 ] ], [ [ 2.38436, 48.366 ], [ 2.3846, 48.366 ], [ 2.38482, 48.36615 ], [ 2.3856, 48.36809 ], [ 2.38558, 48.37282 ], [ 2.38812, 48.37505 ], [ 2.38655, 48.37744 ], [ 2.38691, 48.38265 ], [ 2.38494, 48.38444 ], [ 2.38792, 48.38893 ], [ 2.38387, 48.39312 ], [ 2.386, 48.39513 ] ], [ [ 2.38566, 48.34646 ], [ 2.38523, 48.34959 ] ], [ [ 2.38566, 48.34646 ], [ 2.38739, 48.34836 ], [ 2.38523, 48.34959 ] ], [ [ 2.39018, 48.33754 ], [ 2.38743, 48.33905 ], [ 2.38833, 48.33939 ], [ 2.38749, 48.34031 ], [ 2.38905, 48.3404 ], [ 2.38539, 48.34491 ], [ 2.38566, 48.34646 ] ], [ [ 2.39351, 48.33285 ], [ 2.39018, 48.33754 ] ], [ [ 2.39431, 48.33245 ], [ 2.39371, 48.33464 ], [ 2.39018, 48.33754 ] ], [ [ 2.39206, 48.33022 ], [ 2.3936, 48.33121 ] ], [ [ 2.39675, 48.32484 ], [ 2.39467, 48.32437 ], [ 2.39071, 48.32612 ], [ 2.39206, 48.33022 ] ], [ [ 2.39366, 48.32709 ], [ 2.39206, 48.33022 ] ], [ [ 2.40297, 48.32064 ], [ 2.40212, 48.3218 ], [ 2.39936, 48.32224 ], [ 2.39683, 48.32488 ] ], [ [ 2.40732, 48.56495 ], [ 2.41575, 48.56806 ] ], [ [ 2.40732, 48.56495 ], [ 2.41268, 48.5647 ], [ 2.41729, 48.56766 ], [ 2.41575, 48.56806 ] ], [ [ 2.41575, 48.56806 ], [ 2.41708, 48.56929 ] ], [ [ 2.41708, 48.56929 ], [ 2.42131, 48.57248 ] ], [ [ 2.41708, 48.56929 ], [ 2.41816, 48.56912 ], [ 2.41936, 48.56933 ], [ 2.42131, 48.57248 ] ], [ [ 2.42131, 48.57248 ], [ 2.42429, 48.57345 ], [ 2.42676, 48.57562 ], [ 2.44275, 48.57732 ] ], [ [ 2.44275, 48.57732 ], [ 2.4456, 48.57887 ], [ 2.45138, 48.57855 ] ], [ [ 2.44275, 48.57732 ], [ 2.44354, 48.57715 ], [ 2.44608, 48.57832 ], [ 2.45138, 48.57855 ] ], [ [ 2.45138, 48.57855 ], [ 2.45332, 48.57826 ] ], [ [ 2.45332, 48.57826 ], [ 2.45511, 48.57892 ], [ 2.45724, 48.57716 ] ], [ [ 2.45332, 48.57826 ], [ 2.45724, 48.57716 ] ], [ [ 2.45724, 48.57716 ], [ 2.4622, 48.57623 ], [ 2.46562, 48.57761 ] ], [ [ 2.46086, 48.60128 ], [ 2.46122, 48.60194 ] ], [ [ 2.46171, 48.59874 ], [ 2.46026, 48.60054 ], [ 2.46086, 48.60128 ] ], [ [ 2.46171, 48.59874 ], [ 2.46086, 48.60128 ] ], [ [ 2.46122, 48.60194 ], [ 2.47247, 48.60342 ], [ 2.47554, 48.60525 ] ], [ [ 2.46122, 48.60194 ], [ 2.46158, 48.60437 ], [ 2.46408, 48.60589 ], [ 2.46643, 48.60507 ], [ 2.46899, 48.60641 ], [ 2.47246, 48.60643 ], [ 2.47554, 48.60525 ] ], [ [ 2.46979, 48.58716 ], [ 2.4679, 48.59057 ], [ 2.46837, 48.59412 ], [ 2.46634, 48.59565 ], [ 2.46349, 48.5955 ], [ 2.46171, 48.59874 ] ], [ [ 2.46562, 48.57761 ], [ 2.46788, 48.5816 ], [ 2.46799, 48.5855 ], [ 2.46979, 48.58716 ] ], [ [ 2.46562, 48.57761 ], [ 2.46617, 48.57741 ], [ 2.4701, 48.57971 ], [ 2.47061, 48.5835 ], [ 2.46886, 48.58475 ], [ 2.46979, 48.58716 ] ], [ [ 2.47554, 48.60525 ], [ 2.47877, 48.6057 ], [ 2.48121, 48.60852 ], [ 2.48366, 48.6088 ], [ 2.48025, 48.61298 ], [ 2.48188, 48.61503 ] ] ] } },
{ "type": "Feature", "properties": { "name": "Ruisseau de Moulignon", "weight_class": 1, "permanent": true, "length_km": 4.5 }, "geometry": { "type": "LineString", "coordinates": [ [ 2.45838, 48.54572 ], [ 2.4713, 48.54325 ], [ 2.46984, 48.54105 ], [ 2.47223, 48.54089 ], [ 2.47225, 48.53996 ], [ 2.47687, 48.53772 ], [ 2.48417, 48.53679 ], [ 2.48912, 48.53474 ], [ 2.49019, 48.5292 ], [ 2.4931, 48.52776 ], [ 2.49867, 48.5275 ] ] } },
{ "type": "Feature", "properties": { "name": "la Velvette", "weight_class": 1, "permanent": true, "length_km": 4.5 }, "geometry": { "type": "LineString", "coordinates": [ [ 2.37102, 48.32239 ], [ 2.37081, 48.32813 ], [ 2.37242, 48.33127 ], [ 2.37714, 48.33788 ], [ 2.38021, 48.33895 ], [ 2.38071, 48.34122 ], [ 2.38397, 48.34315 ], [ 2.38361, 48.34598 ], [ 2.38168, 48.34754 ], [ 2.38338, 48.34937 ], [ 2.38308, 48.3527 ] ] } },
{ "type": "Feature", "properties": { "name": "l'École", "weight_class": 1, "permanent": true, "length_km": 13.1 }, "geometry": { "type": "MultiLineString", "coordinates": [ [ [ 2.46191, 48.41793 ], [ 2.46318, 48.42104 ], [ 2.46225, 48.4235 ] ], [ [ 2.46191, 48.41793 ], [ 2.46076, 48.41803 ], [ 2.46225, 48.4235 ] ], [ [ 2.48171, 48.38543 ], [ 2.47177, 48.39188 ], [ 2.46507, 48.39502 ], [ 2.46309, 48.40184 ], [ 2.46433, 48.40291 ], [ 2.46191, 48.41793 ] ], [ [ 2.46225, 48.4235 ], [ 2.4609, 48.42474 ], [ 2.46266, 48.42865 ], [ 2.46048, 48.43745 ], [ 2.46349, 48.4414 ], [ 2.46937, 48.44298 ], [ 2.47382, 48.44904 ], [ 2.48008, 48.45447 ], [ 2.48502, 48.45563 ], [ 2.48958, 48.46224 ], [ 2.49243, 48.46256 ], [ 2.4956, 48.46459 ], [ 2.49723, 48.4679 ], [ 2.49972, 48.46929 ], [ 2.50663, 48.4702 ] ] ] } },
{ "type": "Feature", "properties": { "name": "la Bièvre", "weight_class": 1, "permanent": true, "length_km": 9.7 }, "geometry": { "type": "MultiLineString", "coordinates": [ [ [ 2.19088, 48.76056 ], [ 2.19484, 48.75993 ], [ 2.20016, 48.75554 ], [ 2.20846, 48.75544 ], [ 2.21802, 48.7528 ], [ 2.22014, 48.75066 ], [ 2.2288, 48.74685 ], [ 2.23083, 48.74214 ], [ 2.23253, 48.74169 ] ], [ [ 2.23253, 48.74169 ], [ 2.23651, 48.74106 ], [ 2.23792, 48.73869 ], [ 2.24409, 48.73863 ], [ 2.24522, 48.73796 ] ], [ [ 2.23253, 48.74169 ], [ 2.23592, 48.74039 ], [ 2.23688, 48.73838 ], [ 2.24394, 48.73717 ], [ 2.24522, 48.73796 ] ], [ [ 2.24522, 48.73796 ], [ 2.24808, 48.73677 ], [ 2.25268, 48.73862 ], [ 2.25875, 48.73747 ], [ 2.26358, 48.73822 ], [ 2.26894, 48.7376 ], [ 2.27911, 48.74217 ] ] ] } },
{ "type": "Feature", "properties": { "name": "Bras de la Seine", "weight_class": 2, "permanent": true, "length_km": 2.5 }, "geometry": { "type": "LineString", "coordinates": [ [ 2.36385, 48.67812 ], [ 2.36473, 48.67768 ], [ 2.36696, 48.67865 ], [ 2.37087, 48.68145 ], [ 2.38015, 48.67704 ], [ 2.38848, 48.67592 ], [ 2.39028, 48.67711 ] ] } },
{ "type": "Feature", "properties": { "name": "la Morte", "weight_class": 1, "permanent": true, "length_km": 2.2 }, "geometry": { "type": "LineString", "coordinates": [ [ 2.29507, 48.69546 ], [ 2.30075, 48.69349 ], [ 2.30533, 48.69018 ], [ 2.30976, 48.68894 ], [ 2.31418, 48.68586 ], [ 2.31825, 48.68579 ] ] } },
{ "type": "Feature", "properties": { "name": "Ru de Fleury", "weight_class": 1, "permanent": true, "length_km": 2.0 }, "geometry": { "type": "LineString", "coordinates": [ [ 2.31924, 48.63473 ], [ 2.31438, 48.6328 ], [ 2.29752, 48.63315 ], [ 2.29686, 48.63102 ] ] } },
{ "type": "Feature", "properties": { "name": "Fossé 01 du Bois de l'Hotel-Dieu", "weight_class": 1, "permanent": false, "length_km": 2.2 }, "geometry": { "type": "LineString", "coordinates": [ [ 2.15986, 48.64595 ], [ 2.16203, 48.64912 ], [ 2.17356, 48.65245 ], [ 2.18257, 48.65743 ] ] } },
{ "type": "Feature", "properties": { "name": "Rigole Domaniale", "weight_class": 1, "permanent": true, "length_km": 7.3 }, "geometry": { "type": "LineString", "coordinates": [ [ 2.23636, 48.71387 ], [ 2.23753, 48.71677 ], [ 2.23396, 48.71846 ], [ 2.22875, 48.7193 ], [ 2.22668, 48.72154 ], [ 2.22094, 48.7204 ], [ 2.21707, 48.72237 ], [ 2.21344, 48.72239 ], [ 2.20427, 48.7246 ], [ 2.20315, 48.72433 ], [ 2.20241, 48.72215 ], [ 2.199, 48.72636 ], [ 2.1946, 48.72703 ], [ 2.18746, 48.73062 ], [ 2.1831, 48.73064 ], [ 2.17812, 48.73383 ], [ 2.17184, 48.73551 ], [ 2.16988, 48.74192 ] ] } },
{ "type": "Feature", "properties": { "name": "Rigole de Favreuse", "weight_class": 1, "permanent": true, "length_km": 7.3 }, "geometry": { "type": "LineString", "coordinates": [ [ 2.17282, 48.75651 ], [ 2.17881, 48.75656 ], [ 2.18203, 48.75223 ], [ 2.18722, 48.75323 ], [ 2.19549, 48.75154 ], [ 2.19796, 48.74837 ], [ 2.20258, 48.74827 ], [ 2.20808, 48.74646 ], [ 2.20966, 48.74278 ], [ 2.2168, 48.7397 ], [ 2.20869, 48.73629 ], [ 2.20497, 48.73598 ], [ 2.1985, 48.7364 ], [ 2.18234, 48.7412 ] ] } },
{ "type": "Feature", "properties": { "name": "Aqueduc de la Vanne", "weight_class": 1, "permanent": true, "length_km": 17.8 }, "geometry": { "type": "LineString", "coordinates": [ [ 2.54001, 48.39868 ], [ 2.54085, 48.40112 ], [ 2.53616, 48.40399 ], [ 2.51861, 48.40823 ], [ 2.51439, 48.41087 ], [ 2.51031, 48.41199 ], [ 2.5064, 48.42213 ], [ 2.50409, 48.42421 ], [ 2.50026, 48.43276 ], [ 2.49712, 48.43365 ], [ 2.49369, 48.44259 ], [ 2.48938, 48.44466 ], [ 2.48954, 48.4476 ], [ 2.47191, 48.46485 ], [ 2.47179, 48.46716 ], [ 2.46618, 48.46906 ], [ 2.46462, 48.47126 ], [ 2.46124, 48.4722 ], [ 2.46072, 48.47582 ], [ 2.46363, 48.47782 ], [ 2.46282, 48.48808 ], [ 2.44961, 48.50753 ], [ 2.44802, 48.50873 ], [ 2.44355, 48.50859 ], [ 2.43838, 48.50976 ], [ 2.4362, 48.51527 ], [ 2.43777, 48.51973 ], [ 2.43437, 48.52151 ], [ 2.43426, 48.52282 ] ] } },
{ "type": "Feature", "properties": { "name": "Aqueduc du Loing", "weight_class": 1, "permanent": true, "length_km": 62.5 }, "geometry": { "type": "MultiLineString", "coordinates": [ [ [ 2.39991, 48.62102 ], [ 2.39134, 48.64348 ], [ 2.37425, 48.66091 ], [ 2.36839, 48.67267 ], [ 2.36178, 48.67708 ], [ 2.35553, 48.69533 ], [ 2.35176, 48.70261 ], [ 2.3571, 48.71734 ], [ 2.36173, 48.74492 ], [ 2.35367, 48.75339 ] ], [ [ 2.76754, 48.37544 ], [ 2.76314, 48.37657 ], [ 2.75803, 48.37664 ], [ 2.74923, 48.37887 ], [ 2.71367, 48.3817 ], [ 2.69309, 48.38399 ], [ 2.68334, 48.38614 ], [ 2.68046, 48.38538 ], [ 2.6752, 48.38564 ], [ 2.67226, 48.38706 ], [ 2.66644, 48.3879 ], [ 2.65043, 48.38865 ], [ 2.60444, 48.39405 ], [ 2.58845, 48.3941 ], [ 2.58499, 48.39123 ], [ 2.58289, 48.39113 ], [ 2.54904, 48.39421 ], [ 2.54198, 48.39639 ], [ 2.5398, 48.39875 ], [ 2.54066, 48.40108 ], [ 2.53574, 48.40408 ], [ 2.51882, 48.4081 ], [ 2.51434, 48.41078 ], [ 2.51055, 48.41168 ], [ 2.50629, 48.42209 ], [ 2.50396, 48.42415 ], [ 2.50014, 48.43267 ], [ 2.49699, 48.43362 ], [ 2.49358, 48.44252 ], [ 2.48927, 48.4446 ], [ 2.48939, 48.44762 ], [ 2.47175, 48.46481 ], [ 2.47168, 48.46712 ], [ 2.46623, 48.46892 ], [ 2.46451, 48.47119 ], [ 2.4611, 48.47213 ], [ 2.4606, 48.47585 ], [ 2.4635, 48.47786 ], [ 2.46273, 48.48798 ], [ 2.4495, 48.50746 ], [ 2.44797, 48.50864 ], [ 2.44351, 48.5085 ], [ 2.43826, 48.50971 ], [ 2.43607, 48.51527 ], [ 2.43764, 48.5197 ], [ 2.43393, 48.52222 ], [ 2.43938, 48.5352 ], [ 2.44508, 48.54129 ], [ 2.4478, 48.54632 ], [ 2.44764, 48.5546 ], [ 2.44455, 48.56094 ], [ 2.43802, 48.5857 ], [ 2.42076, 48.59875 ], [ 2.40631, 48.6141 ] ] ] } },
{ "type": "Feature", "properties": { "name": "Ruisseau de Rungis", "weight_class": 1, "permanent": false, "length_km": 2.7 }, "geometry": { "type": "LineString", "coordinates": [ [ 2.34616, 48.74119 ], [ 2.34369, 48.74011 ], [ 2.34021, 48.74039 ], [ 2.328, 48.74521 ], [ 2.32621, 48.74849 ], [ 2.31738, 48.75061 ] ] } },
{ "type": "Feature", "properties": { "name": "la Sygrie", "weight_class": 1, "permanent": true, "length_km": 2.0 }, "geometry": { "type": "LineString", "coordinates": [ [ 2.22853, 48.76435 ], [ 2.22381, 48.76046 ], [ 2.22238, 48.75553 ], [ 2.22102, 48.75453 ], [ 2.22171, 48.75303 ], [ 2.22057, 48.7524 ], [ 2.22173, 48.75146 ], [ 2.22008, 48.7507 ] ] } },
{ "type": "Feature", "properties": { "name": "la Morte", "weight_class": 1, "permanent": true, "length_km": 2.3 }, "geometry": { "type": "LineString", "coordinates": [ [ 2.26812, 48.7041 ], [ 2.27345, 48.70072 ], [ 2.28497, 48.69914 ], [ 2.28502, 48.69692 ], [ 2.29029, 48.69551 ] ] } },
{ "type": "Feature", "properties": { "name": "la Boële", "weight_class": 1, "permanent": true, "length_km": 2.5 }, "geometry": { "type": "LineString", "coordinates": [ [ 2.2426, 48.70468 ], [ 2.24479, 48.70482 ], [ 2.24919, 48.70744 ], [ 2.2532, 48.70707 ], [ 2.25729, 48.70581 ], [ 2.2595, 48.70341 ], [ 2.26594, 48.70247 ], [ 2.2696, 48.7 ] ] } },
{ "type": "Feature", "properties": { "name": "le Vaularon", "weight_class": 1, "permanent": true, "length_km": 4.0 }, "geometry": { "type": "LineString", "coordinates": [ [ 2.1295, 48.6801 ], [ 2.13177, 48.68279 ], [ 2.13698, 48.68585 ], [ 2.14296, 48.68595 ], [ 2.14528, 48.68399 ], [ 2.14678, 48.68557 ], [ 2.14943, 48.68617 ], [ 2.15912, 48.69565 ], [ 2.15738, 48.69927 ] ] } },
{ "type": "Feature", "properties": { "name": "Ruisseau des Paradis", "weight_class": 1, "permanent": false, "length_km": 3.1 }, "geometry": { "type": "LineString", "coordinates": [ [ 2.24071, 48.68651 ], [ 2.24861, 48.6868 ], [ 2.25489, 48.69306 ], [ 2.26301, 48.6953 ], [ 2.26731, 48.69475 ], [ 2.27222, 48.69648 ] ] } },
{ "type": "Feature", "properties": { "name": "Ruisseau Blanc", "weight_class": 1, "permanent": false, "length_km": 2.0 }, "geometry": { "type": "LineString", "coordinates": [ [ 2.24324, 48.66229 ], [ 2.24525, 48.66592 ], [ 2.25758, 48.66828 ], [ 2.26165, 48.67032 ], [ 2.26472, 48.67061 ] ] } },
{ "type": "Feature", "properties": { "name": "le Rouillon", "weight_class": 1, "permanent": true, "length_km": 9.7 }, "geometry": { "type": "LineString", "coordinates": [ [ 2.20944, 48.68013 ], [ 2.2084, 48.68061 ], [ 2.22446, 48.67582 ], [ 2.22551, 48.67434 ], [ 2.22874, 48.67319 ], [ 2.24223, 48.67414 ], [ 2.25755, 48.67342 ], [ 2.25994, 48.67175 ], [ 2.26815, 48.6697 ], [ 2.2832, 48.67083 ], [ 2.29367, 48.67767 ], [ 2.29943, 48.6788 ], [ 2.30687, 48.67852 ], [ 2.3117, 48.68079 ], [ 2.31663, 48.68184 ], [ 2.31963, 48.68496 ] ] } },
{ "type": "Feature", "properties": { "name": "la Boële", "weight_class": 1, "permanent": true, "length_km": 6.0 }, "geometry": { "type": "LineString", "coordinates": [ [ 2.2918, 48.61936 ], [ 2.29494, 48.61951 ], [ 2.29529, 48.62049 ], [ 2.29702, 48.6354 ], [ 2.29941, 48.64034 ], [ 2.29933, 48.6472 ], [ 2.30597, 48.65364 ], [ 2.31674, 48.65994 ], [ 2.31878, 48.66583 ] ] } },
{ "type": "Feature", "properties": { "name": "le Mort", "weight_class": 1, "permanent": true, "length_km": 5.3 }, "geometry": { "type": "LineString", "coordinates": [ [ 2.23384, 48.6558 ], [ 2.24343, 48.65314 ], [ 2.2457, 48.6514 ], [ 2.2585, 48.65009 ], [ 2.26239, 48.65044 ], [ 2.26591, 48.64941 ], [ 2.27267, 48.65191 ], [ 2.28622, 48.65404 ], [ 2.29911, 48.65033 ] ] } },
{ "type": "Feature", "properties": { "name": "la Charmoise", "weight_class": 1, "permanent": false, "length_km": 7.7 }, "geometry": { "type": "LineString", "coordinates": [ [ 2.16126, 48.63494 ], [ 2.16662, 48.63184 ], [ 2.16438, 48.62794 ], [ 2.16742, 48.62279 ], [ 2.1655, 48.62177 ], [ 2.16388, 48.61616 ], [ 2.155, 48.61429 ], [ 2.15342, 48.6123 ], [ 2.15503, 48.61067 ], [ 2.15413, 48.60767 ], [ 2.15895, 48.60145 ], [ 2.15902, 48.59641 ], [ 2.1563, 48.59486 ], [ 2.15636, 48.59362 ], [ 2.15961, 48.59222 ], [ 2.16191, 48.58747 ], [ 2.1658, 48.58433 ], [ 2.16653, 48.5811 ] ] } },
{ "type": "Feature", "properties": { "name": "Fossé 01 du Bois l'Abbé", "weight_class": 1, "permanent": false, "length_km": 2.7 }, "geometry": { "type": "LineString", "coordinates": [ [ 2.18994, 48.51242 ], [ 2.19615, 48.51398 ], [ 2.20399, 48.51763 ], [ 2.21154, 48.51939 ], [ 2.21646, 48.51979 ], [ 2.22132, 48.51643 ] ] } },
{ "type": "Feature", "properties": { "name": "Cours d'Eau 01 de la Mare aux Moules", "weight_class": 1, "permanent": true, "length_km": 2.3 }, "geometry": { "type": "LineString", "coordinates": [ [ 2.36412, 48.62278 ], [ 2.368, 48.62183 ], [ 2.3678, 48.61983 ], [ 2.39074, 48.61676 ] ] } },
{ "type": "Feature", "properties": { "name": "Fossé 05 des Noues", "weight_class": 1, "permanent": false, "length_km": 2.3 }, "geometry": { "type": "LineString", "coordinates": [ [ 2.36488, 48.59432 ], [ 2.36423, 48.59354 ], [ 2.36219, 48.59378 ], [ 2.36193, 48.59196 ], [ 2.3575, 48.58984 ], [ 2.35706, 48.58478 ], [ 2.35446, 48.583 ], [ 2.35315, 48.5846 ], [ 2.34819, 48.58511 ] ] } },
{ "type": "Feature", "properties": { "name": "Fossé de Châtre", "weight_class": 1, "permanent": false, "length_km": 2.4 }, "geometry": { "type": "LineString", "coordinates": [ [ 2.32969, 48.57543 ], [ 2.33796, 48.5735 ], [ 2.3426, 48.57087 ], [ 2.3483, 48.56911 ], [ 2.35816, 48.5683 ] ] } },
{ "type": "Feature", "properties": { "name": "Fossé 02 de la Charbonnière", "weight_class": 1, "permanent": false, "length_km": 2.0 }, "geometry": { "type": "LineString", "coordinates": [ [ 2.31067, 48.54515 ], [ 2.31258, 48.54912 ], [ 2.30435, 48.54946 ], [ 2.30202, 48.54408 ], [ 2.30306, 48.54162 ] ] } },
{ "type": "Feature", "properties": { "name": "Bras la Juine", "weight_class": 1, "permanent": true, "length_km": 2.6 }, "geometry": { "type": "LineString", "coordinates": [ [ 2.33206, 48.52009 ], [ 2.33787, 48.52165 ], [ 2.33968, 48.52387 ], [ 2.33963, 48.52537 ], [ 2.33642, 48.52695 ], [ 2.33215, 48.53229 ], [ 2.334, 48.53683 ] ] } },
{ "type": "Feature", "properties": { "name": "la Grande Boëlle", "weight_class": 1, "permanent": true, "length_km": 4.3 }, "geometry": { "type": "LineString", "coordinates": [ [ 2.16641, 48.56215 ], [ 2.17606, 48.56698 ], [ 2.18104, 48.56818 ], [ 2.18355, 48.57047 ], [ 2.18573, 48.56961 ], [ 2.18672, 48.57207 ], [ 2.1887, 48.57223 ], [ 2.19923, 48.57953 ], [ 2.20896, 48.58029 ] ] } },
{ "type": "Feature", "properties": { "name": "Cours d'Eau 01 de la Commune d'Arpajon", "weight_class": 1, "permanent": true, "length_km": 2.8 }, "geometry": { "type": "LineString", "coordinates": [ [ 2.21218, 48.5838 ], [ 2.22709, 48.58548 ], [ 2.22686, 48.58658 ], [ 2.22834, 48.58703 ], [ 2.22939, 48.58634 ], [ 2.23228, 48.58842 ], [ 2.2385, 48.59041 ], [ 2.2425, 48.59083 ], [ 2.24367, 48.5901 ] ] } },
{ "type": "Feature", "properties": { "name": "Fossé 01 de l'Ile Barrat", "weight_class": 1, "permanent": false, "length_km": 2.5 }, "geometry": { "type": "LineString", "coordinates": [ [ 2.23471, 48.55141 ], [ 2.251, 48.5527 ], [ 2.25776, 48.55187 ], [ 2.2588, 48.55327 ], [ 2.26296, 48.55303 ], [ 2.26546, 48.55438 ] ] } },
{ "type": "Feature", "properties": { "name": "Canal 01 de Château Morin", "weight_class": 1, "permanent": true, "length_km": 3.8 }, "geometry": { "type": "LineString", "coordinates": [ [ 2.20436, 48.48775 ], [ 2.2002, 48.48944 ], [ 2.20121, 48.49259 ], [ 2.2051, 48.497 ], [ 2.20686, 48.49706 ], [ 2.20928, 48.4957 ], [ 2.21107, 48.49689 ], [ 2.2117, 48.49768 ], [ 2.20975, 48.499 ], [ 2.21849, 48.50601 ], [ 2.21916, 48.50873 ], [ 2.22075, 48.50977 ] ] } },
{ "type": "Feature", "properties": { "name": "Fossé 01 du Bois du Chesnay", "weight_class": 1, "permanent": false, "length_km": 2.2 }, "geometry": { "type": "LineString", "coordinates": [ [ 2.24928, 48.53568 ], [ 2.24293, 48.53749 ], [ 2.23862, 48.53564 ], [ 2.23393, 48.53009 ], [ 2.23311, 48.5249 ] ] } },
{ "type": "Feature", "properties": { "name": "Fossé 01 de Gillevoisin", "weight_class": 1, "permanent": false, "length_km": 3.4 }, "geometry": { "type": "LineString", "coordinates": [ [ 2.21843, 48.52575 ], [ 2.22422, 48.52358 ], [ 2.22923, 48.52505 ], [ 2.23391, 48.52484 ], [ 2.23703, 48.5236 ], [ 2.23574, 48.52198 ], [ 2.23306, 48.52164 ], [ 2.22949, 48.5196 ], [ 2.22785, 48.51406 ], [ 2.22587, 48.51258 ], [ 2.2267, 48.51138 ] ] } },
{ "type": "Feature", "properties": { "name": "la Grande Boële", "weight_class": 1, "permanent": true, "length_km": 3.6 }, "geometry": { "type": "LineString", "coordinates": [ [ 2.26218, 48.59766 ], [ 2.26297, 48.60347 ], [ 2.27171, 48.61165 ], [ 2.27999, 48.61711 ], [ 2.29025, 48.61887 ] ] } },
{ "type": "Feature", "properties": { "name": "Fossé de la Grande Vidange", "weight_class": 1, "permanent": false, "length_km": 4.3 }, "geometry": { "type": "LineString", "coordinates": [ [ 2.21204, 48.61255 ], [ 2.2215, 48.60664 ], [ 2.24944, 48.59909 ], [ 2.25262, 48.59896 ], [ 2.26005, 48.59504 ] ] } },
{ "type": "Feature", "properties": { "name": "Ru Misery", "weight_class": 1, "permanent": true, "length_km": 7.4 }, "geometry": { "type": "LineString", "coordinates": [ [ 2.33301, 48.58963 ], [ 2.32905, 48.58211 ], [ 2.34188, 48.57918 ], [ 2.34932, 48.57639 ], [ 2.35275, 48.57762 ], [ 2.35593, 48.57737 ], [ 2.35748, 48.57458 ], [ 2.35666, 48.57226 ], [ 2.35829, 48.56819 ], [ 2.36768, 48.56607 ], [ 2.36861, 48.56486 ], [ 2.37512, 48.563 ], [ 2.3809, 48.56352 ], [ 2.38762, 48.56271 ], [ 2.39081, 48.55749 ] ] } },
{ "type": "Feature", "properties": { "name": "Ruisseau du Mauvais Temps", "weight_class": 1, "permanent": false, "length_km": 7.8 }, "geometry": { "type": "LineString", "coordinates": [ [ 2.24944, 48.56073 ], [ 2.25793, 48.5557 ], [ 2.27397, 48.55345 ], [ 2.28231, 48.54604 ], [ 2.28565, 48.54431 ], [ 2.29893, 48.54259 ], [ 2.31542, 48.53824 ], [ 2.32318, 48.53994 ], [ 2.32382, 48.54072 ], [ 2.33868, 48.53646 ] ] } },
{ "type": "Feature", "properties": { "name": "la Renarde", "weight_class": 1, "permanent": true, "length_km": 8.5 }, "geometry": { "type": "LineString", "coordinates": [ [ 2.12186, 48.5125 ], [ 2.12403, 48.51321 ], [ 2.12514, 48.51533 ], [ 2.13095, 48.51744 ], [ 2.13884, 48.52201 ], [ 2.14106, 48.52466 ], [ 2.1479, 48.52601 ], [ 2.14876, 48.52961 ], [ 2.15135, 48.53056 ], [ 2.15161, 48.53169 ], [ 2.15504, 48.53253 ], [ 2.15688, 48.53677 ], [ 2.15974, 48.53712 ], [ 2.16943, 48.54381 ], [ 2.17262, 48.54738 ], [ 2.17245, 48.55571 ], [ 2.17725, 48.55891 ], [ 2.18055, 48.56399 ], [ 2.18089, 48.56655 ] ] } },
{ "type": "Feature", "properties": { "name": "la Vidange", "weight_class": 1, "permanent": false, "length_km": 3.6 }, "geometry": { "type": "LineString", "coordinates": [ [ 2.21848, 48.55238 ], [ 2.22011, 48.55667 ], [ 2.21743, 48.56535 ], [ 2.21835, 48.56678 ], [ 2.21695, 48.57025 ], [ 2.21732, 48.57384 ], [ 2.21078, 48.5819 ] ] } },
{ "type": "Feature", "properties": { "name": "la Juine", "weight_class": 2, "permanent": true, "length_km": 52.2 }, "geometry": { "type": "MultiLineString", "coordinates": [ [ [ 2.09232, 48.29675 ], [ 2.09083, 48.29656 ], [ 2.08983, 48.29754 ], [ 2.09079, 48.29916 ], [ 2.09341, 48.3015 ], [ 2.0976, 48.30277 ], [ 2.09765, 48.30359 ], [ 2.09497, 48.30501 ], [ 2.09026, 48.30583 ], [ 2.08899, 48.30849 ], [ 2.09428, 48.31127 ], [ 2.09339, 48.31698 ], [ 2.09537, 48.31843 ], [ 2.09498, 48.31914 ], [ 2.09379, 48.31851 ], [ 2.09215, 48.31933 ], [ 2.09458, 48.32087 ], [ 2.0959, 48.32866 ], [ 2.10332, 48.33361 ], [ 2.10424, 48.339 ], [ 2.11206, 48.34857 ], [ 2.11336, 48.34833 ], [ 2.11264, 48.3509 ], [ 2.11474, 48.35339 ], [ 2.12031, 48.35369 ], [ 2.12198, 48.35454 ], [ 2.12338, 48.35635 ], [ 2.12203, 48.35792 ], [ 2.12267, 48.36102 ], [ 2.13218, 48.36326 ], [ 2.13491, 48.36273 ], [ 2.14039, 48.36348 ], [ 2.14632, 48.36807 ], [ 2.14935, 48.37888 ], [ 2.1475, 48.38241 ], [ 2.14178, 48.38612 ], [ 2.14253, 48.38672 ], [ 2.14133, 48.38869 ], [ 2.14196, 48.39108 ], [ 2.14377, 48.39124 ], [ 2.14295, 48.39221 ], [ 2.144, 48.39592 ], [ 2.14543, 48.396 ], [ 2.14439, 48.39869 ], [ 2.1456, 48.40072 ], [ 2.14445, 48.40185 ], [ 2.14577, 48.4038 ], [ 2.14419, 48.4082 ], [ 2.14807, 48.41081 ], [ 2.15204, 48.41747 ], [ 2.15627, 48.41935 ], [ 2.16911, 48.42878 ], [ 2.17486, 48.43951 ], [ 2.17413, 48.44044 ], [ 2.1763, 48.44481 ], [ 2.18257, 48.4502 ], [ 2.18025, 48.45225 ], [ 2.1836, 48.45573 ], [ 2.18519, 48.45583 ], [ 2.18381, 48.45746 ], [ 2.18432, 48.45901 ], [ 2.18569, 48.45961 ], [ 2.19382, 48.47305 ], [ 2.19203, 48.47569 ], [ 2.19245, 48.47932 ], [ 2.19577, 48.48294 ], [ 2.20157, 48.48404 ], [ 2.20206, 48.48665 ], [ 2.20374, 48.48665 ], [ 2.20595, 48.48894 ] ], [ [ 2.20595, 48.48894 ], [ 2.21473, 48.4945 ] ], [ [ 2.20595, 48.48894 ], [ 2.20592, 48.48982 ], [ 2.20778, 48.49038 ], [ 2.21051, 48.49353 ], [ 2.21445, 48.49594 ] ], [ [ 2.21445, 48.49594 ], [ 2.21637, 48.49886 ], [ 2.2222, 48.50326 ] ], [ [ 2.21473, 48.4945 ], [ 2.21445, 48.49594 ] ], [ [ 2.21473, 48.4945 ], [ 2.2159, 48.49439 ], [ 2.21779, 48.49571 ], [ 2.2222, 48.50326 ] ], [ [ 2.2222, 48.50326 ], [ 2.22277, 48.50499 ], [ 2.2216, 48.50659 ], [ 2.22397, 48.50992 ], [ 2.22803, 48.51152 ], [ 2.22851, 48.51262 ], [ 2.23084, 48.51167 ], [ 2.23696, 48.51164 ], [ 2.24234, 48.51362 ], [ 2.2428, 48.51517 ], [ 2.24526, 48.51533 ], [ 2.24833, 48.5145 ], [ 2.24924, 48.51501 ], [ 2.25081, 48.51395 ], [ 2.25725, 48.51428 ], [ 2.26, 48.5162 ], [ 2.26552, 48.51758 ], [ 2.26904, 48.52134 ], [ 2.2699, 48.52391 ], [ 2.29058, 48.52011 ], [ 2.29559, 48.52345 ], [ 2.30522, 48.52414 ], [ 2.30685, 48.52328 ], [ 2.30661, 48.5222 ], [ 2.31183, 48.52035 ], [ 2.31356, 48.52173 ], [ 2.31819, 48.52085 ], [ 2.31952, 48.52166 ], [ 2.3239, 48.52046 ], [ 2.32431, 48.51859 ], [ 2.32626, 48.51868 ], [ 2.32585, 48.51691 ], [ 2.33854, 48.52096 ], [ 2.34314, 48.52616 ], [ 2.34191, 48.52821 ], [ 2.33862, 48.52948 ], [ 2.33662, 48.53245 ], [ 2.33846, 48.53631 ], [ 2.34185, 48.53806 ], [ 2.34378, 48.53749 ], [ 2.34289, 48.5384 ], [ 2.34433, 48.53862 ], [ 2.35305, 48.53698 ] ], [ [ 2.35305, 48.53698 ], [ 2.35706, 48.53721 ], [ 2.35942, 48.5348 ] ], [ [ 2.35305, 48.53698 ], [ 2.35397, 48.53603 ], [ 2.3563, 48.5361 ], [ 2.35942, 48.5348 ] ], [ [ 2.35942, 48.5348 ], [ 2.36212, 48.53482 ], [ 2.36459, 48.53682 ], [ 2.37046, 48.53599 ], [ 2.37214, 48.5368 ] ] ] } },
{ "type": "Feature", "properties": { "name": "Ruisseau d'Huison", "weight_class": 1, "permanent": true, "length_km": 3.5 }, "geometry": { "type": "LineString", "coordinates": [ [ 2.32026, 48.45929 ], [ 2.33077, 48.47407 ], [ 2.34188, 48.47997 ], [ 2.34139, 48.48044 ], [ 2.34501, 48.4804 ] ] } },
{ "type": "Feature", "properties": { "name": "la Chalouette", "weight_class": 1, "permanent": true, "length_km": 21.5 }, "geometry": { "type": "MultiLineString", "coordinates": [ [ [ 2.02558, 48.38444 ], [ 2.02548, 48.38758 ], [ 2.02855, 48.3909 ], [ 2.02849, 48.39292 ], [ 2.03309, 48.39642 ], [ 2.03222, 48.40139 ], [ 2.04128, 48.40659 ] ], [ [ 2.04128, 48.40659 ], [ 2.04203, 48.40664 ], [ 2.04815, 48.40931 ], [ 2.05009, 48.41355 ], [ 2.05425, 48.41499 ], [ 2.05618, 48.41775 ] ], [ [ 2.04128, 48.40659 ], [ 2.04545, 48.40914 ], [ 2.05036, 48.41557 ], [ 2.05618, 48.41775 ] ], [ [ 2.05618, 48.41775 ], [ 2.06447, 48.42053 ], [ 2.06857, 48.4258 ], [ 2.07174, 48.42798 ], [ 2.0771, 48.4291 ] ], [ [ 2.0771, 48.4291 ], [ 2.0776, 48.42989 ], [ 2.07919, 48.42914 ], [ 2.07962, 48.42984 ], [ 2.08518, 48.42977 ] ], [ [ 2.0771, 48.4291 ], [ 2.08149, 48.42764 ], [ 2.08518, 48.42977 ] ], [ [ 2.08518, 48.42977 ], [ 2.08674, 48.43013 ], [ 2.08764, 48.42875 ], [ 2.09398, 48.42707 ], [ 2.09591, 48.42751 ], [ 2.09604, 48.42669 ], [ 2.09801, 48.42725 ], [ 2.09969, 48.42627 ], [ 2.101, 48.42751 ], [ 2.11112, 48.42661 ], [ 2.12088, 48.42436 ], [ 2.12563, 48.42453 ], [ 2.12864, 48.42574 ], [ 2.13356, 48.42426 ], [ 2.13909, 48.42541 ], [ 2.14128, 48.42441 ], [ 2.14946, 48.42722 ], [ 2.15689, 48.43188 ], [ 2.15872, 48.43252 ], [ 2.16118, 48.43188 ], [ 2.16531, 48.43439 ], [ 2.16673, 48.43427 ], [ 2.17202, 48.44062 ], [ 2.17123, 48.44132 ], [ 2.1743, 48.44578 ], [ 2.17276, 48.44645 ], [ 2.17782, 48.45143 ], [ 2.18023, 48.45194 ] ] ] } },
{ "type": "Feature", "properties": { "name": "le Juineteau", "weight_class": 2, "permanent": true, "length_km": 3.8 }, "geometry": { "type": "MultiLineString", "coordinates": [ [ [ 2.15098, 48.41508 ], [ 2.14981, 48.41658 ], [ 2.15201, 48.42021 ], [ 2.15594, 48.42126 ], [ 2.16124, 48.4248 ] ], [ [ 2.16124, 48.4248 ], [ 2.15861, 48.42744 ], [ 2.16261, 48.42593 ] ], [ [ 2.16124, 48.4248 ], [ 2.16145, 48.42476 ], [ 2.16178, 48.42485 ], [ 2.16261, 48.42593 ] ], [ [ 2.16261, 48.42593 ], [ 2.16825, 48.43177 ], [ 2.17069, 48.43213 ] ] ] } },
{ "type": "Feature", "properties": { "name": "Rigole des Yvelines", "weight_class": 1, "permanent": true, "length_km": 2.4 }, "geometry": { "type": "LineString", "coordinates": [ [ 2.13911, 48.72443 ], [ 2.15855, 48.74181 ] ] } },
{ "type": "Feature", "properties": { "name": "Rigole de Saint-Aubin", "weight_class": 1, "permanent": true, "length_km": 3.2 }, "geometry": { "type": "LineString", "coordinates": [ [ 2.13976, 48.70748 ], [ 2.1378, 48.70795 ], [ 2.13678, 48.70974 ], [ 2.1327, 48.70972 ], [ 2.1299, 48.71279 ], [ 2.12958, 48.71607 ], [ 2.12628, 48.71628 ], [ 2.12783, 48.72 ], [ 2.13221, 48.72102 ], [ 2.13911, 48.72443 ] ] } },
{ "type": "Feature", "properties": { "name": "Fossé 01 du Carillon", "weight_class": 1, "permanent": false, "length_km": 2.5 }, "geometry": { "type": "LineString", "coordinates": [ [ 2.0969, 48.67598 ], [ 2.08591, 48.68045 ], [ 2.06668, 48.68476 ] ] } },
{ "type": "Feature", "properties": { "name": "Cours d'Eau 01 du Bois du Chapeau à Cornes", "weight_class": 1, "permanent": true, "length_km": 2.7 }, "geometry": { "type": "LineString", "coordinates": [ [ 2.1353, 48.61861 ], [ 2.14223, 48.61012 ], [ 2.14759, 48.61064 ], [ 2.15125, 48.60993 ], [ 2.15303, 48.6068 ], [ 2.15668, 48.60367 ] ] } },
{ "type": "Feature", "properties": { "name": "Rigole de Corbeville", "weight_class": 1, "permanent": false, "length_km": 5.4 }, "geometry": { "type": "LineString", "coordinates": [ [ 2.13862, 48.72387 ], [ 2.14964, 48.72185 ], [ 2.15324, 48.72018 ], [ 2.15674, 48.71691 ], [ 2.166, 48.71558 ], [ 2.1687, 48.71652 ], [ 2.17955, 48.71512 ], [ 2.19083, 48.7133 ], [ 2.19505, 48.71139 ], [ 2.20142, 48.71124 ], [ 2.2049, 48.71022 ] ] } },
{ "type": "Feature", "properties": { "name": "Aqueduc de Saclay", "weight_class": 1, "permanent": false, "length_km": 2.8 }, "geometry": { "type": "LineString", "coordinates": [ [ 2.12071, 48.75262 ], [ 2.12337, 48.75058 ], [ 2.13864, 48.74557 ], [ 2.14478, 48.74504 ], [ 2.15462, 48.7427 ] ] } },
{ "type": "Feature", "properties": { "name": "Rigole de Châteaufort", "weight_class": 1, "permanent": true, "length_km": 3.5 }, "geometry": { "type": "LineString", "coordinates": [ [ 2.09795, 48.73423 ], [ 2.09895, 48.73303 ], [ 2.11375, 48.73102 ], [ 2.11771, 48.72905 ], [ 2.12059, 48.72948 ], [ 2.12682, 48.72577 ], [ 2.13145, 48.72624 ], [ 2.13911, 48.72443 ] ] } },
{ "type": "Feature", "properties": { "name": "la Mérantaise", "weight_class": 1, "permanent": true, "length_km": 5.1 }, "geometry": { "type": "MultiLineString", "coordinates": [ [ [ 2.1064, 48.72766 ], [ 2.11025, 48.72307 ], [ 2.11474, 48.72023 ], [ 2.1197, 48.71883 ], [ 2.12114, 48.71711 ] ], [ [ 2.12114, 48.71711 ], [ 2.12119, 48.71299 ], [ 2.12224, 48.71266 ] ], [ [ 2.12114, 48.71711 ], [ 2.12244, 48.71614 ], [ 2.12224, 48.71266 ] ], [ [ 2.12224, 48.71266 ], [ 2.1248, 48.70888 ], [ 2.12435, 48.70744 ], [ 2.13058, 48.70511 ], [ 2.1316, 48.70389 ], [ 2.13111, 48.69937 ], [ 2.13263, 48.6985 ] ] ] } },
{ "type": "Feature", "properties": { "name": "Ruisseau de Vauhalan", "weight_class": 1, "permanent": true, "length_km": 10.9 }, "geometry": { "type": "MultiLineString", "coordinates": [ [ [ 2.11822, 48.74661 ], [ 2.12257, 48.74291 ], [ 2.12256, 48.74113 ], [ 2.13271, 48.73929 ], [ 2.1343, 48.73753 ] ], [ [ 2.13512, 48.73739 ], [ 2.13624, 48.73731 ], [ 2.14358, 48.74237 ], [ 2.14755, 48.7432 ], [ 2.15855, 48.74181 ], [ 2.16007, 48.74252 ], [ 2.17032, 48.7419 ], [ 2.17394, 48.74052 ], [ 2.177, 48.74187 ], [ 2.18234, 48.7412 ], [ 2.19841, 48.73456 ], [ 2.20287, 48.73473 ], [ 2.20552, 48.73386 ], [ 2.20627, 48.73234 ], [ 2.20941, 48.73207 ], [ 2.21855, 48.73602 ], [ 2.22929, 48.73634 ], [ 2.23497, 48.73478 ], [ 2.24019, 48.73764 ] ] ] } },
{ "type": "Feature", "properties": { "name": "Ruisseau de Montabé", "weight_class": 1, "permanent": false, "length_km": 3.1 }, "geometry": { "type": "LineString", "coordinates": [ [ 2.0711, 48.66897 ], [ 2.06831, 48.67042 ], [ 2.0651, 48.67048 ], [ 2.06398, 48.67186 ], [ 2.06972, 48.67872 ], [ 2.06949, 48.68087 ], [ 2.0635, 48.68875 ] ] } },
{ "type": "Feature", "properties": { "name": "la Salmouille", "weight_class": 1, "permanent": true, "length_km": 17.1 }, "geometry": { "type": "LineString", "coordinates": [ [ 2.10733, 48.67222 ], [ 2.11268, 48.67161 ], [ 2.12237, 48.66811 ], [ 2.12401, 48.66855 ], [ 2.13638, 48.66581 ], [ 2.15636, 48.65865 ], [ 2.16208, 48.6595 ], [ 2.16508, 48.65865 ], [ 2.17061, 48.66097 ], [ 2.17463, 48.65966 ], [ 2.17908, 48.6604 ], [ 2.18073, 48.65824 ], [ 2.18381, 48.65665 ], [ 2.18518, 48.65749 ], [ 2.18643, 48.65702 ], [ 2.19174, 48.65319 ], [ 2.19607, 48.65627 ], [ 2.19971, 48.65419 ], [ 2.20425, 48.65412 ], [ 2.21255, 48.65194 ], [ 2.22035, 48.64464 ], [ 2.22577, 48.64163 ], [ 2.23276, 48.64039 ], [ 2.234, 48.64099 ], [ 2.24269, 48.63726 ], [ 2.25685, 48.63708 ], [ 2.26263, 48.63571 ], [ 2.26624, 48.63208 ], [ 2.27314, 48.62779 ], [ 2.27759, 48.62694 ], [ 2.28508, 48.62328 ], [ 2.29025, 48.61887 ], [ 2.29162, 48.61888 ] ] } },
{ "type": "Feature", "properties": { "name": "la Gloriette", "weight_class": 1, "permanent": false, "length_km": 7.4 }, "geometry": { "type": "MultiLineString", "coordinates": [ [ [ 2.00213, 48.65015 ], [ 2.01459, 48.6472 ], [ 2.0184, 48.64507 ], [ 2.02668, 48.64289 ], [ 2.03661, 48.64196 ], [ 2.04719, 48.63864 ], [ 2.04828, 48.63749 ], [ 2.04762, 48.63513 ], [ 2.0519, 48.63307 ], [ 2.04649, 48.62936 ], [ 2.04792, 48.62884 ], [ 2.04604, 48.62496 ], [ 2.0469, 48.62041 ], [ 2.04458, 48.61674 ] ], [ [ 2.01993, 48.58285 ], [ 2.02035, 48.58062 ], [ 2.0224, 48.579 ] ] ] } },
{ "type": "Feature", "properties": { "name": "Ruisseau de Prédecelle", "weight_class": 1, "permanent": false, "length_km": 18.4 }, "geometry": { "type": "LineString", "coordinates": [ [ 2.00402, 48.66291 ], [ 2.04685, 48.65042 ], [ 2.05218, 48.65027 ], [ 2.0574, 48.64874 ], [ 2.05989, 48.64907 ], [ 2.07094, 48.64694 ], [ 2.07575, 48.64816 ], [ 2.07793, 48.64704 ], [ 2.08954, 48.64576 ], [ 2.10199, 48.64071 ], [ 2.10998, 48.64129 ], [ 2.1165, 48.63972 ], [ 2.11844, 48.63786 ], [ 2.11908, 48.63503 ], [ 2.11814, 48.634 ], [ 2.1207, 48.63067 ], [ 2.11762, 48.62514 ], [ 2.11741, 48.62124 ], [ 2.11864, 48.6181 ], [ 2.11819, 48.61483 ], [ 2.1195, 48.6145 ], [ 2.12179, 48.61065 ], [ 2.12174, 48.60396 ], [ 2.12315, 48.60281 ], [ 2.12209, 48.60134 ], [ 2.12213, 48.59557 ], [ 2.11861, 48.59187 ], [ 2.11112, 48.58895 ], [ 2.10799, 48.5826 ], [ 2.10502, 48.58079 ], [ 2.10459, 48.57938 ], [ 2.10678, 48.57541 ], [ 2.10982, 48.57463 ], [ 2.11694, 48.57465 ] ] } },
{ "type": "Feature", "properties": { "name": "Ruisseau du Petit Muce", "weight_class": 1, "permanent": true, "length_km": 2.2 }, "geometry": { "type": "LineString", "coordinates": [ [ 2.09053, 48.62934 ], [ 2.09509, 48.62905 ], [ 2.1, 48.62705 ], [ 2.11133, 48.62476 ], [ 2.11746, 48.62448 ] ] } },
{ "type": "Feature", "properties": { "name": "Fossé 01 de Villoure", "weight_class": 1, "permanent": false, "length_km": 2.2 }, "geometry": { "type": "LineString", "coordinates": [ [ 2.01997, 48.54501 ], [ 2.02359, 48.54714 ], [ 2.02755, 48.54714 ], [ 2.03183, 48.55265 ], [ 2.03202, 48.5549 ], [ 2.03001, 48.55747 ], [ 2.03054, 48.56001 ] ] } },
{ "type": "Feature", "properties": { "name": "Fossé 01 des Coutières", "weight_class": 1, "permanent": false, "length_km": 2.5 }, "geometry": { "type": "LineString", "coordinates": [ [ 2.07116, 48.51955 ], [ 2.07718, 48.524 ], [ 2.07887, 48.52909 ], [ 2.08175, 48.53181 ], [ 2.08027, 48.53925 ] ] } },
{ "type": "Feature", "properties": { "name": "Bras la Chalouette", "weight_class": 1, "permanent": true, "length_km": 2.4 }, "geometry": { "type": "LineString", "coordinates": [ [ 2.05627, 48.4179 ], [ 2.05717, 48.41947 ], [ 2.0633, 48.42141 ], [ 2.06469, 48.42495 ], [ 2.06755, 48.42594 ], [ 2.06873, 48.42786 ], [ 2.07389, 48.43065 ], [ 2.07698, 48.42973 ] ] } },
{ "type": "Feature", "properties": { "name": "le Fagot", "weight_class": 1, "permanent": true, "length_km": 3.2 }, "geometry": { "type": "LineString", "coordinates": [ [ 2.07672, 48.59674 ], [ 2.07944, 48.59366 ], [ 2.08437, 48.59063 ], [ 2.0854, 48.58397 ], [ 2.09055, 48.58213 ], [ 2.10502, 48.58079 ] ] } },
{ "type": "Feature", "properties": { "name": "Ruisseau de Rouillon", "weight_class": 1, "permanent": false, "length_km": 5.0 }, "geometry": { "type": "LineString", "coordinates": [ [ 1.98339, 48.55832 ], [ 1.99003, 48.55595 ], [ 1.9957, 48.55735 ], [ 1.99833, 48.55537 ], [ 2.00476, 48.55537 ], [ 2.01958, 48.55819 ], [ 2.02747, 48.55857 ], [ 2.0375, 48.56404 ], [ 2.03999, 48.56774 ] ] } },
{ "type": "Feature", "properties": { "name": "Ruisseau de l'Étang de la Muette", "weight_class": 1, "permanent": true, "length_km": 6.3 }, "geometry": { "type": "LineString", "coordinates": [ [ 1.96894, 48.50684 ], [ 1.98771, 48.51626 ], [ 2.00147, 48.51793 ], [ 2.00525, 48.5165 ], [ 2.0059, 48.51456 ], [ 2.01657, 48.51724 ], [ 2.02215, 48.52121 ], [ 2.02935, 48.52306 ], [ 2.02873, 48.52617 ], [ 2.03286, 48.52799 ] ] } },
{ "type": "Feature", "properties": { "name": "la Mare des Pres", "weight_class": 1, "permanent": false, "length_km": 3.2 }, "geometry": { "type": "LineString", "coordinates": [ [ 1.98537, 48.49642 ], [ 1.98691, 48.49775 ], [ 1.99453, 48.50013 ], [ 1.99532, 48.50178 ], [ 2.00028, 48.50285 ], [ 2.00089, 48.50421 ], [ 1.99667, 48.51189 ], [ 2.00532, 48.51457 ] ] } },
{ "type": "Feature", "properties": { "name": "la Louette", "weight_class": 1, "permanent": true, "length_km": 7.6 }, "geometry": { "type": "LineString", "coordinates": [ [ 2.06411, 48.43887 ], [ 2.06614, 48.43833 ], [ 2.06777, 48.43568 ], [ 2.07309, 48.43415 ], [ 2.07474, 48.43282 ], [ 2.07422, 48.4321 ], [ 2.08006, 48.43026 ], [ 2.08879, 48.43049 ], [ 2.09355, 48.42845 ], [ 2.10758, 48.42752 ], [ 2.11654, 48.42806 ], [ 2.1264, 48.4264 ], [ 2.14698, 48.42951 ], [ 2.1513, 48.42865 ] ] } },
{ "type": "Feature", "properties": { "name": "l'Éclimont", "weight_class": 1, "permanent": true, "length_km": 8.7 }, "geometry": { "type": "LineString", "coordinates": [ [ 2.17731, 48.32711 ], [ 2.17682, 48.32977 ], [ 2.17367, 48.33032 ], [ 2.17547, 48.33616 ], [ 2.17363, 48.33926 ], [ 2.17107, 48.34022 ], [ 2.16799, 48.33945 ], [ 2.16599, 48.34367 ], [ 2.15947, 48.34451 ], [ 2.1579, 48.34695 ], [ 2.15334, 48.35012 ], [ 2.15246, 48.3551 ], [ 2.15037, 48.35599 ], [ 2.14554, 48.36112 ], [ 2.14516, 48.36329 ], [ 2.15222, 48.37285 ], [ 2.15247, 48.37455 ], [ 2.14979, 48.37529 ], [ 2.15072, 48.37653 ], [ 2.14936, 48.37843 ] ] } },
{ "type": "Feature", "properties": { "name": "la Marette", "weight_class": 1, "permanent": true, "length_km": 4.3 }, "geometry": { "type": "LineString", "coordinates": [ [ 2.08051, 48.35197 ], [ 2.08346, 48.35358 ], [ 2.08971, 48.35999 ], [ 2.09927, 48.36284 ], [ 2.10293, 48.36252 ], [ 2.10374, 48.36409 ], [ 2.11271, 48.3617 ], [ 2.12422, 48.36169 ] ] } },
{ "type": "Feature", "properties": { "name": "la Seine", "weight_class": 4, "permanent": true, "length_km": 26.7 }, "geometry": { "type": "MultiLineString", "coordinates": [ [ [ 2.52216, 48.5734 ], [ 2.49772, 48.56717 ], [ 2.4884, 48.56836 ], [ 2.48329, 48.57108 ], [ 2.48067, 48.57452 ], [ 2.48009, 48.5778 ], [ 2.4854, 48.58859 ], [ 2.4857, 48.59774 ], [ 2.4909, 48.60311 ], [ 2.49065, 48.60691 ], [ 2.48805, 48.61056 ], [ 2.47934, 48.61677 ], [ 2.47223, 48.62414 ], [ 2.46091, 48.63067 ], [ 2.45509, 48.6367 ], [ 2.44878, 48.63924 ], [ 2.43938, 48.6475 ], [ 2.41729, 48.66011 ], [ 2.4101, 48.66593 ], [ 2.40153, 48.66984 ], [ 2.38702, 48.67932 ], [ 2.38588, 48.68409 ], [ 2.38746, 48.68822 ], [ 2.39029, 48.69228 ], [ 2.40016, 48.70146 ], [ 2.40561, 48.71253 ], [ 2.41858, 48.72002 ] ], [ [ 2.54547, 48.56259 ], [ 2.54812, 48.56504 ], [ 2.54846, 48.56697 ], [ 2.54564, 48.5708 ], [ 2.53909, 48.57314 ], [ 2.52512, 48.57344 ] ] ] } },
{ "type": "Feature", "properties": { "name": "l'Yvette", "weight_class": 2, "permanent": true, "length_km": 23.4 }, "geometry": { "type": "LineString", "coordinates": [ [ 2.09353, 48.70445 ], [ 2.09611, 48.70291 ], [ 2.10135, 48.70292 ], [ 2.10385, 48.70199 ], [ 2.10431, 48.70294 ], [ 2.10844, 48.70255 ], [ 2.11782, 48.70042 ], [ 2.1211, 48.70103 ], [ 2.1251, 48.69982 ], [ 2.12743, 48.7009 ], [ 2.13059, 48.69801 ], [ 2.13629, 48.69991 ], [ 2.14422, 48.69812 ], [ 2.15341, 48.69731 ], [ 2.15386, 48.69842 ], [ 2.16097, 48.70006 ], [ 2.16578, 48.69974 ], [ 2.17289, 48.70117 ], [ 2.18203, 48.69937 ], [ 2.18436, 48.70042 ], [ 2.19531, 48.70076 ], [ 2.20598, 48.70325 ], [ 2.21165, 48.70183 ], [ 2.22524, 48.70188 ], [ 2.23566, 48.70083 ], [ 2.24056, 48.70235 ], [ 2.24542, 48.70794 ], [ 2.25258, 48.70831 ], [ 2.25488, 48.70669 ], [ 2.26082, 48.7065 ], [ 2.26732, 48.70475 ], [ 2.26893, 48.70072 ], [ 2.27246, 48.69868 ], [ 2.27222, 48.69648 ], [ 2.27602, 48.69445 ], [ 2.28216, 48.6958 ], [ 2.29624, 48.69555 ], [ 2.29869, 48.69687 ], [ 2.30448, 48.69506 ], [ 2.30681, 48.69198 ], [ 2.31662, 48.68805 ], [ 2.31866, 48.68534 ], [ 2.32276, 48.68334 ], [ 2.32776, 48.67886 ], [ 2.33718, 48.67665 ], [ 2.33805, 48.67511 ], [ 2.33547, 48.67207 ], [ 2.33845, 48.66759 ] ] } },
{ "type": "Feature", "properties": { "name": "la Rémarde", "weight_class": 1, "permanent": true, "length_km": 20.3 }, "geometry": { "type": "MultiLineString", "coordinates": [ [ [ 2.02203, 48.57896 ], [ 2.02603, 48.57637 ] ], [ [ 2.02603, 48.57637 ], [ 2.02671, 48.57396 ], [ 2.03128, 48.57048 ] ], [ [ 2.02603, 48.57637 ], [ 2.03128, 48.57048 ] ], [ [ 2.03128, 48.57048 ], [ 2.03736, 48.56751 ], [ 2.04365, 48.56796 ], [ 2.04914, 48.56573 ], [ 2.05615, 48.56743 ], [ 2.06515, 48.56692 ], [ 2.06947, 48.56752 ], [ 2.07054, 48.56859 ], [ 2.07425, 48.56849 ], [ 2.07755, 48.56997 ], [ 2.07752, 48.57082 ], [ 2.09098, 48.57429 ], [ 2.10325, 48.57436 ], [ 2.1061, 48.57353 ], [ 2.10664, 48.57251 ], [ 2.10952, 48.57219 ], [ 2.12055, 48.57542 ], [ 2.13713, 48.57412 ], [ 2.14542, 48.5766 ], [ 2.1467, 48.57612 ], [ 2.15265, 48.5771 ], [ 2.15633, 48.57838 ], [ 2.15815, 48.58005 ], [ 2.16344, 48.57952 ], [ 2.16653, 48.5811 ], [ 2.17084, 48.58081 ], [ 2.17117, 48.57937 ], [ 2.17365, 48.57857 ], [ 2.1836, 48.57884 ], [ 2.19206, 48.58225 ], [ 2.20048, 48.58375 ], [ 2.20895, 48.58406 ], [ 2.21316, 48.58557 ], [ 2.22213, 48.58595 ], [ 2.23791, 48.59073 ], [ 2.24648, 48.59134 ], [ 2.24757, 48.59033 ] ] ] } }
]
}
