{
"type": "FeatureCollection",
"name": "dep92_overview.geojson",
"crs": { "type": "name", "properties": { "name": "urn:ogc:def:crs:OGC:1.3:CRS84" } },
"xy_coordinate_resolution": 1e-05,
"features": [
{ "type": "Feature", "properties": { "name": "Bras de la Seine", "weight_class": 4, "permanent": true, "length_km": 6.7 }, "geometry": { "type": "LineString", "coordinates": [ [ 2.31982, 48.91594 ], [ 2.3345, 48.92868 ], [ 2.33696, 48.93535 ], [ 2.33491, 48.94156 ], [ 2.33093, 48.94406 ], [ 2.32415, 48.94598 ], [ 2.30311, 48.94997 ], [ 2.29097, 48.95097 ] ] } },
{ "type": "Feature", "properties": { "name": "Bras de la Seine", "weight_class": 4, "permanent": true, "length_km": 2.4 }, "geometry": { "type": "LineString", "coordinates": [ [ 2.25713, 48.88866 ], [ 2.28255, 48.90157 ] ] } },
{ "type": "Feature", "properties": { "name": "Bras de la Seine", "weight_class": 4, "permanent": true, "length_km": 2.8 }, "geometry": { "type": "LineString", "coordinates": [ [ 2.2358, 48.8706 ], [ 2.24301, 48.87378 ], [ 2.25194, 48.88208 ], [ 2.25796, 48.89028 ] ] } },
{ "type": "Feature", "properties": { "name": "la Bièvre", "weight_class": 1, "permanent": true, "length_km": 4.1 }, "geometry": { "type": "LineString", "coordinates": [ [ 2.27618, 48.74068 ], [ 2.28264, 48.74414 ], [ 2.28926, 48.7462 ], [ 2.29389, 48.74909 ], [ 2.29507, 48.74868 ], [ 2.29787, 48.75001 ], [ 2.30433, 48.75095 ], [ 2.30759, 48.75672 ], [ 2.31619, 48.7621 ] ] } },
{ "type": "Feature", "properties": { "name": "Bras de la Seine", "weight_class": 4, "permanent": true, "length_km": 2.5 }, "geometry": { "type": "LineString", "coordinates": [ [ 2.26051, 48.83164 ], [ 2.25966, 48.82723 ], [ 2.25445, 48.82379 ], [ 2.24436, 48.8206 ], [ 2.24009, 48.82051 ], [ 2.23611, 48.82155 ] ] } },
{ "type": "Feature", "properties": { "name": "Aqueduc de la Vanne", "weight_class": 1, "permanent": true, "length_km": 2.2 }, "geometry": { "type": "LineString", "coordinates": [ [ 2.32546, 48.80426 ], [ 2.32336, 48.80478 ], [ 2.32558, 48.80946 ], [ 2.334, 48.82112 ] ] } },
{ "type": "Feature", "properties": { "name": "Aqueduc du Loing", "weight_class": 1, "permanent": true, "length_km": 2.5 }, "geometry": { "type": "LineString", "coordinates": [ [ 2.32546, 48.80426 ], [ 2.32384, 48.80477 ], [ 2.32616, 48.8099 ], [ 2.33241, 48.81722 ], [ 2.33431, 48.82428 ] ] } },
{ "type": "Feature", "properties": { "name": "Bras de Marly", "weight_class": 4, "permanent": true, "length_km": 8.4 }, "geometry": { "type": "LineString", "coordinates": [ [ 2.21386, 48.91629 ], [ 2.20767, 48.91169 ], [ 2.19406, 48.90536 ], [ 2.18154, 48.90219 ], [ 2.1713, 48.8973 ], [ 2.16338, 48.88857 ], [ 2.16316, 48.88276 ], [ 2.15804, 48.88041 ], [ 2.15039, 48.87086 ], [ 2.14517, 48.86833 ], [ 2.1372, 48.86806 ] ] } },
{ "type": "Feature", "properties": { "name": "la Seine", "weight_class": 4, "permanent": true, "length_km": 23.3 }, "geometry": { "type": "MultiLineString", "coordinates": [ [ [ 2.2636, 48.94439 ], [ 2.24727, 48.9366 ], [ 2.2418, 48.93287 ] ], [ [ 2.26404, 48.83507 ], [ 2.25115, 48.82544 ], [ 2.23958, 48.82183 ], [ 2.23487, 48.82185 ], [ 2.22914, 48.82513 ], [ 2.22293, 48.83833 ], [ 2.22556, 48.84804 ], [ 2.22431, 48.8557 ], [ 2.22838, 48.86538 ], [ 2.23472, 48.87182 ], [ 2.26429, 48.89545 ], [ 2.27235, 48.89888 ], [ 2.28542, 48.90275 ], [ 2.30062, 48.91064 ], [ 2.31982, 48.91594 ] ], [ [ 2.33416, 48.94522 ], [ 2.31701, 48.94961 ], [ 2.30058, 48.95198 ], [ 2.28505, 48.95037 ], [ 2.27772, 48.9487 ] ] ] } },
{ "type": "Feature", "properties": { "name": "Aqueduc de l'Avre", "weight_class": 1, "permanent": true, "length_km": 9.1 }, "geometry": { "type": "LineString", "coordinates": [ [ 2.1037, 48.82333 ], [ 2.1219, 48.81979 ], [ 2.1489, 48.82749 ], [ 2.15623, 48.83297 ], [ 2.18669, 48.83713 ], [ 2.18938, 48.84283 ], [ 2.20794, 48.85279 ] ] } }
]
}
