{
"type": "FeatureCollection",
"name": "dep95_overview.geojson",
"crs": { "type": "name", "properties": { "name": "urn:ogc:def:crs:OGC:1.3:CRS84" } },
"xy_coordinate_resolution": 1e-05,
"features": [
{ "type": "Feature", "properties": { "name": "l'Oise", "weight_class": 4, "permanent": true, "length_km": 45.6 }, "geometry": { "type": "MultiLineString", "coordinates": [ [ [ 2.10306, 49.04887 ], [ 2.09739, 49.0409 ], [ 2.09134, 49.02518 ], [ 2.08898, 49.02165 ], [ 2.08625, 49.02005 ], [ 2.07836, 49.0189 ], [ 2.06859, 49.02191 ], [ 2.064, 49.02686 ], [ 2.06016, 49.02926 ], [ 2.05529, 49.03886 ], [ 2.0522, 49.04118 ], [ 2.04907, 49.04127 ], [ 2.04599, 49.0402 ], [ 2.04112, 49.03699 ], [ 2.03672, 49.03214 ], [ 2.03671, 49.02988 ], [ 2.0428, 49.02298 ], [ 2.06805, 49.00584 ], [ 2.0719, 49.0008 ] ], [ [ 2.11021, 49.05248 ], [ 2.10768, 49.0505 ], [ 2.10306, 49.04887 ] ], [ [ 2.11021, 49.05248 ], [ 2.10306, 49.04887 ] ], [ [ 2.14122, 49.0665 ], [ 2.13476, 49.06719 ], [ 2.13108, 49.06625 ], [ 2.11942, 49.05992 ], [ 2.11021, 49.05248 ] ], [ [ 2.15857, 49.06444 ], [ 2.14855, 49.06683 ], [ 2.14122, 49.0665 ] ], [ [ 2.15857, 49.06444 ], [ 2.15551, 49.0642 ], [ 2.15162, 49.06553 ], [ 2.14122, 49.0665 ] ], [ [ 2.20902, 49.10859 ], [ 2.20982, 49.09666 ], [ 2.20889, 49.09222 ], [ 2.20562, 49.08592 ], [ 2.19659, 49.07581 ], [ 2.19084, 49.0727 ], [ 2.17897, 49.0701 ], [ 2.16994, 49.06438 ], [ 2.16827, 49.06412 ], [ 2.16352, 49.06464 ], [ 2.15857, 49.06444 ] ], [ [ 2.21138, 49.11196 ], [ 2.20902, 49.10859 ] ], [ [ 2.21151, 49.11556 ], [ 2.20964, 49.11306 ], [ 2.20902, 49.10859 ] ], [ [ 2.21178, 49.11448 ], [ 2.21326, 49.11324 ], [ 2.21138, 49.11196 ] ], [ [ 2.21178, 49.11448 ], [ 2.21138, 49.11196 ] ], [ [ 2.22079, 49.12728 ], [ 2.21251, 49.12084 ], [ 2.21151, 49.11556 ] ], [ [ 2.21151, 49.11556 ], [ 2.21178, 49.11448 ] ], [ [ 2.22881, 49.12925 ], [ 2.22079, 49.12728 ] ], [ [ 2.22881, 49.12925 ], [ 2.22267, 49.12853 ], [ 2.22079, 49.12728 ] ], [ [ 2.31958, 49.14934 ], [ 2.29467, 49.15146 ], [ 2.2848, 49.1451 ], [ 2.26748, 49.13918 ], [ 2.25888, 49.13205 ], [ 2.23702, 49.13104 ], [ 2.23353, 49.12973 ], [ 2.23154, 49.1294 ], [ 2.22933, 49.12923 ], [ 2.22881, 49.12925 ] ], [ [ 2.34075, 49.14639 ], [ 2.3323, 49.14263 ], [ 2.32822, 49.1419 ], [ 2.31958, 49.14934 ] ], [ [ 2.34075, 49.14639 ], [ 2.32972, 49.14722 ], [ 2.31958, 49.14934 ] ], [ [ 2.36156, 49.14973 ], [ 2.35903, 49.14696 ], [ 2.35468, 49.14525 ], [ 2.34075, 49.14639 ] ] ] } },
{ "type": "Feature", "properties": { "name": "la Thève", "weight_class": 1, "permanent": true, "length_km": 3.8 }, "geometry": { "type": "MultiLineString", "coordinates": [ [ [ 2.38395, 49.1552 ], [ 2.38034, 49.15802 ], [ 2.37102, 49.15918 ], [ 2.36996, 49.15871 ], [ 2.37029, 49.15679 ], [ 2.36706, 49.15581 ], [ 2.3659, 49.15481 ], [ 2.36651, 49.15392 ], [ 2.36511, 49.15402 ], [ 2.36488, 49.15259 ], [ 2.36156, 49.14973 ] ], [ [ 2.39633, 49.15015 ], [ 2.39115, 49.1493 ], [ 2.38769, 49.1521 ] ] ] } },
{ "type": "Feature", "properties": { "name": "Ruisseau de la Bâtarde", "weight_class": 1, "permanent": false, "length_km": 3.2 }, "geometry": { "type": "MultiLineString", "coordinates": [ [ [ 2.55254, 49.11162 ], [ 2.55555, 49.11793 ], [ 2.55714, 49.12632 ] ], [ [ 2.55411, 49.10041 ], [ 2.55346, 49.10163 ], [ 2.55788, 49.10409 ], [ 2.55546, 49.10903 ], [ 2.55293, 49.1113 ] ] ] } },
{ "type": "Feature", "properties": { "name": "la Nouvelle Thève", "weight_class": 1, "permanent": true, "length_km": 6.5 }, "geometry": { "type": "MultiLineString", "coordinates": [ [ [ 2.37385, 49.14823 ], [ 2.37186, 49.14683 ] ], [ [ 2.45233, 49.14393 ], [ 2.44908, 49.14397 ], [ 2.42592, 49.14939 ], [ 2.40692, 49.14992 ], [ 2.40139, 49.14933 ], [ 2.39078, 49.14559 ], [ 2.38906, 49.14422 ], [ 2.38538, 49.14583 ], [ 2.38422, 49.14902 ], [ 2.37937, 49.14962 ] ] ] } },
{ "type": "Feature", "properties": { "name": "Ru de Fréval", "weight_class": 1, "permanent": true, "length_km": 2.7 }, "geometry": { "type": "LineString", "coordinates": [ [ 2.37827, 49.12106 ], [ 2.37745, 49.12287 ], [ 2.38039, 49.12408 ], [ 2.38059, 49.12613 ], [ 2.3773, 49.12864 ], [ 2.38079, 49.13493 ], [ 2.38672, 49.13861 ], [ 2.38716, 49.13978 ] ] } },
{ "type": "Feature", "properties": { "name": "l'Ysieux", "weight_class": 1, "permanent": true, "length_km": 15.2 }, "geometry": { "type": "MultiLineString", "coordinates": [ [ [ 2.3778, 49.14805 ], [ 2.37232, 49.14666 ], [ 2.36574, 49.152 ], [ 2.36401, 49.15241 ] ], [ [ 2.37898, 49.14516 ], [ 2.38037, 49.14554 ], [ 2.37954, 49.14662 ] ], [ [ 2.45162, 49.0991 ], [ 2.44945, 49.09846 ], [ 2.44505, 49.09915 ], [ 2.44235, 49.10189 ], [ 2.43983, 49.10249 ], [ 2.4418, 49.10755 ], [ 2.44488, 49.11109 ], [ 2.44515, 49.11403 ], [ 2.43672, 49.11711 ], [ 2.43195, 49.11993 ], [ 2.42518, 49.12757 ], [ 2.41721, 49.13294 ], [ 2.39917, 49.13701 ], [ 2.39806, 49.13609 ], [ 2.39132, 49.13713 ], [ 2.38464, 49.14248 ] ], [ [ 2.46162, 49.09765 ], [ 2.45404, 49.09784 ], [ 2.45162, 49.0991 ] ], [ [ 2.46162, 49.09765 ], [ 2.46208, 49.09857 ], [ 2.46097, 49.09881 ], [ 2.45162, 49.0991 ] ], [ [ 2.49675, 49.09329 ], [ 2.49166, 49.09524 ], [ 2.48741, 49.09425 ], [ 2.48108, 49.09469 ], [ 2.47855, 49.0941 ], [ 2.47194, 49.09597 ], [ 2.47062, 49.0952 ], [ 2.46869, 49.09593 ], [ 2.46842, 49.0954 ], [ 2.46162, 49.09765 ] ] ] } },
{ "type": "Feature", "properties": { "name": "Bras de l'Ysieux", "weight_class": 1, "permanent": true, "length_km": 2.5 }, "geometry": { "type": "LineString", "coordinates": [ [ 2.44316, 49.10618 ], [ 2.44771, 49.1105 ], [ 2.44982, 49.11389 ], [ 2.44866, 49.11441 ], [ 2.45136, 49.11712 ], [ 2.44074, 49.11724 ], [ 2.43952, 49.11643 ] ] } },
{ "type": "Feature", "properties": { "name": "Ru Popelin", "weight_class": 1, "permanent": true, "length_km": 3.1 }, "geometry": { "type": "LineString", "coordinates": [ [ 2.40803, 49.10933 ], [ 2.41524, 49.10805 ], [ 2.42347, 49.11067 ], [ 2.42612, 49.1093 ], [ 2.4276, 49.10636 ], [ 2.43328, 49.10639 ], [ 2.43348, 49.10577 ], [ 2.44173, 49.10708 ] ] } },
{ "type": "Feature", "properties": { "name": "Ru de la Fontaine Plamond", "weight_class": 1, "permanent": true, "length_km": 2.0 }, "geometry": { "type": "LineString", "coordinates": [ [ 2.42944, 48.97372 ], [ 2.41958, 48.96849 ], [ 2.41773, 48.96561 ], [ 2.41927, 48.96219 ], [ 2.41766, 48.96006 ] ] } },
{ "type": "Feature", "properties": { "name": "Fossé le Rhin", "weight_class": 1, "permanent": false, "length_km": 3.2 }, "geometry": { "type": "LineString", "coordinates": [ [ 2.52484, 49.03861 ], [ 2.52324, 49.03935 ], [ 2.51687, 49.03824 ], [ 2.49802, 49.03807 ], [ 2.48625, 49.03448 ], [ 2.48525, 49.03306 ] ] } },
{ "type": "Feature", "properties": { "name": "le Croult", "weight_class": 1, "permanent": true, "length_km": 19.2 }, "geometry": { "type": "MultiLineString", "coordinates": [ [ [ 2.41335, 48.95808 ], [ 2.4102, 48.95662 ], [ 2.40921, 48.95398 ] ], [ [ 2.43202, 49.07039 ], [ 2.43712, 49.07076 ], [ 2.44036, 49.07002 ], [ 2.43787, 49.0609 ], [ 2.44127, 49.05575 ], [ 2.44588, 49.05326 ], [ 2.45968, 49.05069 ], [ 2.46247, 49.04932 ], [ 2.47612, 49.03857 ], [ 2.48098, 49.03341 ], [ 2.48525, 49.03306 ], [ 2.48625, 49.03152 ], [ 2.48506, 49.02684 ], [ 2.47948, 49.02607 ], [ 2.47635, 49.02216 ], [ 2.47431, 49.01564 ], [ 2.47179, 49.01593 ], [ 2.4685, 49.01306 ], [ 2.4705, 49.01026 ], [ 2.46773, 48.99596 ], [ 2.46667, 48.9934 ], [ 2.46395, 48.99173 ], [ 2.46329, 48.98912 ], [ 2.46153, 48.98789 ], [ 2.44836, 48.98495 ], [ 2.44605, 48.98361 ], [ 2.43938, 48.98285 ], [ 2.43646, 48.98088 ], [ 2.43258, 48.98069 ], [ 2.42666, 48.97806 ], [ 2.42454, 48.97296 ], [ 2.41804, 48.97005 ], [ 2.41475, 48.96616 ], [ 2.41448, 48.96355 ], [ 2.41721, 48.96169 ], [ 2.41777, 48.95908 ] ] ] } },
{ "type": "Feature", "properties": { "name": "la Morée", "weight_class": 1, "permanent": true, "length_km": 3.7 }, "geometry": { "type": "MultiLineString", "coordinates": [ [ [ 2.45355, 48.95504 ], [ 2.44925, 48.95475 ], [ 2.44483, 48.95686 ], [ 2.4245, 48.95911 ], [ 2.42153, 48.96026 ], [ 2.41803, 48.95942 ] ], [ [ 2.46535, 48.95284 ], [ 2.45791, 48.95536 ], [ 2.45376, 48.95511 ] ] ] } },
{ "type": "Feature", "properties": { "name": "Ruisseau de la Marlière", "weight_class": 1, "permanent": true, "length_km": 2.6 }, "geometry": { "type": "LineString", "coordinates": [ [ 2.33853, 48.9985 ], [ 2.34313, 48.99841 ], [ 2.35217, 48.99645 ], [ 2.35913, 48.99626 ], [ 2.37131, 49.0005 ] ] } },
{ "type": "Feature", "properties": { "name": "Ru de Presles", "weight_class": 1, "permanent": true, "length_km": 9.7 }, "geometry": { "type": "LineString", "coordinates": [ [ 2.3331, 49.0967 ], [ 2.32578, 49.09298 ], [ 2.31974, 49.09428 ], [ 2.30853, 49.09977 ], [ 2.30543, 49.10263 ], [ 2.29868, 49.10426 ], [ 2.29308, 49.10834 ], [ 2.28698, 49.10875 ], [ 2.28642, 49.10961 ], [ 2.28336, 49.11011 ], [ 2.28201, 49.11314 ], [ 2.2826, 49.11663 ], [ 2.28671, 49.119 ], [ 2.28734, 49.12213 ], [ 2.2835, 49.12281 ], [ 2.28041, 49.12184 ], [ 2.27917, 49.12321 ], [ 2.27994, 49.12564 ], [ 2.27551, 49.12751 ], [ 2.27422, 49.12694 ], [ 2.27063, 49.12801 ], [ 2.2713, 49.13166 ], [ 2.26867, 49.13451 ], [ 2.26466, 49.13585 ], [ 2.26286, 49.13458 ] ] } },
{ "type": "Feature", "properties": { "name": "Ru de Jouy", "weight_class": 1, "permanent": true, "length_km": 3.2 }, "geometry": { "type": "LineString", "coordinates": [ [ 2.20209, 49.14672 ], [ 2.20601, 49.14491 ], [ 2.20814, 49.13716 ], [ 2.20994, 49.1352 ], [ 2.2077, 49.12905 ], [ 2.21177, 49.12609 ], [ 2.21726, 49.12396 ] ] } },
{ "type": "Feature", "properties": { "name": "Ru d'Hédouville", "weight_class": 1, "permanent": false, "length_km": 2.4 }, "geometry": { "type": "LineString", "coordinates": [ [ 2.17049, 49.15598 ], [ 2.166, 49.1528 ], [ 2.16419, 49.14735 ], [ 2.16629, 49.14165 ], [ 2.16312, 49.13694 ] ] } },
{ "type": "Feature", "properties": { "name": "Ru du Bois", "weight_class": 1, "permanent": true, "length_km": 3.4 }, "geometry": { "type": "LineString", "coordinates": [ [ 2.2803, 49.12149 ], [ 2.27775, 49.12314 ], [ 2.27419, 49.12217 ], [ 2.26699, 49.12301 ], [ 2.26468, 49.12413 ], [ 2.25974, 49.1235 ], [ 2.25585, 49.12506 ], [ 2.24812, 49.12637 ], [ 2.24361, 49.12928 ], [ 2.24293, 49.13091 ] ] } },
{ "type": "Feature", "properties": { "name": "Ru du Vieux Moutiers", "weight_class": 1, "permanent": false, "length_km": 9.5 }, "geometry": { "type": "LineString", "coordinates": [ [ 2.28061, 49.04811 ], [ 2.27899, 49.05306 ], [ 2.27883, 49.05968 ], [ 2.28214, 49.06476 ], [ 2.28118, 49.06581 ], [ 2.27245, 49.06401 ], [ 2.26716, 49.06528 ], [ 2.26327, 49.06488 ], [ 2.26079, 49.06892 ], [ 2.25891, 49.06913 ], [ 2.25742, 49.07061 ], [ 2.24912, 49.07004 ], [ 2.24408, 49.07377 ], [ 2.24463, 49.07501 ], [ 2.23852, 49.07405 ], [ 2.23093, 49.07835 ], [ 2.22802, 49.07863 ], [ 2.2233, 49.08197 ], [ 2.22188, 49.08662 ], [ 2.21488, 49.08786 ], [ 2.21421, 49.08717 ], [ 2.21077, 49.08757 ], [ 2.20731, 49.08903 ] ] } },
{ "type": "Feature", "properties": { "name": "le Rosne", "weight_class": 1, "permanent": true, "length_km": 14.9 }, "geometry": { "type": "LineString", "coordinates": [ [ 2.31171, 49.04106 ], [ 2.31524, 49.04512 ], [ 2.31735, 49.04974 ], [ 2.32379, 49.05152 ], [ 2.33067, 49.05071 ], [ 2.33408, 49.04931 ], [ 2.33546, 49.04764 ], [ 2.33719, 49.04778 ], [ 2.34166, 49.04515 ], [ 2.34582, 49.04397 ], [ 2.35362, 49.03897 ], [ 2.35727, 49.03476 ], [ 2.35899, 49.03415 ], [ 2.36554, 49.01891 ], [ 2.36421, 49.0168 ], [ 2.36681, 49.01343 ], [ 2.36434, 49.01079 ], [ 2.37047, 49.00332 ], [ 2.37143, 49.00021 ], [ 2.37475, 48.99953 ], [ 2.37619, 48.99804 ], [ 2.37576, 48.99497 ], [ 2.37726, 48.99457 ], [ 2.38198, 48.9868 ], [ 2.38716, 48.98449 ], [ 2.41286, 48.98006 ], [ 2.42176, 48.97698 ], [ 2.42535, 48.97464 ] ] } },
{ "type": "Feature", "properties": { "name": "Ruisseau des Longs Prés", "weight_class": 1, "permanent": false, "length_km": 3.3 }, "geometry": { "type": "LineString", "coordinates": [ [ 2.28799, 49.04788 ], [ 2.28956, 49.04585 ], [ 2.29574, 49.04945 ], [ 2.30175, 49.05146 ], [ 2.30302, 49.05304 ], [ 2.30877, 49.05408 ], [ 2.32379, 49.05152 ] ] } },
{ "type": "Feature", "properties": { "name": "Ruisseau des Coutumes/Ruisseau du Lavoir", "weight_class": 1, "permanent": false, "length_km": 2.4 }, "geometry": { "type": "LineString", "coordinates": [ [ 2.24984, 49.05123 ], [ 2.2489, 49.05607 ], [ 2.24694, 49.05855 ], [ 2.24842, 49.0628 ], [ 2.25259, 49.06635 ], [ 2.25107, 49.07055 ] ] } },
{ "type": "Feature", "properties": { "name": "Ruisseau du Montubois/Ru du Montubois", "weight_class": 1, "permanent": true, "length_km": 7.0 }, "geometry": { "type": "LineString", "coordinates": [ [ 2.26115, 49.03961 ], [ 2.24083, 49.04458 ], [ 2.23397, 49.05045 ], [ 2.22974, 49.05248 ], [ 2.21643, 49.05421 ], [ 2.21335, 49.05702 ], [ 2.20648, 49.05922 ], [ 2.20634, 49.06061 ], [ 2.2038, 49.06096 ], [ 2.20159, 49.06381 ], [ 2.19762, 49.06492 ], [ 2.19656, 49.06713 ], [ 2.18924, 49.07223 ] ] } },
{ "type": "Feature", "properties": { "name": "Ru de Vaux", "weight_class": 1, "permanent": true, "length_km": 4.9 }, "geometry": { "type": "LineString", "coordinates": [ [ 2.31198, 49.02906 ], [ 2.3162, 49.0292 ], [ 2.32055, 49.03241 ], [ 2.32952, 49.03515 ], [ 2.34017, 49.03488 ], [ 2.34923, 49.03215 ], [ 2.35521, 49.02677 ], [ 2.36474, 49.02076 ] ] } },
{ "type": "Feature", "properties": { "name": "Ru d'Enghien", "weight_class": 1, "permanent": true, "length_km": 11.4 }, "geometry": { "type": "LineString", "coordinates": [ [ 2.27452, 49.03682 ], [ 2.27802, 49.03421 ], [ 2.28474, 49.03237 ], [ 2.28658, 49.03082 ], [ 2.29271, 49.03041 ], [ 2.29649, 49.02623 ], [ 2.29558, 49.02241 ], [ 2.2924, 49.02075 ], [ 2.28887, 49.01484 ], [ 2.28694, 49.01354 ], [ 2.28725, 49.00915 ], [ 2.28586, 49.00489 ], [ 2.28348, 49.00325 ], [ 2.28409, 49.00137 ], [ 2.28118, 48.99827 ], [ 2.28076, 48.99422 ], [ 2.27875, 48.99157 ], [ 2.27921, 48.98902 ], [ 2.29099, 48.97906 ], [ 2.28933, 48.97653 ], [ 2.29878, 48.97549 ], [ 2.30099, 48.96907 ], [ 2.31036, 48.96194 ] ] } },
{ "type": "Feature", "properties": { "name": "Ru de Corbon", "weight_class": 1, "permanent": true, "length_km": 4.0 }, "geometry": { "type": "LineString", "coordinates": [ [ 2.24521, 49.03267 ], [ 2.25063, 49.03161 ], [ 2.26013, 49.02619 ], [ 2.27079, 49.02496 ], [ 2.27313, 49.02278 ], [ 2.28081, 49.02041 ], [ 2.28514, 49.01728 ], [ 2.28922, 49.01626 ] ] } },
{ "type": "Feature", "properties": { "name": "Ru des Haras", "weight_class": 1, "permanent": false, "length_km": 5.3 }, "geometry": { "type": "LineString", "coordinates": [ [ 2.33042, 48.99086 ], [ 2.33681, 48.98847 ], [ 2.34646, 48.98872 ], [ 2.3535, 48.98524 ], [ 2.35534, 48.98276 ], [ 2.35494, 48.97999 ], [ 2.34919, 48.97745 ], [ 2.34487, 48.96953 ], [ 2.33765, 48.96098 ], [ 2.33785, 48.95978 ] ] } },
{ "type": "Feature", "properties": { "name": "Ru des Champs", "weight_class": 1, "permanent": true, "length_km": 3.6 }, "geometry": { "type": "LineString", "coordinates": [ [ 2.32127, 49.00994 ], [ 2.32715, 49.0097 ], [ 2.35101, 49.00475 ], [ 2.35679, 49.00643 ], [ 2.36724, 49.00683 ] ] } },
{ "type": "Feature", "properties": { "name": "Ruisseau d'Andilly", "weight_class": 1, "permanent": true, "length_km": 3.2 }, "geometry": { "type": "LineString", "coordinates": [ [ 2.30151, 49.00389 ], [ 2.30039, 49.0031 ], [ 2.30037, 48.99717 ], [ 2.29737, 48.99391 ], [ 2.29778, 48.99094 ], [ 2.29439, 48.97641 ] ] } },
{ "type": "Feature", "properties": { "name": "Petit Bras de la Garenne", "weight_class": 4, "permanent": true, "length_km": 2.4 }, "geometry": { "type": "LineString", "coordinates": [ [ 2.15403, 48.98665 ], [ 2.14894, 48.98644 ], [ 2.14163, 48.98812 ], [ 2.12816, 48.98896 ], [ 2.12364, 48.99166 ] ] } },
{ "type": "Feature", "properties": { "name": "l'Esches", "weight_class": 1, "permanent": true, "length_km": 3.6 }, "geometry": { "type": "LineString", "coordinates": [ [ 2.24517, 49.16538 ], [ 2.24786, 49.16259 ], [ 2.25889, 49.15731 ], [ 2.27419, 49.14156 ] ] } },
{ "type": "Feature", "properties": { "name": "Cours d'Eau 01 de la Commune d'Ableiges", "weight_class": 1, "permanent": true, "length_km": 2.7 }, "geometry": { "type": "LineString", "coordinates": [ [ 1.95674, 49.09172 ], [ 1.95899, 49.09361 ], [ 1.96231, 49.09462 ], [ 1.9686, 49.09488 ], [ 1.97285, 49.09427 ], [ 1.97653, 49.09165 ], [ 1.97839, 49.09109 ], [ 1.97933, 49.09178 ], [ 1.98572, 49.08931 ] ] } },
{ "type": "Feature", "properties": { "name": "le Sausseron", "weight_class": 1, "permanent": true, "length_km": 21.4 }, "geometry": { "type": "MultiLineString", "coordinates": [ [ [ 2.06073, 49.19402 ], [ 2.06445, 49.19466 ], [ 2.06719, 49.19355 ], [ 2.07875, 49.19419 ], [ 2.08649, 49.19129 ], [ 2.09605, 49.19018 ] ], [ [ 2.09847, 49.18934 ], [ 2.10165, 49.18741 ], [ 2.10619, 49.18154 ], [ 2.10964, 49.17988 ], [ 2.11057, 49.17708 ], [ 2.11381, 49.17544 ], [ 2.11425, 49.17153 ], [ 2.11698, 49.16858 ], [ 2.11699, 49.16521 ], [ 2.11097, 49.155 ], [ 2.11106, 49.1524 ], [ 2.11601, 49.14337 ], [ 2.11559, 49.13998 ], [ 2.11788, 49.13856 ], [ 2.11877, 49.13582 ], [ 2.1306, 49.13289 ], [ 2.13649, 49.1346 ], [ 2.14117, 49.13474 ], [ 2.14417, 49.1375 ], [ 2.14859, 49.13796 ], [ 2.15188, 49.14014 ], [ 2.16254, 49.1376 ], [ 2.16514, 49.13557 ], [ 2.16808, 49.12792 ], [ 2.17618, 49.12432 ], [ 2.18198, 49.12015 ], [ 2.1818, 49.11813 ], [ 2.17849, 49.11705 ], [ 2.17772, 49.11202 ], [ 2.17855, 49.10956 ], [ 2.18452, 49.10617 ], [ 2.18291, 49.10323 ], [ 2.18424, 49.10009 ], [ 2.19187, 49.09788 ], [ 2.1961, 49.09393 ], [ 2.20925, 49.09351 ] ] ] } },
{ "type": "Feature", "properties": { "name": "Ru de Frouville", "weight_class": 1, "permanent": true, "length_km": 6.4 }, "geometry": { "type": "LineString", "coordinates": [ [ 2.141, 49.18574 ], [ 2.14023, 49.17445 ], [ 2.14166, 49.17287 ], [ 2.14491, 49.17185 ], [ 2.1458, 49.17029 ], [ 2.14336, 49.1696 ], [ 2.14229, 49.16825 ], [ 2.13822, 49.15986 ], [ 2.1388, 49.15857 ], [ 2.14508, 49.15576 ], [ 2.1441, 49.15342 ], [ 2.14727, 49.14863 ], [ 2.14974, 49.14561 ], [ 2.15691, 49.14116 ], [ 2.15825, 49.13887 ] ] } },
{ "type": "Feature", "properties": { "name": "Ruisseau de la Laire", "weight_class": 1, "permanent": true, "length_km": 7.7 }, "geometry": { "type": "LineString", "coordinates": [ [ 1.99845, 49.16046 ], [ 2.00601, 49.15906 ], [ 2.01894, 49.1632 ], [ 2.02331, 49.16214 ], [ 2.03255, 49.16206 ], [ 2.04662, 49.15636 ], [ 2.05387, 49.15541 ], [ 2.06085, 49.1527 ], [ 2.05983, 49.14676 ], [ 2.06164, 49.14474 ], [ 2.06708, 49.14317 ], [ 2.06728, 49.14242 ], [ 2.07999, 49.14535 ] ] } },
{ "type": "Feature", "properties": { "name": "Ru de Theuville", "weight_class": 1, "permanent": true, "length_km": 10.2 }, "geometry": { "type": "LineString", "coordinates": [ [ 2.02863, 49.17873 ], [ 2.03444, 49.1793 ], [ 2.03851, 49.17861 ], [ 2.04279, 49.18061 ], [ 2.04742, 49.17918 ], [ 2.05227, 49.17972 ], [ 2.06026, 49.17745 ], [ 2.06378, 49.17379 ], [ 2.06769, 49.17203 ], [ 2.06702, 49.17023 ], [ 2.06124, 49.16662 ], [ 2.06023, 49.16385 ], [ 2.06112, 49.15974 ], [ 2.07084, 49.15342 ], [ 2.07728, 49.15325 ], [ 2.0801, 49.14916 ], [ 2.07999, 49.14535 ], [ 2.11115, 49.14184 ], [ 2.11559, 49.13998 ] ] } },
{ "type": "Feature", "properties": { "name": "Fond de Borne", "weight_class": 1, "permanent": false, "length_km": 3.4 }, "geometry": { "type": "LineString", "coordinates": [ [ 2.01693, 49.14847 ], [ 2.01873, 49.1493 ], [ 2.02572, 49.14959 ], [ 2.02828, 49.15089 ], [ 2.04687, 49.14801 ], [ 2.05857, 49.15323 ] ] } },
{ "type": "Feature", "properties": { "name": "Ruisseau à Lin", "weight_class": 1, "permanent": false, "length_km": 5.2 }, "geometry": { "type": "LineString", "coordinates": [ [ 1.99108, 49.15576 ], [ 1.98722, 49.15681 ], [ 1.98576, 49.15635 ], [ 1.98073, 49.15378 ], [ 1.97981, 49.15179 ], [ 1.97322, 49.14898 ], [ 1.96869, 49.14572 ], [ 1.95812, 49.14776 ], [ 1.94952, 49.14431 ], [ 1.93898, 49.14557 ], [ 1.93825, 49.14104 ] ] } },
{ "type": "Feature", "properties": { "name": "Ru de Liesse", "weight_class": 1, "permanent": true, "length_km": 5.2 }, "geometry": { "type": "LineString", "coordinates": [ [ 2.14949, 49.02435 ], [ 2.14462, 49.02496 ], [ 2.13701, 49.02763 ], [ 2.13666, 49.03033 ], [ 2.1328, 49.03156 ], [ 2.13353, 49.03355 ], [ 2.13224, 49.03564 ], [ 2.12687, 49.03699 ], [ 2.12616, 49.04011 ], [ 2.12721, 49.04199 ], [ 2.12581, 49.04273 ], [ 2.1222, 49.04228 ], [ 2.11972, 49.04399 ], [ 2.1189, 49.04695 ], [ 2.11001, 49.0519 ] ] } },
{ "type": "Feature", "properties": { "name": "l'Epte", "weight_class": 3, "permanent": true, "length_km": 17.8 }, "geometry": { "type": "MultiLineString", "coordinates": [ [ [ 1.65565, 49.13076 ], [ 1.65567, 49.12996 ], [ 1.65271, 49.12935 ], [ 1.65255, 49.12762 ], [ 1.65028, 49.12706 ], [ 1.64981, 49.12507 ], [ 1.64679, 49.12426 ], [ 1.64661, 49.12141 ], [ 1.64241, 49.1166 ], [ 1.64068, 49.11616 ], [ 1.63985, 49.11681 ], [ 1.63229, 49.11203 ], [ 1.63298, 49.1108 ], [ 1.6297, 49.11016 ], [ 1.62954, 49.1074 ], [ 1.62658, 49.1045 ], [ 1.62712, 49.10264 ], [ 1.62138, 49.10072 ], [ 1.62125, 49.09807 ], [ 1.61843, 49.09688 ], [ 1.6171, 49.09382 ] ], [ [ 1.65448, 49.14611 ], [ 1.65302, 49.1448 ], [ 1.65266, 49.14148 ] ], [ [ 1.65332, 49.13964 ], [ 1.65625, 49.14027 ], [ 1.65836, 49.13509 ], [ 1.65703, 49.13434 ] ], [ [ 1.65515, 49.13708 ], [ 1.65703, 49.13434 ] ], [ [ 1.65703, 49.13434 ], [ 1.65785, 49.13194 ], [ 1.65593, 49.13129 ] ], [ [ 1.66424, 49.16426 ], [ 1.66295, 49.15926 ], [ 1.66058, 49.15731 ], [ 1.66428, 49.15387 ], [ 1.66356, 49.1529 ] ], [ [ 1.66659, 49.17497 ], [ 1.66891, 49.17117 ] ], [ [ 1.66941, 49.18048 ], [ 1.66719, 49.17948 ], [ 1.66694, 49.17733 ] ], [ [ 1.66916, 49.17089 ], [ 1.67027, 49.16965 ], [ 1.66878, 49.16879 ] ], [ [ 1.67068, 49.18361 ], [ 1.67166, 49.18062 ], [ 1.66995, 49.18063 ] ], [ [ 1.67419, 49.20883 ], [ 1.67216, 49.2064 ], [ 1.67648, 49.20383 ], [ 1.67691, 49.2026 ], [ 1.6748, 49.19685 ], [ 1.67091, 49.19381 ] ], [ [ 1.6774, 49.21358 ], [ 1.67697, 49.21184 ], [ 1.67399, 49.21194 ], [ 1.67416, 49.20898 ] ], [ [ 1.69052, 49.22087 ], [ 1.68851, 49.21847 ], [ 1.68607, 49.21815 ], [ 1.68479, 49.21664 ], [ 1.67918, 49.21411 ] ], [ [ 1.70146, 49.23372 ], [ 1.70445, 49.23231 ], [ 1.70251, 49.23116 ], [ 1.70383, 49.23057 ], [ 1.70284, 49.22994 ], [ 1.70393, 49.22893 ], [ 1.69876, 49.22619 ], [ 1.69805, 49.2241 ], [ 1.6947, 49.22415 ] ] ] } },
{ "type": "Feature", "properties": { "name": "Fossé 01 de la Commune de Aincourt", "weight_class": 1, "permanent": false, "length_km": 2.1 }, "geometry": { "type": "LineString", "coordinates": [ [ 1.77554, 49.07661 ], [ 1.78024, 49.07714 ], [ 1.78622, 49.07414 ], [ 1.7846, 49.06893 ], [ 1.78608, 49.06446 ] ] } },
{ "type": "Feature", "properties": { "name": "Cours d'Eau 01 de la Commune d'Avernes", "weight_class": 1, "permanent": true, "length_km": 3.0 }, "geometry": { "type": "LineString", "coordinates": [ [ 1.8667, 49.08414 ], [ 1.87121, 49.08722 ], [ 1.87603, 49.08656 ], [ 1.87933, 49.08824 ], [ 1.88663, 49.08941 ], [ 1.89072, 49.08802 ], [ 1.89327, 49.08549 ], [ 1.8956, 49.08485 ], [ 1.89918, 49.08592 ] ] } },
{ "type": "Feature", "properties": { "name": "Cours d'Eau 01 de la Commune d'Arthies", "weight_class": 1, "permanent": true, "length_km": 7.4 }, "geometry": { "type": "LineString", "coordinates": [ [ 1.78015, 49.09365 ], [ 1.78043, 49.0959 ], [ 1.78484, 49.09801 ], [ 1.7907, 49.10697 ], [ 1.78976, 49.11207 ], [ 1.79198, 49.11454 ], [ 1.79047, 49.11614 ], [ 1.78139, 49.11714 ], [ 1.78002, 49.11847 ], [ 1.77002, 49.12014 ], [ 1.76827, 49.12114 ], [ 1.75905, 49.12131 ], [ 1.75155, 49.12683 ], [ 1.7514, 49.13106 ], [ 1.74413, 49.13356 ] ] } },
{ "type": "Feature", "properties": { "name": "Cours d'Eau 01 de la Commune de Genainville", "weight_class": 1, "permanent": true, "length_km": 3.6 }, "geometry": { "type": "LineString", "coordinates": [ [ 1.74275, 49.11874 ], [ 1.73983, 49.12289 ], [ 1.74129, 49.12385 ], [ 1.74114, 49.12686 ], [ 1.73871, 49.13005 ], [ 1.74088, 49.13245 ], [ 1.74413, 49.13356 ], [ 1.74168, 49.13728 ], [ 1.74412, 49.14422 ], [ 1.74228, 49.14557 ] ] } },
{ "type": "Feature", "properties": { "name": "Cours d'Eau 01 de la Commune de Saint-Gervais", "weight_class": 1, "permanent": true, "length_km": 2.3 }, "geometry": { "type": "LineString", "coordinates": [ [ 1.76862, 49.16796 ], [ 1.77131, 49.16741 ], [ 1.77875, 49.16837 ], [ 1.78193, 49.16349 ], [ 1.78661, 49.16066 ], [ 1.78656, 49.15786 ] ] } },
{ "type": "Feature", "properties": { "name": "Cours d'Eau 01 de la Commune de Vienne-en-Arthies", "weight_class": 1, "permanent": false, "length_km": 2.4 }, "geometry": { "type": "LineString", "coordinates": [ [ 1.72899, 49.06497 ], [ 1.71801, 49.0654 ], [ 1.70472, 49.06179 ], [ 1.69895, 49.06161 ] ] } },
{ "type": "Feature", "properties": { "name": "Fossé 01 de la Commune de Villers-en-Arthies", "weight_class": 1, "permanent": false, "length_km": 2.6 }, "geometry": { "type": "LineString", "coordinates": [ [ 1.72797, 49.08652 ], [ 1.72647, 49.08403 ], [ 1.7185, 49.07875 ], [ 1.7171, 49.07387 ], [ 1.71722, 49.06632 ] ] } },
{ "type": "Feature", "properties": { "name": "Ru de Roconval", "weight_class": 1, "permanent": true, "length_km": 3.8 }, "geometry": { "type": "LineString", "coordinates": [ [ 1.6434, 49.11777 ], [ 1.64079, 49.11533 ], [ 1.63508, 49.10393 ], [ 1.62849, 49.09752 ], [ 1.62656, 49.09335 ], [ 1.61747, 49.09392 ] ] } },
{ "type": "Feature", "properties": { "name": "la Viosne", "weight_class": 2, "permanent": true, "length_km": 25.4 }, "geometry": { "type": "MultiLineString", "coordinates": [ [ [ 1.93397, 49.17358 ], [ 1.93508, 49.16998 ], [ 1.93962, 49.16895 ], [ 1.93814, 49.16722 ], [ 1.93775, 49.16188 ], [ 1.93519, 49.15898 ], [ 1.93615, 49.15574 ], [ 1.93968, 49.15315 ], [ 1.93951, 49.15121 ] ], [ [ 1.93951, 49.15121 ], [ 1.9368, 49.1482 ], [ 1.93669, 49.14639 ] ], [ [ 1.93951, 49.15121 ], [ 1.93571, 49.1481 ], [ 1.93669, 49.14639 ] ], [ [ 1.93669, 49.14639 ], [ 1.93723, 49.13903 ], [ 1.94373, 49.13478 ], [ 1.94483, 49.13224 ], [ 1.94965, 49.12974 ], [ 1.95033, 49.12849 ], [ 1.94895, 49.12527 ], [ 1.95208, 49.11922 ], [ 1.96714, 49.11132 ], [ 1.96617, 49.10843 ], [ 1.96724, 49.10457 ], [ 1.96941, 49.10147 ], [ 1.97271, 49.10084 ], [ 1.97442, 49.09952 ], [ 1.97485, 49.09642 ], [ 1.97347, 49.0945 ], [ 1.97484, 49.09324 ], [ 1.98306, 49.09149 ], [ 1.98665, 49.08888 ], [ 1.98555, 49.0883 ], [ 1.98578, 49.08663 ], [ 1.99356, 49.08499 ], [ 1.99962, 49.07963 ], [ 2.00588, 49.07945 ], [ 2.01175, 49.07746 ], [ 2.01592, 49.07746 ], [ 2.02378, 49.07405 ], [ 2.03005, 49.07396 ], [ 2.031, 49.0701 ], [ 2.03511, 49.06984 ], [ 2.04268, 49.0652 ], [ 2.04612, 49.06568 ], [ 2.05784, 49.06434 ], [ 2.05877, 49.06344 ], [ 2.0624, 49.06384 ], [ 2.06354, 49.06223 ], [ 2.06811, 49.06244 ], [ 2.07228, 49.06149 ], [ 2.07409, 49.0598 ], [ 2.07319, 49.0571 ], [ 2.07758, 49.05384 ], [ 2.08614, 49.0527 ], [ 2.08933, 49.05055 ], [ 2.09131, 49.04755 ], [ 2.09829, 49.04505 ], [ 2.09701, 49.04011 ] ] ] } },
{ "type": "Feature", "properties": { "name": "le Cudron", "weight_class": 1, "permanent": true, "length_km": 6.9 }, "geometry": { "type": "LineString", "coordinates": [ [ 1.74148, 49.2042 ], [ 1.73571, 49.20377 ], [ 1.73169, 49.20177 ], [ 1.72764, 49.20218 ], [ 1.72364, 49.2014 ], [ 1.72105, 49.20242 ], [ 1.71719, 49.20084 ], [ 1.71631, 49.19955 ], [ 1.71157, 49.19881 ], [ 1.71035, 49.19745 ], [ 1.70714, 49.19687 ], [ 1.70075, 49.19969 ], [ 1.69923, 49.20623 ], [ 1.69246, 49.20568 ], [ 1.69055, 49.20756 ], [ 1.68611, 49.20863 ], [ 1.68293, 49.21168 ], [ 1.67949, 49.21002 ], [ 1.67731, 49.20592 ] ] } },
{ "type": "Feature", "properties": { "name": "l'Aubette", "weight_class": 1, "permanent": true, "length_km": 19.6 }, "geometry": { "type": "MultiLineString", "coordinates": [ [ [ 1.69673, 49.15258 ], [ 1.68551, 49.15024 ], [ 1.67821, 49.14535 ], [ 1.67198, 49.14396 ], [ 1.67118, 49.14466 ], [ 1.66622, 49.14493 ], [ 1.65769, 49.14861 ] ], [ [ 1.70552, 49.15065 ], [ 1.70535, 49.15138 ], [ 1.69966, 49.15297 ], [ 1.69673, 49.15258 ] ], [ [ 1.70552, 49.15065 ], [ 1.69709, 49.15177 ], [ 1.69673, 49.15258 ] ], [ [ 1.71069, 49.1487 ], [ 1.70844, 49.15041 ], [ 1.70552, 49.15065 ] ], [ [ 1.72978, 49.1482 ], [ 1.71904, 49.14772 ], [ 1.71178, 49.14922 ], [ 1.71069, 49.1487 ] ], [ [ 1.72978, 49.1482 ], [ 1.71912, 49.14733 ], [ 1.71069, 49.1487 ] ], [ [ 1.76518, 49.14662 ], [ 1.75131, 49.14379 ], [ 1.74019, 49.14634 ], [ 1.73462, 49.14639 ], [ 1.73299, 49.1478 ], [ 1.72978, 49.1482 ] ], [ [ 1.77318, 49.15085 ], [ 1.77394, 49.14982 ], [ 1.76518, 49.14662 ] ], [ [ 1.77318, 49.15085 ], [ 1.7648, 49.14775 ], [ 1.76518, 49.14662 ] ], [ [ 1.8409, 49.16572 ], [ 1.83261, 49.16249 ], [ 1.82637, 49.16243 ], [ 1.82157, 49.16359 ], [ 1.81655, 49.16317 ], [ 1.81195, 49.16011 ], [ 1.80776, 49.15987 ], [ 1.80079, 49.15756 ], [ 1.79705, 49.15784 ], [ 1.7938, 49.15918 ], [ 1.78943, 49.15897 ], [ 1.78327, 49.15718 ], [ 1.78258, 49.1547 ], [ 1.77318, 49.15085 ] ] ] } },
{ "type": "Feature", "properties": { "name": "la Couleuvre", "weight_class": 1, "permanent": true, "length_km": 4.4 }, "geometry": { "type": "LineString", "coordinates": [ [ 1.90442, 49.12772 ], [ 1.90792, 49.12776 ], [ 1.91225, 49.12615 ], [ 1.91855, 49.12785 ], [ 1.9246, 49.12826 ], [ 1.93027, 49.13024 ], [ 1.9331, 49.13006 ], [ 1.93877, 49.12652 ], [ 1.93799, 49.12505 ], [ 1.94201, 49.12225 ], [ 1.95177, 49.11983 ] ] } },
{ "type": "Feature", "properties": { "name": "l'Aubette", "weight_class": 1, "permanent": true, "length_km": 16.5 }, "geometry": { "type": "LineString", "coordinates": [ [ 1.83619, 49.11622 ], [ 1.84611, 49.11573 ], [ 1.84906, 49.11194 ], [ 1.8494, 49.10807 ], [ 1.85934, 49.10357 ], [ 1.86635, 49.1019 ], [ 1.87715, 49.09664 ], [ 1.89435, 49.09163 ], [ 1.89817, 49.08877 ], [ 1.89918, 49.08592 ], [ 1.90815, 49.08311 ], [ 1.91625, 49.07684 ], [ 1.92379, 49.07646 ], [ 1.92858, 49.07524 ], [ 1.92926, 49.07389 ], [ 1.928, 49.07202 ], [ 1.92518, 49.07081 ], [ 1.9207, 49.07041 ], [ 1.91962, 49.06917 ], [ 1.93359, 49.06366 ], [ 1.93349, 49.05944 ], [ 1.93492, 49.05674 ], [ 1.94883, 49.04966 ], [ 1.94729, 49.04462 ], [ 1.94323, 49.04005 ], [ 1.94345, 49.03722 ], [ 1.93665, 49.03027 ], [ 1.93027, 49.02678 ] ] } },
{ "type": "Feature", "properties": { "name": "Ru de la Vallée du Roi", "weight_class": 1, "permanent": true, "length_km": 3.6 }, "geometry": { "type": "LineString", "coordinates": [ [ 1.74033, 49.07138 ], [ 1.73267, 49.06751 ], [ 1.73067, 49.06506 ], [ 1.71722, 49.06632 ], [ 1.69778, 49.06339 ] ] } },
{ "type": "Feature", "properties": { "name": "Bras de la Seine", "weight_class": 3, "permanent": true, "length_km": 4.6 }, "geometry": { "type": "LineString", "coordinates": [ [ 1.69612, 49.06469 ], [ 1.69638, 49.06676 ], [ 1.69187, 49.06817 ], [ 1.68815, 49.07133 ], [ 1.67238, 49.07854 ], [ 1.65184, 49.08194 ], [ 1.64868, 49.08126 ], [ 1.6459, 49.07924 ] ] } },
{ "type": "Feature", "properties": { "name": "Ru de l'Eau Brillante", "weight_class": 1, "permanent": true, "length_km": 4.9 }, "geometry": { "type": "LineString", "coordinates": [ [ 1.85694, 49.06601 ], [ 1.85505, 49.06176 ], [ 1.86717, 49.05709 ], [ 1.86774, 49.05375 ], [ 1.87148, 49.05027 ], [ 1.87096, 49.04874 ], [ 1.87429, 49.04735 ], [ 1.87458, 49.04606 ], [ 1.87189, 49.0447 ], [ 1.87313, 49.04324 ], [ 1.87091, 49.0412 ], [ 1.86785, 49.03478 ], [ 1.86607, 49.03371 ] ] } },
{ "type": "Feature", "properties": { "name": "la Montcient", "weight_class": 1, "permanent": true, "length_km": 2.4 }, "geometry": { "type": "LineString", "coordinates": [ [ 1.85776, 49.02907 ], [ 1.86673, 49.02815 ], [ 1.86654, 49.02931 ], [ 1.87074, 49.02926 ], [ 1.87424, 49.02574 ], [ 1.88372, 49.02331 ] ] } },
{ "type": "Feature", "properties": { "name": "Bras de la Seine", "weight_class": 4, "permanent": true, "length_km": 2.9 }, "geometry": { "type": "LineString", "coordinates": [ [ 1.67164, 49.0481 ], [ 1.68416, 49.05104 ], [ 1.69101, 49.05421 ], [ 1.69589, 49.06001 ], [ 1.69612, 49.06469 ] ] } },
{ "type": "Feature", "properties": { "name": "Ru de Chaussy", "weight_class": 1, "permanent": true, "length_km": 5.9 }, "geometry": { "type": "LineString", "coordinates": [ [ 1.71101, 49.1157 ], [ 1.70775, 49.11874 ], [ 1.68206, 49.12704 ], [ 1.67787, 49.13332 ], [ 1.67099, 49.13604 ], [ 1.66844, 49.141 ], [ 1.66645, 49.14145 ], [ 1.66524, 49.14292 ], [ 1.66534, 49.14413 ], [ 1.66075, 49.14559 ], [ 1.65459, 49.14609 ] ] } },
{ "type": "Feature", "properties": { "name": "la Seine", "weight_class": 4, "permanent": true, "length_km": 27.7 }, "geometry": { "type": "MultiLineString", "coordinates": [ [ [ 1.64042, 49.07933 ], [ 1.6295, 49.07827 ], [ 1.61672, 49.07225 ] ], [ [ 1.6661, 49.04484 ], [ 1.68022, 49.04693 ], [ 1.69189, 49.051 ], [ 1.6965, 49.0547 ], [ 1.69879, 49.05818 ], [ 1.69891, 49.06173 ], [ 1.69612, 49.06469 ] ], [ [ 2.15566, 48.9431 ], [ 2.17161, 48.95224 ], [ 2.17813, 48.95902 ], [ 2.17805, 48.96327 ], [ 2.18022, 48.9682 ], [ 2.17312, 48.9789 ], [ 2.16299, 48.98502 ], [ 2.15108, 48.98738 ], [ 2.14443, 48.98989 ], [ 2.12949, 48.98992 ], [ 2.12281, 48.99169 ], [ 2.11145, 48.9906 ], [ 2.10302, 48.99089 ] ], [ [ 2.33416, 48.94522 ], [ 2.31701, 48.94961 ], [ 2.30058, 48.95198 ], [ 2.28505, 48.95037 ], [ 2.26909, 48.94669 ], [ 2.25898, 48.94254 ], [ 2.23175, 48.92808 ], [ 2.21386, 48.91629 ], [ 2.19945, 48.91018 ] ] ] } },
{ "type": "Feature", "properties": { "name": "Ru du Lavoir", "weight_class": 1, "permanent": false, "length_km": 2.4 }, "geometry": { "type": "MultiLineString", "coordinates": [ [ [ 1.81147, 49.12957 ], [ 1.80131, 49.13338 ], [ 1.79864, 49.1353 ], [ 1.79121, 49.13729 ] ], [ [ 1.81379, 49.12933 ], [ 1.81305, 49.12968 ], [ 1.81147, 49.12957 ] ], [ [ 1.81379, 49.12933 ], [ 1.81147, 49.12957 ] ], [ [ 1.81454, 49.12735 ], [ 1.81379, 49.12933 ] ] ] } },
{ "type": "Feature", "properties": { "name": "Ru de la Michelette", "weight_class": 1, "permanent": false, "length_km": 4.3 }, "geometry": { "type": "LineString", "coordinates": [ [ 2.57806, 49.08447 ], [ 2.58217, 49.08166 ], [ 2.58263, 49.07826 ], [ 2.58075, 49.0749 ], [ 2.55898, 49.06679 ], [ 2.55801, 49.06467 ], [ 2.5504, 49.05787 ] ] } },
{ "type": "Feature", "properties": { "name": "Ru de Breuil", "weight_class": 1, "permanent": false, "length_km": 2.3 }, "geometry": { "type": "LineString", "coordinates": [ [ 1.72113, 49.21623 ], [ 1.72255, 49.22054 ], [ 1.7177, 49.22202 ], [ 1.71488, 49.22861 ], [ 1.71073, 49.2278 ], [ 1.7086, 49.22913 ] ] } }
]
}
