{
"type": "FeatureCollection",
"name": "dep93_overview.geojson",
"crs": { "type": "name", "properties": { "name": "urn:ogc:def:crs:OGC:1.3:CRS84" } },
"xy_coordinate_resolution": 1e-05,
"features": [
{ "type": "Feature", "properties": { "name": "la Marne", "weight_class": 4, "permanent": true, "length_km": 9.2 }, "geometry": { "type": "LineString", "coordinates": [ [ 2.58393, 48.86556 ], [ 2.57361, 48.86539 ], [ 2.56522, 48.86334 ], [ 2.56422, 48.86205 ], [ 2.56593, 48.86082 ], [ 2.56756, 48.85592 ], [ 2.56263, 48.85403 ], [ 2.54626, 48.85449 ], [ 2.54057, 48.85288 ], [ 2.5333, 48.85366 ], [ 2.51499, 48.85101 ], [ 2.5119, 48.84834 ], [ 2.5113, 48.84515 ], [ 2.51327, 48.83932 ], [ 2.51653, 48.8369 ], [ 2.51764, 48.83396 ], [ 2.51579, 48.83115 ], [ 2.51141, 48.82934 ] ] } },
{ "type": "Feature", "properties": { "name": "Aqueduc de la Dhuis", "weight_class": 1, "permanent": true, "length_km": 36.2 }, "geometry": { "type": "LineString", "coordinates": [ [ 2.78244, 48.87934 ], [ 2.77946, 48.879 ], [ 2.77662, 48.8812 ], [ 2.77301, 48.88147 ], [ 2.76046, 48.88568 ], [ 2.75888, 48.88727 ], [ 2.74279, 48.89216 ], [ 2.73042, 48.89097 ], [ 2.72473, 48.89124 ], [ 2.71996, 48.89364 ], [ 2.71479, 48.89497 ], [ 2.71234, 48.89474 ], [ 2.70623, 48.89847 ], [ 2.70262, 48.89809 ], [ 2.70083, 48.9008 ], [ 2.70427, 48.90456 ], [ 2.70412, 48.90654 ], [ 2.70185, 48.90871 ], [ 2.69921, 48.90912 ], [ 2.69478, 48.90821 ], [ 2.69356, 48.90877 ], [ 2.69039, 48.91163 ], [ 2.68874, 48.91806 ], [ 2.68512, 48.92195 ], [ 2.68176, 48.92139 ], [ 2.67998, 48.92218 ], [ 2.66928, 48.92264 ], [ 2.66744, 48.9216 ], [ 2.65474, 48.92445 ], [ 2.65279, 48.92719 ], [ 2.65522, 48.93012 ], [ 2.65179, 48.93093 ], [ 2.64442, 48.93017 ], [ 2.63993, 48.92707 ], [ 2.63242, 48.92835 ], [ 2.6302, 48.92673 ], [ 2.61731, 48.92194 ], [ 2.613, 48.92407 ], [ 2.60993, 48.92416 ], [ 2.60501, 48.92337 ], [ 2.59862, 48.92063 ], [ 2.59457, 48.92174 ], [ 2.58956, 48.92489 ], [ 2.58369, 48.92434 ], [ 2.58188, 48.92123 ], [ 2.57765, 48.92043 ], [ 2.57385, 48.92208 ], [ 2.56457, 48.92342 ], [ 2.56225, 48.92197 ], [ 2.56127, 48.91392 ], [ 2.55638, 48.91194 ], [ 2.5591, 48.90914 ], [ 2.55894, 48.90548 ], [ 2.54856, 48.90174 ], [ 2.54663, 48.89896 ], [ 2.54083, 48.89639 ], [ 2.53905, 48.89387 ], [ 2.53042, 48.89214 ], [ 2.52549, 48.89419 ], [ 2.51777, 48.89407 ], [ 2.4762, 48.87723 ], [ 2.4443, 48.87645 ], [ 2.40693, 48.87137 ] ] } },
{ "type": "Feature", "properties": { "name": "Canal de l'Ourcq", "weight_class": 3, "permanent": true, "length_km": 16.9 }, "geometry": { "type": "LineString", "coordinates": [ [ 2.59167, 48.94961 ], [ 2.52193, 48.9319 ], [ 2.49982, 48.91265 ], [ 2.49556, 48.91036 ], [ 2.42739, 48.89662 ], [ 2.41252, 48.89494 ], [ 2.3956, 48.89594 ], [ 2.38725, 48.89232 ] ] } },
{ "type": "Feature", "properties": { "name": "Canal de Chelles", "weight_class": 3, "permanent": true, "length_km": 4.9 }, "geometry": { "type": "LineString", "coordinates": [ [ 2.59593, 48.86816 ], [ 2.57153, 48.86627 ], [ 2.56629, 48.86473 ], [ 2.54933, 48.85599 ], [ 2.53544, 48.85369 ] ] } },
{ "type": "Feature", "properties": { "name": "Canal 01 de la Commune de Neuilly-sur-Marne", "weight_class": 1, "permanent": false, "length_km": 2.0 }, "geometry": { "type": "LineString", "coordinates": [ [ 2.55714, 48.86435 ], [ 2.55578, 48.8602 ], [ 2.55095, 48.8571 ], [ 2.54613, 48.85551 ], [ 2.53843, 48.85456 ] ] } },
{ "type": "Feature", "properties": { "name": "le Croult", "weight_class": 1, "permanent": true, "length_km": 6.4 }, "geometry": { "type": "LineString", "coordinates": [ [ 2.41803, 48.95942 ], [ 2.41147, 48.95748 ], [ 2.40973, 48.95432 ], [ 2.40553, 48.95163 ], [ 2.39951, 48.94977 ], [ 2.39588, 48.94626 ], [ 2.38519, 48.94327 ], [ 2.37291, 48.94097 ], [ 2.34418, 48.94059 ], [ 2.34223, 48.93989 ] ] } },
{ "type": "Feature", "properties": { "name": "la Morée", "weight_class": 1, "permanent": true, "length_km": 9.0 }, "geometry": { "type": "MultiLineString", "coordinates": [ [ [ 2.45446, 48.95526 ], [ 2.44925, 48.95475 ], [ 2.44777, 48.95569 ] ], [ [ 2.5468, 48.94692 ], [ 2.54495, 48.94632 ], [ 2.54215, 48.94235 ], [ 2.53812, 48.93947 ], [ 2.5316, 48.9384 ], [ 2.52945, 48.93592 ], [ 2.51936, 48.93228 ], [ 2.50022, 48.93632 ], [ 2.49176, 48.93999 ], [ 2.4884, 48.94037 ], [ 2.48798, 48.94159 ], [ 2.48098, 48.94294 ], [ 2.47787, 48.94513 ], [ 2.47643, 48.94483 ], [ 2.47107, 48.94695 ], [ 2.47086, 48.95127 ], [ 2.45706, 48.95543 ] ] ] } },
{ "type": "Feature", "properties": { "name": "Canal de Saint-Denis", "weight_class": 3, "permanent": true, "length_km": 6.4 }, "geometry": { "type": "LineString", "coordinates": [ [ 2.38396, 48.89583 ], [ 2.36513, 48.92604 ], [ 2.36264, 48.92744 ], [ 2.35579, 48.92752 ], [ 2.35228, 48.92888 ], [ 2.34593, 48.93673 ], [ 2.33937, 48.94119 ] ] } },
{ "type": "Feature", "properties": { "name": "Ru d'Enghien", "weight_class": 1, "permanent": true, "length_km": 3.3 }, "geometry": { "type": "LineString", "coordinates": [ [ 2.30866, 48.96378 ], [ 2.31824, 48.95453 ], [ 2.32097, 48.95347 ], [ 2.32445, 48.95322 ], [ 2.32745, 48.95422 ], [ 2.33133, 48.95347 ], [ 2.33321, 48.95118 ], [ 2.33416, 48.94522 ] ] } },
{ "type": "Feature", "properties": { "name": "Bras de la Seine", "weight_class": 4, "permanent": true, "length_km": 6.7 }, "geometry": { "type": "LineString", "coordinates": [ [ 2.31982, 48.91594 ], [ 2.3345, 48.92868 ], [ 2.33696, 48.93535 ], [ 2.33491, 48.94156 ], [ 2.33093, 48.94406 ], [ 2.32415, 48.94598 ], [ 2.30311, 48.94997 ], [ 2.29097, 48.95097 ] ] } },
{ "type": "Feature", "properties": { "name": "la Seine", "weight_class": 4, "permanent": true, "length_km": 10.6 }, "geometry": { "type": "LineString", "coordinates": [ [ 2.28255, 48.90157 ], [ 2.30062, 48.91064 ], [ 2.32842, 48.91848 ], [ 2.3392, 48.92928 ], [ 2.34157, 48.93385 ], [ 2.34154, 48.93682 ], [ 2.33834, 48.94258 ], [ 2.33264, 48.94576 ], [ 2.31915, 48.94918 ], [ 2.30278, 48.95184 ], [ 2.29097, 48.95097 ] ] } },
{ "type": "Feature", "properties": { "name": "le Sausset", "weight_class": 1, "permanent": false, "length_km": 7.0 }, "geometry": { "type": "LineString", "coordinates": [ [ 2.55457, 48.97728 ], [ 2.55303, 48.97768 ], [ 2.54833, 48.97481 ], [ 2.54664, 48.9727 ], [ 2.53619, 48.96577 ], [ 2.4796, 48.94374 ] ] } }
]
}
