{
"type": "FeatureCollection",
"name": "dep01",
"crs": { "type": "name", "properties": { "name": "urn:ogc:def:crs:OGC:1.3:CRS84" } },
"xy_coordinate_resolution": 0.0001,
"features": [
{ "type": "Feature", "properties": { "code": "01", "nom": "Ain" }, "geometry": { "type": "Polygon", "coordinates": [ [ [ 4.7802, 46.1767 ], [ 4.7802, 46.1891 ], [ 4.7932, 46.2019 ], [ 4.795, 46.2194 ], [ 4.8078, 46.237 ], [ 4.811, 46.2599 ], [ 4.825, 46.2732 ], [ 4.8332, 46.3001 ], [ 4.8534, 46.3299 ], [ 4.8515, 46.3563 ], [ 4.8882, 46.403 ], [ 4.8935, 46.444 ], [ 4.9135, 46.4607 ], [ 4.9156, 46.4889 ], [ 4.925, 46.4962 ], [ 4.9336, 46.5124 ], [ 4.9424, 46.513 ], [ 4.9413, 46.5197 ], [ 4.9445, 46.5144 ], [ 4.9545, 46.5127 ], [ 4.9442, 46.5106 ], [ 4.9501, 46.5008 ], [ 4.9598, 46.5077 ], [ 4.9703, 46.5055 ], [ 4.9713, 46.5083 ], [ 4.9627, 46.5123 ], [ 4.9835, 46.5154 ], [ 5.0106, 46.5111 ], [ 5.013, 46.5013 ], [ 5.0287, 46.492 ], [ 5.0407, 46.4914 ], [ 5.0564, 46.4839 ], [ 5.0767, 46.4862 ], [ 5.0972, 46.5 ], [ 5.1093, 46.4915 ], [ 5.1146, 46.4926 ], [ 5.1182, 46.4971 ], [ 5.1344, 46.5015 ], [ 5.1351, 46.509 ], [ 5.1568, 46.5074 ], [ 5.1662, 46.5031 ], [ 5.1673, 46.5191 ], [ 5.1775, 46.5111 ], [ 5.2019, 46.5083 ], [ 5.2043, 46.4944 ], [ 5.2104, 46.4923 ], [ 5.2059, 46.4863 ], [ 5.2136, 46.4845 ], [ 5.2103, 46.4789 ], [ 5.2159, 46.4745 ], [ 5.2151, 46.4684 ], [ 5.2255, 46.4683 ], [ 5.2352, 46.4579 ], [ 5.2415, 46.4613 ], [ 5.248, 46.4594 ], [ 5.2576, 46.4499 ], [ 5.2662, 46.4512 ], [ 5.2837, 46.4456 ], [ 5.2907, 46.4498 ], [ 5.3149, 46.4451 ], [ 5.3177, 46.4335 ], [ 5.3245, 46.4285 ], [ 5.309, 46.4245 ], [ 5.3077, 46.4168 ], [ 5.3124, 46.416 ], [ 5.3024, 46.417 ], [ 5.2988, 46.4127 ], [ 5.3148, 46.4095 ], [ 5.3342, 46.3974 ], [ 5.3414, 46.4018 ], [ 5.3535, 46.3974 ], [ 5.3521, 46.3934 ], [ 5.3599, 46.3912 ], [ 5.3627, 46.3943 ], [ 5.3634, 46.389 ], [ 5.3779, 46.3822 ], [ 5.3628, 46.3699 ], [ 5.377, 46.3641 ], [ 5.3735, 46.3522 ], [ 5.3806, 46.3458 ], [ 5.4014, 46.3396 ], [ 5.4047, 46.3103 ], [ 5.4102, 46.3091 ], [ 5.4168, 46.3453 ], [ 5.4237, 46.3477 ], [ 5.4378, 46.3157 ], [ 5.4443, 46.3187 ], [ 5.4571, 46.3171 ], [ 5.4594, 46.3232 ], [ 5.4669, 46.3233 ], [ 5.4689, 46.317 ], [ 5.4753, 46.3154 ], [ 5.466, 46.2918 ], [ 5.4589, 46.2907 ], [ 5.4568, 46.2745 ], [ 5.4692, 46.2711 ], [ 5.4738, 46.2643 ], [ 5.5026, 46.2711 ], [ 5.5091, 46.2646 ], [ 5.5391, 46.2688 ], [ 5.5594, 46.2835 ], [ 5.5652, 46.2934 ], [ 5.5935, 46.2944 ], [ 5.6065, 46.3099 ], [ 5.6132, 46.3272 ], [ 5.6305, 46.3302 ], [ 5.6431, 46.3448 ], [ 5.6493, 46.341 ], [ 5.6498, 46.3342 ], [ 5.6444, 46.3248 ], [ 5.6684, 46.3244 ], [ 5.6837, 46.3169 ], [ 5.6846, 46.3109 ], [ 5.7147, 46.3088 ], [ 5.7193, 46.2935 ], [ 5.7145, 46.2809 ], [ 5.7197, 46.2643 ], [ 5.7252, 46.2607 ], [ 5.7439, 46.2666 ], [ 5.7656, 46.2683 ], [ 5.8531, 46.2615 ], [ 5.8643, 46.2712 ], [ 5.8692, 46.265 ], [ 5.8946, 46.2866 ], [ 5.9092, 46.2839 ], [ 5.9218, 46.3122 ], [ 5.9414, 46.3087 ], [ 5.9835, 46.363 ], [ 6.0282, 46.3856 ], [ 6.0606, 46.4175 ], [ 6.0982, 46.4088 ], [ 6.1061, 46.3992 ], [ 6.1129, 46.3975 ], [ 6.1129, 46.3998 ], [ 6.1493, 46.3776 ], [ 6.1598, 46.379 ], [ 6.1702, 46.3665 ], [ 6.1488, 46.3425 ], [ 6.1386, 46.3394 ], [ 6.1387, 46.3328 ], [ 6.1198, 46.3122 ], [ 6.1195, 46.2943 ], [ 6.1124, 46.2937 ], [ 6.1024, 46.2848 ], [ 6.1033, 46.2784 ], [ 6.1135, 46.2724 ], [ 6.11, 46.2704 ], [ 6.1201, 46.2647 ], [ 6.1242, 46.251 ], [ 6.1167, 46.2449 ], [ 6.1018, 46.2375 ], [ 6.0844, 46.2469 ], [ 6.0697, 46.241 ], [ 6.0632, 46.2457 ], [ 6.0462, 46.2312 ], [ 6.0337, 46.2384 ], [ 6.0129, 46.2308 ], [ 6.0026, 46.2209 ], [ 5.9906, 46.222 ], [ 5.9934, 46.2156 ], [ 5.9747, 46.2151 ], [ 5.9692, 46.2064 ], [ 5.9733, 46.2028 ], [ 5.9637, 46.197 ], [ 5.9911, 46.1876 ], [ 5.9953, 46.183 ], [ 5.9885, 46.1709 ], [ 5.9823, 46.1732 ], [ 5.9648, 46.1451 ], [ 5.9656, 46.1367 ], [ 5.9462, 46.1279 ], [ 5.926, 46.1279 ], [ 5.9203, 46.1312 ], [ 5.9035, 46.12 ], [ 5.894, 46.1195 ], [ 5.8853, 46.1079 ], [ 5.8935, 46.0956 ], [ 5.8874, 46.0858 ], [ 5.8593, 46.0853 ], [ 5.8316, 46.1063 ], [ 5.8196, 46.1031 ], [ 5.8227, 46.0923 ], [ 5.8114, 46.0784 ], [ 5.8076, 46.0639 ], [ 5.8142, 46.0572 ], [ 5.807, 46.0438 ], [ 5.8124, 46.024 ], [ 5.8056, 46.0143 ], [ 5.8109, 46.0099 ], [ 5.8105, 45.9882 ], [ 5.834, 45.972 ], [ 5.835, 45.9511 ], [ 5.8252, 45.9389 ], [ 5.8312, 45.9385 ], [ 5.8219, 45.9293 ], [ 5.8284, 45.9197 ], [ 5.8285, 45.9093 ], [ 5.8037, 45.8556 ], [ 5.7972, 45.831 ], [ 5.7841, 45.8165 ], [ 5.7865, 45.8032 ], [ 5.779, 45.7599 ], [ 5.7835, 45.7443 ], [ 5.7698, 45.7413 ], [ 5.7762, 45.7264 ], [ 5.7648, 45.7203 ], [ 5.755, 45.7073 ], [ 5.7488, 45.7053 ], [ 5.7382, 45.7103 ], [ 5.7006, 45.7099 ], [ 5.7098, 45.6865 ], [ 5.6849, 45.6662 ], [ 5.6872, 45.6431 ], [ 5.6781, 45.6384 ], [ 5.6536, 45.6372 ], [ 5.6478, 45.626 ], [ 5.6384, 45.623 ], [ 5.6358, 45.6144 ], [ 5.6288, 45.6108 ], [ 5.6052, 45.6336 ], [ 5.6027, 45.6515 ], [ 5.5874, 45.6599 ], [ 5.5864, 45.6671 ], [ 5.5632, 45.6744 ], [ 5.5525, 45.6723 ], [ 5.5548, 45.6781 ], [ 5.5452, 45.6874 ], [ 5.546, 45.6973 ], [ 5.556, 45.6976 ], [ 5.5668, 45.6841 ], [ 5.5755, 45.6881 ], [ 5.5737, 45.6947 ], [ 5.552, 45.7022 ], [ 5.5544, 45.7073 ], [ 5.5495, 45.7118 ], [ 5.5257, 45.7167 ], [ 5.5162, 45.7323 ], [ 5.4847, 45.7527 ], [ 5.4574, 45.781 ], [ 5.4222, 45.8077 ], [ 5.4212, 45.822 ], [ 5.4362, 45.8281 ], [ 5.419, 45.8397 ], [ 5.4131, 45.8522 ], [ 5.3538, 45.8833 ], [ 5.3409, 45.8805 ], [ 5.3293, 45.8636 ], [ 5.3142, 45.8583 ], [ 5.302, 45.8477 ], [ 5.2889, 45.8111 ], [ 5.2777, 45.8035 ], [ 5.2702, 45.7917 ], [ 5.2236, 45.7687 ], [ 5.1915, 45.7717 ], [ 5.1757, 45.7942 ], [ 5.1679, 45.7952 ], [ 5.158, 45.8034 ], [ 5.1255, 45.8111 ], [ 5.1125, 45.8099 ], [ 5.1144, 45.7991 ], [ 5.1102, 45.7979 ], [ 5.1037, 45.8137 ], [ 5.0635, 45.8094 ], [ 5.0448, 45.8117 ], [ 5.0134, 45.8051 ], [ 5.0031, 45.81 ], [ 4.9816, 45.8054 ], [ 4.9631, 45.811 ], [ 4.9238, 45.804 ], [ 4.9183, 45.807 ], [ 4.9222, 45.8194 ], [ 4.9179, 45.843 ], [ 4.9006, 45.8576 ], [ 4.909, 45.8741 ], [ 4.8838, 45.88 ], [ 4.8807, 45.8972 ], [ 4.872, 45.8946 ], [ 4.8721, 45.9035 ], [ 4.8532, 45.9068 ], [ 4.848, 45.913 ], [ 4.8052, 45.8963 ], [ 4.8031, 45.9005 ], [ 4.8108, 45.9089 ], [ 4.8086, 45.9202 ], [ 4.7898, 45.9228 ], [ 4.7771, 45.9384 ], [ 4.7542, 45.9348 ], [ 4.7373, 45.9382 ], [ 4.7287, 45.9443 ], [ 4.7309, 45.9511 ], [ 4.7485, 45.9624 ], [ 4.7545, 45.9723 ], [ 4.744, 46.0182 ], [ 4.747, 46.0315 ], [ 4.7395, 46.0472 ], [ 4.7596, 46.0619 ], [ 4.7617, 46.0688 ], [ 4.7468, 46.0878 ], [ 4.7975, 46.1407 ], [ 4.8026, 46.1521 ], [ 4.8003, 46.1593 ], [ 4.7866, 46.1663 ], [ 4.7802, 46.1767 ] ] ] } }
]
}
