{
"type": "FeatureCollection",
"name": "dep03",
"crs": { "type": "name", "properties": { "name": "urn:ogc:def:crs:OGC:1.3:CRS84" } },
"xy_coordinate_resolution": 0.0001,
"features": [
{ "type": "Feature", "properties": { "code": "03", "nom": "Allier" }, "geometry": { "type": "Polygon", "coordinates": [ [ [ 3.0321, 46.7949 ], [ 3.0415, 46.7671 ], [ 3.0668, 46.7455 ], [ 3.0843, 46.7374 ], [ 3.1298, 46.7272 ], [ 3.1632, 46.6935 ], [ 3.1955, 46.6806 ], [ 3.2044, 46.6788 ], [ 3.2219, 46.6852 ], [ 3.2285, 46.6963 ], [ 3.26, 46.7077 ], [ 3.2698, 46.7167 ], [ 3.2863, 46.7139 ], [ 3.3009, 46.7163 ], [ 3.3025, 46.7039 ], [ 3.314, 46.6887 ], [ 3.3467, 46.6844 ], [ 3.3658, 46.6896 ], [ 3.3771, 46.7018 ], [ 3.3786, 46.7124 ], [ 3.3974, 46.7146 ], [ 3.4172, 46.7103 ], [ 3.4218, 46.7137 ], [ 3.4337, 46.7122 ], [ 3.4284, 46.7008 ], [ 3.433, 46.6933 ], [ 3.453, 46.6901 ], [ 3.4546, 46.6753 ], [ 3.4453, 46.6708 ], [ 3.4473, 46.6636 ], [ 3.4421, 46.662 ], [ 3.4573, 46.6518 ], [ 3.477, 46.6535 ], [ 3.4818, 46.6507 ], [ 3.4873, 46.6548 ], [ 3.4863, 46.6608 ], [ 3.5112, 46.6756 ], [ 3.5144, 46.6836 ], [ 3.5321, 46.6888 ], [ 3.5465, 46.6783 ], [ 3.5612, 46.6886 ], [ 3.5482, 46.7062 ], [ 3.5472, 46.7214 ], [ 3.5688, 46.7155 ], [ 3.5742, 46.7163 ], [ 3.5759, 46.7229 ], [ 3.5773, 46.7148 ], [ 3.598, 46.724 ], [ 3.5847, 46.7445 ], [ 3.5757, 46.7495 ], [ 3.5886, 46.7613 ], [ 3.5978, 46.762 ], [ 3.602, 46.7512 ], [ 3.6234, 46.7538 ], [ 3.6296, 46.748 ], [ 3.6233, 46.7382 ], [ 3.6376, 46.7245 ], [ 3.6376, 46.7075 ], [ 3.6507, 46.7052 ], [ 3.6578, 46.6852 ], [ 3.6732, 46.6818 ], [ 3.669, 46.6735 ], [ 3.697, 46.6606 ], [ 3.7092, 46.6353 ], [ 3.724, 46.6263 ], [ 3.7129, 46.6102 ], [ 3.7197, 46.605 ], [ 3.7324, 46.6049 ], [ 3.7373, 46.6016 ], [ 3.7339, 46.5951 ], [ 3.7431, 46.5655 ], [ 3.7315, 46.5496 ], [ 3.7419, 46.5395 ], [ 3.7547, 46.536 ], [ 3.7725, 46.5385 ], [ 3.7807, 46.5284 ], [ 3.7932, 46.5278 ], [ 3.8051, 46.5193 ], [ 3.8392, 46.5313 ], [ 3.8465, 46.5244 ], [ 3.8398, 46.5176 ], [ 3.8419, 46.5142 ], [ 3.8572, 46.5156 ], [ 3.8638, 46.5127 ], [ 3.8604, 46.4956 ], [ 3.8649, 46.4897 ], [ 3.8952, 46.4807 ], [ 3.9013, 46.4906 ], [ 3.9102, 46.4954 ], [ 3.9376, 46.4908 ], [ 3.9557, 46.4917 ], [ 3.9523, 46.4785 ], [ 3.9768, 46.4789 ], [ 3.9791, 46.4739 ], [ 4.0008, 46.4625 ], [ 3.9975, 46.4503 ], [ 4.0055, 46.4425 ], [ 3.9895, 46.4378 ], [ 3.9961, 46.4274 ], [ 3.9841, 46.4196 ], [ 3.9887, 46.4088 ], [ 3.9772, 46.3992 ], [ 3.9916, 46.3696 ], [ 3.9847, 46.3297 ], [ 4.0046, 46.3275 ], [ 3.9894, 46.323 ], [ 3.9898, 46.3151 ], [ 3.9714, 46.3215 ], [ 3.9589, 46.3188 ], [ 3.9458, 46.3212 ], [ 3.9495, 46.3139 ], [ 3.9454, 46.3005 ], [ 3.8972, 46.2925 ], [ 3.8993, 46.2892 ], [ 3.8912, 46.2853 ], [ 3.8981, 46.2749 ], [ 3.8777, 46.2758 ], [ 3.8676, 46.2625 ], [ 3.8592, 46.2644 ], [ 3.8348, 46.2592 ], [ 3.8038, 46.2581 ], [ 3.8073, 46.2426 ], [ 3.8034, 46.2397 ], [ 3.7822, 46.244 ], [ 3.7696, 46.2414 ], [ 3.772, 46.2287 ], [ 3.7854, 46.2207 ], [ 3.7966, 46.207 ], [ 3.7882, 46.2021 ], [ 3.789, 46.1857 ], [ 3.8088, 46.1646 ], [ 3.7898, 46.1549 ], [ 3.8017, 46.1309 ], [ 3.7935, 46.1122 ], [ 3.8058, 46.1078 ], [ 3.8215, 46.0898 ], [ 3.8148, 46.0845 ], [ 3.8201, 46.0806 ], [ 3.8055, 46.0523 ], [ 3.8137, 46.0397 ], [ 3.8154, 46.0195 ], [ 3.8297, 45.9992 ], [ 3.8226, 45.9926 ], [ 3.8238, 45.9873 ], [ 3.7988, 45.9839 ], [ 3.7871, 45.973 ], [ 3.7648, 45.9761 ], [ 3.756, 45.9828 ], [ 3.754, 45.9717 ], [ 3.7418, 45.966 ], [ 3.7096, 45.9741 ], [ 3.7019, 45.9686 ], [ 3.7058, 45.9566 ], [ 3.6934, 45.9476 ], [ 3.694, 45.9307 ], [ 3.6818, 45.9417 ], [ 3.6768, 45.9581 ], [ 3.6416, 45.9666 ], [ 3.632, 45.9611 ], [ 3.6256, 45.9854 ], [ 3.5921, 46.024 ], [ 3.5848, 46.0237 ], [ 3.5768, 46.0176 ], [ 3.5563, 46.019 ], [ 3.5435, 46.0132 ], [ 3.5374, 46.0219 ], [ 3.5234, 46.0217 ], [ 3.5207, 46.0186 ], [ 3.5253, 46.0121 ], [ 3.5064, 46.017 ], [ 3.5007, 46.0132 ], [ 3.4826, 46.0142 ], [ 3.4641, 46.0082 ], [ 3.4636, 46.021 ], [ 3.468, 46.0247 ], [ 3.4618, 46.0399 ], [ 3.4719, 46.0392 ], [ 3.4602, 46.0507 ], [ 3.4594, 46.061 ], [ 3.4536, 46.0638 ], [ 3.4436, 46.0596 ], [ 3.4337, 46.0608 ], [ 3.4186, 46.0737 ], [ 3.402, 46.0661 ], [ 3.3814, 46.0656 ], [ 3.3724, 46.0548 ], [ 3.3548, 46.053 ], [ 3.332, 46.0441 ], [ 3.3354, 46.0548 ], [ 3.3156, 46.0571 ], [ 3.3162, 46.062 ], [ 3.3013, 46.061 ], [ 3.3024, 46.0658 ], [ 3.2952, 46.0625 ], [ 3.2811, 46.0665 ], [ 3.2772, 46.0618 ], [ 3.2566, 46.0658 ], [ 3.2448, 46.0621 ], [ 3.2336, 46.0636 ], [ 3.2291, 46.0705 ], [ 3.2241, 46.0709 ], [ 3.2214, 46.0667 ], [ 3.2145, 46.0749 ], [ 3.2035, 46.0726 ], [ 3.184, 46.075 ], [ 3.1753, 46.0659 ], [ 3.1309, 46.0694 ], [ 3.1156, 46.0807 ], [ 3.0983, 46.0836 ], [ 3.1011, 46.0931 ], [ 3.0908, 46.1052 ], [ 3.0906, 46.1145 ], [ 3.0674, 46.1028 ], [ 3.0481, 46.1003 ], [ 3.0385, 46.1074 ], [ 3.0226, 46.1017 ], [ 3.0143, 46.1029 ], [ 3.0113, 46.1128 ], [ 3.001, 46.1203 ], [ 2.985, 46.1251 ], [ 2.9716, 46.1218 ], [ 2.9624, 46.1302 ], [ 2.952, 46.1713 ], [ 2.9433, 46.1681 ], [ 2.9133, 46.1767 ], [ 2.9207, 46.1909 ], [ 2.9096, 46.2035 ], [ 2.9161, 46.2083 ], [ 2.9147, 46.214 ], [ 2.9266, 46.2194 ], [ 2.9337, 46.2185 ], [ 2.9411, 46.225 ], [ 2.9352, 46.224 ], [ 2.9316, 46.2329 ], [ 2.9454, 46.2408 ], [ 2.9214, 46.2503 ], [ 2.9044, 46.2486 ], [ 2.8909, 46.2536 ], [ 2.8648, 46.2495 ], [ 2.8598, 46.2566 ], [ 2.845, 46.2487 ], [ 2.8379, 46.2512 ], [ 2.8263, 46.2417 ], [ 2.8192, 46.2418 ], [ 2.8176, 46.2321 ], [ 2.8233, 46.2199 ], [ 2.8179, 46.2181 ], [ 2.8169, 46.2024 ], [ 2.8088, 46.1947 ], [ 2.7868, 46.1986 ], [ 2.7697, 46.2118 ], [ 2.7589, 46.2097 ], [ 2.7492, 46.2193 ], [ 2.733, 46.2233 ], [ 2.7207, 46.2118 ], [ 2.7322, 46.1943 ], [ 2.7219, 46.1877 ], [ 2.7231, 46.1815 ], [ 2.7017, 46.1807 ], [ 2.6749, 46.172 ], [ 2.6764, 46.1571 ], [ 2.6682, 46.1548 ], [ 2.67, 46.1473 ], [ 2.6614, 46.1426 ], [ 2.6641, 46.1405 ], [ 2.6562, 46.1329 ], [ 2.655, 46.1244 ], [ 2.6407, 46.1185 ], [ 2.6176, 46.1238 ], [ 2.6069, 46.1303 ], [ 2.5914, 46.1268 ], [ 2.5724, 46.1418 ], [ 2.5654, 46.143 ], [ 2.5585, 46.175 ], [ 2.5432, 46.1756 ], [ 2.526, 46.1877 ], [ 2.528, 46.1955 ], [ 2.5217, 46.203 ], [ 2.5259, 46.2072 ], [ 2.5196, 46.2095 ], [ 2.5234, 46.2125 ], [ 2.5147, 46.2248 ], [ 2.5146, 46.2399 ], [ 2.511, 46.2391 ], [ 2.5036, 46.2469 ], [ 2.4892, 46.2475 ], [ 2.4771, 46.2694 ], [ 2.4808, 46.281 ], [ 2.47, 46.2881 ], [ 2.443, 46.295 ], [ 2.4319, 46.2944 ], [ 2.428, 46.2853 ], [ 2.4213, 46.2846 ], [ 2.4142, 46.2969 ], [ 2.4211, 46.3015 ], [ 2.4207, 46.3101 ], [ 2.3861, 46.332 ], [ 2.3796, 46.3276 ], [ 2.3758, 46.3158 ], [ 2.365, 46.3107 ], [ 2.3549, 46.3257 ], [ 2.3359, 46.3233 ], [ 2.3309, 46.3287 ], [ 2.3213, 46.329 ], [ 2.3116, 46.3418 ], [ 2.301, 46.3422 ], [ 2.3094, 46.3487 ], [ 2.3028, 46.3544 ], [ 2.3114, 46.3556 ], [ 2.3112, 46.3599 ], [ 2.3169, 46.3584 ], [ 2.3231, 46.3674 ], [ 2.3379, 46.3641 ], [ 2.3314, 46.3787 ], [ 2.3155, 46.3752 ], [ 2.2983, 46.3841 ], [ 2.2867, 46.3828 ], [ 2.2778, 46.4097 ], [ 2.282, 46.4108 ], [ 2.2815, 46.4217 ], [ 2.2769, 46.4251 ], [ 2.2846, 46.4399 ], [ 2.2834, 46.4493 ], [ 2.3008, 46.4724 ], [ 2.3055, 46.4754 ], [ 2.3207, 46.4685 ], [ 2.3279, 46.4738 ], [ 2.3296, 46.4831 ], [ 2.3238, 46.4901 ], [ 2.3346, 46.501 ], [ 2.3654, 46.5179 ], [ 2.4169, 46.5206 ], [ 2.422, 46.5257 ], [ 2.4301, 46.5265 ], [ 2.4417, 46.525 ], [ 2.4455, 46.52 ], [ 2.4829, 46.5327 ], [ 2.4969, 46.5337 ], [ 2.4972, 46.5215 ], [ 2.5124, 46.5239 ], [ 2.5182, 46.5306 ], [ 2.5308, 46.5294 ], [ 2.5294, 46.5233 ], [ 2.5366, 46.5197 ], [ 2.5532, 46.5294 ], [ 2.5725, 46.5338 ], [ 2.5835, 46.5427 ], [ 2.615, 46.5533 ], [ 2.6095, 46.5631 ], [ 2.6033, 46.5643 ], [ 2.6094, 46.5713 ], [ 2.5972, 46.5929 ], [ 2.6001, 46.5952 ], [ 2.5942, 46.5972 ], [ 2.5923, 46.5937 ], [ 2.5816, 46.5932 ], [ 2.5778, 46.6079 ], [ 2.5684, 46.6094 ], [ 2.5883, 46.616 ], [ 2.5843, 46.6258 ], [ 2.5967, 46.6372 ], [ 2.5931, 46.6466 ], [ 2.5667, 46.6529 ], [ 2.5706, 46.6593 ], [ 2.5943, 46.6667 ], [ 2.5978, 46.6647 ], [ 2.6054, 46.6712 ], [ 2.6072, 46.6605 ], [ 2.6174, 46.6608 ], [ 2.6239, 46.6566 ], [ 2.6338, 46.6736 ], [ 2.625, 46.6731 ], [ 2.62, 46.6797 ], [ 2.6234, 46.6896 ], [ 2.6396, 46.6915 ], [ 2.6451, 46.6872 ], [ 2.6547, 46.6965 ], [ 2.6744, 46.7019 ], [ 2.6778, 46.7046 ], [ 2.6716, 46.7089 ], [ 2.686, 46.7144 ], [ 2.6856, 46.7226 ], [ 2.6917, 46.7196 ], [ 2.6961, 46.7235 ], [ 2.7023, 46.7182 ], [ 2.7069, 46.7254 ], [ 2.7008, 46.728 ], [ 2.705, 46.7394 ], [ 2.7145, 46.7445 ], [ 2.7186, 46.7417 ], [ 2.7289, 46.7485 ], [ 2.7345, 46.7462 ], [ 2.7442, 46.7289 ], [ 2.7568, 46.7248 ], [ 2.7585, 46.7177 ], [ 2.7704, 46.7233 ], [ 2.7737, 46.7182 ], [ 2.7859, 46.7225 ], [ 2.7855, 46.7271 ], [ 2.7951, 46.7343 ], [ 2.8275, 46.7353 ], [ 2.8352, 46.728 ], [ 2.8468, 46.7271 ], [ 2.8454, 46.7429 ], [ 2.877, 46.7615 ], [ 2.8762, 46.7684 ], [ 2.9104, 46.7794 ], [ 2.9079, 46.7877 ], [ 2.9133, 46.791 ], [ 2.9315, 46.7957 ], [ 2.9532, 46.7911 ], [ 2.9536, 46.7972 ], [ 2.9628, 46.804 ], [ 2.9824, 46.8029 ], [ 2.9926, 46.7971 ], [ 3.0175, 46.7999 ], [ 3.0246, 46.794 ], [ 3.0321, 46.7949 ] ] ] } }
]
}
