{
"type": "FeatureCollection",
"name": "dep02",
"crs": { "type": "name", "properties": { "name": "urn:ogc:def:crs:OGC:1.3:CRS84" } },
"xy_coordinate_resolution": 0.0001,
"features": [
{ "type": "Feature", "properties": { "code": "02", "nom": "Aisne" }, "geometry": { "type": "Polygon", "coordinates": [ [ [ 3.173, 50.0113 ], [ 3.209, 50.0197 ], [ 3.2273, 50.0325 ], [ 3.2344, 50.0278 ], [ 3.2443, 50.0308 ], [ 3.2582, 50.0244 ], [ 3.2581, 50.032 ], [ 3.271, 50.0294 ], [ 3.2782, 50.0218 ], [ 3.2734, 50.0204 ], [ 3.2777, 50.0143 ], [ 3.3131, 50.02 ], [ 3.3279, 50.0158 ], [ 3.3371, 50.0171 ], [ 3.3421, 50.0265 ], [ 3.3508, 50.0272 ], [ 3.3521, 50.0358 ], [ 3.3635, 50.0367 ], [ 3.3774, 50.0367 ], [ 3.3889, 50.0307 ], [ 3.3989, 50.0348 ], [ 3.4135, 50.0257 ], [ 3.4249, 50.0275 ], [ 3.4282, 50.0221 ], [ 3.4907, 50.0189 ], [ 3.5071, 50.0358 ], [ 3.5252, 50.0361 ], [ 3.532, 50.0458 ], [ 3.5432, 50.046 ], [ 3.5414, 50.0552 ], [ 3.5672, 50.0533 ], [ 3.594, 50.0441 ], [ 3.6141, 50.025 ], [ 3.6417, 50.0387 ], [ 3.6585, 50.0294 ], [ 3.6623, 50.0391 ], [ 3.6486, 50.0426 ], [ 3.658, 50.0445 ], [ 3.6608, 50.052 ], [ 3.7152, 50.0693 ], [ 3.7466, 50.0528 ], [ 3.7744, 50.0505 ], [ 3.7779, 50.046 ], [ 3.7992, 50.0481 ], [ 3.8158, 50.039 ], [ 3.8355, 50.0483 ], [ 3.8487, 50.0391 ], [ 3.875, 50.0366 ], [ 3.8872, 50.0304 ], [ 3.8783, 50.0279 ], [ 3.8897, 50.0226 ], [ 3.8874, 50.0095 ], [ 3.9235, 50.0264 ], [ 3.9443, 50.0302 ], [ 3.9501, 50.0271 ], [ 3.9823, 50.0444 ], [ 3.9895, 50.0414 ], [ 3.9955, 50.0277 ], [ 3.9795, 50.003 ], [ 3.9808, 49.9936 ], [ 4.0054, 49.9961 ], [ 4.0117, 49.9855 ], [ 4.0216, 49.9861 ], [ 4.0311, 49.9821 ], [ 4.0342, 49.9858 ], [ 4.0567, 49.9854 ], [ 4.0837, 49.979 ], [ 4.0843, 49.9693 ], [ 4.1409, 49.9788 ], [ 4.1521, 49.9747 ], [ 4.1728, 49.9772 ], [ 4.1788, 49.972 ], [ 4.1971, 49.9677 ], [ 4.1963, 49.9553 ], [ 4.2332, 49.9578 ], [ 4.2299, 49.9462 ], [ 4.2207, 49.9372 ], [ 4.2176, 49.9127 ], [ 4.2334, 49.9094 ], [ 4.235, 49.904 ], [ 4.2557, 49.9032 ], [ 4.2488, 49.8568 ], [ 4.233, 49.8484 ], [ 4.2143, 49.8061 ], [ 4.2218, 49.8045 ], [ 4.219, 49.8002 ], [ 4.2267, 49.793 ], [ 4.2059, 49.7782 ], [ 4.2139, 49.7711 ], [ 4.2286, 49.7731 ], [ 4.2428, 49.7671 ], [ 4.242, 49.7625 ], [ 4.2496, 49.7571 ], [ 4.2297, 49.7466 ], [ 4.2259, 49.7329 ], [ 4.2319, 49.7304 ], [ 4.1915, 49.716 ], [ 4.1852, 49.6989 ], [ 4.1442, 49.6885 ], [ 4.1486, 49.6783 ], [ 4.127, 49.6779 ], [ 4.1221, 49.6582 ], [ 4.1255, 49.6511 ], [ 4.1158, 49.6329 ], [ 4.1022, 49.6326 ], [ 4.0992, 49.6283 ], [ 4.0863, 49.6293 ], [ 4.069, 49.6375 ], [ 4.0557, 49.6343 ], [ 4.0411, 49.6383 ], [ 4.0379, 49.6229 ], [ 4.0246, 49.6213 ], [ 4.0473, 49.5995 ], [ 4.0665, 49.5944 ], [ 4.0579, 49.5916 ], [ 4.0624, 49.586 ], [ 4.0594, 49.5761 ], [ 4.0633, 49.5712 ], [ 4.0766, 49.5711 ], [ 4.0752, 49.5657 ], [ 4.0625, 49.5612 ], [ 4.0583, 49.5525 ], [ 4.0504, 49.5515 ], [ 4.0488, 49.5453 ], [ 4.0758, 49.5415 ], [ 4.0758, 49.5183 ], [ 4.072, 49.5164 ], [ 4.0621, 49.5227 ], [ 4.0566, 49.521 ], [ 4.0619, 49.5126 ], [ 4.0576, 49.5082 ], [ 4.0407, 49.5085 ], [ 4.0424, 49.4687 ], [ 4.0679, 49.4449 ], [ 4.0602, 49.4472 ], [ 4.0521, 49.4438 ], [ 4.0503, 49.4476 ], [ 4.0377, 49.4383 ], [ 4.0437, 49.4287 ], [ 4.0423, 49.4166 ], [ 4.0471, 49.4176 ], [ 4.0503, 49.4123 ], [ 4.0399, 49.3974 ], [ 4.0355, 49.3599 ], [ 4.0127, 49.3583 ], [ 4.0069, 49.3696 ], [ 3.9963, 49.3717 ], [ 3.9949, 49.3779 ], [ 3.9613, 49.3773 ], [ 3.9426, 49.3889 ], [ 3.9252, 49.4076 ], [ 3.9147, 49.4035 ], [ 3.9103, 49.3948 ], [ 3.8957, 49.3928 ], [ 3.8933, 49.3991 ], [ 3.8812, 49.4053 ], [ 3.8696, 49.4067 ], [ 3.8552, 49.4012 ], [ 3.8453, 49.4031 ], [ 3.8463, 49.4006 ], [ 3.8224, 49.4024 ], [ 3.8367, 49.3967 ], [ 3.8396, 49.391 ], [ 3.8599, 49.3861 ], [ 3.8563, 49.3812 ], [ 3.8598, 49.3727 ], [ 3.8526, 49.3657 ], [ 3.8561, 49.3642 ], [ 3.8479, 49.3646 ], [ 3.8587, 49.3541 ], [ 3.8528, 49.345 ], [ 3.8241, 49.354 ], [ 3.8241, 49.3574 ], [ 3.8022, 49.3589 ], [ 3.7797, 49.3519 ], [ 3.7775, 49.3558 ], [ 3.7578, 49.3476 ], [ 3.7411, 49.3476 ], [ 3.7422, 49.3365 ], [ 3.7013, 49.3325 ], [ 3.6891, 49.3269 ], [ 3.6692, 49.3248 ], [ 3.6652, 49.3198 ], [ 3.6439, 49.3127 ], [ 3.6435, 49.303 ], [ 3.6383, 49.3014 ], [ 3.659, 49.2868 ], [ 3.6516, 49.2784 ], [ 3.6615, 49.27 ], [ 3.6539, 49.2542 ], [ 3.6607, 49.2601 ], [ 3.6686, 49.2409 ], [ 3.6781, 49.2353 ], [ 3.67, 49.2329 ], [ 3.6636, 49.2219 ], [ 3.6515, 49.2216 ], [ 3.6563, 49.2184 ], [ 3.6528, 49.2154 ], [ 3.6625, 49.209 ], [ 3.6818, 49.2053 ], [ 3.6761, 49.2009 ], [ 3.6816, 49.1975 ], [ 3.6986, 49.2055 ], [ 3.7049, 49.1986 ], [ 3.6969, 49.1945 ], [ 3.6973, 49.1884 ], [ 3.7069, 49.1859 ], [ 3.7044, 49.1814 ], [ 3.7112, 49.1782 ], [ 3.7254, 49.1735 ], [ 3.7301, 49.1783 ], [ 3.7512, 49.1777 ], [ 3.7488, 49.1571 ], [ 3.7396, 49.1569 ], [ 3.7027, 49.1414 ], [ 3.698, 49.1498 ], [ 3.6873, 49.1542 ], [ 3.6534, 49.1487 ], [ 3.6222, 49.1511 ], [ 3.6206, 49.1392 ], [ 3.6096, 49.135 ], [ 3.6117, 49.1287 ], [ 3.6, 49.1207 ], [ 3.6031, 49.1147 ], [ 3.6118, 49.1181 ], [ 3.6385, 49.0774 ], [ 3.6238, 49.0709 ], [ 3.6091, 49.0731 ], [ 3.5999, 49.062 ], [ 3.5877, 49.0594 ], [ 3.5852, 49.0389 ], [ 3.5876, 49.0338 ], [ 3.6157, 49.0336 ], [ 3.6313, 49.0397 ], [ 3.6426, 49.037 ], [ 3.6501, 49.0428 ], [ 3.6635, 49.0373 ], [ 3.679, 49.0183 ], [ 3.6777, 49.014 ], [ 3.6603, 49.0043 ], [ 3.6399, 49.0041 ], [ 3.6233, 48.9827 ], [ 3.6266, 48.9798 ], [ 3.6212, 48.966 ], [ 3.6009, 48.9663 ], [ 3.5916, 48.9604 ], [ 3.6016, 48.9535 ], [ 3.6025, 48.9439 ], [ 3.5927, 48.9446 ], [ 3.5744, 48.939 ], [ 3.5764, 48.9233 ], [ 3.5642, 48.9113 ], [ 3.56, 48.917 ], [ 3.5286, 48.9121 ], [ 3.5083, 48.8904 ], [ 3.5019, 48.8719 ], [ 3.4818, 48.8659 ], [ 3.4852, 48.8519 ], [ 3.4705, 48.851 ], [ 3.4607, 48.8394 ], [ 3.4454, 48.8432 ], [ 3.4522, 48.8563 ], [ 3.4456, 48.8604 ], [ 3.4303, 48.8607 ], [ 3.424, 48.8674 ], [ 3.4042, 48.864 ], [ 3.4005, 48.8677 ], [ 3.4059, 48.8759 ], [ 3.3932, 48.8754 ], [ 3.3917, 48.8709 ], [ 3.3814, 48.8716 ], [ 3.3837, 48.8889 ], [ 3.369, 48.8937 ], [ 3.3765, 48.9097 ], [ 3.3683, 48.9277 ], [ 3.3605, 48.9184 ], [ 3.3536, 48.9152 ], [ 3.3465, 48.917 ], [ 3.3303, 48.9087 ], [ 3.3131, 48.9212 ], [ 3.3129, 48.9336 ], [ 3.3048, 48.9488 ], [ 3.2845, 48.9405 ], [ 3.2649, 48.9391 ], [ 3.2494, 48.9744 ], [ 3.2312, 48.9768 ], [ 3.2292, 48.9884 ], [ 3.2093, 48.9938 ], [ 3.2072, 49.0007 ], [ 3.1961, 49.0048 ], [ 3.1975, 49.0085 ], [ 3.1674, 49.0124 ], [ 3.161, 49.0242 ], [ 3.1769, 49.0307 ], [ 3.1805, 49.0445 ], [ 3.1909, 49.0476 ], [ 3.19, 49.0526 ], [ 3.1822, 49.0524 ], [ 3.1766, 49.0696 ], [ 3.1536, 49.0833 ], [ 3.1652, 49.0996 ], [ 3.144, 49.1019 ], [ 3.1382, 49.1071 ], [ 3.081, 49.1118 ], [ 3.0719, 49.1176 ], [ 3.0898, 49.1241 ], [ 3.0967, 49.1316 ], [ 3.0934, 49.1421 ], [ 3.1112, 49.1319 ], [ 3.1153, 49.1391 ], [ 3.1055, 49.1469 ], [ 3.1271, 49.1451 ], [ 3.1249, 49.1484 ], [ 3.1371, 49.1513 ], [ 3.1481, 49.1608 ], [ 3.1214, 49.1616 ], [ 3.116, 49.1699 ], [ 3.1083, 49.1664 ], [ 3.1167, 49.1765 ], [ 3.1129, 49.1927 ], [ 3.1007, 49.1975 ], [ 3.0969, 49.1947 ], [ 3.1009, 49.192 ], [ 3.0927, 49.1894 ], [ 3.084, 49.1727 ], [ 3.0893, 49.1615 ], [ 3.099, 49.1549 ], [ 3.0942, 49.1542 ], [ 3.0816, 49.1648 ], [ 3.0875, 49.1875 ], [ 3.0815, 49.1871 ], [ 3.085, 49.1904 ], [ 3.0802, 49.1944 ], [ 3.0568, 49.1966 ], [ 3.065, 49.2047 ], [ 3.0457, 49.2099 ], [ 3.0356, 49.2049 ], [ 3.0237, 49.2155 ], [ 3.0063, 49.2154 ], [ 2.9954, 49.2091 ], [ 3.0025, 49.2062 ], [ 2.9967, 49.2006 ], [ 3.0021, 49.188 ], [ 3.0124, 49.1846 ], [ 3.026, 49.193 ], [ 3.0258, 49.1875 ], [ 3.0351, 49.1836 ], [ 3.0379, 49.1692 ], [ 3.023, 49.1699 ], [ 3.0163, 49.1824 ], [ 2.9964, 49.1866 ], [ 2.9917, 49.1939 ], [ 2.9837, 49.1842 ], [ 2.9716, 49.1877 ], [ 2.9677, 49.1918 ], [ 2.9738, 49.1972 ], [ 2.9663, 49.2053 ], [ 2.9713, 49.2081 ], [ 2.9706, 49.2143 ], [ 2.9621, 49.2183 ], [ 2.9587, 49.227 ], [ 2.9648, 49.2326 ], [ 3.0034, 49.235 ], [ 3.0149, 49.23 ], [ 3.0038, 49.2214 ], [ 3.0144, 49.2224 ], [ 3.0217, 49.2162 ], [ 3.0261, 49.2216 ], [ 3.0322, 49.2216 ], [ 3.0318, 49.2268 ], [ 3.0369, 49.2222 ], [ 3.0419, 49.2304 ], [ 3.0333, 49.2381 ], [ 3.032, 49.254 ], [ 3.0259, 49.2599 ], [ 3.0269, 49.2755 ], [ 3.0361, 49.2788 ], [ 3.0376, 49.2864 ], [ 3.0254, 49.2879 ], [ 3.0171, 49.28 ], [ 3.0139, 49.2821 ], [ 3.021, 49.2897 ], [ 3.0051, 49.2929 ], [ 2.9959, 49.2867 ], [ 2.9871, 49.2879 ], [ 2.9957, 49.2963 ], [ 2.9679, 49.3027 ], [ 2.9789, 49.3058 ], [ 2.9801, 49.3114 ], [ 2.9726, 49.3119 ], [ 2.9667, 49.3176 ], [ 2.9684, 49.3263 ], [ 2.9931, 49.3329 ], [ 3.0015, 49.34 ], [ 3.0209, 49.3365 ], [ 3.0217, 49.333 ], [ 3.033, 49.3314 ], [ 3.0363, 49.3257 ], [ 3.0439, 49.3288 ], [ 3.0422, 49.3331 ], [ 3.0618, 49.3405 ], [ 3.0612, 49.3453 ], [ 3.0747, 49.349 ], [ 3.079, 49.3739 ], [ 3.0951, 49.3765 ], [ 3.0904, 49.3939 ], [ 3.0972, 49.4051 ], [ 3.0931, 49.4326 ], [ 3.0978, 49.4372 ], [ 3.1107, 49.4384 ], [ 3.1207, 49.4316 ], [ 3.1319, 49.4318 ], [ 3.1601, 49.4393 ], [ 3.1662, 49.447 ], [ 3.1538, 49.4547 ], [ 3.1071, 49.4682 ], [ 3.1045, 49.4728 ], [ 3.1115, 49.4781 ], [ 3.1238, 49.4801 ], [ 3.1239, 49.4863 ], [ 3.1213, 49.4937 ], [ 3.1004, 49.5057 ], [ 3.0963, 49.5179 ], [ 3.1217, 49.5207 ], [ 3.1276, 49.527 ], [ 3.1259, 49.5418 ], [ 3.1315, 49.5434 ], [ 3.1286, 49.5519 ], [ 3.1339, 49.56 ], [ 3.1269, 49.5639 ], [ 3.1261, 49.5701 ], [ 3.1384, 49.576 ], [ 3.1339, 49.5899 ], [ 3.1242, 49.5963 ], [ 3.122, 49.6037 ], [ 3.0936, 49.6225 ], [ 3.1128, 49.6313 ], [ 3.1084, 49.6369 ], [ 3.1129, 49.6418 ], [ 3.1054, 49.6503 ], [ 3.0965, 49.6506 ], [ 3.0978, 49.6567 ], [ 3.108, 49.6581 ], [ 3.1083, 49.6647 ], [ 3.1173, 49.6667 ], [ 3.1211, 49.6602 ], [ 3.1277, 49.6619 ], [ 3.1242, 49.6769 ], [ 3.1143, 49.6838 ], [ 3.1264, 49.6966 ], [ 3.1184, 49.706 ], [ 3.1192, 49.7182 ], [ 3.1144, 49.719 ], [ 3.1136, 49.7273 ], [ 3.1005, 49.7326 ], [ 3.0941, 49.7494 ], [ 3.1004, 49.7661 ], [ 3.0782, 49.7658 ], [ 3.0655, 49.7705 ], [ 3.0679, 49.7745 ], [ 3.0613, 49.7813 ], [ 3.086, 49.792 ], [ 3.083, 49.7971 ], [ 3.0878, 49.8031 ], [ 3.0779, 49.8127 ], [ 3.085, 49.818 ], [ 3.0783, 49.8224 ], [ 3.0607, 49.8201 ], [ 3.0554, 49.8323 ], [ 3.0855, 49.8438 ], [ 3.0796, 49.8662 ], [ 3.0702, 49.873 ], [ 3.0755, 49.8785 ], [ 3.0848, 49.8786 ], [ 3.0828, 49.8663 ], [ 3.0875, 49.8661 ], [ 3.1127, 49.8779 ], [ 3.12, 49.8843 ], [ 3.1165, 49.8964 ], [ 3.1238, 49.9009 ], [ 3.1182, 49.9022 ], [ 3.1209, 49.9045 ], [ 3.1157, 49.9085 ], [ 3.1214, 49.9089 ], [ 3.118, 49.9143 ], [ 3.1255, 49.9194 ], [ 3.1227, 49.9244 ], [ 3.1376, 49.9321 ], [ 3.1361, 49.9356 ], [ 3.1646, 49.9474 ], [ 3.1594, 49.9522 ], [ 3.1681, 49.9615 ], [ 3.1627, 49.965 ], [ 3.203, 49.9839 ], [ 3.1925, 49.9889 ], [ 3.1737, 49.9858 ], [ 3.1729, 49.9899 ], [ 3.1649, 49.9892 ], [ 3.1702, 49.991 ], [ 3.1679, 49.995 ], [ 3.165, 49.9907 ], [ 3.1557, 49.9916 ], [ 3.173, 50.0113 ] ], [ [ 2.9989, 49.1911 ], [ 2.9967, 49.1926 ], [ 2.9966, 49.1912 ], [ 2.9989, 49.1911 ] ], [ [ 3.047, 49.2294 ], [ 3.0434, 49.2277 ], [ 3.0484, 49.2275 ], [ 3.047, 49.2294 ] ], [ [ 2.9902, 49.2107 ], [ 3.0028, 49.2188 ], [ 2.9978, 49.2236 ], [ 2.9818, 49.2164 ], [ 2.9902, 49.2107 ] ] ] } }
]
}
