{
"type": "FeatureCollection",
"name": "dep08",
"crs": { "type": "name", "properties": { "name": "urn:ogc:def:crs:OGC:1.3:CRS84" } },
"xy_coordinate_resolution": 0.0001,
"features": [
{ "type": "Feature", "properties": { "code": "08", "nom": "Ardennes" }, "geometry": { "type": "Polygon", "coordinates": [ [ [ 4.2332, 49.9578 ], [ 4.2693, 49.9653 ], [ 4.2973, 49.9646 ], [ 4.3087, 49.9697 ], [ 4.3229, 49.9631 ], [ 4.3374, 49.9621 ], [ 4.3501, 49.952 ], [ 4.3815, 49.9542 ], [ 4.3917, 49.9474 ], [ 4.4184, 49.947 ], [ 4.4469, 49.9375 ], [ 4.4816, 49.9479 ], [ 4.5104, 49.9467 ], [ 4.5233, 49.9504 ], [ 4.5422, 49.9693 ], [ 4.5642, 49.9701 ], [ 4.5821, 49.9836 ], [ 4.6332, 49.9871 ], [ 4.6662, 49.9967 ], [ 4.6936, 49.9955 ], [ 4.685, 50.007 ], [ 4.6885, 50.0114 ], [ 4.6847, 50.0272 ], [ 4.6997, 50.0536 ], [ 4.6959, 50.0591 ], [ 4.6863, 50.0575 ], [ 4.6802, 50.0664 ], [ 4.7021, 50.0955 ], [ 4.7513, 50.1117 ], [ 4.7478, 50.1223 ], [ 4.756, 50.1216 ], [ 4.7622, 50.1364 ], [ 4.8058, 50.1526 ], [ 4.8251, 50.1691 ], [ 4.8243, 50.1607 ], [ 4.8322, 50.1532 ], [ 4.876, 50.1539 ], [ 4.8812, 50.1413 ], [ 4.895, 50.1404 ], [ 4.8949, 50.1346 ], [ 4.8784, 50.1309 ], [ 4.8672, 50.1187 ], [ 4.8737, 50.1075 ], [ 4.8679, 50.0967 ], [ 4.876, 50.0942 ], [ 4.8721, 50.0877 ], [ 4.8605, 50.0927 ], [ 4.8585, 50.0999 ], [ 4.8509, 50.1013 ], [ 4.8377, 50.0929 ], [ 4.8463, 50.0849 ], [ 4.8405, 50.0829 ], [ 4.8379, 50.0671 ], [ 4.8193, 50.0659 ], [ 4.8188, 50.0611 ], [ 4.829, 50.0571 ], [ 4.8273, 50.0501 ], [ 4.8404, 50.0463 ], [ 4.8413, 50.04 ], [ 4.8194, 50.0258 ], [ 4.8189, 49.9951 ], [ 4.8038, 49.9826 ], [ 4.7933, 49.9821 ], [ 4.7901, 49.97 ], [ 4.7909, 49.9584 ], [ 4.8302, 49.9489 ], [ 4.8471, 49.949 ], [ 4.8591, 49.9319 ], [ 4.8808, 49.9223 ], [ 4.8804, 49.9166 ], [ 4.89, 49.9093 ], [ 4.8774, 49.9045 ], [ 4.8762, 49.9014 ], [ 4.8852, 49.9021 ], [ 4.8873, 49.8987 ], [ 4.8774, 49.8943 ], [ 4.8631, 49.8673 ], [ 4.8512, 49.865 ], [ 4.8576, 49.8418 ], [ 4.8673, 49.842 ], [ 4.8688, 49.8231 ], [ 4.8769, 49.8194 ], [ 4.8651, 49.8132 ], [ 4.8627, 49.8017 ], [ 4.8515, 49.7935 ], [ 4.8635, 49.789 ], [ 4.8708, 49.7894 ], [ 4.8695, 49.7934 ], [ 4.8791, 49.793 ], [ 4.8873, 49.7881 ], [ 4.8984, 49.7892 ], [ 4.9057, 49.7855 ], [ 4.9309, 49.7869 ], [ 4.9571, 49.8017 ], [ 4.9626, 49.7978 ], [ 4.9689, 49.8018 ], [ 4.9988, 49.7996 ], [ 4.998, 49.7947 ], [ 5.0136, 49.7801 ], [ 5.0614, 49.7669 ], [ 5.0632, 49.7619 ], [ 5.0836, 49.7626 ], [ 5.0876, 49.7659 ], [ 5.0935, 49.7637 ], [ 5.1185, 49.7383 ], [ 5.1256, 49.7124 ], [ 5.1393, 49.7136 ], [ 5.1436, 49.7093 ], [ 5.1513, 49.7175 ], [ 5.1582, 49.7168 ], [ 5.1653, 49.712 ], [ 5.1662, 49.6929 ], [ 5.1925, 49.6949 ], [ 5.1988, 49.6921 ], [ 5.2052, 49.6961 ], [ 5.2182, 49.6875 ], [ 5.2316, 49.691 ], [ 5.2429, 49.686 ], [ 5.2558, 49.6941 ], [ 5.2707, 49.6953 ], [ 5.332, 49.6548 ], [ 5.3176, 49.6464 ], [ 5.3049, 49.6301 ], [ 5.3135, 49.6108 ], [ 5.3259, 49.6163 ], [ 5.3402, 49.6169 ], [ 5.3472, 49.6313 ], [ 5.3635, 49.623 ], [ 5.3734, 49.6235 ], [ 5.3935, 49.6171 ], [ 5.3809, 49.6043 ], [ 5.3781, 49.593 ], [ 5.3513, 49.5884 ], [ 5.3402, 49.5948 ], [ 5.3082, 49.5628 ], [ 5.3118, 49.5593 ], [ 5.2851, 49.5533 ], [ 5.2763, 49.5443 ], [ 5.2627, 49.5418 ], [ 5.2542, 49.5555 ], [ 5.2347, 49.5622 ], [ 5.2356, 49.5692 ], [ 5.2085, 49.5744 ], [ 5.1975, 49.5667 ], [ 5.1841, 49.5696 ], [ 5.1628, 49.5625 ], [ 5.1443, 49.5909 ], [ 5.1138, 49.5919 ], [ 5.1046, 49.5759 ], [ 5.1124, 49.5689 ], [ 5.1081, 49.5619 ], [ 5.1131, 49.5606 ], [ 5.1084, 49.5553 ], [ 5.0961, 49.5578 ], [ 5.088, 49.5449 ], [ 5.0898, 49.5349 ], [ 5.1004, 49.5372 ], [ 5.0993, 49.5316 ], [ 5.0788, 49.5095 ], [ 5.0617, 49.5075 ], [ 5.0595, 49.5006 ], [ 5.0747, 49.4864 ], [ 5.0835, 49.4841 ], [ 5.083, 49.4704 ], [ 5.0951, 49.4596 ], [ 5.1056, 49.4613 ], [ 5.1112, 49.4575 ], [ 5.1085, 49.4475 ], [ 5.1001, 49.4444 ], [ 5.1003, 49.4409 ], [ 5.1049, 49.4259 ], [ 5.116, 49.4218 ], [ 5.1148, 49.419 ], [ 5.0971, 49.4145 ], [ 5.0915, 49.4072 ], [ 5.0767, 49.4031 ], [ 5.0881, 49.4021 ], [ 5.0858, 49.3988 ], [ 5.1042, 49.3898 ], [ 5.0987, 49.3846 ], [ 5.1011, 49.3782 ], [ 5.0849, 49.3698 ], [ 5.0615, 49.372 ], [ 5.0533, 49.3657 ], [ 5.0556, 49.3587 ], [ 5.0263, 49.3362 ], [ 5.0274, 49.3268 ], [ 5.0381, 49.3162 ], [ 5.0255, 49.3104 ], [ 5.0358, 49.3074 ], [ 5.0425, 49.2982 ], [ 5.0398, 49.2952 ], [ 5.0543, 49.2949 ], [ 5.0594, 49.2899 ], [ 5.049, 49.2853 ], [ 5.0512, 49.2741 ], [ 5.0336, 49.2707 ], [ 5.0258, 49.2742 ], [ 4.9964, 49.264 ], [ 4.9994, 49.2595 ], [ 4.9675, 49.2493 ], [ 4.9614, 49.2409 ], [ 4.951, 49.2369 ], [ 4.9459, 49.2438 ], [ 4.9216, 49.2521 ], [ 4.9343, 49.2596 ], [ 4.9169, 49.2604 ], [ 4.924, 49.2665 ], [ 4.8928, 49.2581 ], [ 4.8774, 49.2627 ], [ 4.8831, 49.2565 ], [ 4.8618, 49.2399 ], [ 4.8616, 49.2367 ], [ 4.8674, 49.2361 ], [ 4.8665, 49.2266 ], [ 4.8368, 49.2355 ], [ 4.8308, 49.2334 ], [ 4.8258, 49.2367 ], [ 4.8299, 49.2431 ], [ 4.8171, 49.2415 ], [ 4.8154, 49.2499 ], [ 4.7907, 49.2411 ], [ 4.7731, 49.2451 ], [ 4.7442, 49.2415 ], [ 4.727, 49.2535 ], [ 4.7038, 49.2509 ], [ 4.7038, 49.2554 ], [ 4.6889, 49.2575 ], [ 4.6705, 49.2412 ], [ 4.6343, 49.2318 ], [ 4.6186, 49.2386 ], [ 4.6197, 49.247 ], [ 4.608, 49.2693 ], [ 4.5921, 49.2735 ], [ 4.5939, 49.2798 ], [ 4.5899, 49.281 ], [ 4.6, 49.2886 ], [ 4.5979, 49.2915 ], [ 4.5837, 49.2909 ], [ 4.5759, 49.2967 ], [ 4.5727, 49.2937 ], [ 4.568, 49.2965 ], [ 4.5571, 49.2953 ], [ 4.5412, 49.2862 ], [ 4.516, 49.2802 ], [ 4.4838, 49.2808 ], [ 4.4472, 49.2725 ], [ 4.4395, 49.2801 ], [ 4.4226, 49.2806 ], [ 4.4167, 49.2878 ], [ 4.4089, 49.2865 ], [ 4.4035, 49.2935 ], [ 4.3962, 49.2922 ], [ 4.3741, 49.3202 ], [ 4.3756, 49.3238 ], [ 4.3438, 49.314 ], [ 4.3462, 49.3223 ], [ 4.3375, 49.326 ], [ 4.3083, 49.3266 ], [ 4.288, 49.3492 ], [ 4.2941, 49.3527 ], [ 4.2864, 49.3505 ], [ 4.2836, 49.3545 ], [ 4.2771, 49.3515 ], [ 4.2584, 49.3635 ], [ 4.2593, 49.3702 ], [ 4.2478, 49.3778 ], [ 4.2483, 49.3823 ], [ 4.2369, 49.3813 ], [ 4.2137, 49.3879 ], [ 4.2013, 49.3838 ], [ 4.189, 49.3987 ], [ 4.1914, 49.401 ], [ 4.1568, 49.401 ], [ 4.1432, 49.4042 ], [ 4.0769, 49.4016 ], [ 4.048, 49.4056 ], [ 4.0495, 49.4156 ], [ 4.0423, 49.4166 ], [ 4.0437, 49.4287 ], [ 4.0377, 49.4383 ], [ 4.0503, 49.4476 ], [ 4.0521, 49.4438 ], [ 4.0602, 49.4472 ], [ 4.0679, 49.4449 ], [ 4.0424, 49.4687 ], [ 4.0407, 49.5085 ], [ 4.0576, 49.5082 ], [ 4.0619, 49.5126 ], [ 4.0566, 49.521 ], [ 4.0621, 49.5227 ], [ 4.072, 49.5164 ], [ 4.0758, 49.5183 ], [ 4.0758, 49.5415 ], [ 4.0488, 49.5453 ], [ 4.0504, 49.5515 ], [ 4.0583, 49.5525 ], [ 4.0625, 49.5612 ], [ 4.0752, 49.5657 ], [ 4.0766, 49.5711 ], [ 4.0633, 49.5712 ], [ 4.0594, 49.5761 ], [ 4.0624, 49.586 ], [ 4.0579, 49.5916 ], [ 4.0665, 49.5944 ], [ 4.0473, 49.5995 ], [ 4.0246, 49.6213 ], [ 4.0379, 49.6229 ], [ 4.0411, 49.6383 ], [ 4.0557, 49.6343 ], [ 4.069, 49.6375 ], [ 4.0863, 49.6293 ], [ 4.0992, 49.6283 ], [ 4.1022, 49.6326 ], [ 4.1158, 49.6329 ], [ 4.1255, 49.6511 ], [ 4.1221, 49.6582 ], [ 4.127, 49.6779 ], [ 4.1486, 49.6783 ], [ 4.1442, 49.6885 ], [ 4.1852, 49.6989 ], [ 4.1915, 49.716 ], [ 4.2319, 49.7304 ], [ 4.2259, 49.7329 ], [ 4.2297, 49.7466 ], [ 4.2496, 49.7571 ], [ 4.242, 49.7625 ], [ 4.2428, 49.7671 ], [ 4.2286, 49.7731 ], [ 4.2139, 49.7711 ], [ 4.2059, 49.7782 ], [ 4.2267, 49.793 ], [ 4.219, 49.8002 ], [ 4.2218, 49.8045 ], [ 4.2143, 49.8061 ], [ 4.2236, 49.8341 ], [ 4.2297, 49.8361 ], [ 4.233, 49.8484 ], [ 4.2488, 49.8568 ], [ 4.2528, 49.8696 ], [ 4.2509, 49.8889 ], [ 4.2557, 49.9032 ], [ 4.235, 49.904 ], [ 4.2334, 49.9094 ], [ 4.217, 49.9144 ], [ 4.2207, 49.9372 ], [ 4.2299, 49.9462 ], [ 4.2332, 49.9578 ] ] ] } }
]
}
