{
"type": "FeatureCollection",
"name": "dep09",
"crs": { "type": "name", "properties": { "name": "urn:ogc:def:crs:OGC:1.3:CRS84" } },
"xy_coordinate_resolution": 0.0001,
"features": [
{ "type": "Feature", "properties": { "code": "09", "nom": "Ariège" }, "geometry": { "type": "Polygon", "coordinates": [ [ [ 1.6884, 43.2736 ], [ 1.7022, 43.2571 ], [ 1.695, 43.247 ], [ 1.7051, 43.2459 ], [ 1.7021, 43.2404 ], [ 1.7238, 43.2245 ], [ 1.7209, 43.2188 ], [ 1.7255, 43.2119 ], [ 1.7082, 43.1982 ], [ 1.7113, 43.1867 ], [ 1.7239, 43.1883 ], [ 1.7409, 43.1841 ], [ 1.7446, 43.1761 ], [ 1.7806, 43.1598 ], [ 1.7836, 43.1512 ], [ 1.7928, 43.1591 ], [ 1.8052, 43.1567 ], [ 1.8248, 43.1458 ], [ 1.8494, 43.146 ], [ 1.8524, 43.1478 ], [ 1.8416, 43.1553 ], [ 1.852, 43.1606 ], [ 1.8566, 43.1445 ], [ 1.8768, 43.1428 ], [ 1.8801, 43.1471 ], [ 1.8809, 43.1268 ], [ 1.8907, 43.1254 ], [ 1.8887, 43.1194 ], [ 1.8937, 43.1154 ], [ 1.9023, 43.1233 ], [ 1.9023, 43.1302 ], [ 1.9142, 43.1336 ], [ 1.9273, 43.1295 ], [ 1.928, 43.1242 ], [ 1.9492, 43.1211 ], [ 1.9558, 43.0855 ], [ 1.9497, 43.08 ], [ 1.9569, 43.0803 ], [ 1.9639, 43.0692 ], [ 1.9514, 43.0657 ], [ 1.943, 43.0674 ], [ 1.9408, 43.0529 ], [ 1.9509, 43.0466 ], [ 1.9606, 43.0504 ], [ 1.9731, 43.0462 ], [ 1.985, 43.0326 ], [ 1.9847, 43.0224 ], [ 1.9709, 43.0096 ], [ 1.9868, 43.0025 ], [ 1.9876, 42.9935 ], [ 1.9823, 42.9884 ], [ 1.985, 42.9673 ], [ 1.998, 42.9614 ], [ 2.0059, 42.9622 ], [ 1.9949, 42.953 ], [ 1.9886, 42.9534 ], [ 1.98, 42.9609 ], [ 1.9626, 42.961 ], [ 1.9576, 42.9642 ], [ 1.9556, 42.9583 ], [ 1.9364, 42.954 ], [ 1.9337, 42.9391 ], [ 1.9806, 42.9296 ], [ 1.9919, 42.9051 ], [ 1.9848, 42.903 ], [ 1.9873, 42.8961 ], [ 1.981, 42.8784 ], [ 1.9869, 42.871 ], [ 1.9457, 42.8562 ], [ 1.8759, 42.8527 ], [ 1.8761, 42.8401 ], [ 1.8602, 42.8276 ], [ 1.8595, 42.8202 ], [ 1.8961, 42.8087 ], [ 1.9288, 42.775 ], [ 1.9217, 42.77 ], [ 1.9094, 42.7692 ], [ 1.9136, 42.7579 ], [ 1.9298, 42.7552 ], [ 1.9309, 42.7511 ], [ 1.9464, 42.7458 ], [ 1.9516, 42.7367 ], [ 2.0038, 42.7335 ], [ 2.0145, 42.7397 ], [ 2.0254, 42.739 ], [ 2.0314, 42.7465 ], [ 2.0416, 42.7463 ], [ 2.0564, 42.756 ], [ 2.0863, 42.7518 ], [ 2.0874, 42.739 ], [ 2.0922, 42.7347 ], [ 2.1395, 42.7123 ], [ 2.1467, 42.7014 ], [ 2.1597, 42.7022 ], [ 2.1679, 42.6962 ], [ 2.176, 42.6815 ], [ 2.1675, 42.6734 ], [ 2.166, 42.6639 ], [ 2.1513, 42.662 ], [ 2.1278, 42.6723 ], [ 2.109, 42.6639 ], [ 2.0853, 42.6668 ], [ 2.0705, 42.6664 ], [ 2.0609, 42.6617 ], [ 2.047, 42.6636 ], [ 2.0433, 42.6575 ], [ 2.0276, 42.6525 ], [ 1.9986, 42.6613 ], [ 1.9718, 42.6169 ], [ 1.9501, 42.6177 ], [ 1.9438, 42.6085 ], [ 1.9334, 42.6048 ], [ 1.9267, 42.6094 ], [ 1.9073, 42.6086 ], [ 1.9002, 42.6149 ], [ 1.8931, 42.6063 ], [ 1.8913, 42.5933 ], [ 1.8742, 42.59 ], [ 1.8745, 42.5814 ], [ 1.8643, 42.579 ], [ 1.8604, 42.584 ], [ 1.8539, 42.5813 ], [ 1.8516, 42.5843 ], [ 1.8371, 42.5845 ], [ 1.796, 42.5715 ], [ 1.7861, 42.5736 ], [ 1.7809, 42.5826 ], [ 1.7607, 42.5809 ], [ 1.7261, 42.5897 ], [ 1.7263, 42.6003 ], [ 1.738, 42.6113 ], [ 1.7361, 42.6172 ], [ 1.7141, 42.6146 ], [ 1.6982, 42.6227 ], [ 1.6836, 42.6249 ], [ 1.6644, 42.619 ], [ 1.6537, 42.6263 ], [ 1.6372, 42.6303 ], [ 1.6279, 42.6263 ], [ 1.6093, 42.6285 ], [ 1.6021, 42.6255 ], [ 1.5931, 42.6331 ], [ 1.5798, 42.6375 ], [ 1.5749, 42.648 ], [ 1.5492, 42.6558 ], [ 1.5338, 42.6497 ], [ 1.5264, 42.6508 ], [ 1.5189, 42.6455 ], [ 1.5006, 42.6452 ], [ 1.4938, 42.6532 ], [ 1.4788, 42.6517 ], [ 1.4769, 42.6407 ], [ 1.4683, 42.6308 ], [ 1.4766, 42.613 ], [ 1.457, 42.6023 ], [ 1.4378, 42.6032 ], [ 1.4292, 42.6127 ], [ 1.4306, 42.6173 ], [ 1.4207, 42.6247 ], [ 1.4137, 42.6555 ], [ 1.4054, 42.6572 ], [ 1.3966, 42.6681 ], [ 1.3878, 42.6684 ], [ 1.3893, 42.6868 ], [ 1.3774, 42.6945 ], [ 1.3651, 42.6945 ], [ 1.3512, 42.7027 ], [ 1.3574, 42.7194 ], [ 1.3383, 42.7186 ], [ 1.3353, 42.724 ], [ 1.3254, 42.7242 ], [ 1.3094, 42.7174 ], [ 1.2926, 42.7191 ], [ 1.2778, 42.7139 ], [ 1.2749, 42.7183 ], [ 1.2691, 42.7181 ], [ 1.2532, 42.7146 ], [ 1.2472, 42.7225 ], [ 1.2291, 42.7277 ], [ 1.2167, 42.72 ], [ 1.1888, 42.7173 ], [ 1.1756, 42.7089 ], [ 1.1659, 42.7087 ], [ 1.1333, 42.7281 ], [ 1.1351, 42.7356 ], [ 1.1297, 42.7456 ], [ 1.1327, 42.7503 ], [ 1.1281, 42.7554 ], [ 1.1196, 42.763 ], [ 1.1093, 42.7657 ], [ 1.107, 42.7723 ], [ 1.0864, 42.7785 ], [ 1.0791, 42.7883 ], [ 1.0734, 42.7824 ], [ 1.0468, 42.7808 ], [ 1.0417, 42.7861 ], [ 1.0311, 42.7849 ], [ 1.0056, 42.7908 ], [ 0.9865, 42.7865 ], [ 0.9601, 42.8057 ], [ 0.9379, 42.796 ], [ 0.9337, 42.7898 ], [ 0.9261, 42.7891 ], [ 0.9154, 42.7963 ], [ 0.9084, 42.7966 ], [ 0.8851, 42.8133 ], [ 0.8697, 42.8166 ], [ 0.8583, 42.8237 ], [ 0.8599, 42.8382 ], [ 0.8484, 42.8571 ], [ 0.8482, 42.8653 ], [ 0.8397, 42.8664 ], [ 0.8351, 42.8724 ], [ 0.844, 42.8898 ], [ 0.8269, 42.9163 ], [ 0.8446, 42.926 ], [ 0.8577, 42.9235 ], [ 0.8836, 42.9313 ], [ 0.8854, 42.937 ], [ 0.8749, 42.9578 ], [ 0.9056, 42.9575 ], [ 0.928, 42.9667 ], [ 0.9521, 42.9664 ], [ 0.9762, 42.9731 ], [ 0.9951, 42.9908 ], [ 1.0032, 43.0051 ], [ 1.0224, 43.0102 ], [ 1.0135, 43.0096 ], [ 1.0064, 43.0204 ], [ 0.9869, 43.0254 ], [ 0.9843, 43.0445 ], [ 0.993, 43.0396 ], [ 0.9943, 43.0459 ], [ 0.9841, 43.0509 ], [ 0.9856, 43.0654 ], [ 0.979, 43.0726 ], [ 0.9959, 43.0723 ], [ 1.0065, 43.0821 ], [ 0.9909, 43.0921 ], [ 0.9923, 43.098 ], [ 0.9996, 43.0988 ], [ 0.9979, 43.1012 ], [ 1.0042, 43.1045 ], [ 1.0021, 43.1136 ], [ 1.0088, 43.1136 ], [ 1.0259, 43.1011 ], [ 1.036, 43.0993 ], [ 1.0506, 43.1193 ], [ 1.0523, 43.1338 ], [ 1.0469, 43.1367 ], [ 1.0535, 43.1455 ], [ 1.06, 43.1385 ], [ 1.0713, 43.139 ], [ 1.088, 43.1338 ], [ 1.0898, 43.1418 ], [ 1.1128, 43.1446 ], [ 1.1115, 43.1476 ], [ 1.124, 43.156 ], [ 1.1451, 43.1439 ], [ 1.1454, 43.1378 ], [ 1.166, 43.1303 ], [ 1.175, 43.141 ], [ 1.2082, 43.1191 ], [ 1.2133, 43.1098 ], [ 1.2113, 43.1037 ], [ 1.2236, 43.0859 ], [ 1.2619, 43.0917 ], [ 1.2602, 43.1092 ], [ 1.2809, 43.1106 ], [ 1.2892, 43.1229 ], [ 1.3027, 43.1226 ], [ 1.2756, 43.1421 ], [ 1.2739, 43.1484 ], [ 1.2624, 43.1461 ], [ 1.219, 43.1526 ], [ 1.214, 43.1624 ], [ 1.2277, 43.174 ], [ 1.2273, 43.1834 ], [ 1.2321, 43.1883 ], [ 1.2437, 43.1896 ], [ 1.251, 43.1834 ], [ 1.2628, 43.1864 ], [ 1.2741, 43.1962 ], [ 1.2963, 43.1893 ], [ 1.3057, 43.1949 ], [ 1.3205, 43.1899 ], [ 1.3296, 43.197 ], [ 1.3278, 43.2046 ], [ 1.3455, 43.2122 ], [ 1.3597, 43.213 ], [ 1.3685, 43.2092 ], [ 1.3744, 43.2138 ], [ 1.3834, 43.2287 ], [ 1.3738, 43.2447 ], [ 1.3668, 43.2418 ], [ 1.3403, 43.2441 ], [ 1.3359, 43.2499 ], [ 1.3184, 43.2512 ], [ 1.3321, 43.2572 ], [ 1.3307, 43.2626 ], [ 1.294, 43.2637 ], [ 1.2939, 43.2678 ], [ 1.3019, 43.2709 ], [ 1.2925, 43.2884 ], [ 1.3025, 43.2863 ], [ 1.3051, 43.2982 ], [ 1.318, 43.2959 ], [ 1.324, 43.3094 ], [ 1.3323, 43.3156 ], [ 1.3497, 43.316 ], [ 1.373, 43.3101 ], [ 1.3639, 43.3077 ], [ 1.3654, 43.3018 ], [ 1.3777, 43.2962 ], [ 1.3763, 43.2885 ], [ 1.4019, 43.2776 ], [ 1.429, 43.2542 ], [ 1.4247, 43.2414 ], [ 1.417, 43.2368 ], [ 1.4204, 43.232 ], [ 1.4161, 43.226 ], [ 1.4343, 43.2166 ], [ 1.4676, 43.2088 ], [ 1.4779, 43.2232 ], [ 1.4874, 43.2274 ], [ 1.4986, 43.2215 ], [ 1.5077, 43.2215 ], [ 1.503, 43.2251 ], [ 1.5043, 43.2328 ], [ 1.4934, 43.2379 ], [ 1.5043, 43.2503 ], [ 1.492, 43.2541 ], [ 1.4894, 43.2584 ], [ 1.4926, 43.2628 ], [ 1.489, 43.2702 ], [ 1.4965, 43.2756 ], [ 1.4931, 43.2816 ], [ 1.4972, 43.2918 ], [ 1.5066, 43.2862 ], [ 1.5123, 43.2933 ], [ 1.5176, 43.2894 ], [ 1.5187, 43.2692 ], [ 1.5408, 43.2782 ], [ 1.5418, 43.2751 ], [ 1.5462, 43.2774 ], [ 1.565, 43.2533 ], [ 1.5733, 43.2619 ], [ 1.5675, 43.2698 ], [ 1.572, 43.2762 ], [ 1.5742, 43.273 ], [ 1.5788, 43.2751 ], [ 1.5825, 43.2688 ], [ 1.6021, 43.266 ], [ 1.6069, 43.2598 ], [ 1.6373, 43.2555 ], [ 1.6351, 43.2371 ], [ 1.6438, 43.2371 ], [ 1.6555, 43.2439 ], [ 1.65, 43.261 ], [ 1.6736, 43.2813 ], [ 1.6884, 43.2736 ] ] ] } }
]
}
