{
"type": "FeatureCollection",
"name": "dep07",
"crs": { "type": "name", "properties": { "name": "urn:ogc:def:crs:OGC:1.3:CRS84" } },
"xy_coordinate_resolution": 0.0001,
"features": [
{ "type": "Feature", "properties": { "code": "07", "nom": "Ardèche" }, "geometry": { "type": "Polygon", "coordinates": [ [ [ 4.4831, 45.2364 ], [ 4.4879, 45.2322 ], [ 4.5084, 45.2313 ], [ 4.5132, 45.2348 ], [ 4.5094, 45.2448 ], [ 4.5292, 45.2398 ], [ 4.5314, 45.2342 ], [ 4.5405, 45.2347 ], [ 4.5383, 45.2426 ], [ 4.5604, 45.2478 ], [ 4.5848, 45.2441 ], [ 4.6068, 45.2546 ], [ 4.606, 45.2628 ], [ 4.5998, 45.2687 ], [ 4.5917, 45.2696 ], [ 4.5907, 45.2734 ], [ 4.5986, 45.2895 ], [ 4.6228, 45.2914 ], [ 4.623, 45.2963 ], [ 4.6146, 45.3004 ], [ 4.6145, 45.3106 ], [ 4.6406, 45.317 ], [ 4.6385, 45.3262 ], [ 4.6431, 45.3293 ], [ 4.6801, 45.3463 ], [ 4.698, 45.345 ], [ 4.7034, 45.35 ], [ 4.716, 45.3515 ], [ 4.732, 45.3638 ], [ 4.756, 45.3657 ], [ 4.7726, 45.3549 ], [ 4.7736, 45.3465 ], [ 4.762, 45.3424 ], [ 4.7605, 45.3275 ], [ 4.7699, 45.316 ], [ 4.7948, 45.303 ], [ 4.8095, 45.2899 ], [ 4.8103, 45.2639 ], [ 4.8013, 45.2429 ], [ 4.8026, 45.2269 ], [ 4.8126, 45.2043 ], [ 4.8048, 45.194 ], [ 4.8122, 45.1823 ], [ 4.8105, 45.1669 ], [ 4.8291, 45.1567 ], [ 4.8244, 45.1484 ], [ 4.8045, 45.1332 ], [ 4.8032, 45.125 ], [ 4.83, 45.0973 ], [ 4.8299, 45.0718 ], [ 4.8545, 45.0634 ], [ 4.8608, 45.0554 ], [ 4.8403, 45.0358 ], [ 4.8456, 45.0201 ], [ 4.8362, 45.0079 ], [ 4.8513, 44.9947 ], [ 4.8526, 44.9795 ], [ 4.8602, 44.9659 ], [ 4.8757, 44.9552 ], [ 4.8866, 44.9366 ], [ 4.8682, 44.9091 ], [ 4.8559, 44.9014 ], [ 4.8547, 44.8898 ], [ 4.8609, 44.8737 ], [ 4.8448, 44.8582 ], [ 4.8444, 44.846 ], [ 4.8202, 44.8362 ], [ 4.8225, 44.8171 ], [ 4.7999, 44.813 ], [ 4.7957, 44.7938 ], [ 4.7828, 44.7831 ], [ 4.7662, 44.7786 ], [ 4.7609, 44.7717 ], [ 4.7693, 44.7602 ], [ 4.759, 44.748 ], [ 4.7633, 44.7173 ], [ 4.7811, 44.6828 ], [ 4.7757, 44.6649 ], [ 4.7791, 44.6547 ], [ 4.7404, 44.6024 ], [ 4.7444, 44.6008 ], [ 4.7415, 44.5893 ], [ 4.7103, 44.5816 ], [ 4.7048, 44.5619 ], [ 4.7024, 44.5595 ], [ 4.6982, 44.5643 ], [ 4.6928, 44.5585 ], [ 4.6936, 44.5422 ], [ 4.7074, 44.5339 ], [ 4.6882, 44.5055 ], [ 4.689, 44.4929 ], [ 4.6999, 44.4794 ], [ 4.7004, 44.4599 ], [ 4.6936, 44.4435 ], [ 4.6717, 44.4356 ], [ 4.6674, 44.4307 ], [ 4.6639, 44.3965 ], [ 4.649, 44.3725 ], [ 4.6469, 44.3475 ], [ 4.6537, 44.2973 ], [ 4.6492, 44.2704 ], [ 4.6412, 44.2744 ], [ 4.6349, 44.2848 ], [ 4.616, 44.2782 ], [ 4.6045, 44.2914 ], [ 4.587, 44.2946 ], [ 4.5773, 44.3004 ], [ 4.5587, 44.3024 ], [ 4.5445, 44.3208 ], [ 4.5488, 44.3257 ], [ 4.5322, 44.3227 ], [ 4.5229, 44.3304 ], [ 4.5128, 44.3281 ], [ 4.5132, 44.3341 ], [ 4.5037, 44.3442 ], [ 4.499, 44.3383 ], [ 4.4815, 44.3369 ], [ 4.4749, 44.342 ], [ 4.4542, 44.3396 ], [ 4.4484, 44.2966 ], [ 4.4532, 44.2979 ], [ 4.4404, 44.2834 ], [ 4.4347, 44.2833 ], [ 4.4331, 44.2911 ], [ 4.4201, 44.2871 ], [ 4.3998, 44.2879 ], [ 4.3896, 44.3011 ], [ 4.4033, 44.3336 ], [ 4.3951, 44.3449 ], [ 4.3882, 44.3472 ], [ 4.3677, 44.3394 ], [ 4.3258, 44.3383 ], [ 4.3299, 44.3321 ], [ 4.3166, 44.3207 ], [ 4.2941, 44.3133 ], [ 4.2904, 44.3167 ], [ 4.2894, 44.2932 ], [ 4.2779, 44.2752 ], [ 4.2552, 44.265 ], [ 4.2415, 44.2698 ], [ 4.2152, 44.2907 ], [ 4.1872, 44.2993 ], [ 4.178, 44.3177 ], [ 4.165, 44.3121 ], [ 4.1429, 44.3133 ], [ 4.1403, 44.3279 ], [ 4.1345, 44.3286 ], [ 4.13, 44.3368 ], [ 4.1241, 44.3364 ], [ 4.1158, 44.3269 ], [ 4.0964, 44.3347 ], [ 4.0851, 44.3285 ], [ 4.0737, 44.3299 ], [ 4.0514, 44.3173 ], [ 4.0474, 44.3236 ], [ 4.037, 44.3282 ], [ 4.0535, 44.3387 ], [ 4.0528, 44.3597 ], [ 4.0576, 44.3635 ], [ 4.0508, 44.3744 ], [ 4.053, 44.3787 ], [ 4.0438, 44.3845 ], [ 4.0414, 44.3935 ], [ 4.0478, 44.3975 ], [ 4.0563, 44.3926 ], [ 4.0645, 44.3946 ], [ 4.0627, 44.3987 ], [ 4.0684, 44.4051 ], [ 4.0572, 44.4138 ], [ 4.0355, 44.4201 ], [ 4.0465, 44.4327 ], [ 4.0376, 44.4457 ], [ 4.0232, 44.4456 ], [ 4.0145, 44.4547 ], [ 3.9982, 44.4598 ], [ 3.9969, 44.4661 ], [ 3.9877, 44.4728 ], [ 3.9844, 44.4941 ], [ 3.9881, 44.5042 ], [ 3.978, 44.5164 ], [ 3.9792, 44.5225 ], [ 3.9697, 44.5289 ], [ 3.9515, 44.5706 ], [ 3.9367, 44.5738 ], [ 3.9295, 44.5687 ], [ 3.917, 44.5791 ], [ 3.9183, 44.5885 ], [ 3.9052, 44.5927 ], [ 3.9071, 44.6106 ], [ 3.894, 44.6137 ], [ 3.8948, 44.6511 ], [ 3.8897, 44.6569 ], [ 3.8829, 44.6577 ], [ 3.8788, 44.6739 ], [ 3.8695, 44.6783 ], [ 3.8842, 44.6926 ], [ 3.8843, 44.6976 ], [ 3.8697, 44.6971 ], [ 3.8672, 44.7023 ], [ 3.8726, 44.7072 ], [ 3.8615, 44.712 ], [ 3.8669, 44.7284 ], [ 3.8782, 44.7323 ], [ 3.8775, 44.7375 ], [ 3.8625, 44.7439 ], [ 3.8695, 44.7548 ], [ 3.8756, 44.7572 ], [ 3.8927, 44.7511 ], [ 3.8988, 44.7527 ], [ 3.9002, 44.7642 ], [ 3.9254, 44.7701 ], [ 3.9108, 44.7787 ], [ 3.9225, 44.7774 ], [ 3.9262, 44.7912 ], [ 3.937, 44.7954 ], [ 3.9449, 44.8246 ], [ 3.9632, 44.8297 ], [ 3.9703, 44.8179 ], [ 3.9885, 44.8118 ], [ 3.9802, 44.8256 ], [ 3.9825, 44.8326 ], [ 3.9907, 44.8339 ], [ 3.9953, 44.8215 ], [ 4.0004, 44.8193 ], [ 4.0069, 44.83 ], [ 4.0053, 44.838 ], [ 4.0134, 44.8368 ], [ 4.0145, 44.8292 ], [ 4.0265, 44.8311 ], [ 4.0292, 44.8376 ], [ 4.0201, 44.8459 ], [ 4.034, 44.8716 ], [ 4.0563, 44.8729 ], [ 4.0713, 44.8667 ], [ 4.0737, 44.8705 ], [ 4.0926, 44.8703 ], [ 4.1037, 44.8772 ], [ 4.1166, 44.8789 ], [ 4.1327, 44.8736 ], [ 4.1569, 44.8734 ], [ 4.1649, 44.8817 ], [ 4.1795, 44.8865 ], [ 4.1822, 44.908 ], [ 4.1912, 44.9119 ], [ 4.2024, 44.9267 ], [ 4.2166, 44.9336 ], [ 4.2232, 44.9487 ], [ 4.2217, 44.9613 ], [ 4.2273, 44.9658 ], [ 4.236, 44.9704 ], [ 4.2531, 44.9589 ], [ 4.3139, 44.9735 ], [ 4.3079, 44.9855 ], [ 4.2932, 44.9918 ], [ 4.2898, 44.9973 ], [ 4.2975, 45.0191 ], [ 4.3045, 45.0186 ], [ 4.3015, 45.0261 ], [ 4.3113, 45.0246 ], [ 4.3103, 45.0315 ], [ 4.3413, 45.0259 ], [ 4.3486, 45.0304 ], [ 4.3521, 45.028 ], [ 4.3562, 45.0336 ], [ 4.3791, 45.0362 ], [ 4.3817, 45.0416 ], [ 4.3777, 45.0548 ], [ 4.3596, 45.0557 ], [ 4.346, 45.0688 ], [ 4.347, 45.0768 ], [ 4.3537, 45.0761 ], [ 4.3598, 45.0802 ], [ 4.3571, 45.0869 ], [ 4.3669, 45.089 ], [ 4.3592, 45.0992 ], [ 4.3703, 45.1022 ], [ 4.3722, 45.1063 ], [ 4.3846, 45.1011 ], [ 4.388, 45.1054 ], [ 4.3996, 45.1048 ], [ 4.4002, 45.1184 ], [ 4.3909, 45.1194 ], [ 4.3899, 45.1228 ], [ 4.3775, 45.1226 ], [ 4.3695, 45.1285 ], [ 4.3765, 45.1361 ], [ 4.3739, 45.144 ], [ 4.3967, 45.1391 ], [ 4.4142, 45.1416 ], [ 4.423, 45.1373 ], [ 4.4317, 45.1283 ], [ 4.4263, 45.1179 ], [ 4.436, 45.1087 ], [ 4.4412, 45.1114 ], [ 4.4352, 45.1175 ], [ 4.4379, 45.122 ], [ 4.444, 45.1184 ], [ 4.4564, 45.1191 ], [ 4.4554, 45.1265 ], [ 4.4461, 45.1315 ], [ 4.4432, 45.1454 ], [ 4.4485, 45.1632 ], [ 4.4578, 45.1679 ], [ 4.4593, 45.175 ], [ 4.4725, 45.1794 ], [ 4.4806, 45.1955 ], [ 4.4766, 45.2119 ], [ 4.4878, 45.2163 ], [ 4.4907, 45.2236 ], [ 4.4831, 45.2364 ] ] ] } }
]
}
