{
"type": "FeatureCollection",
"name": "dep06",
"crs": { "type": "name", "properties": { "name": "urn:ogc:def:crs:OGC:1.3:CRS84" } },
"xy_coordinate_resolution": 0.0001,
"features": [
{ "type": "Feature", "properties": { "code": "06", "nom": "Alpes-Maritimes" }, "geometry": { "type": "MultiPolygon", "coordinates": [ [ [ [ 7.0671, 43.5136 ], [ 7.0358, 43.5175 ], [ 7.0322, 43.5234 ], [ 7.0636, 43.5201 ], [ 7.0709, 43.5174 ], [ 7.0671, 43.5136 ] ] ], [ [ [ 7.0478, 43.5045 ], [ 7.0371, 43.5068 ], [ 7.0371, 43.5085 ], [ 7.0554, 43.5078 ], [ 7.0478, 43.5045 ] ] ], [ [ [ 6.8874, 44.361 ], [ 6.9061, 44.3581 ], [ 6.9226, 44.3507 ], [ 6.9272, 44.3324 ], [ 6.9532, 44.3188 ], [ 6.9605, 44.3108 ], [ 6.9575, 44.2951 ], [ 6.9702, 44.2944 ], [ 6.9719, 44.2836 ], [ 6.9813, 44.2868 ], [ 6.9957, 44.2799 ], [ 6.9966, 44.2521 ], [ 7.0085, 44.2352 ], [ 7.0303, 44.2314 ], [ 7.0388, 44.2237 ], [ 7.0768, 44.2322 ], [ 7.0865, 44.2293 ], [ 7.0925, 44.2203 ], [ 7.1139, 44.2178 ], [ 7.1436, 44.2001 ], [ 7.1627, 44.208 ], [ 7.1777, 44.1972 ], [ 7.1861, 44.2013 ], [ 7.1936, 44.1871 ], [ 7.2007, 44.187 ], [ 7.2048, 44.1791 ], [ 7.2194, 44.1685 ], [ 7.2283, 44.1682 ], [ 7.2356, 44.1754 ], [ 7.2409, 44.1734 ], [ 7.2517, 44.1561 ], [ 7.2814, 44.1409 ], [ 7.2879, 44.1452 ], [ 7.308, 44.1442 ], [ 7.3108, 44.1475 ], [ 7.3212, 44.1428 ], [ 7.3419, 44.1459 ], [ 7.358, 44.116 ], [ 7.3929, 44.125 ], [ 7.4248, 44.1119 ], [ 7.4298, 44.1297 ], [ 7.4607, 44.1258 ], [ 7.507, 44.1444 ], [ 7.5202, 44.1377 ], [ 7.5346, 44.148 ], [ 7.5546, 44.1464 ], [ 7.5654, 44.1512 ], [ 7.5648, 44.1552 ], [ 7.5724, 44.1515 ], [ 7.62, 44.1495 ], [ 7.6366, 44.1771 ], [ 7.6778, 44.1768 ], [ 7.684, 44.1715 ], [ 7.6708, 44.1529 ], [ 7.6795, 44.1471 ], [ 7.6666, 44.1311 ], [ 7.6741, 44.1183 ], [ 7.7188, 44.0825 ], [ 7.7129, 44.0746 ], [ 7.7144, 44.0612 ], [ 7.7051, 44.0546 ], [ 7.7005, 44.0407 ], [ 7.6908, 44.04 ], [ 7.6754, 44.0295 ], [ 7.6656, 44.0314 ], [ 7.6623, 44.0282 ], [ 7.6618, 44.0179 ], [ 7.6704, 43.9983 ], [ 7.6637, 43.9869 ], [ 7.6557, 43.9852 ], [ 7.6524, 43.9737 ], [ 7.6435, 43.974 ], [ 7.6108, 43.9542 ], [ 7.5985, 43.9574 ], [ 7.5876, 43.9549 ], [ 7.5814, 43.9482 ], [ 7.5694, 43.9474 ], [ 7.5666, 43.9433 ], [ 7.5736, 43.9357 ], [ 7.5712, 43.9292 ], [ 7.5682, 43.923 ], [ 7.558, 43.9176 ], [ 7.562, 43.8997 ], [ 7.5198, 43.8862 ], [ 7.5171, 43.8823 ], [ 7.5115, 43.8849 ], [ 7.5103, 43.8794 ], [ 7.4979, 43.8717 ], [ 7.4967, 43.8498 ], [ 7.5079, 43.8413 ], [ 7.5187, 43.8025 ], [ 7.5302, 43.788 ], [ 7.5292, 43.784 ], [ 7.5106, 43.781 ], [ 7.5063, 43.7732 ], [ 7.4902, 43.7672 ], [ 7.4821, 43.7569 ], [ 7.4868, 43.749 ], [ 7.4578, 43.7596 ], [ 7.4449, 43.7499 ], [ 7.4308, 43.7487 ], [ 7.4123, 43.7344 ], [ 7.4091, 43.7296 ], [ 7.4156, 43.7259 ], [ 7.4057, 43.7194 ], [ 7.3887, 43.7196 ], [ 7.389, 43.723 ], [ 7.3727, 43.7178 ], [ 7.3645, 43.7218 ], [ 7.3559, 43.7207 ], [ 7.3506, 43.7148 ], [ 7.3376, 43.7117 ], [ 7.3341, 43.703 ], [ 7.3298, 43.7025 ], [ 7.3339, 43.6896 ], [ 7.3497, 43.687 ], [ 7.3416, 43.6826 ], [ 7.3352, 43.6864 ], [ 7.3313, 43.6745 ], [ 7.3241, 43.677 ], [ 7.3199, 43.6903 ], [ 7.3248, 43.6931 ], [ 7.3253, 43.7002 ], [ 7.3147, 43.7065 ], [ 7.3069, 43.6981 ], [ 7.304, 43.6848 ], [ 7.2936, 43.6866 ], [ 7.2842, 43.6978 ], [ 7.2849, 43.6927 ], [ 7.2624, 43.6943 ], [ 7.2406, 43.6878 ], [ 7.2306, 43.6786 ], [ 7.2303, 43.6654 ], [ 7.2134, 43.6528 ], [ 7.2116, 43.6473 ], [ 7.2007, 43.6452 ], [ 7.2029, 43.6513 ], [ 7.1945, 43.6579 ], [ 7.1677, 43.6574 ], [ 7.157, 43.6535 ], [ 7.1402, 43.635 ], [ 7.1373, 43.6363 ], [ 7.1265, 43.6053 ], [ 7.1258, 43.5946 ], [ 7.1303, 43.5903 ], [ 7.1218, 43.587 ], [ 7.1295, 43.5834 ], [ 7.125, 43.5738 ], [ 7.1317, 43.5691 ], [ 7.1406, 43.5689 ], [ 7.1347, 43.5555 ], [ 7.1451, 43.5517 ], [ 7.1364, 43.5446 ], [ 7.1233, 43.5459 ], [ 7.119, 43.5429 ], [ 7.1217, 43.5595 ], [ 7.1129, 43.567 ], [ 7.0963, 43.5709 ], [ 7.0694, 43.563 ], [ 7.0546, 43.5471 ], [ 7.0409, 43.5421 ], [ 7.0377, 43.5347 ], [ 7.0325, 43.5458 ], [ 7.0166, 43.5508 ], [ 7.0121, 43.5473 ], [ 6.9937, 43.5489 ], [ 6.9718, 43.5455 ], [ 6.9551, 43.5372 ], [ 6.9384, 43.5164 ], [ 6.9378, 43.5095 ], [ 6.9524, 43.5062 ], [ 6.957, 43.5008 ], [ 6.9497, 43.4947 ], [ 6.9487, 43.4855 ], [ 6.9458, 43.483 ], [ 6.9327, 43.4844 ], [ 6.9337, 43.4801 ], [ 6.9138, 43.4828 ], [ 6.9127, 43.4937 ], [ 6.8842, 43.5025 ], [ 6.8964, 43.5272 ], [ 6.8788, 43.5292 ], [ 6.8878, 43.5527 ], [ 6.8976, 43.5574 ], [ 6.901, 43.5638 ], [ 6.9082, 43.5639 ], [ 6.9079, 43.5727 ], [ 6.8984, 43.5816 ], [ 6.912, 43.5983 ], [ 6.8943, 43.6115 ], [ 6.8853, 43.6067 ], [ 6.8723, 43.6075 ], [ 6.8665, 43.603 ], [ 6.8575, 43.6108 ], [ 6.8517, 43.6044 ], [ 6.8388, 43.6174 ], [ 6.8168, 43.6298 ], [ 6.7987, 43.6282 ], [ 6.7832, 43.6536 ], [ 6.7763, 43.6599 ], [ 6.7658, 43.6603 ], [ 6.7608, 43.6665 ], [ 6.761, 43.6805 ], [ 6.7645, 43.6882 ], [ 6.7744, 43.6934 ], [ 6.7742, 43.7036 ], [ 6.7668, 43.7106 ], [ 6.7667, 43.7221 ], [ 6.7561, 43.7273 ], [ 6.7525, 43.741 ], [ 6.7462, 43.7368 ], [ 6.715, 43.7387 ], [ 6.7139, 43.746 ], [ 6.7014, 43.7541 ], [ 6.6827, 43.7579 ], [ 6.6574, 43.7487 ], [ 6.6521, 43.7655 ], [ 6.6401, 43.7686 ], [ 6.646, 43.7752 ], [ 6.6354, 43.7857 ], [ 6.6415, 43.7955 ], [ 6.6913, 43.8043 ], [ 6.7061, 43.8084 ], [ 6.712, 43.8149 ], [ 6.7028, 43.8242 ], [ 6.6679, 43.8306 ], [ 6.6782, 43.852 ], [ 6.7028, 43.856 ], [ 6.6982, 43.8591 ], [ 6.6962, 43.8755 ], [ 6.6779, 43.8791 ], [ 6.6733, 43.888 ], [ 6.7484, 43.8717 ], [ 6.7816, 43.8835 ], [ 6.8003, 43.9059 ], [ 6.7986, 43.9097 ], [ 6.8323, 43.9185 ], [ 6.8334, 43.9154 ], [ 6.8533, 43.9147 ], [ 6.8542, 43.9071 ], [ 6.8646, 43.9068 ], [ 6.8846, 43.8891 ], [ 6.933, 43.8947 ], [ 6.9439, 43.8995 ], [ 6.9133, 43.9278 ], [ 6.8983, 43.9268 ], [ 6.8843, 43.935 ], [ 6.8757, 43.9452 ], [ 6.8755, 43.9528 ], [ 6.8476, 43.9544 ], [ 6.8457, 43.9783 ], [ 6.8347, 43.9833 ], [ 6.8387, 43.9897 ], [ 6.798, 44.0053 ], [ 6.7887, 44.0234 ], [ 6.7762, 44.0238 ], [ 6.7471, 44.0409 ], [ 6.7476, 44.0648 ], [ 6.7565, 44.0796 ], [ 6.7186, 44.1194 ], [ 6.7076, 44.1245 ], [ 6.7073, 44.1444 ], [ 6.698, 44.1494 ], [ 6.6999, 44.1566 ], [ 6.6865, 44.1693 ], [ 6.7019, 44.1783 ], [ 6.6981, 44.1898 ], [ 6.7064, 44.2014 ], [ 6.7176, 44.2082 ], [ 6.7141, 44.2182 ], [ 6.725, 44.2263 ], [ 6.724, 44.2498 ], [ 6.7382, 44.2532 ], [ 6.7423, 44.2588 ], [ 6.7591, 44.2621 ], [ 6.7583, 44.2744 ], [ 6.7635, 44.2796 ], [ 6.7903, 44.2723 ], [ 6.7865, 44.2895 ], [ 6.7961, 44.2983 ], [ 6.7961, 44.3161 ], [ 6.8072, 44.3214 ], [ 6.8089, 44.3305 ], [ 6.8224, 44.3327 ], [ 6.8403, 44.3465 ], [ 6.8596, 44.3442 ], [ 6.8874, 44.361 ] ] ] ] } }
]
}
