{
"type": "FeatureCollection",
"name": "dep05",
"crs": { "type": "name", "properties": { "name": "urn:ogc:def:crs:OGC:1.3:CRS84" } },
"xy_coordinate_resolution": 0.0001,
"features": [
{ "type": "Feature", "properties": { "code": "05", "nom": "Hautes-Alpes" }, "geometry": { "type": "Polygon", "coordinates": [ [ [ 6.2606, 45.1268 ], [ 6.2748, 45.1158 ], [ 6.2935, 45.1085 ], [ 6.3173, 45.112 ], [ 6.3345, 45.1228 ], [ 6.3657, 45.101 ], [ 6.3747, 45.0832 ], [ 6.3649, 45.0702 ], [ 6.3963, 45.0611 ], [ 6.4038, 45.0648 ], [ 6.4228, 45.0601 ], [ 6.4343, 45.0636 ], [ 6.4518, 45.0517 ], [ 6.4873, 45.0568 ], [ 6.4896, 45.0677 ], [ 6.4805, 45.0942 ], [ 6.5104, 45.109 ], [ 6.5297, 45.0986 ], [ 6.5392, 45.0991 ], [ 6.5613, 45.1053 ], [ 6.5613, 45.1112 ], [ 6.5765, 45.1231 ], [ 6.5927, 45.1189 ], [ 6.6155, 45.1215 ], [ 6.63, 45.1093 ], [ 6.6267, 45.1038 ], [ 6.6333, 45.0941 ], [ 6.6468, 45.085 ], [ 6.6452, 45.0756 ], [ 6.6549, 45.0709 ], [ 6.6621, 45.0716 ], [ 6.6636, 45.057 ], [ 6.6588, 45.0522 ], [ 6.6695, 45.0442 ], [ 6.6642, 45.0338 ], [ 6.6739, 45.0196 ], [ 6.7212, 45.022 ], [ 6.7454, 45.0143 ], [ 6.7517, 44.9966 ], [ 6.7372, 44.9935 ], [ 6.7379, 44.9892 ], [ 6.7493, 44.9849 ], [ 6.7497, 44.9774 ], [ 6.7635, 44.9712 ], [ 6.7652, 44.962 ], [ 6.7584, 44.9478 ], [ 6.7441, 44.9372 ], [ 6.758, 44.9371 ], [ 6.7609, 44.9332 ], [ 6.761, 44.9308 ], [ 6.7543, 44.9319 ], [ 6.7489, 44.9224 ], [ 6.7507, 44.9057 ], [ 6.7712, 44.9034 ], [ 6.7847, 44.8897 ], [ 6.8015, 44.8911 ], [ 6.8034, 44.8781 ], [ 6.8302, 44.8678 ], [ 6.8393, 44.8603 ], [ 6.8548, 44.8578 ], [ 6.8632, 44.8506 ], [ 6.9132, 44.845 ], [ 6.9312, 44.8635 ], [ 6.971, 44.8463 ], [ 7.0013, 44.8423 ], [ 7.0068, 44.8393 ], [ 7.0098, 44.826 ], [ 7.0238, 44.8231 ], [ 7.0094, 44.7983 ], [ 6.9994, 44.7897 ], [ 7.0117, 44.7837 ], [ 7.0223, 44.7708 ], [ 7.0234, 44.74 ], [ 7.0299, 44.7298 ], [ 7.0421, 44.7186 ], [ 7.066, 44.7133 ], [ 7.0771, 44.6809 ], [ 7.0597, 44.68 ], [ 7.0303, 44.6914 ], [ 7.0047, 44.6872 ], [ 6.9992, 44.6905 ], [ 6.9871, 44.6901 ], [ 6.9712, 44.6772 ], [ 6.9632, 44.6781 ], [ 6.9577, 44.6713 ], [ 6.9588, 44.6625 ], [ 6.9483, 44.6548 ], [ 6.9396, 44.652 ], [ 6.9156, 44.66 ], [ 6.8826, 44.6304 ], [ 6.8584, 44.6294 ], [ 6.8539, 44.6148 ], [ 6.8434, 44.609 ], [ 6.8244, 44.6089 ], [ 6.8089, 44.6014 ], [ 6.8012, 44.6043 ], [ 6.7921, 44.5923 ], [ 6.7817, 44.5948 ], [ 6.769, 44.5882 ], [ 6.7718, 44.5758 ], [ 6.7522, 44.5705 ], [ 6.748, 44.5605 ], [ 6.7372, 44.5525 ], [ 6.7293, 44.5532 ], [ 6.7042, 44.5392 ], [ 6.6809, 44.541 ], [ 6.6833, 44.5312 ], [ 6.6685, 44.5003 ], [ 6.6519, 44.4941 ], [ 6.6417, 44.4855 ], [ 6.6323, 44.4469 ], [ 6.5989, 44.4487 ], [ 6.5898, 44.4456 ], [ 6.5781, 44.4487 ], [ 6.5624, 44.4455 ], [ 6.5474, 44.4468 ], [ 6.5363, 44.4521 ], [ 6.5196, 44.448 ], [ 6.5092, 44.4509 ], [ 6.4979, 44.4488 ], [ 6.482, 44.454 ], [ 6.4686, 44.4513 ], [ 6.4591, 44.4655 ], [ 6.4452, 44.4657 ], [ 6.435, 44.4751 ], [ 6.4237, 44.4676 ], [ 6.4121, 44.4701 ], [ 6.3988, 44.4942 ], [ 6.3851, 44.4992 ], [ 6.3573, 44.5226 ], [ 6.3324, 44.51 ], [ 6.3483, 44.4981 ], [ 6.341, 44.488 ], [ 6.3387, 44.4707 ], [ 6.3266, 44.4679 ], [ 6.3271, 44.4635 ], [ 6.3119, 44.4669 ], [ 6.2935, 44.4809 ], [ 6.2688, 44.4716 ], [ 6.2659, 44.466 ], [ 6.2328, 44.4629 ], [ 6.2625, 44.4123 ], [ 6.2482, 44.3891 ], [ 6.2282, 44.3817 ], [ 6.202, 44.4142 ], [ 6.1846, 44.4233 ], [ 6.175, 44.4388 ], [ 6.1599, 44.435 ], [ 6.1556, 44.462 ], [ 6.1264, 44.4681 ], [ 6.116, 44.4755 ], [ 6.1018, 44.472 ], [ 6.0838, 44.4778 ], [ 6.0769, 44.4693 ], [ 6.0828, 44.4633 ], [ 6.0711, 44.4505 ], [ 6.0757, 44.4385 ], [ 6.0599, 44.4462 ], [ 6.0623, 44.4505 ], [ 6.057, 44.452 ], [ 6.0549, 44.4473 ], [ 6.0263, 44.4346 ], [ 6.0184, 44.4185 ], [ 5.981, 44.4098 ], [ 5.9571, 44.3974 ], [ 5.9374, 44.3594 ], [ 5.9175, 44.3385 ], [ 5.9032, 44.3374 ], [ 5.9055, 44.3285 ], [ 5.8962, 44.3201 ], [ 5.8984, 44.3157 ], [ 5.9118, 44.3107 ], [ 5.9248, 44.315 ], [ 5.9264, 44.2932 ], [ 5.9127, 44.2887 ], [ 5.9166, 44.2799 ], [ 5.913, 44.2683 ], [ 5.9246, 44.2665 ], [ 5.9218, 44.2484 ], [ 5.9132, 44.2487 ], [ 5.8801, 44.271 ], [ 5.875, 44.2769 ], [ 5.8773, 44.2893 ], [ 5.8665, 44.2958 ], [ 5.8476, 44.3013 ], [ 5.8361, 44.2975 ], [ 5.8369, 44.2923 ], [ 5.8239, 44.2789 ], [ 5.8267, 44.2625 ], [ 5.86, 44.2451 ], [ 5.861, 44.2357 ], [ 5.872, 44.2278 ], [ 5.8764, 44.2144 ], [ 5.9147, 44.2034 ], [ 5.9093, 44.1905 ], [ 5.8904, 44.1901 ], [ 5.8876, 44.1938 ], [ 5.8672, 44.1934 ], [ 5.8451, 44.1999 ], [ 5.8286, 44.2007 ], [ 5.8139, 44.2103 ], [ 5.7954, 44.2135 ], [ 5.7765, 44.2055 ], [ 5.7511, 44.2094 ], [ 5.7367, 44.2008 ], [ 5.7139, 44.1993 ], [ 5.712, 44.1948 ], [ 5.6921, 44.1865 ], [ 5.6782, 44.1905 ], [ 5.6864, 44.1972 ], [ 5.676, 44.2121 ], [ 5.6824, 44.2343 ], [ 5.673, 44.2398 ], [ 5.673, 44.2462 ], [ 5.6742, 44.2564 ], [ 5.6866, 44.2669 ], [ 5.6756, 44.2759 ], [ 5.6468, 44.2671 ], [ 5.6475, 44.2725 ], [ 5.6321, 44.2839 ], [ 5.633, 44.2905 ], [ 5.643, 44.2938 ], [ 5.6382, 44.299 ], [ 5.627, 44.3011 ], [ 5.6162, 44.3094 ], [ 5.6079, 44.3067 ], [ 5.6111, 44.3159 ], [ 5.6326, 44.3284 ], [ 5.6308, 44.333 ], [ 5.6238, 44.3352 ], [ 5.6178, 44.3323 ], [ 5.568, 44.3322 ], [ 5.5605, 44.3356 ], [ 5.5473, 44.33 ], [ 5.5374, 44.3335 ], [ 5.5399, 44.3426 ], [ 5.529, 44.343 ], [ 5.5214, 44.3511 ], [ 5.4913, 44.3379 ], [ 5.4825, 44.3498 ], [ 5.4679, 44.3522 ], [ 5.4625, 44.3674 ], [ 5.4383, 44.3674 ], [ 5.4319, 44.371 ], [ 5.4302, 44.377 ], [ 5.4441, 44.3795 ], [ 5.443, 44.3912 ], [ 5.4312, 44.4143 ], [ 5.4229, 44.4158 ], [ 5.4184, 44.4248 ], [ 5.4367, 44.4337 ], [ 5.4765, 44.4197 ], [ 5.4866, 44.4293 ], [ 5.4936, 44.4282 ], [ 5.4983, 44.4373 ], [ 5.4644, 44.4479 ], [ 5.459, 44.469 ], [ 5.4677, 44.4733 ], [ 5.4589, 44.4885 ], [ 5.4584, 44.4994 ], [ 5.4714, 44.4998 ], [ 5.4799, 44.4912 ], [ 5.5161, 44.4917 ], [ 5.5453, 44.4825 ], [ 5.5588, 44.4731 ], [ 5.5703, 44.4768 ], [ 5.6034, 44.4654 ], [ 5.6117, 44.4696 ], [ 5.625, 44.4846 ], [ 5.6298, 44.5012 ], [ 5.6413, 44.5023 ], [ 5.6501, 44.4992 ], [ 5.6645, 44.5019 ], [ 5.6274, 44.5346 ], [ 5.615, 44.5328 ], [ 5.5973, 44.5433 ], [ 5.607, 44.5683 ], [ 5.6154, 44.5733 ], [ 5.6178, 44.5839 ], [ 5.6263, 44.5866 ], [ 5.6353, 44.6091 ], [ 5.6472, 44.6116 ], [ 5.6495, 44.6194 ], [ 5.6431, 44.6222 ], [ 5.6392, 44.6355 ], [ 5.6417, 44.6511 ], [ 5.6545, 44.6554 ], [ 5.6555, 44.6515 ], [ 5.6684, 44.6484 ], [ 5.68, 44.6522 ], [ 5.7069, 44.6421 ], [ 5.7146, 44.6437 ], [ 5.728, 44.6392 ], [ 5.7386, 44.6406 ], [ 5.7368, 44.6498 ], [ 5.7536, 44.6486 ], [ 5.7475, 44.6547 ], [ 5.7539, 44.6627 ], [ 5.7638, 44.6556 ], [ 5.7906, 44.6533 ], [ 5.7994, 44.6742 ], [ 5.8304, 44.6906 ], [ 5.8254, 44.7015 ], [ 5.8013, 44.7083 ], [ 5.8112, 44.7128 ], [ 5.8177, 44.731 ], [ 5.8293, 44.7416 ], [ 5.8271, 44.7597 ], [ 5.8384, 44.7578 ], [ 5.8468, 44.7516 ], [ 5.8667, 44.7516 ], [ 5.8818, 44.7466 ], [ 5.9001, 44.7583 ], [ 5.9109, 44.7577 ], [ 5.919, 44.7514 ], [ 5.9373, 44.7636 ], [ 5.9511, 44.7596 ], [ 5.9532, 44.7713 ], [ 5.9802, 44.7812 ], [ 5.9778, 44.791 ], [ 5.9538, 44.7995 ], [ 5.9495, 44.8045 ], [ 5.9792, 44.8186 ], [ 6.0055, 44.8208 ], [ 6.0159, 44.8355 ], [ 6.0302, 44.8381 ], [ 6.0565, 44.8158 ], [ 6.1007, 44.8426 ], [ 6.1107, 44.8432 ], [ 6.1329, 44.8645 ], [ 6.1438, 44.8584 ], [ 6.1585, 44.8586 ], [ 6.1685, 44.8522 ], [ 6.1877, 44.8538 ], [ 6.1964, 44.859 ], [ 6.2254, 44.8522 ], [ 6.25, 44.8519 ], [ 6.2584, 44.8637 ], [ 6.2694, 44.8705 ], [ 6.2815, 44.8699 ], [ 6.2886, 44.8741 ], [ 6.3039, 44.873 ], [ 6.3241, 44.8522 ], [ 6.3363, 44.8484 ], [ 6.3539, 44.8535 ], [ 6.3508, 44.8812 ], [ 6.3593, 44.8881 ], [ 6.3536, 44.8975 ], [ 6.3589, 44.9072 ], [ 6.3575, 44.9221 ], [ 6.353, 44.9245 ], [ 6.3588, 44.9413 ], [ 6.3305, 44.9464 ], [ 6.3229, 44.953 ], [ 6.3228, 44.9618 ], [ 6.3295, 44.9692 ], [ 6.3148, 44.9802 ], [ 6.3159, 44.99 ], [ 6.3235, 44.9991 ], [ 6.3182, 45.0039 ], [ 6.3064, 45.0048 ], [ 6.2534, 44.9952 ], [ 6.2039, 45.0125 ], [ 6.2028, 45.0228 ], [ 6.2098, 45.0292 ], [ 6.2086, 45.0407 ], [ 6.2156, 45.0483 ], [ 6.2201, 45.0654 ], [ 6.2401, 45.0677 ], [ 6.2445, 45.0717 ], [ 6.2392, 45.0751 ], [ 6.2289, 45.1083 ], [ 6.2606, 45.1268 ] ] ] } }
]
}
