{
"type": "FeatureCollection",
"name": "dep04",
"crs": { "type": "name", "properties": { "name": "urn:ogc:def:crs:OGC:1.3:CRS84" } },
"xy_coordinate_resolution": 0.0001,
"features": [
{ "type": "Feature", "properties": { "code": "04", "nom": "Alpes-de-Haute-Provence" }, "geometry": { "type": "Polygon", "coordinates": [ [ [ 5.676, 44.1914 ], [ 5.6921, 44.1865 ], [ 5.712, 44.1948 ], [ 5.7139, 44.1993 ], [ 5.7367, 44.2008 ], [ 5.7511, 44.2094 ], [ 5.7765, 44.2055 ], [ 5.7954, 44.2135 ], [ 5.8139, 44.2103 ], [ 5.8286, 44.2007 ], [ 5.8451, 44.1999 ], [ 5.8672, 44.1934 ], [ 5.8876, 44.1938 ], [ 5.8904, 44.1901 ], [ 5.9093, 44.1905 ], [ 5.9147, 44.2034 ], [ 5.8764, 44.2144 ], [ 5.872, 44.2278 ], [ 5.861, 44.2357 ], [ 5.86, 44.2451 ], [ 5.8267, 44.2625 ], [ 5.8239, 44.2789 ], [ 5.8369, 44.2923 ], [ 5.8361, 44.2975 ], [ 5.8476, 44.3013 ], [ 5.8665, 44.2958 ], [ 5.8773, 44.2893 ], [ 5.875, 44.2769 ], [ 5.8801, 44.271 ], [ 5.9132, 44.2487 ], [ 5.9218, 44.2484 ], [ 5.9246, 44.2665 ], [ 5.913, 44.2683 ], [ 5.9166, 44.2799 ], [ 5.9127, 44.2887 ], [ 5.9264, 44.2932 ], [ 5.9248, 44.315 ], [ 5.9118, 44.3107 ], [ 5.8984, 44.3157 ], [ 5.8962, 44.3201 ], [ 5.9055, 44.3285 ], [ 5.9032, 44.3374 ], [ 5.9175, 44.3385 ], [ 5.9374, 44.3594 ], [ 5.9571, 44.3974 ], [ 5.981, 44.4098 ], [ 6.0184, 44.4185 ], [ 6.0263, 44.4346 ], [ 6.0549, 44.4473 ], [ 6.057, 44.452 ], [ 6.0623, 44.4505 ], [ 6.0599, 44.4462 ], [ 6.0757, 44.4385 ], [ 6.0711, 44.4505 ], [ 6.0828, 44.4633 ], [ 6.0769, 44.4693 ], [ 6.0838, 44.4778 ], [ 6.1018, 44.472 ], [ 6.116, 44.4755 ], [ 6.1264, 44.4681 ], [ 6.1556, 44.462 ], [ 6.1599, 44.435 ], [ 6.175, 44.4388 ], [ 6.1846, 44.4233 ], [ 6.202, 44.4142 ], [ 6.2282, 44.3817 ], [ 6.2482, 44.3891 ], [ 6.2625, 44.4123 ], [ 6.2328, 44.4629 ], [ 6.2659, 44.466 ], [ 6.2688, 44.4716 ], [ 6.2935, 44.4809 ], [ 6.3119, 44.4669 ], [ 6.3271, 44.4635 ], [ 6.3266, 44.4679 ], [ 6.3387, 44.4707 ], [ 6.341, 44.488 ], [ 6.3483, 44.4981 ], [ 6.3324, 44.51 ], [ 6.3573, 44.5226 ], [ 6.3851, 44.4992 ], [ 6.3988, 44.4942 ], [ 6.4121, 44.4701 ], [ 6.4237, 44.4676 ], [ 6.435, 44.4751 ], [ 6.4452, 44.4657 ], [ 6.4591, 44.4655 ], [ 6.4686, 44.4513 ], [ 6.482, 44.454 ], [ 6.4979, 44.4488 ], [ 6.5092, 44.4509 ], [ 6.5196, 44.448 ], [ 6.5363, 44.4521 ], [ 6.5474, 44.4468 ], [ 6.5624, 44.4455 ], [ 6.5781, 44.4487 ], [ 6.5898, 44.4456 ], [ 6.5989, 44.4487 ], [ 6.6323, 44.4469 ], [ 6.6417, 44.4855 ], [ 6.6519, 44.4941 ], [ 6.6685, 44.5003 ], [ 6.6833, 44.5312 ], [ 6.6809, 44.541 ], [ 6.7042, 44.5392 ], [ 6.7293, 44.5532 ], [ 6.7372, 44.5525 ], [ 6.748, 44.5605 ], [ 6.7522, 44.5705 ], [ 6.7718, 44.5758 ], [ 6.769, 44.5882 ], [ 6.7817, 44.5948 ], [ 6.7921, 44.5923 ], [ 6.8012, 44.6043 ], [ 6.8089, 44.6014 ], [ 6.8244, 44.6089 ], [ 6.8434, 44.609 ], [ 6.8539, 44.6148 ], [ 6.8584, 44.6294 ], [ 6.8826, 44.6304 ], [ 6.9156, 44.66 ], [ 6.9396, 44.652 ], [ 6.9483, 44.6548 ], [ 6.9538, 44.637 ], [ 6.9683, 44.6247 ], [ 6.9684, 44.6198 ], [ 6.9493, 44.6192 ], [ 6.9503, 44.61 ], [ 6.9377, 44.6034 ], [ 6.9337, 44.5969 ], [ 6.9329, 44.5734 ], [ 6.9136, 44.5693 ], [ 6.915, 44.5588 ], [ 6.8904, 44.5523 ], [ 6.8786, 44.5543 ], [ 6.8698, 44.5368 ], [ 6.8579, 44.534 ], [ 6.8534, 44.5288 ], [ 6.8597, 44.5028 ], [ 6.8768, 44.4887 ], [ 6.8774, 44.4808 ], [ 6.9062, 44.4677 ], [ 6.9128, 44.4505 ], [ 6.9364, 44.4399 ], [ 6.9481, 44.4297 ], [ 6.9461, 44.4273 ], [ 6.9333, 44.4297 ], [ 6.9333, 44.4251 ], [ 6.9248, 44.4223 ], [ 6.918, 44.4274 ], [ 6.9029, 44.4204 ], [ 6.8929, 44.4208 ], [ 6.8976, 44.4055 ], [ 6.8952, 44.3702 ], [ 6.8884, 44.3674 ], [ 6.8874, 44.361 ], [ 6.8596, 44.3442 ], [ 6.8403, 44.3465 ], [ 6.8224, 44.3327 ], [ 6.8089, 44.3305 ], [ 6.8072, 44.3214 ], [ 6.7961, 44.3161 ], [ 6.7961, 44.2983 ], [ 6.7865, 44.2895 ], [ 6.7903, 44.2723 ], [ 6.7635, 44.2796 ], [ 6.7583, 44.2744 ], [ 6.7591, 44.2621 ], [ 6.7423, 44.2588 ], [ 6.7382, 44.2532 ], [ 6.724, 44.2498 ], [ 6.725, 44.2263 ], [ 6.7141, 44.2182 ], [ 6.7176, 44.2082 ], [ 6.7064, 44.2014 ], [ 6.6981, 44.1898 ], [ 6.7019, 44.1783 ], [ 6.6865, 44.1693 ], [ 6.6999, 44.1566 ], [ 6.698, 44.1494 ], [ 6.7073, 44.1444 ], [ 6.7076, 44.1245 ], [ 6.7186, 44.1194 ], [ 6.7565, 44.0796 ], [ 6.7476, 44.0648 ], [ 6.7471, 44.0409 ], [ 6.7762, 44.0238 ], [ 6.7887, 44.0234 ], [ 6.798, 44.0053 ], [ 6.8387, 43.9897 ], [ 6.8347, 43.9833 ], [ 6.8457, 43.9783 ], [ 6.8476, 43.9544 ], [ 6.8755, 43.9528 ], [ 6.8757, 43.9452 ], [ 6.8843, 43.935 ], [ 6.8983, 43.9268 ], [ 6.9133, 43.9278 ], [ 6.9439, 43.8995 ], [ 6.933, 43.8947 ], [ 6.8846, 43.8891 ], [ 6.8646, 43.9068 ], [ 6.8542, 43.9071 ], [ 6.8533, 43.9147 ], [ 6.8334, 43.9154 ], [ 6.8323, 43.9185 ], [ 6.7986, 43.9097 ], [ 6.8003, 43.9059 ], [ 6.7816, 43.8835 ], [ 6.7484, 43.8717 ], [ 6.6733, 43.888 ], [ 6.6779, 43.8791 ], [ 6.6962, 43.8755 ], [ 6.6982, 43.8591 ], [ 6.7028, 43.856 ], [ 6.6782, 43.852 ], [ 6.6679, 43.8306 ], [ 6.7028, 43.8242 ], [ 6.712, 43.8149 ], [ 6.7061, 43.8084 ], [ 6.6415, 43.7955 ], [ 6.6364, 43.789 ], [ 6.6279, 43.7916 ], [ 6.6237, 43.8048 ], [ 6.5869, 43.8053 ], [ 6.5853, 43.8005 ], [ 6.5457, 43.7753 ], [ 6.5422, 43.7755 ], [ 6.5467, 43.7831 ], [ 6.5424, 43.7919 ], [ 6.5173, 43.8088 ], [ 6.5094, 43.8007 ], [ 6.4869, 43.7917 ], [ 6.4821, 43.7911 ], [ 6.4749, 43.7981 ], [ 6.4568, 43.7931 ], [ 6.4388, 43.7978 ], [ 6.4365, 43.7918 ], [ 6.4144, 43.7916 ], [ 6.4101, 43.7719 ], [ 6.4133, 43.7602 ], [ 6.3835, 43.7344 ], [ 6.3747, 43.743 ], [ 6.3589, 43.7358 ], [ 6.3512, 43.7362 ], [ 6.3451, 43.742 ], [ 6.3263, 43.7469 ], [ 6.3229, 43.7533 ], [ 6.3169, 43.7536 ], [ 6.3173, 43.7579 ], [ 6.295, 43.7642 ], [ 6.2823, 43.7736 ], [ 6.2686, 43.7772 ], [ 6.2542, 43.8004 ], [ 6.2167, 43.7995 ], [ 6.1906, 43.7802 ], [ 6.1829, 43.7622 ], [ 6.1543, 43.7436 ], [ 6.1297, 43.7362 ], [ 6.1167, 43.7416 ], [ 6.1147, 43.7461 ], [ 6.1067, 43.7445 ], [ 6.1029, 43.7363 ], [ 6.0903, 43.729 ], [ 6.0881, 43.7182 ], [ 6.077, 43.7072 ], [ 6.0351, 43.6941 ], [ 6.0395, 43.6786 ], [ 6.0217, 43.6683 ], [ 6.0116, 43.6741 ], [ 6.0057, 43.6876 ], [ 5.9879, 43.6951 ], [ 5.9854, 43.714 ], [ 5.9736, 43.7147 ], [ 5.9646, 43.7254 ], [ 5.9572, 43.7189 ], [ 5.9405, 43.7273 ], [ 5.9388, 43.7333 ], [ 5.9434, 43.7364 ], [ 5.9388, 43.7488 ], [ 5.9275, 43.7502 ], [ 5.9255, 43.7569 ], [ 5.903, 43.7534 ], [ 5.905, 43.7374 ], [ 5.8845, 43.7239 ], [ 5.8562, 43.7236 ], [ 5.849, 43.7182 ], [ 5.8426, 43.7368 ], [ 5.8312, 43.7469 ], [ 5.7813, 43.7557 ], [ 5.7573, 43.7294 ], [ 5.7459, 43.7429 ], [ 5.7169, 43.7555 ], [ 5.7136, 43.7811 ], [ 5.705, 43.7795 ], [ 5.6857, 43.7872 ], [ 5.6745, 43.8074 ], [ 5.6584, 43.8169 ], [ 5.6544, 43.8251 ], [ 5.6277, 43.8309 ], [ 5.6006, 43.826 ], [ 5.5746, 43.8303 ], [ 5.5673, 43.8271 ], [ 5.5643, 43.8197 ], [ 5.5443, 43.8184 ], [ 5.5486, 43.8515 ], [ 5.5735, 43.8634 ], [ 5.6082, 43.9148 ], [ 5.5816, 43.9151 ], [ 5.5806, 43.9255 ], [ 5.5679, 43.937 ], [ 5.5689, 43.9422 ], [ 5.545, 43.9391 ], [ 5.5269, 43.9475 ], [ 5.5127, 43.9454 ], [ 5.5077, 43.9577 ], [ 5.5177, 43.9917 ], [ 5.5436, 44.026 ], [ 5.545, 44.0684 ], [ 5.5026, 44.0634 ], [ 5.498, 44.0752 ], [ 5.4988, 44.1157 ], [ 5.5087, 44.1185 ], [ 5.5111, 44.1241 ], [ 5.5414, 44.1326 ], [ 5.5513, 44.1498 ], [ 5.5688, 44.148 ], [ 5.5787, 44.1521 ], [ 5.583, 44.1576 ], [ 5.5644, 44.1709 ], [ 5.5762, 44.188 ], [ 5.6093, 44.1907 ], [ 5.6161, 44.1778 ], [ 5.632, 44.1737 ], [ 5.6396, 44.1676 ], [ 5.6317, 44.1586 ], [ 5.6311, 44.1506 ], [ 5.6779, 44.1464 ], [ 5.6824, 44.1636 ], [ 5.647, 44.1663 ], [ 5.6433, 44.1707 ], [ 5.6516, 44.1896 ], [ 5.675, 44.1888 ], [ 5.676, 44.1914 ] ] ] } }
]
}
