{
"type": "FeatureCollection",
"name": "dep18",
"crs": { "type": "name", "properties": { "name": "urn:ogc:def:crs:OGC:1.3:CRS84" } },
"xy_coordinate_resolution": 0.0001,
"features": [
{ "type": "Feature", "properties": { "code": "18", "nom": "Cher" }, "geometry": { "type": "Polygon", "coordinates": [ [ [ 2.2286, 47.6205 ], [ 2.2896, 47.6291 ], [ 2.2912, 47.6238 ], [ 2.325, 47.6076 ], [ 2.3424, 47.6053 ], [ 2.3599, 47.5899 ], [ 2.3726, 47.5855 ], [ 2.3811, 47.5918 ], [ 2.396, 47.5925 ], [ 2.4007, 47.5994 ], [ 2.4394, 47.6095 ], [ 2.4502, 47.6057 ], [ 2.4526, 47.5968 ], [ 2.4914, 47.5683 ], [ 2.5473, 47.5752 ], [ 2.5632, 47.5721 ], [ 2.5739, 47.5594 ], [ 2.5939, 47.5583 ], [ 2.6167, 47.5409 ], [ 2.612, 47.5276 ], [ 2.6153, 47.5239 ], [ 2.6303, 47.522 ], [ 2.6364, 47.5156 ], [ 2.6468, 47.5162 ], [ 2.6541, 47.5122 ], [ 2.6551, 47.4918 ], [ 2.6576, 47.4873 ], [ 2.6665, 47.4851 ], [ 2.6903, 47.4838 ], [ 2.7034, 47.489 ], [ 2.7154, 47.488 ], [ 2.719, 47.4951 ], [ 2.7249, 47.494 ], [ 2.7274, 47.4989 ], [ 2.72, 47.5048 ], [ 2.7277, 47.5068 ], [ 2.7238, 47.5161 ], [ 2.7296, 47.5203 ], [ 2.7223, 47.5213 ], [ 2.7292, 47.5307 ], [ 2.7271, 47.5362 ], [ 2.7326, 47.538 ], [ 2.746, 47.5248 ], [ 2.7671, 47.5251 ], [ 2.7853, 47.5159 ], [ 2.7846, 47.5101 ], [ 2.7964, 47.5055 ], [ 2.7932, 47.4977 ], [ 2.8035, 47.4978 ], [ 2.8078, 47.4944 ], [ 2.8254, 47.4972 ], [ 2.8347, 47.5089 ], [ 2.8471, 47.5137 ], [ 2.8746, 47.5204 ], [ 2.8798, 47.5167 ], [ 2.8902, 47.5066 ], [ 2.8985, 47.4816 ], [ 2.9141, 47.4709 ], [ 2.932, 47.4395 ], [ 2.9314, 47.4326 ], [ 2.9199, 47.4212 ], [ 2.9185, 47.4055 ], [ 2.8735, 47.3484 ], [ 2.8699, 47.3382 ], [ 2.8766, 47.3219 ], [ 2.8862, 47.3158 ], [ 2.9123, 47.3089 ], [ 2.9392, 47.2866 ], [ 2.9739, 47.2698 ], [ 2.9831, 47.2608 ], [ 2.9789, 47.2296 ], [ 3.0097, 47.1791 ], [ 3.0206, 47.1532 ], [ 3.0166, 47.1409 ], [ 3.0281, 47.1291 ], [ 3.0314, 47.0925 ], [ 3.0193, 47.0682 ], [ 3.0296, 47.0584 ], [ 3.0638, 47.0461 ], [ 3.0752, 47.0293 ], [ 3.0626, 46.9792 ], [ 3.0717, 46.9643 ], [ 3.0793, 46.9602 ], [ 3.05, 46.9077 ], [ 3.061, 46.8982 ], [ 3.067, 46.8818 ], [ 3.0689, 46.8507 ], [ 3.0557, 46.8411 ], [ 3.0589, 46.8263 ], [ 3.0413, 46.813 ], [ 3.0321, 46.7949 ], [ 3.0246, 46.794 ], [ 3.0175, 46.7999 ], [ 2.9926, 46.7971 ], [ 2.9824, 46.8029 ], [ 2.9628, 46.804 ], [ 2.9536, 46.7972 ], [ 2.9532, 46.7911 ], [ 2.9315, 46.7957 ], [ 2.9133, 46.791 ], [ 2.9079, 46.7877 ], [ 2.9104, 46.7794 ], [ 2.8762, 46.7684 ], [ 2.877, 46.7615 ], [ 2.8454, 46.7429 ], [ 2.8468, 46.7271 ], [ 2.8352, 46.728 ], [ 2.8275, 46.7353 ], [ 2.7951, 46.7343 ], [ 2.7855, 46.7271 ], [ 2.7859, 46.7225 ], [ 2.7737, 46.7182 ], [ 2.7704, 46.7233 ], [ 2.7585, 46.7177 ], [ 2.7568, 46.7248 ], [ 2.7442, 46.7289 ], [ 2.7345, 46.7462 ], [ 2.7289, 46.7485 ], [ 2.7186, 46.7417 ], [ 2.7145, 46.7445 ], [ 2.705, 46.7394 ], [ 2.7008, 46.728 ], [ 2.7069, 46.7254 ], [ 2.7023, 46.7182 ], [ 2.6961, 46.7235 ], [ 2.6917, 46.7196 ], [ 2.6856, 46.7226 ], [ 2.686, 46.7144 ], [ 2.6716, 46.7089 ], [ 2.6778, 46.7046 ], [ 2.6744, 46.7019 ], [ 2.6547, 46.6965 ], [ 2.6451, 46.6872 ], [ 2.6396, 46.6915 ], [ 2.6234, 46.6896 ], [ 2.62, 46.6797 ], [ 2.625, 46.6731 ], [ 2.6337, 46.6753 ], [ 2.6286, 46.6595 ], [ 2.6239, 46.6566 ], [ 2.6174, 46.6608 ], [ 2.6072, 46.6605 ], [ 2.6054, 46.6712 ], [ 2.5978, 46.6647 ], [ 2.5943, 46.6667 ], [ 2.5745, 46.6612 ], [ 2.5671, 46.6537 ], [ 2.5931, 46.6466 ], [ 2.5967, 46.6372 ], [ 2.5843, 46.6258 ], [ 2.5883, 46.616 ], [ 2.5684, 46.6094 ], [ 2.5778, 46.6079 ], [ 2.5816, 46.5932 ], [ 2.5923, 46.5937 ], [ 2.5942, 46.5972 ], [ 2.6001, 46.5952 ], [ 2.5972, 46.5929 ], [ 2.6094, 46.5713 ], [ 2.6033, 46.5643 ], [ 2.6095, 46.5631 ], [ 2.615, 46.5533 ], [ 2.5835, 46.5427 ], [ 2.5725, 46.5338 ], [ 2.5532, 46.5294 ], [ 2.5366, 46.5197 ], [ 2.5294, 46.5233 ], [ 2.5308, 46.5294 ], [ 2.5205, 46.5309 ], [ 2.5071, 46.5216 ], [ 2.4972, 46.5215 ], [ 2.4969, 46.5337 ], [ 2.4829, 46.5327 ], [ 2.4455, 46.52 ], [ 2.4417, 46.525 ], [ 2.4301, 46.5265 ], [ 2.422, 46.5257 ], [ 2.4169, 46.5206 ], [ 2.3598, 46.5159 ], [ 2.3238, 46.4901 ], [ 2.3298, 46.4785 ], [ 2.323, 46.4697 ], [ 2.3167, 46.4686 ], [ 2.3055, 46.4754 ], [ 2.3008, 46.4724 ], [ 2.2834, 46.4493 ], [ 2.2846, 46.4399 ], [ 2.2769, 46.4251 ], [ 2.2811, 46.4204 ], [ 2.2548, 46.423 ], [ 2.2499, 46.4264 ], [ 2.2333, 46.4224 ], [ 2.2283, 46.425 ], [ 2.2142, 46.4232 ], [ 2.1993, 46.4283 ], [ 2.1725, 46.4223 ], [ 2.1544, 46.4341 ], [ 2.1581, 46.4404 ], [ 2.1513, 46.4483 ], [ 2.1514, 46.4577 ], [ 2.1932, 46.4703 ], [ 2.2043, 46.4842 ], [ 2.2044, 46.4906 ], [ 2.1944, 46.4961 ], [ 2.1986, 46.5023 ], [ 2.1834, 46.509 ], [ 2.1811, 46.529 ], [ 2.1589, 46.5575 ], [ 2.1747, 46.5645 ], [ 2.1671, 46.589 ], [ 2.177, 46.6017 ], [ 2.1863, 46.6039 ], [ 2.1836, 46.6119 ], [ 2.1875, 46.6167 ], [ 2.1796, 46.6281 ], [ 2.1894, 46.6421 ], [ 2.1795, 46.6425 ], [ 2.1758, 46.6509 ], [ 2.1628, 46.6463 ], [ 2.1629, 46.6541 ], [ 2.1391, 46.6643 ], [ 2.1367, 46.6773 ], [ 2.148, 46.6771 ], [ 2.1444, 46.6821 ], [ 2.1555, 46.6922 ], [ 2.1407, 46.6955 ], [ 2.131, 46.7056 ], [ 2.1181, 46.7103 ], [ 2.107, 46.7111 ], [ 2.1018, 46.7078 ], [ 2.087, 46.7126 ], [ 2.0912, 46.7274 ], [ 2.0719, 46.7351 ], [ 2.0657, 46.7425 ], [ 2.0669, 46.7515 ], [ 2.0959, 46.7555 ], [ 2.098, 46.761 ], [ 2.1072, 46.7653 ], [ 2.1076, 46.7759 ], [ 2.1149, 46.7736 ], [ 2.1166, 46.7797 ], [ 2.0959, 46.8012 ], [ 2.0725, 46.8088 ], [ 2.045, 46.8365 ], [ 2.0763, 46.8347 ], [ 2.0965, 46.8552 ], [ 2.083, 46.8686 ], [ 2.107, 46.8721 ], [ 2.1142, 46.8804 ], [ 2.1264, 46.88 ], [ 2.139, 46.8886 ], [ 2.1548, 46.9116 ], [ 2.1467, 46.9176 ], [ 2.11, 46.9134 ], [ 2.0704, 46.9344 ], [ 2.0702, 46.9544 ], [ 2.0883, 46.9605 ], [ 2.0909, 46.9681 ], [ 2.0867, 46.9732 ], [ 2.0963, 46.9852 ], [ 2.0921, 46.9882 ], [ 2.1089, 46.9972 ], [ 2.0934, 47.0157 ], [ 2.086, 47.0161 ], [ 2.0752, 47.0256 ], [ 2.0637, 47.0279 ], [ 2.0515, 47.0421 ], [ 2.0314, 47.0423 ], [ 2.0288, 47.0459 ], [ 2.0412, 47.0655 ], [ 2.0557, 47.0717 ], [ 2.0539, 47.0865 ], [ 2.0472, 47.0944 ], [ 2.0534, 47.1035 ], [ 2.0488, 47.1068 ], [ 2.0245, 47.1045 ], [ 2.0289, 47.0951 ], [ 2.0033, 47.0942 ], [ 2.0126, 47.1114 ], [ 2.0002, 47.1139 ], [ 1.9967, 47.127 ], [ 1.9733, 47.1205 ], [ 1.9693, 47.1251 ], [ 1.9637, 47.1247 ], [ 1.9261, 47.1065 ], [ 1.9234, 47.1019 ], [ 1.9049, 47.1091 ], [ 1.8831, 47.1005 ], [ 1.8489, 47.1094 ], [ 1.8271, 47.1218 ], [ 1.8095, 47.122 ], [ 1.8042, 47.1191 ], [ 1.7748, 47.1306 ], [ 1.8082, 47.1532 ], [ 1.8108, 47.1643 ], [ 1.8226, 47.1735 ], [ 1.8422, 47.1776 ], [ 1.8391, 47.2193 ], [ 1.8497, 47.2181 ], [ 1.8528, 47.2221 ], [ 1.873, 47.2053 ], [ 1.8941, 47.2147 ], [ 1.9038, 47.2152 ], [ 1.9166, 47.236 ], [ 1.9095, 47.2438 ], [ 1.8922, 47.2488 ], [ 1.8948, 47.2547 ], [ 1.9246, 47.2647 ], [ 1.9232, 47.2747 ], [ 1.9426, 47.291 ], [ 1.9985, 47.264 ], [ 2.0078, 47.2686 ], [ 2.0245, 47.2651 ], [ 2.0773, 47.2858 ], [ 2.105, 47.2861 ], [ 2.1117, 47.2794 ], [ 2.1287, 47.2798 ], [ 2.1381, 47.2842 ], [ 2.1385, 47.2929 ], [ 2.1581, 47.2986 ], [ 2.1494, 47.3188 ], [ 2.1454, 47.3154 ], [ 2.1316, 47.321 ], [ 2.1292, 47.3329 ], [ 2.1194, 47.3334 ], [ 2.1277, 47.345 ], [ 2.1139, 47.37 ], [ 2.0971, 47.3668 ], [ 2.1031, 47.3926 ], [ 2.117, 47.4101 ], [ 2.115, 47.4213 ], [ 2.138, 47.406 ], [ 2.1889, 47.4378 ], [ 2.2052, 47.4053 ], [ 2.2304, 47.4075 ], [ 2.2437, 47.4148 ], [ 2.2479, 47.4414 ], [ 2.2416, 47.4507 ], [ 2.2349, 47.4517 ], [ 2.2452, 47.4582 ], [ 2.237, 47.4713 ], [ 2.2478, 47.4917 ], [ 2.228, 47.497 ], [ 2.1961, 47.4879 ], [ 2.2153, 47.5221 ], [ 2.1978, 47.5459 ], [ 2.1956, 47.5486 ], [ 2.1285, 47.5513 ], [ 2.1238, 47.56 ], [ 2.1277, 47.5701 ], [ 2.1196, 47.5829 ], [ 2.1419, 47.5901 ], [ 2.1513, 47.6005 ], [ 2.197, 47.607 ], [ 2.2286, 47.6205 ] ] ] } }
]
}
