{
"type": "FeatureCollection",
"name": "dep17",
"crs": { "type": "name", "properties": { "name": "urn:ogc:def:crs:OGC:1.3:CRS84" } },
"xy_coordinate_resolution": 0.0001,
"features": [
{ "type": "Feature", "properties": { "code": "17", "nom": "Charente-Maritime" }, "geometry": { "type": "MultiPolygon", "coordinates": [ [ [ [ -1.1143, 45.9517 ], [ -1.1203, 45.96 ], [ -1.1178, 45.9619 ], [ -1.1111, 45.9612 ], [ -1.1053, 45.9544 ], [ -1.1143, 45.9517 ] ] ], [ [ [ -1.4852, 46.208 ], [ -1.4793, 46.215 ], [ -1.4671, 46.2168 ], [ -1.4655, 46.2234 ], [ -1.457, 46.2241 ], [ -1.4582, 46.2287 ], [ -1.4129, 46.2301 ], [ -1.4105, 46.2271 ], [ -1.4185, 46.226 ], [ -1.4191, 46.2192 ], [ -1.4374, 46.2171 ], [ -1.4392, 46.2102 ], [ -1.4314, 46.2102 ], [ -1.4259, 46.2051 ], [ -1.4042, 46.2031 ], [ -1.3651, 46.2081 ], [ -1.3547, 46.2061 ], [ -1.3214, 46.1872 ], [ -1.306, 46.1906 ], [ -1.2928, 46.1874 ], [ -1.2822, 46.1734 ], [ -1.2818, 46.1647 ], [ -1.2742, 46.1602 ], [ -1.2556, 46.1644 ], [ -1.2556, 46.162 ], [ -1.2796, 46.1437 ], [ -1.3081, 46.143 ], [ -1.3534, 46.1545 ], [ -1.3861, 46.1749 ], [ -1.4616, 46.2021 ], [ -1.4746, 46.2028 ], [ -1.5059, 46.1941 ], [ -1.5349, 46.2029 ], [ -1.5629, 46.2438 ], [ -1.5411, 46.2436 ], [ -1.5128, 46.2581 ], [ -1.4946, 46.2562 ], [ -1.482, 46.2472 ], [ -1.4745, 46.2333 ], [ -1.4881, 46.2285 ], [ -1.4986, 46.235 ], [ -1.5063, 46.2265 ], [ -1.514, 46.2321 ], [ -1.5148, 46.227 ], [ -1.5067, 46.2146 ], [ -1.4995, 46.2167 ], [ -1.4935, 46.2129 ], [ -1.4945, 46.2054 ], [ -1.4886, 46.2076 ], [ -1.4836, 46.2022 ], [ -1.4852, 46.208 ] ] ], [ [ [ -1.1756, 46.008 ], [ -1.1789, 46.0126 ], [ -1.1746, 46.0242 ], [ -1.1577, 46.0224 ], [ -1.1546, 46.0182 ], [ -1.1714, 46.0186 ], [ -1.1698, 46.0133 ], [ -1.1756, 46.008 ] ] ], [ [ [ -1.1294, 46.3103 ], [ -1.1206, 46.3236 ], [ -1.1161, 46.3172 ], [ -1.1017, 46.3163 ], [ -1.0978, 46.3122 ], [ -1.091, 46.3173 ], [ -1.0755, 46.3175 ], [ -1.0813, 46.3233 ], [ -1.0733, 46.3269 ], [ -1.0534, 46.349 ], [ -1.0525, 46.3425 ], [ -1.0138, 46.3556 ], [ -1.013, 46.349 ], [ -0.9998, 46.3547 ], [ -0.9952, 46.3503 ], [ -0.9749, 46.3511 ], [ -0.9645, 46.3654 ], [ -0.9513, 46.3604 ], [ -0.942, 46.3682 ], [ -0.9368, 46.3664 ], [ -0.9296, 46.3715 ], [ -0.9435, 46.3366 ], [ -0.9631, 46.3226 ], [ -0.9435, 46.3183 ], [ -0.931, 46.31 ], [ -0.9263, 46.3155 ], [ -0.9212, 46.3125 ], [ -0.9153, 46.3159 ], [ -0.9111, 46.3128 ], [ -0.8945, 46.3169 ], [ -0.8872, 46.3267 ], [ -0.8703, 46.3222 ], [ -0.8646, 46.3275 ], [ -0.8604, 46.3253 ], [ -0.863, 46.3191 ], [ -0.8495, 46.3178 ], [ -0.8449, 46.3246 ], [ -0.8487, 46.3325 ], [ -0.8399, 46.3404 ], [ -0.8305, 46.3415 ], [ -0.8227, 46.3358 ], [ -0.8002, 46.3424 ], [ -0.7967, 46.3391 ], [ -0.8072, 46.3331 ], [ -0.8028, 46.3253 ], [ -0.7751, 46.3184 ], [ -0.7505, 46.3043 ], [ -0.7553, 46.3021 ], [ -0.7484, 46.2833 ], [ -0.7351, 46.2682 ], [ -0.7548, 46.253 ], [ -0.7515, 46.2451 ], [ -0.6882, 46.2167 ], [ -0.686, 46.2028 ], [ -0.6802, 46.1972 ], [ -0.6868, 46.1946 ], [ -0.694, 46.1967 ], [ -0.6978, 46.1922 ], [ -0.6877, 46.1908 ], [ -0.696, 46.1863 ], [ -0.6911, 46.1798 ], [ -0.6697, 46.185 ], [ -0.6449, 46.165 ], [ -0.6294, 46.1653 ], [ -0.6284, 46.161 ], [ -0.6103, 46.1611 ], [ -0.6015, 46.1563 ], [ -0.6068, 46.1528 ], [ -0.6324, 46.1506 ], [ -0.619, 46.1372 ], [ -0.5997, 46.1435 ], [ -0.583, 46.1397 ], [ -0.5793, 46.1483 ], [ -0.564, 46.1419 ], [ -0.547, 46.1442 ], [ -0.5331, 46.1397 ], [ -0.5312, 46.1352 ], [ -0.5271, 46.1363 ], [ -0.5286, 46.1298 ], [ -0.5174, 46.1269 ], [ -0.5115, 46.1302 ], [ -0.5188, 46.1237 ], [ -0.5096, 46.1175 ], [ -0.5164, 46.1125 ], [ -0.5061, 46.1067 ], [ -0.491, 46.1083 ], [ -0.468, 46.1022 ], [ -0.4519, 46.103 ], [ -0.4404, 46.0946 ], [ -0.4366, 46.0978 ], [ -0.4402, 46.1046 ], [ -0.4225, 46.1133 ], [ -0.4225, 46.0939 ], [ -0.4014, 46.0843 ], [ -0.3831, 46.098 ], [ -0.3813, 46.0931 ], [ -0.372, 46.0935 ], [ -0.3586, 46.0829 ], [ -0.365, 46.079 ], [ -0.3627, 46.0755 ], [ -0.331, 46.0825 ], [ -0.3036, 46.0776 ], [ -0.2918, 46.0875 ], [ -0.2798, 46.0785 ], [ -0.273, 46.0573 ], [ -0.213, 46.0441 ], [ -0.1926, 46.0542 ], [ -0.1965, 46.0445 ], [ -0.191, 46.0436 ], [ -0.1891, 46.0261 ], [ -0.1656, 46.0374 ], [ -0.1603, 46.0366 ], [ -0.1716, 46.0227 ], [ -0.1625, 46.0222 ], [ -0.1646, 46.0107 ], [ -0.1575, 46.0082 ], [ -0.1593, 46.0052 ], [ -0.1448, 46.0047 ], [ -0.1333, 45.9875 ], [ -0.1369, 45.979 ], [ -0.1161, 45.9775 ], [ -0.1029, 45.9697 ], [ -0.1064, 45.9589 ], [ -0.0946, 45.9624 ], [ -0.0864, 45.948 ], [ -0.0983, 45.9351 ], [ -0.0968, 45.9285 ], [ -0.1298, 45.9271 ], [ -0.1405, 45.9315 ], [ -0.1511, 45.9266 ], [ -0.1464, 45.9245 ], [ -0.1509, 45.9138 ], [ -0.1424, 45.9172 ], [ -0.1318, 45.9102 ], [ -0.1376, 45.9036 ], [ -0.1492, 45.9006 ], [ -0.1445, 45.8918 ], [ -0.1419, 45.889 ], [ -0.1309, 45.891 ], [ -0.1313, 45.878 ], [ -0.1265, 45.8726 ], [ -0.1113, 45.8716 ], [ -0.1249, 45.8563 ], [ -0.122, 45.8498 ], [ -0.137, 45.8469 ], [ -0.1447, 45.8397 ], [ -0.1349, 45.819 ], [ -0.1463, 45.8022 ], [ -0.155, 45.7978 ], [ -0.1483, 45.7891 ], [ -0.1561, 45.7795 ], [ -0.1645, 45.7811 ], [ -0.1556, 45.7893 ], [ -0.1626, 45.7925 ], [ -0.1661, 45.7877 ], [ -0.191, 45.7899 ], [ -0.1999, 45.7788 ], [ -0.2211, 45.7752 ], [ -0.2351, 45.7951 ], [ -0.2435, 45.7962 ], [ -0.2381, 45.8037 ], [ -0.2736, 45.8066 ], [ -0.2771, 45.8032 ], [ -0.2888, 45.8065 ], [ -0.2992, 45.8021 ], [ -0.2965, 45.7969 ], [ -0.3058, 45.7881 ], [ -0.3213, 45.7845 ], [ -0.3384, 45.787 ], [ -0.3692, 45.7805 ], [ -0.4018, 45.7866 ], [ -0.4031, 45.7707 ], [ -0.4095, 45.7672 ], [ -0.4137, 45.7714 ], [ -0.4277, 45.7634 ], [ -0.4321, 45.767 ], [ -0.4493, 45.766 ], [ -0.4632, 45.7518 ], [ -0.46, 45.7393 ], [ -0.4158, 45.7417 ], [ -0.4002, 45.735 ], [ -0.4201, 45.7247 ], [ -0.4221, 45.7095 ], [ -0.4149, 45.697 ], [ -0.4229, 45.6856 ], [ -0.4105, 45.6834 ], [ -0.3825, 45.6598 ], [ -0.3824, 45.6554 ], [ -0.3976, 45.6524 ], [ -0.4087, 45.6561 ], [ -0.4325, 45.625 ], [ -0.4138, 45.6161 ], [ -0.3874, 45.6267 ], [ -0.3802, 45.6221 ], [ -0.3771, 45.6093 ], [ -0.3652, 45.6046 ], [ -0.3606, 45.5979 ], [ -0.3465, 45.5954 ], [ -0.3414, 45.587 ], [ -0.3315, 45.5875 ], [ -0.3244, 45.5809 ], [ -0.3145, 45.5793 ], [ -0.2966, 45.5645 ], [ -0.3106, 45.5437 ], [ -0.318, 45.5447 ], [ -0.3221, 45.541 ], [ -0.3216, 45.535 ], [ -0.3045, 45.528 ], [ -0.2966, 45.5274 ], [ -0.2912, 45.5315 ], [ -0.2794, 45.5251 ], [ -0.2824, 45.5207 ], [ -0.2698, 45.5256 ], [ -0.255, 45.5212 ], [ -0.2537, 45.5169 ], [ -0.2677, 45.5086 ], [ -0.2532, 45.5013 ], [ -0.2421, 45.5031 ], [ -0.2462, 45.4967 ], [ -0.2405, 45.4945 ], [ -0.2425, 45.4901 ], [ -0.2493, 45.4931 ], [ -0.2582, 45.4887 ], [ -0.2567, 45.4815 ], [ -0.2648, 45.4707 ], [ -0.2809, 45.4742 ], [ -0.2864, 45.4574 ], [ -0.2766, 45.4591 ], [ -0.2671, 45.4552 ], [ -0.2662, 45.4479 ], [ -0.2472, 45.4354 ], [ -0.2547, 45.4305 ], [ -0.251, 45.4258 ], [ -0.2536, 45.418 ], [ -0.2328, 45.4195 ], [ -0.235, 45.4107 ], [ -0.2498, 45.4096 ], [ -0.2544, 45.3987 ], [ -0.2579, 45.402 ], [ -0.2782, 45.3987 ], [ -0.2769, 45.3912 ], [ -0.2812, 45.392 ], [ -0.2832, 45.3884 ], [ -0.3008, 45.3888 ], [ -0.3113, 45.3845 ], [ -0.3088, 45.3731 ], [ -0.2904, 45.3708 ], [ -0.2938, 45.3658 ], [ -0.2796, 45.3648 ], [ -0.2811, 45.355 ], [ -0.2722, 45.359 ], [ -0.2511, 45.3575 ], [ -0.2448, 45.3606 ], [ -0.2503, 45.3413 ], [ -0.2607, 45.3426 ], [ -0.2651, 45.3391 ], [ -0.278, 45.348 ], [ -0.2827, 45.3389 ], [ -0.2779, 45.3366 ], [ -0.2904, 45.3273 ], [ -0.2828, 45.3193 ], [ -0.2844, 45.309 ], [ -0.2735, 45.3023 ], [ -0.2575, 45.2988 ], [ -0.2591, 45.3067 ], [ -0.2543, 45.3116 ], [ -0.2379, 45.3156 ], [ -0.232, 45.3138 ], [ -0.2288, 45.3217 ], [ -0.2205, 45.3224 ], [ -0.2203, 45.3168 ], [ -0.2103, 45.3117 ], [ -0.1997, 45.3117 ], [ -0.201, 45.3065 ], [ -0.1955, 45.3049 ], [ -0.1822, 45.309 ], [ -0.1604, 45.3065 ], [ -0.1464, 45.2987 ], [ -0.1453, 45.2882 ], [ -0.129, 45.2946 ], [ -0.1088, 45.2889 ], [ -0.1154, 45.2481 ], [ -0.0771, 45.2456 ], [ -0.0479, 45.2489 ], [ -0.0401, 45.2467 ], [ -0.0334, 45.2345 ], [ -0.018, 45.2289 ], [ 0.0037, 45.2288 ], [ 0.0061, 45.2202 ], [ -0.0024, 45.1989 ], [ 0.0043, 45.1916 ], [ 0.0022, 45.1844 ], [ -0.0192, 45.165 ], [ -0.0169, 45.1607 ], [ -0.0007, 45.1594 ], [ 0.0047, 45.1537 ], [ -0.0368, 45.1407 ], [ -0.0292, 45.1279 ], [ -0.0411, 45.1146 ], [ -0.0402, 45.1007 ], [ -0.0456, 45.0979 ], [ -0.0527, 45.1012 ], [ -0.0636, 45.0992 ], [ -0.0877, 45.1214 ], [ -0.1134, 45.115 ], [ -0.1416, 45.09 ], [ -0.191, 45.0939 ], [ -0.2185, 45.1069 ], [ -0.2468, 45.1086 ], [ -0.2585, 45.1145 ], [ -0.2682, 45.1335 ], [ -0.2749, 45.1351 ], [ -0.2754, 45.1414 ], [ -0.2812, 45.1437 ], [ -0.308, 45.149 ], [ -0.3138, 45.1378 ], [ -0.3206, 45.1562 ], [ -0.3492, 45.1696 ], [ -0.3639, 45.1703 ], [ -0.3849, 45.1461 ], [ -0.4017, 45.1885 ], [ -0.4208, 45.2085 ], [ -0.4051, 45.2398 ], [ -0.4073, 45.2478 ], [ -0.4246, 45.2483 ], [ -0.4154, 45.2693 ], [ -0.4186, 45.2739 ], [ -0.4448, 45.2862 ], [ -0.4639, 45.2889 ], [ -0.4731, 45.2939 ], [ -0.5136, 45.2863 ], [ -0.561, 45.2988 ], [ -0.5658, 45.2959 ], [ -0.5754, 45.3156 ], [ -0.569, 45.3315 ], [ -0.5852, 45.3433 ], [ -0.5938, 45.3348 ], [ -0.5945, 45.3211 ], [ -0.6146, 45.3234 ], [ -0.642, 45.3151 ], [ -0.6443, 45.322 ], [ -0.7137, 45.3279 ], [ -0.7527, 45.3218 ], [ -0.774, 45.3692 ], [ -0.8411, 45.4351 ], [ -0.9265, 45.4961 ], [ -1.0257, 45.5747 ], [ -0.993, 45.5772 ], [ -0.9892, 45.5813 ], [ -0.9937, 45.5976 ], [ -0.9998, 45.6011 ], [ -1.008, 45.5977 ], [ -1.013, 45.5996 ], [ -1.0096, 45.6114 ], [ -1.0203, 45.6215 ], [ -1.0283, 45.6232 ], [ -1.0307, 45.6166 ], [ -1.0347, 45.6193 ], [ -1.0432, 45.6175 ], [ -1.0426, 45.6203 ], [ -1.0532, 45.6223 ], [ -1.0511, 45.6264 ], [ -1.057, 45.625 ], [ -1.0698, 45.6346 ], [ -1.0766, 45.635 ], [ -1.0749, 45.638 ], [ -1.0835, 45.637 ], [ -1.088, 45.642 ], [ -1.0951, 45.6397 ], [ -1.1019, 45.6452 ], [ -1.1153, 45.6465 ], [ -1.1616, 45.6743 ], [ -1.2093, 45.6967 ], [ -1.2275, 45.6943 ], [ -1.2301, 45.6891 ], [ -1.2211, 45.6771 ], [ -1.2168, 45.6776 ], [ -1.2187, 45.6745 ], [ -1.196, 45.6736 ], [ -1.213, 45.6711 ], [ -1.2283, 45.6751 ], [ -1.2381, 45.7119 ], [ -1.2426, 45.7816 ], [ -1.209, 45.7958 ], [ -1.192, 45.7894 ], [ -1.159, 45.8017 ], [ -1.145, 45.797 ], [ -1.1337, 45.8028 ], [ -1.1397, 45.8237 ], [ -1.1524, 45.8324 ], [ -1.1494, 45.8361 ], [ -1.1554, 45.845 ], [ -1.1681, 45.8451 ], [ -1.1637, 45.8509 ], [ -1.1702, 45.8559 ], [ -1.1512, 45.8521 ], [ -1.1532, 45.8624 ], [ -1.1214, 45.8564 ], [ -1.1136, 45.8593 ], [ -1.0792, 45.9012 ], [ -1.0738, 45.9142 ], [ -1.0769, 45.9367 ], [ -1.0996, 45.9444 ], [ -1.0958, 45.9489 ], [ -1.0643, 45.9499 ], [ -1.0651, 45.9559 ], [ -1.0808, 45.9632 ], [ -1.0841, 45.9799 ], [ -1.0961, 45.9839 ], [ -1.109, 45.9987 ], [ -1.1214, 46.003 ], [ -1.1114, 46.002 ], [ -1.0932, 45.9918 ], [ -1.081, 45.9966 ], [ -1.0631, 45.9944 ], [ -1.0532, 46.0034 ], [ -1.0611, 46.0253 ], [ -1.0561, 46.0342 ], [ -1.0615, 46.0453 ], [ -1.0766, 46.0532 ], [ -1.0888, 46.0539 ], [ -1.1007, 46.0938 ], [ -1.115, 46.1023 ], [ -1.1315, 46.1019 ], [ -1.1431, 46.1063 ], [ -1.1398, 46.1103 ], [ -1.1322, 46.1088 ], [ -1.1241, 46.112 ], [ -1.1282, 46.1266 ], [ -1.1458, 46.1271 ], [ -1.1535, 46.137 ], [ -1.1733, 46.138 ], [ -1.1712, 46.1465 ], [ -1.1609, 46.1486 ], [ -1.1607, 46.1555 ], [ -1.1871, 46.1534 ], [ -1.2056, 46.1458 ], [ -1.2284, 46.1497 ], [ -1.242, 46.1574 ], [ -1.2371, 46.166 ], [ -1.222, 46.1672 ], [ -1.2184, 46.1801 ], [ -1.2025, 46.189 ], [ -1.1994, 46.199 ], [ -1.2065, 46.2044 ], [ -1.199, 46.2132 ], [ -1.175, 46.2222 ], [ -1.1575, 46.2359 ], [ -1.1485, 46.2384 ], [ -1.1393, 46.254 ], [ -1.1291, 46.2538 ], [ -1.1183, 46.2611 ], [ -1.1112, 46.2613 ], [ -1.121, 46.2887 ], [ -1.1148, 46.2916 ], [ -1.1216, 46.2897 ], [ -1.1196, 46.2952 ], [ -1.1294, 46.3103 ] ] ], [ [ [ -1.2503, 45.846 ], [ -1.27, 45.8818 ], [ -1.2934, 45.8999 ], [ -1.3047, 45.9009 ], [ -1.3184, 45.9107 ], [ -1.3414, 45.9189 ], [ -1.386, 45.9524 ], [ -1.3863, 45.9631 ], [ -1.3958, 45.9768 ], [ -1.3879, 46.0 ], [ -1.4005, 46.0161 ], [ -1.4124, 46.0479 ], [ -1.3702, 46.0392 ], [ -1.3695, 46.0295 ], [ -1.3361, 46.0135 ], [ -1.3152, 45.9939 ], [ -1.2858, 45.9883 ], [ -1.2467, 45.9902 ], [ -1.2375, 45.9839 ], [ -1.2327, 45.9674 ], [ -1.2349, 45.9654 ], [ -1.2363, 45.9681 ], [ -1.2417, 45.9553 ], [ -1.2263, 45.9413 ], [ -1.2338, 45.9271 ], [ -1.2201, 45.9101 ], [ -1.2018, 45.9007 ], [ -1.2011, 45.8956 ], [ -1.1874, 45.8866 ], [ -1.2, 45.8662 ], [ -1.1965, 45.8626 ], [ -1.2004, 45.8625 ], [ -1.2077, 45.8503 ], [ -1.1954, 45.8294 ], [ -1.2236, 45.8113 ], [ -1.2296, 45.802 ], [ -1.2364, 45.8045 ], [ -1.2429, 45.8143 ], [ -1.2503, 45.846 ] ] ] ] } }
]
}
