{
"type": "FeatureCollection",
"name": "dep13",
"crs": { "type": "name", "properties": { "name": "urn:ogc:def:crs:OGC:1.3:CRS84" } },
"xy_coordinate_resolution": 0.0001,
"features": [
{ "type": "Feature", "properties": { "code": "13", "nom": "Bouches-du-Rhône" }, "geometry": { "type": "MultiPolygon", "coordinates": [ [ [ [ 5.3967, 43.173 ], [ 5.3864, 43.1731 ], [ 5.3719, 43.1797 ], [ 5.3804, 43.1804 ], [ 5.3961, 43.1761 ], [ 5.3967, 43.173 ] ] ], [ [ [ 5.3913, 43.1862 ], [ 5.3836, 43.1872 ], [ 5.3809, 43.1899 ], [ 5.3913, 43.1862 ] ] ], [ [ [ 5.619, 43.1573 ], [ 5.6153, 43.1591 ], [ 5.6148, 43.1623 ], [ 5.6191, 43.1614 ], [ 5.619, 43.1573 ] ] ], [ [ [ 5.3036, 43.2789 ], [ 5.3112, 43.2743 ], [ 5.3016, 43.272 ], [ 5.288, 43.2612 ], [ 5.2857, 43.2657 ], [ 5.3036, 43.2763 ], [ 5.2916, 43.2803 ], [ 5.3034, 43.2814 ], [ 5.3005, 43.2844 ], [ 5.3114, 43.2844 ], [ 5.3126, 43.2873 ], [ 5.3239, 43.2862 ], [ 5.3036, 43.2789 ] ] ], [ [ [ 5.3382, 43.2079 ], [ 5.3294, 43.2111 ], [ 5.3285, 43.2125 ], [ 5.3374, 43.2129 ], [ 5.3382, 43.2079 ] ] ], [ [ [ 5.3625, 43.2 ], [ 5.3701, 43.1954 ], [ 5.3705, 43.1938 ], [ 5.3614, 43.1969 ], [ 5.3625, 43.2 ] ] ], [ [ [ 5.3267, 43.2792 ], [ 5.3244, 43.2804 ], [ 5.3277, 43.2805 ], [ 5.3267, 43.2792 ] ] ], [ [ [ 5.3194, 43.3475 ], [ 5.3405, 43.3343 ], [ 5.3617, 43.3087 ], [ 5.3577, 43.2993 ], [ 5.3609, 43.3086 ], [ 5.3532, 43.3184 ], [ 5.3395, 43.3347 ], [ 5.3343, 43.3372 ], [ 5.3194, 43.3475 ] ] ], [ [ [ 4.8768, 43.3678 ], [ 4.8749, 43.3624 ], [ 4.8746, 43.3688 ], [ 4.8768, 43.3678 ] ] ], [ [ [ 4.7391, 43.9241 ], [ 4.8531, 43.9114 ], [ 4.8852, 43.9002 ], [ 4.9023, 43.8879 ], [ 4.9259, 43.8865 ], [ 4.9663, 43.8717 ], [ 4.9961, 43.8461 ], [ 5.0295, 43.8278 ], [ 5.0497, 43.7887 ], [ 5.1733, 43.7388 ], [ 5.188, 43.7351 ], [ 5.23, 43.7477 ], [ 5.3157, 43.7365 ], [ 5.341, 43.7197 ], [ 5.4376, 43.6817 ], [ 5.4881, 43.6677 ], [ 5.5314, 43.659 ], [ 5.5748, 43.6621 ], [ 5.6069, 43.6587 ], [ 5.6423, 43.6722 ], [ 5.6575, 43.6858 ], [ 5.6736, 43.6937 ], [ 5.7141, 43.6913 ], [ 5.7369, 43.716 ], [ 5.7537, 43.7246 ], [ 5.7767, 43.7225 ], [ 5.7755, 43.7188 ], [ 5.7875, 43.716 ], [ 5.7822, 43.7069 ], [ 5.7876, 43.6969 ], [ 5.7936, 43.6923 ], [ 5.8057, 43.6933 ], [ 5.8132, 43.689 ], [ 5.8038, 43.6803 ], [ 5.7987, 43.6612 ], [ 5.7448, 43.6568 ], [ 5.719, 43.6498 ], [ 5.7097, 43.6409 ], [ 5.6987, 43.6425 ], [ 5.702, 43.6375 ], [ 5.6841, 43.6181 ], [ 5.6875, 43.6149 ], [ 5.6794, 43.6145 ], [ 5.6781, 43.6114 ], [ 5.6916, 43.5844 ], [ 5.656, 43.5774 ], [ 5.6693, 43.5646 ], [ 5.6909, 43.5636 ], [ 5.715, 43.5515 ], [ 5.7251, 43.5513 ], [ 5.7124, 43.5129 ], [ 5.7114, 43.5053 ], [ 5.7158, 43.5032 ], [ 5.712, 43.4971 ], [ 5.7025, 43.4961 ], [ 5.6986, 43.4834 ], [ 5.7128, 43.4783 ], [ 5.7278, 43.4669 ], [ 5.749, 43.442 ], [ 5.7507, 43.4345 ], [ 5.7759, 43.4205 ], [ 5.7884, 43.4203 ], [ 5.7864, 43.4139 ], [ 5.7553, 43.4023 ], [ 5.7244, 43.4089 ], [ 5.7013, 43.4081 ], [ 5.6828, 43.3992 ], [ 5.6903, 43.3883 ], [ 5.6946, 43.364 ], [ 5.705, 43.3559 ], [ 5.6865, 43.3402 ], [ 5.6898, 43.3275 ], [ 5.6755, 43.3196 ], [ 5.691, 43.313 ], [ 5.7266, 43.3174 ], [ 5.7498, 43.2893 ], [ 5.7628, 43.2824 ], [ 5.7609, 43.2673 ], [ 5.7115, 43.2533 ], [ 5.7025, 43.2483 ], [ 5.7024, 43.2392 ], [ 5.6839, 43.2361 ], [ 5.6719, 43.1793 ], [ 5.6511, 43.1882 ], [ 5.6242, 43.187 ], [ 5.6132, 43.1811 ], [ 5.6108, 43.1726 ], [ 5.607, 43.1741 ], [ 5.6101, 43.1675 ], [ 5.6146, 43.1692 ], [ 5.6058, 43.1657 ], [ 5.6041, 43.1604 ], [ 5.5693, 43.1749 ], [ 5.548, 43.196 ], [ 5.5492, 43.208 ], [ 5.5394, 43.2088 ], [ 5.5357, 43.2142 ], [ 5.5158, 43.203 ], [ 5.5126, 43.2047 ], [ 5.5092, 43.1978 ], [ 5.5083, 43.2013 ], [ 5.4999, 43.1969 ], [ 5.4929, 43.2035 ], [ 5.4781, 43.2039 ], [ 5.4589, 43.2112 ], [ 5.4452, 43.2112 ], [ 5.4545, 43.202 ], [ 5.4209, 43.2105 ], [ 5.4269, 43.2035 ], [ 5.4045, 43.2129 ], [ 5.3634, 43.2072 ], [ 5.3418, 43.2126 ], [ 5.348, 43.2295 ], [ 5.3594, 43.2357 ], [ 5.3625, 43.2431 ], [ 5.3725, 43.2451 ], [ 5.3761, 43.2552 ], [ 5.3677, 43.2643 ], [ 5.3702, 43.2675 ], [ 5.3455, 43.2816 ], [ 5.3544, 43.2893 ], [ 5.3542, 43.2938 ], [ 5.3735, 43.2942 ], [ 5.3602, 43.2957 ], [ 5.3644, 43.3121 ], [ 5.3612, 43.3113 ], [ 5.3635, 43.315 ], [ 5.3565, 43.319 ], [ 5.3621, 43.322 ], [ 5.3587, 43.3257 ], [ 5.3588, 43.3232 ], [ 5.3551, 43.3208 ], [ 5.3558, 43.3245 ], [ 5.3524, 43.3231 ], [ 5.3473, 43.3297 ], [ 5.3504, 43.3311 ], [ 5.345, 43.3332 ], [ 5.3511, 43.3347 ], [ 5.3428, 43.3351 ], [ 5.3432, 43.3391 ], [ 5.3283, 43.3447 ], [ 5.3392, 43.3412 ], [ 5.341, 43.3448 ], [ 5.3242, 43.3544 ], [ 5.3219, 43.3528 ], [ 5.3173, 43.3551 ], [ 5.3209, 43.3515 ], [ 5.3141, 43.3546 ], [ 5.3167, 43.3564 ], [ 5.3226, 43.3542 ], [ 5.3226, 43.3571 ], [ 5.3083, 43.3614 ], [ 5.2965, 43.3596 ], [ 5.2586, 43.3377 ], [ 5.2294, 43.3287 ], [ 5.1988, 43.332 ], [ 5.1916, 43.3295 ], [ 5.1754, 43.3342 ], [ 5.1688, 43.3281 ], [ 5.1561, 43.3273 ], [ 5.1519, 43.3304 ], [ 5.1504, 43.3266 ], [ 5.1444, 43.3265 ], [ 5.1418, 43.3291 ], [ 5.109, 43.3306 ], [ 5.0987, 43.3281 ], [ 5.0877, 43.3324 ], [ 5.0816, 43.3279 ], [ 5.0624, 43.3311 ], [ 5.06, 43.3268 ], [ 5.0502, 43.325 ], [ 5.05, 43.3318 ], [ 5.046, 43.3286 ], [ 5.0426, 43.3311 ], [ 5.041, 43.3273 ], [ 5.0199, 43.3423 ], [ 5.018, 43.3468 ], [ 5.0247, 43.3456 ], [ 5.0215, 43.349 ], [ 5.0253, 43.3555 ], [ 5.0173, 43.3576 ], [ 5.0111, 43.3648 ], [ 5.0144, 43.3693 ], [ 5.0087, 43.369 ], [ 5.0001, 43.376 ], [ 5.0011, 43.3794 ], [ 4.9868, 43.3922 ], [ 5.0011, 43.3982 ], [ 4.9955, 43.4035 ], [ 4.9874, 43.4026 ], [ 4.9877, 43.4065 ], [ 4.9825, 43.3968 ], [ 4.9748, 43.4012 ], [ 4.9776, 43.4074 ], [ 4.97, 43.4249 ], [ 4.9494, 43.4292 ], [ 4.9387, 43.4266 ], [ 4.9388, 43.4316 ], [ 4.9314, 43.4332 ], [ 4.9193, 43.4309 ], [ 4.9106, 43.4273 ], [ 4.9063, 43.4197 ], [ 4.8884, 43.4122 ], [ 4.8935, 43.4041 ], [ 4.8847, 43.4137 ], [ 4.9034, 43.4297 ], [ 4.8928, 43.4288 ], [ 4.8822, 43.4193 ], [ 4.8723, 43.4327 ], [ 4.8674, 43.4323 ], [ 4.8608, 43.454 ], [ 4.8503, 43.4508 ], [ 4.8773, 43.4105 ], [ 4.8658, 43.4046 ], [ 4.8299, 43.4298 ], [ 4.8244, 43.4244 ], [ 4.8615, 43.4008 ], [ 4.8504, 43.398 ], [ 4.8415, 43.4036 ], [ 4.8359, 43.398 ], [ 4.8387, 43.3945 ], [ 4.8487, 43.3916 ], [ 4.8527, 43.3941 ], [ 4.8538, 43.3888 ], [ 4.8718, 43.39 ], [ 4.8541, 43.3886 ], [ 4.8491, 43.3832 ], [ 4.8508, 43.3779 ], [ 4.8289, 43.3759 ], [ 4.8424, 43.3758 ], [ 4.8477, 43.3711 ], [ 4.8516, 43.3761 ], [ 4.8591, 43.3672 ], [ 4.8606, 43.37 ], [ 4.8647, 43.365 ], [ 4.8667, 43.3696 ], [ 4.8732, 43.3611 ], [ 4.8831, 43.3565 ], [ 4.883, 43.3637 ], [ 4.9088, 43.3747 ], [ 4.9118, 43.3876 ], [ 4.9175, 43.3799 ], [ 4.8551, 43.3326 ], [ 4.8481, 43.3337 ], [ 4.8355, 43.3287 ], [ 4.8137, 43.3396 ], [ 4.7738, 43.3485 ], [ 4.7309, 43.3507 ], [ 4.6591, 43.3463 ], [ 4.5858, 43.3601 ], [ 4.5628, 43.3721 ], [ 4.5556, 43.3828 ], [ 4.5627, 43.3922 ], [ 4.5744, 43.3939 ], [ 4.5929, 43.4056 ], [ 4.5881, 43.4227 ], [ 4.5682, 43.4401 ], [ 4.5307, 43.4526 ], [ 4.4579, 43.4569 ], [ 4.4403, 43.4548 ], [ 4.4281, 43.4492 ], [ 4.4013, 43.4468 ], [ 4.382, 43.4523 ], [ 4.2303, 43.4602 ], [ 4.2306, 43.4787 ], [ 4.2397, 43.4992 ], [ 4.2586, 43.5075 ], [ 4.2958, 43.5145 ], [ 4.3088, 43.5245 ], [ 4.3247, 43.5282 ], [ 4.3079, 43.5452 ], [ 4.3114, 43.5513 ], [ 4.3171, 43.5521 ], [ 4.314, 43.5556 ], [ 4.3229, 43.5543 ], [ 4.3161, 43.5449 ], [ 4.3341, 43.5355 ], [ 4.3492, 43.5425 ], [ 4.3504, 43.5468 ], [ 4.3651, 43.5472 ], [ 4.3817, 43.553 ], [ 4.3874, 43.5622 ], [ 4.4093, 43.5611 ], [ 4.4166, 43.5713 ], [ 4.4029, 43.573 ], [ 4.4255, 43.5852 ], [ 4.447, 43.583 ], [ 4.4607, 43.5893 ], [ 4.4741, 43.6039 ], [ 4.4725, 43.612 ], [ 4.4668, 43.6152 ], [ 4.4398, 43.6107 ], [ 4.4262, 43.6245 ], [ 4.4513, 43.6641 ], [ 4.4775, 43.6725 ], [ 4.4757, 43.6845 ], [ 4.4872, 43.6992 ], [ 4.5244, 43.7021 ], [ 4.5399, 43.7073 ], [ 4.5581, 43.6995 ], [ 4.5789, 43.6975 ], [ 4.593, 43.6875 ], [ 4.6169, 43.6889 ], [ 4.6275, 43.6854 ], [ 4.6254, 43.6957 ], [ 4.6147, 43.7094 ], [ 4.6123, 43.7248 ], [ 4.6295, 43.7619 ], [ 4.6519, 43.7841 ], [ 4.6551, 43.8076 ], [ 4.6424, 43.8314 ], [ 4.6502, 43.8391 ], [ 4.6668, 43.8461 ], [ 4.6602, 43.8532 ], [ 4.6415, 43.8511 ], [ 4.6483, 43.8588 ], [ 4.6419, 43.8675 ], [ 4.6592, 43.8758 ], [ 4.6624, 43.8708 ], [ 4.6702, 43.8775 ], [ 4.6922, 43.8842 ], [ 4.7093, 43.898 ], [ 4.7007, 43.8984 ], [ 4.7234, 43.906 ], [ 4.7401, 43.9197 ], [ 4.7391, 43.9241 ] ], [ [ 5.1181, 43.5132 ], [ 5.1171, 43.5201 ], [ 5.1087, 43.5255 ], [ 5.0587, 43.5279 ], [ 5.0456, 43.5218 ], [ 5.0337, 43.5357 ], [ 5.0294, 43.5487 ], [ 5.022, 43.5562 ], [ 5.0133, 43.5545 ], [ 5.0159, 43.5275 ], [ 5.0025, 43.5128 ], [ 4.998, 43.5009 ], [ 5.0035, 43.4857 ], [ 5.0009, 43.4741 ], [ 5.006, 43.4697 ], [ 5.0406, 43.4702 ], [ 5.0519, 43.4636 ], [ 5.061, 43.421 ], [ 5.0578, 43.4076 ], [ 5.0638, 43.4015 ], [ 5.0863, 43.3999 ], [ 5.1175, 43.4046 ], [ 5.1258, 43.4 ], [ 5.1373, 43.4002 ], [ 5.1685, 43.4162 ], [ 5.2044, 43.4421 ], [ 5.1954, 43.4485 ], [ 5.1984, 43.4509 ], [ 5.2086, 43.4437 ], [ 5.2266, 43.453 ], [ 5.2301, 43.4651 ], [ 5.2248, 43.4811 ], [ 5.2187, 43.488 ], [ 5.2056, 43.492 ], [ 5.1635, 43.4708 ], [ 5.1538, 43.46 ], [ 5.155, 43.4558 ], [ 5.1459, 43.4581 ], [ 5.1325, 43.4716 ], [ 5.1136, 43.5047 ], [ 5.1134, 43.511 ], [ 5.1181, 43.5132 ] ] ] ] } }
]
}
