{
"type": "FeatureCollection",
"name": "dep19",
"crs": { "type": "name", "properties": { "name": "urn:ogc:def:crs:OGC:1.3:CRS84" } },
"xy_coordinate_resolution": 0.0001,
"features": [
{ "type": "Feature", "properties": { "code": "19", "nom": "Corrèze" }, "geometry": { "type": "Polygon", "coordinates": [ [ [ 1.8987, 45.6983 ], [ 1.9042, 45.7036 ], [ 1.9141, 45.7036 ], [ 1.9117, 45.7083 ], [ 1.9224, 45.7137 ], [ 1.933, 45.706 ], [ 1.9484, 45.7059 ], [ 1.9414, 45.7131 ], [ 1.9479, 45.7217 ], [ 1.9566, 45.7248 ], [ 1.9667, 45.7219 ], [ 1.9789, 45.7247 ], [ 1.9829, 45.7195 ], [ 1.9914, 45.7208 ], [ 1.991, 45.7256 ], [ 1.999, 45.7322 ], [ 2.0015, 45.7488 ], [ 2.0176, 45.7555 ], [ 2.0365, 45.7541 ], [ 2.0521, 45.7651 ], [ 2.0584, 45.7545 ], [ 2.0839, 45.746 ], [ 2.0847, 45.7281 ], [ 2.097, 45.7342 ], [ 2.1136, 45.7248 ], [ 2.1213, 45.7324 ], [ 2.1336, 45.7355 ], [ 2.1352, 45.7292 ], [ 2.1445, 45.7232 ], [ 2.1566, 45.7216 ], [ 2.1644, 45.7363 ], [ 2.1765, 45.7317 ], [ 2.183, 45.7206 ], [ 2.2077, 45.7156 ], [ 2.1987, 45.7121 ], [ 2.1978, 45.705 ], [ 2.1914, 45.702 ], [ 2.1945, 45.6986 ], [ 2.2108, 45.7019 ], [ 2.2115, 45.7128 ], [ 2.2236, 45.6958 ], [ 2.2318, 45.7001 ], [ 2.2358, 45.6943 ], [ 2.2454, 45.6953 ], [ 2.2529, 45.6888 ], [ 2.2711, 45.6916 ], [ 2.2689, 45.6634 ], [ 2.2825, 45.664 ], [ 2.3081, 45.6764 ], [ 2.3209, 45.6686 ], [ 2.3262, 45.6716 ], [ 2.3228, 45.6765 ], [ 2.3377, 45.6806 ], [ 2.3483, 45.6926 ], [ 2.3439, 45.7065 ], [ 2.3485, 45.7092 ], [ 2.3682, 45.7132 ], [ 2.3828, 45.7075 ], [ 2.385, 45.7101 ], [ 2.3868, 45.7076 ], [ 2.4103, 45.7096 ], [ 2.4359, 45.6993 ], [ 2.4437, 45.7078 ], [ 2.4542, 45.7079 ], [ 2.4634, 45.7178 ], [ 2.4729, 45.7191 ], [ 2.4703, 45.7278 ], [ 2.4938, 45.7377 ], [ 2.5164, 45.713 ], [ 2.523, 45.7115 ], [ 2.5189, 45.6976 ], [ 2.5267, 45.692 ], [ 2.5235, 45.6876 ], [ 2.5287, 45.6822 ], [ 2.5175, 45.6782 ], [ 2.5126, 45.6698 ], [ 2.519, 45.6592 ], [ 2.5283, 45.6585 ], [ 2.5165, 45.639 ], [ 2.4976, 45.6407 ], [ 2.492, 45.6378 ], [ 2.4875, 45.6424 ], [ 2.4834, 45.6393 ], [ 2.4804, 45.6115 ], [ 2.4612, 45.5965 ], [ 2.4752, 45.5824 ], [ 2.4711, 45.5792 ], [ 2.4915, 45.568 ], [ 2.4909, 45.5604 ], [ 2.501, 45.5535 ], [ 2.5168, 45.553 ], [ 2.5151, 45.5369 ], [ 2.5194, 45.5322 ], [ 2.5118, 45.5251 ], [ 2.5204, 45.5204 ], [ 2.5078, 45.5031 ], [ 2.5139, 45.4924 ], [ 2.5076, 45.4833 ], [ 2.5097, 45.4731 ], [ 2.5068, 45.4641 ], [ 2.4994, 45.4603 ], [ 2.5025, 45.4479 ], [ 2.4956, 45.4455 ], [ 2.4927, 45.4237 ], [ 2.4875, 45.4182 ], [ 2.5213, 45.4026 ], [ 2.5279, 45.3916 ], [ 2.5232, 45.3828 ], [ 2.5158, 45.3843 ], [ 2.5064, 45.3783 ], [ 2.5008, 45.3814 ], [ 2.4858, 45.379 ], [ 2.4766, 45.3703 ], [ 2.476, 45.374 ], [ 2.4703, 45.3738 ], [ 2.475, 45.3813 ], [ 2.4592, 45.3857 ], [ 2.4419, 45.3843 ], [ 2.4227, 45.3972 ], [ 2.3988, 45.4 ], [ 2.3875, 45.412 ], [ 2.3696, 45.4162 ], [ 2.3507, 45.4129 ], [ 2.3546, 45.4014 ], [ 2.3634, 45.3973 ], [ 2.3694, 45.3865 ], [ 2.363, 45.3784 ], [ 2.3678, 45.3658 ], [ 2.3651, 45.3561 ], [ 2.3573, 45.3541 ], [ 2.3503, 45.346 ], [ 2.3598, 45.3365 ], [ 2.3517, 45.3278 ], [ 2.3158, 45.3218 ], [ 2.2902, 45.288 ], [ 2.269, 45.2894 ], [ 2.2617, 45.2832 ], [ 2.2586, 45.2702 ], [ 2.2428, 45.2653 ], [ 2.2376, 45.2587 ], [ 2.2403, 45.2476 ], [ 2.2257, 45.2445 ], [ 2.2212, 45.2375 ], [ 2.2023, 45.227 ], [ 2.2017, 45.2224 ], [ 2.1893, 45.2221 ], [ 2.1966, 45.2161 ], [ 2.1899, 45.2041 ], [ 2.1999, 45.198 ], [ 2.2013, 45.1798 ], [ 2.2222, 45.1702 ], [ 2.2317, 45.1701 ], [ 2.232, 45.164 ], [ 2.2222, 45.1598 ], [ 2.2084, 45.1603 ], [ 2.2116, 45.1484 ], [ 2.2026, 45.1392 ], [ 2.1941, 45.1348 ], [ 2.1788, 45.1363 ], [ 2.1841, 45.1195 ], [ 2.1903, 45.1161 ], [ 2.1806, 45.1125 ], [ 2.1746, 45.0823 ], [ 2.1673, 45.0809 ], [ 2.1572, 45.0863 ], [ 2.1482, 45.0829 ], [ 2.1402, 45.0865 ], [ 2.1207, 45.0699 ], [ 2.1143, 45.0718 ], [ 2.1041, 45.0667 ], [ 2.0979, 45.0607 ], [ 2.1007, 45.056 ], [ 2.0952, 45.056 ], [ 2.0993, 45.0476 ], [ 2.1108, 45.0405 ], [ 2.116, 45.0222 ], [ 2.1409, 45.0065 ], [ 2.1422, 45.0003 ], [ 2.1333, 44.9857 ], [ 2.1142, 44.9855 ], [ 2.1022, 44.9802 ], [ 2.093, 44.9859 ], [ 2.0588, 44.9746 ], [ 2.0454, 44.9837 ], [ 1.9915, 44.9759 ], [ 1.9564, 44.9597 ], [ 1.9492, 44.9525 ], [ 1.9403, 44.9529 ], [ 1.9391, 44.9732 ], [ 1.9288, 44.9787 ], [ 1.9219, 44.9761 ], [ 1.9087, 44.9784 ], [ 1.8992, 44.9724 ], [ 1.899, 44.9677 ], [ 1.8873, 44.9627 ], [ 1.8874, 44.9566 ], [ 1.8686, 44.9541 ], [ 1.8632, 44.9478 ], [ 1.8449, 44.9431 ], [ 1.8428, 44.9371 ], [ 1.8364, 44.9375 ], [ 1.8369, 44.9453 ], [ 1.8312, 44.9455 ], [ 1.8239, 44.9277 ], [ 1.8092, 44.9283 ], [ 1.8013, 44.9221 ], [ 1.7983, 44.9303 ], [ 1.7857, 44.9369 ], [ 1.7863, 44.9309 ], [ 1.7749, 44.9237 ], [ 1.7673, 44.9337 ], [ 1.7493, 44.9376 ], [ 1.7559, 44.9463 ], [ 1.7513, 44.9473 ], [ 1.7508, 44.9557 ], [ 1.7407, 44.9606 ], [ 1.7339, 44.9594 ], [ 1.733, 44.9648 ], [ 1.7249, 44.9681 ], [ 1.711, 44.9673 ], [ 1.7027, 44.9878 ], [ 1.6872, 44.9964 ], [ 1.6844, 45.0027 ], [ 1.6638, 45.0088 ], [ 1.665, 45.0121 ], [ 1.6529, 45.0181 ], [ 1.6519, 45.0253 ], [ 1.6485, 45.0238 ], [ 1.6462, 45.0285 ], [ 1.6355, 45.0293 ], [ 1.63, 45.0336 ], [ 1.6233, 45.0305 ], [ 1.6077, 45.0318 ], [ 1.6054, 45.0353 ], [ 1.5935, 45.0348 ], [ 1.5763, 45.0407 ], [ 1.5544, 45.0293 ], [ 1.5451, 45.0289 ], [ 1.5375, 45.0467 ], [ 1.5206, 45.04 ], [ 1.5066, 45.0399 ], [ 1.4918, 45.0299 ], [ 1.4879, 45.0325 ], [ 1.4825, 45.0302 ], [ 1.4773, 45.027 ], [ 1.4769, 45.0185 ], [ 1.462, 45.0137 ], [ 1.4443, 45.02 ], [ 1.4262, 45.0354 ], [ 1.4173, 45.0498 ], [ 1.4075, 45.0531 ], [ 1.4134, 45.0609 ], [ 1.4063, 45.0586 ], [ 1.3996, 45.0612 ], [ 1.4069, 45.07 ], [ 1.3905, 45.0884 ], [ 1.3942, 45.0957 ], [ 1.3864, 45.1031 ], [ 1.3796, 45.1013 ], [ 1.3775, 45.1047 ], [ 1.3923, 45.1058 ], [ 1.4102, 45.1129 ], [ 1.4129, 45.1251 ], [ 1.3852, 45.1356 ], [ 1.3553, 45.1324 ], [ 1.352, 45.1416 ], [ 1.3321, 45.1376 ], [ 1.3213, 45.1431 ], [ 1.3095, 45.1348 ], [ 1.2986, 45.1417 ], [ 1.2938, 45.1389 ], [ 1.2786, 45.1512 ], [ 1.2721, 45.1507 ], [ 1.2711, 45.154 ], [ 1.2553, 45.1586 ], [ 1.2551, 45.1654 ], [ 1.2694, 45.1647 ], [ 1.2853, 45.1752 ], [ 1.2921, 45.1865 ], [ 1.2723, 45.2018 ], [ 1.2633, 45.1984 ], [ 1.2323, 45.1977 ], [ 1.2285, 45.2031 ], [ 1.2336, 45.2222 ], [ 1.264, 45.231 ], [ 1.2745, 45.2379 ], [ 1.2785, 45.2501 ], [ 1.2745, 45.2571 ], [ 1.2546, 45.2549 ], [ 1.2394, 45.2604 ], [ 1.242, 45.2663 ], [ 1.2284, 45.2722 ], [ 1.2324, 45.2911 ], [ 1.2403, 45.2921 ], [ 1.2416, 45.3006 ], [ 1.2358, 45.322 ], [ 1.2595, 45.3202 ], [ 1.2652, 45.323 ], [ 1.2794, 45.335 ], [ 1.2852, 45.3532 ], [ 1.3158, 45.3609 ], [ 1.3251, 45.3801 ], [ 1.2936, 45.3976 ], [ 1.294, 45.3912 ], [ 1.2799, 45.3839 ], [ 1.274, 45.3929 ], [ 1.2804, 45.4019 ], [ 1.2762, 45.4034 ], [ 1.2699, 45.3961 ], [ 1.2597, 45.3979 ], [ 1.2591, 45.4198 ], [ 1.2716, 45.4183 ], [ 1.2784, 45.4126 ], [ 1.2862, 45.4156 ], [ 1.2904, 45.4216 ], [ 1.2825, 45.4324 ], [ 1.2941, 45.4341 ], [ 1.2836, 45.4377 ], [ 1.2756, 45.4337 ], [ 1.2689, 45.4411 ], [ 1.2518, 45.4462 ], [ 1.2568, 45.4523 ], [ 1.2642, 45.4518 ], [ 1.2627, 45.468 ], [ 1.2704, 45.4776 ], [ 1.2788, 45.4771 ], [ 1.2875, 45.4818 ], [ 1.2853, 45.4903 ], [ 1.3501, 45.4669 ], [ 1.3718, 45.4924 ], [ 1.3896, 45.4962 ], [ 1.3904, 45.5056 ], [ 1.4083, 45.5273 ], [ 1.4257, 45.5309 ], [ 1.4332, 45.5213 ], [ 1.4395, 45.5204 ], [ 1.4542, 45.5381 ], [ 1.4519, 45.5532 ], [ 1.4755, 45.5533 ], [ 1.4804, 45.5659 ], [ 1.4922, 45.5609 ], [ 1.4933, 45.5497 ], [ 1.5081, 45.5507 ], [ 1.5179, 45.5555 ], [ 1.5186, 45.5643 ], [ 1.5321, 45.562 ], [ 1.533, 45.5569 ], [ 1.5468, 45.5545 ], [ 1.551, 45.5568 ], [ 1.555, 45.5495 ], [ 1.57, 45.5556 ], [ 1.5826, 45.555 ], [ 1.6, 45.5815 ], [ 1.6032, 45.5776 ], [ 1.6116, 45.58 ], [ 1.6181, 45.5766 ], [ 1.6262, 45.577 ], [ 1.6285, 45.5829 ], [ 1.6377, 45.5803 ], [ 1.6372, 45.5844 ], [ 1.6434, 45.5839 ], [ 1.6463, 45.5902 ], [ 1.6579, 45.5936 ], [ 1.6602, 45.608 ], [ 1.7089, 45.6418 ], [ 1.7274, 45.6381 ], [ 1.7439, 45.6467 ], [ 1.7509, 45.6447 ], [ 1.754, 45.6554 ], [ 1.7764, 45.6585 ], [ 1.7858, 45.6827 ], [ 1.7965, 45.6806 ], [ 1.7981, 45.6732 ], [ 1.8154, 45.6811 ], [ 1.8246, 45.6666 ], [ 1.832, 45.6635 ], [ 1.8439, 45.6646 ], [ 1.8478, 45.6618 ], [ 1.8546, 45.6723 ], [ 1.8636, 45.6701 ], [ 1.8662, 45.6652 ], [ 1.8748, 45.6647 ], [ 1.882, 45.6675 ], [ 1.8771, 45.671 ], [ 1.8817, 45.6736 ], [ 1.8818, 45.6819 ], [ 1.9037, 45.6778 ], [ 1.9112, 45.6806 ], [ 1.9092, 45.6922 ], [ 1.9018, 45.6918 ], [ 1.8987, 45.6983 ] ] ] } }
]
}
