{
"type": "FeatureCollection",
"name": "dep15",
"crs": { "type": "name", "properties": { "name": "urn:ogc:def:crs:OGC:1.3:CRS84" } },
"xy_coordinate_resolution": 0.0001,
"features": [
{ "type": "Feature", "properties": { "code": "15", "nom": "Cantal" }, "geometry": { "type": "Polygon", "coordinates": [ [ [ 2.5084, 45.4785 ], [ 2.5197, 45.4833 ], [ 2.544, 45.479 ], [ 2.5365, 45.4566 ], [ 2.5456, 45.4626 ], [ 2.5639, 45.4656 ], [ 2.5882, 45.4497 ], [ 2.5932, 45.4527 ], [ 2.6037, 45.45 ], [ 2.6172, 45.4639 ], [ 2.6175, 45.4701 ], [ 2.6238, 45.4663 ], [ 2.6245, 45.4439 ], [ 2.6363, 45.4464 ], [ 2.6503, 45.4433 ], [ 2.6626, 45.4341 ], [ 2.6782, 45.4401 ], [ 2.6801, 45.437 ], [ 2.6885, 45.4377 ], [ 2.6897, 45.43 ], [ 2.6799, 45.4227 ], [ 2.6807, 45.4072 ], [ 2.6932, 45.4059 ], [ 2.6907, 45.4016 ], [ 2.6953, 45.3979 ], [ 2.7039, 45.3989 ], [ 2.7013, 45.3913 ], [ 2.7143, 45.3818 ], [ 2.7422, 45.3933 ], [ 2.7612, 45.386 ], [ 2.7848, 45.3847 ], [ 2.7857, 45.3896 ], [ 2.8009, 45.3922 ], [ 2.8139, 45.4015 ], [ 2.8216, 45.4002 ], [ 2.8231, 45.3924 ], [ 2.8306, 45.3897 ], [ 2.8524, 45.3923 ], [ 2.8572, 45.3825 ], [ 2.8677, 45.3761 ], [ 2.8735, 45.3754 ], [ 2.8742, 45.3809 ], [ 2.8863, 45.383 ], [ 2.8998, 45.3769 ], [ 2.9007, 45.3708 ], [ 2.9137, 45.3662 ], [ 2.9225, 45.3681 ], [ 2.9258, 45.3426 ], [ 2.9486, 45.3091 ], [ 2.9686, 45.3074 ], [ 2.999, 45.2907 ], [ 3.0183, 45.2871 ], [ 3.0218, 45.2954 ], [ 3.0523, 45.3028 ], [ 3.059, 45.3136 ], [ 3.0656, 45.3155 ], [ 3.0623, 45.3291 ], [ 3.0693, 45.3366 ], [ 3.0874, 45.3386 ], [ 3.0965, 45.352 ], [ 3.1035, 45.3544 ], [ 3.1128, 45.3516 ], [ 3.1095, 45.3451 ], [ 3.1162, 45.3338 ], [ 3.1134, 45.3271 ], [ 3.1046, 45.3288 ], [ 3.0904, 45.3242 ], [ 3.0999, 45.3162 ], [ 3.1118, 45.3137 ], [ 3.1138, 45.3091 ], [ 3.1049, 45.3002 ], [ 3.0846, 45.299 ], [ 3.0831, 45.2894 ], [ 3.0994, 45.2923 ], [ 3.1113, 45.2842 ], [ 3.118, 45.2842 ], [ 3.1369, 45.2897 ], [ 3.1474, 45.2878 ], [ 3.161, 45.2953 ], [ 3.1611, 45.2876 ], [ 3.1674, 45.2861 ], [ 3.1698, 45.2799 ], [ 3.1649, 45.2688 ], [ 3.1884, 45.2774 ], [ 3.1835, 45.2794 ], [ 3.2024, 45.2824 ], [ 3.2232, 45.2768 ], [ 3.2201, 45.2719 ], [ 3.2269, 45.2719 ], [ 3.2291, 45.2649 ], [ 3.2245, 45.2627 ], [ 3.2277, 45.2551 ], [ 3.221, 45.2446 ], [ 3.2344, 45.2377 ], [ 3.2354, 45.2201 ], [ 3.2432, 45.2155 ], [ 3.2536, 45.2158 ], [ 3.2554, 45.21 ], [ 3.2658, 45.2136 ], [ 3.2733, 45.2084 ], [ 3.271, 45.1898 ], [ 3.2615, 45.1843 ], [ 3.2606, 45.1709 ], [ 3.27, 45.1569 ], [ 3.2671, 45.1545 ], [ 3.2816, 45.1516 ], [ 3.2804, 45.1471 ], [ 3.2738, 45.1453 ], [ 3.288, 45.1204 ], [ 3.2995, 45.1252 ], [ 3.328, 45.1146 ], [ 3.331, 45.1095 ], [ 3.3479, 45.1129 ], [ 3.352, 45.1116 ], [ 3.3505, 45.1043 ], [ 3.3614, 45.1042 ], [ 3.3258, 45.0951 ], [ 3.3054, 45.1011 ], [ 3.3046, 45.1066 ], [ 3.2823, 45.1032 ], [ 3.2898, 45.0867 ], [ 3.2977, 45.0912 ], [ 3.3149, 45.0851 ], [ 3.3086, 45.0682 ], [ 3.302, 45.0637 ], [ 3.3065, 45.0628 ], [ 3.2998, 45.0608 ], [ 3.2986, 45.0516 ], [ 3.3048, 45.0452 ], [ 3.2972, 45.0378 ], [ 3.3002, 45.0313 ], [ 3.3109, 45.0204 ], [ 3.327, 45.0306 ], [ 3.3372, 45.0253 ], [ 3.325, 45.0098 ], [ 3.3296, 45.0079 ], [ 3.3472, 45.0142 ], [ 3.3497, 45.0017 ], [ 3.3701, 45.0052 ], [ 3.3645, 44.9902 ], [ 3.3453, 44.9858 ], [ 3.348, 44.9739 ], [ 3.3613, 44.9714 ], [ 3.3545, 44.9548 ], [ 3.3379, 44.9559 ], [ 3.3153, 44.9442 ], [ 3.3133, 44.9385 ], [ 3.3068, 44.9411 ], [ 3.2991, 44.9391 ], [ 3.2845, 44.9261 ], [ 3.2615, 44.9321 ], [ 3.2666, 44.9423 ], [ 3.2484, 44.9395 ], [ 3.2506, 44.9346 ], [ 3.2417, 44.9337 ], [ 3.2481, 44.9298 ], [ 3.2442, 44.927 ], [ 3.2497, 44.9162 ], [ 3.2264, 44.91 ], [ 3.2275, 44.8961 ], [ 3.2363, 44.8879 ], [ 3.2289, 44.8862 ], [ 3.2157, 44.8744 ], [ 3.1992, 44.8746 ], [ 3.1886, 44.8614 ], [ 3.1735, 44.873 ], [ 3.1647, 44.8738 ], [ 3.1601, 44.8852 ], [ 3.1411, 44.9033 ], [ 3.1284, 44.9036 ], [ 3.1214, 44.8949 ], [ 3.124, 44.8899 ], [ 3.1151, 44.894 ], [ 3.1118, 44.8882 ], [ 3.104, 44.8866 ], [ 3.1068, 44.8797 ], [ 3.1029, 44.8705 ], [ 3.1077, 44.8665 ], [ 3.0932, 44.8542 ], [ 3.0988, 44.8489 ], [ 3.0992, 44.8329 ], [ 3.0727, 44.8374 ], [ 3.077, 44.8242 ], [ 3.0622, 44.819 ], [ 3.0481, 44.8043 ], [ 3.046, 44.7978 ], [ 3.0517, 44.7852 ], [ 3.0426, 44.7722 ], [ 3.049, 44.7627 ], [ 3.0392, 44.7589 ], [ 3.0311, 44.7494 ], [ 3.0264, 44.7289 ], [ 3.0344, 44.7292 ], [ 3.0391, 44.715 ], [ 3.0263, 44.7169 ], [ 3.0231, 44.7135 ], [ 3.0165, 44.7144 ], [ 3.0087, 44.6942 ], [ 3.0012, 44.6891 ], [ 2.998, 44.6729 ], [ 2.9839, 44.6567 ], [ 2.9817, 44.6447 ], [ 2.973, 44.6457 ], [ 2.9619, 44.6545 ], [ 2.9632, 44.6587 ], [ 2.9549, 44.6608 ], [ 2.9548, 44.6678 ], [ 2.9377, 44.6805 ], [ 2.9444, 44.6847 ], [ 2.9327, 44.6967 ], [ 2.9351, 44.705 ], [ 2.9233, 44.7286 ], [ 2.9322, 44.7382 ], [ 2.9338, 44.7499 ], [ 2.9275, 44.7567 ], [ 2.9201, 44.7548 ], [ 2.9115, 44.7618 ], [ 2.9174, 44.7667 ], [ 2.9307, 44.7618 ], [ 2.9378, 44.7749 ], [ 2.9202, 44.7943 ], [ 2.9051, 44.7838 ], [ 2.8879, 44.7892 ], [ 2.8704, 44.8294 ], [ 2.86, 44.8388 ], [ 2.8651, 44.8473 ], [ 2.8549, 44.8504 ], [ 2.8597, 44.8745 ], [ 2.8135, 44.8694 ], [ 2.8042, 44.8744 ], [ 2.7739, 44.8547 ], [ 2.7674, 44.8656 ], [ 2.7706, 44.8798 ], [ 2.7786, 44.8875 ], [ 2.7721, 44.8985 ], [ 2.7761, 44.909 ], [ 2.7552, 44.933 ], [ 2.7418, 44.9296 ], [ 2.743, 44.9366 ], [ 2.7383, 44.9412 ], [ 2.7292, 44.9369 ], [ 2.724, 44.9246 ], [ 2.7162, 44.9291 ], [ 2.7136, 44.9271 ], [ 2.7052, 44.9064 ], [ 2.6966, 44.9038 ], [ 2.6943, 44.9077 ], [ 2.6903, 44.9022 ], [ 2.6834, 44.9071 ], [ 2.6762, 44.9039 ], [ 2.658, 44.8869 ], [ 2.6543, 44.8697 ], [ 2.6305, 44.8728 ], [ 2.6232, 44.8665 ], [ 2.6185, 44.8522 ], [ 2.6027, 44.8432 ], [ 2.6116, 44.8307 ], [ 2.6075, 44.8239 ], [ 2.597, 44.8203 ], [ 2.602, 44.808 ], [ 2.6, 44.7931 ], [ 2.5866, 44.784 ], [ 2.5735, 44.785 ], [ 2.5628, 44.7779 ], [ 2.5613, 44.7592 ], [ 2.5506, 44.7561 ], [ 2.5537, 44.7481 ], [ 2.55, 44.7484 ], [ 2.5549, 44.7447 ], [ 2.5507, 44.7366 ], [ 2.5557, 44.7335 ], [ 2.5445, 44.7251 ], [ 2.5537, 44.7253 ], [ 2.5595, 44.7315 ], [ 2.5604, 44.7212 ], [ 2.518, 44.7041 ], [ 2.5141, 44.6931 ], [ 2.5111, 44.6958 ], [ 2.5001, 44.6902 ], [ 2.4875, 44.6684 ], [ 2.4913, 44.6575 ], [ 2.4788, 44.649 ], [ 2.471, 44.6516 ], [ 2.468, 44.6429 ], [ 2.4485, 44.6487 ], [ 2.435, 44.6389 ], [ 2.4248, 44.6441 ], [ 2.4165, 44.6425 ], [ 2.4036, 44.6473 ], [ 2.3907, 44.6436 ], [ 2.3889, 44.6493 ], [ 2.38, 44.6513 ], [ 2.3667, 44.6412 ], [ 2.3545, 44.6401 ], [ 2.333, 44.6487 ], [ 2.3379, 44.6566 ], [ 2.3268, 44.6697 ], [ 2.3046, 44.6625 ], [ 2.2853, 44.6668 ], [ 2.2739, 44.6607 ], [ 2.2659, 44.6611 ], [ 2.2509, 44.6519 ], [ 2.2342, 44.6555 ], [ 2.2159, 44.6507 ], [ 2.2084, 44.6438 ], [ 2.2119, 44.6313 ], [ 2.2206, 44.622 ], [ 2.2075, 44.6155 ], [ 2.1938, 44.628 ], [ 2.1687, 44.6386 ], [ 2.174, 44.6537 ], [ 2.1618, 44.6634 ], [ 2.1719, 44.6663 ], [ 2.1792, 44.6745 ], [ 2.1595, 44.6974 ], [ 2.153, 44.7 ], [ 2.1383, 44.6936 ], [ 2.13, 44.6987 ], [ 2.1312, 44.7089 ], [ 2.149, 44.7221 ], [ 2.1506, 44.7407 ], [ 2.1557, 44.7425 ], [ 2.1485, 44.7666 ], [ 2.1541, 44.772 ], [ 2.1656, 44.7715 ], [ 2.1718, 44.7898 ], [ 2.1653, 44.7996 ], [ 2.1677, 44.811 ], [ 2.1353, 44.827 ], [ 2.1275, 44.8379 ], [ 2.1281, 44.8453 ], [ 2.1172, 44.8483 ], [ 2.0835, 44.8871 ], [ 2.0859, 44.9038 ], [ 2.0983, 44.9047 ], [ 2.1073, 44.9103 ], [ 2.1021, 44.9164 ], [ 2.1046, 44.9198 ], [ 2.0778, 44.9339 ], [ 2.0807, 44.9533 ], [ 2.0629, 44.9765 ], [ 2.093, 44.9859 ], [ 2.1022, 44.9802 ], [ 2.1142, 44.9855 ], [ 2.1303, 44.9842 ], [ 2.1422, 45.0003 ], [ 2.1396, 45.0077 ], [ 2.116, 45.0222 ], [ 2.1108, 45.0405 ], [ 2.0993, 45.0476 ], [ 2.0952, 45.056 ], [ 2.1007, 45.056 ], [ 2.0979, 45.0607 ], [ 2.1041, 45.0667 ], [ 2.1143, 45.0718 ], [ 2.1207, 45.0699 ], [ 2.1402, 45.0865 ], [ 2.1482, 45.0829 ], [ 2.1572, 45.0863 ], [ 2.1673, 45.0809 ], [ 2.1746, 45.0823 ], [ 2.1806, 45.1125 ], [ 2.1903, 45.1161 ], [ 2.1841, 45.1195 ], [ 2.1788, 45.1363 ], [ 2.1941, 45.1348 ], [ 2.2026, 45.1392 ], [ 2.2116, 45.1484 ], [ 2.2084, 45.1603 ], [ 2.2222, 45.1598 ], [ 2.232, 45.164 ], [ 2.2317, 45.1701 ], [ 2.2222, 45.1702 ], [ 2.2013, 45.1798 ], [ 2.1999, 45.198 ], [ 2.1899, 45.2041 ], [ 2.1966, 45.2161 ], [ 2.1893, 45.2221 ], [ 2.2017, 45.2224 ], [ 2.2023, 45.227 ], [ 2.2212, 45.2375 ], [ 2.2257, 45.2445 ], [ 2.2403, 45.2476 ], [ 2.2376, 45.2587 ], [ 2.2428, 45.2653 ], [ 2.2586, 45.2702 ], [ 2.2617, 45.2832 ], [ 2.269, 45.2894 ], [ 2.2902, 45.288 ], [ 2.3158, 45.3218 ], [ 2.3517, 45.3278 ], [ 2.3598, 45.3365 ], [ 2.3503, 45.346 ], [ 2.3573, 45.3541 ], [ 2.3651, 45.3561 ], [ 2.3678, 45.3658 ], [ 2.363, 45.3784 ], [ 2.3694, 45.3865 ], [ 2.3634, 45.3973 ], [ 2.3546, 45.4014 ], [ 2.3507, 45.4129 ], [ 2.3696, 45.4162 ], [ 2.3875, 45.412 ], [ 2.3988, 45.4 ], [ 2.4227, 45.3972 ], [ 2.4419, 45.3843 ], [ 2.4592, 45.3857 ], [ 2.475, 45.3813 ], [ 2.4703, 45.3738 ], [ 2.476, 45.374 ], [ 2.4766, 45.3703 ], [ 2.4858, 45.379 ], [ 2.5008, 45.3814 ], [ 2.5064, 45.3783 ], [ 2.5158, 45.3843 ], [ 2.5232, 45.3828 ], [ 2.5279, 45.3916 ], [ 2.5213, 45.4026 ], [ 2.4875, 45.4182 ], [ 2.4927, 45.4237 ], [ 2.4956, 45.4455 ], [ 2.5025, 45.4479 ], [ 2.4994, 45.4603 ], [ 2.5068, 45.4641 ], [ 2.5084, 45.4785 ] ] ] } }
]
}
