{
"type": "FeatureCollection",
"name": "dep16",
"crs": { "type": "name", "properties": { "name": "urn:ogc:def:crs:OGC:1.3:CRS84" } },
"xy_coordinate_resolution": 0.0001,
"features": [
{ "type": "Feature", "properties": { "code": "16", "nom": "Charente" }, "geometry": { "type": "Polygon", "coordinates": [ [ [ -0.1029, 45.9697 ], [ -0.0753, 45.9804 ], [ -0.062, 45.9797 ], [ -0.0584, 45.9868 ], [ -0.0432, 45.9903 ], [ -0.0441, 45.9945 ], [ -0.0381, 45.9924 ], [ -0.0409, 45.9986 ], [ -0.0574, 45.9989 ], [ -0.0479, 46.0044 ], [ -0.0454, 46.0198 ], [ -0.0308, 46.0219 ], [ -0.0214, 46.0289 ], [ -0.0377, 46.0439 ], [ -0.0395, 46.0531 ], [ -0.0236, 46.0567 ], [ -0.0009, 46.0555 ], [ 0.0052, 46.0595 ], [ 0.0193, 46.0528 ], [ 0.0377, 46.0701 ], [ 0.0424, 46.068 ], [ 0.0626, 46.0727 ], [ 0.0508, 46.0794 ], [ 0.0664, 46.0912 ], [ 0.0786, 46.0944 ], [ 0.0969, 46.0889 ], [ 0.1003, 46.0922 ], [ 0.0926, 46.103 ], [ 0.0973, 46.1057 ], [ 0.107, 46.0969 ], [ 0.1157, 46.0962 ], [ 0.1358, 46.1041 ], [ 0.1632, 46.089 ], [ 0.1699, 46.081 ], [ 0.1988, 46.0973 ], [ 0.2197, 46.0943 ], [ 0.2396, 46.0814 ], [ 0.2566, 46.0801 ], [ 0.2608, 46.0724 ], [ 0.2755, 46.0669 ], [ 0.2728, 46.0629 ], [ 0.2775, 46.0606 ], [ 0.2987, 46.059 ], [ 0.3144, 46.0651 ], [ 0.3262, 46.0614 ], [ 0.3294, 46.0666 ], [ 0.3342, 46.0635 ], [ 0.3602, 46.0666 ], [ 0.3791, 46.0621 ], [ 0.3894, 46.0677 ], [ 0.4028, 46.0631 ], [ 0.4133, 46.0491 ], [ 0.4248, 46.0483 ], [ 0.4563, 46.0544 ], [ 0.4691, 46.0616 ], [ 0.4693, 46.0682 ], [ 0.4806, 46.0654 ], [ 0.4724, 46.0729 ], [ 0.4784, 46.0848 ], [ 0.4643, 46.0893 ], [ 0.4475, 46.0853 ], [ 0.4445, 46.0912 ], [ 0.4495, 46.0965 ], [ 0.4433, 46.1016 ], [ 0.4619, 46.1101 ], [ 0.4723, 46.1301 ], [ 0.4877, 46.1275 ], [ 0.4926, 46.1359 ], [ 0.5087, 46.1319 ], [ 0.5043, 46.1228 ], [ 0.4994, 46.1218 ], [ 0.5209, 46.1137 ], [ 0.5227, 46.1067 ], [ 0.5382, 46.0953 ], [ 0.54, 46.0856 ], [ 0.5543, 46.0911 ], [ 0.5636, 46.0903 ], [ 0.575, 46.0799 ], [ 0.5937, 46.0811 ], [ 0.5957, 46.0727 ], [ 0.6099, 46.0775 ], [ 0.6052, 46.0846 ], [ 0.6175, 46.0926 ], [ 0.6348, 46.0911 ], [ 0.6517, 46.0956 ], [ 0.6875, 46.0973 ], [ 0.6754, 46.1116 ], [ 0.6847, 46.1205 ], [ 0.7105, 46.1295 ], [ 0.7126, 46.1396 ], [ 0.7283, 46.135 ], [ 0.7438, 46.1401 ], [ 0.7508, 46.1366 ], [ 0.7582, 46.1382 ], [ 0.7613, 46.1318 ], [ 0.7805, 46.1335 ], [ 0.787, 46.1295 ], [ 0.7886, 46.1332 ], [ 0.801, 46.1311 ], [ 0.8036, 46.1367 ], [ 0.8116, 46.1384 ], [ 0.8226, 46.1309 ], [ 0.8085, 46.1206 ], [ 0.8145, 46.1151 ], [ 0.8185, 46.1172 ], [ 0.818, 46.1128 ], [ 0.8244, 46.1159 ], [ 0.8339, 46.1057 ], [ 0.8345, 46.0963 ], [ 0.8186, 46.0772 ], [ 0.8272, 46.0648 ], [ 0.8157, 46.0586 ], [ 0.8156, 46.0493 ], [ 0.8525, 46.0338 ], [ 0.8592, 46.0263 ], [ 0.8581, 46.0184 ], [ 0.8637, 46.016 ], [ 0.8855, 46.0319 ], [ 0.8957, 46.027 ], [ 0.894, 46.0227 ], [ 0.8988, 46.0197 ], [ 0.9193, 46.0131 ], [ 0.9175, 46.0094 ], [ 0.9253, 46.0113 ], [ 0.9176, 45.9975 ], [ 0.9338, 45.9932 ], [ 0.931, 45.9843 ], [ 0.9373, 45.9815 ], [ 0.9319, 45.9781 ], [ 0.9399, 45.973 ], [ 0.9464, 45.9741 ], [ 0.947, 45.97 ], [ 0.9405, 45.9655 ], [ 0.9426, 45.9574 ], [ 0.9299, 45.9526 ], [ 0.9224, 45.9539 ], [ 0.9218, 45.9494 ], [ 0.9276, 45.9479 ], [ 0.9208, 45.9452 ], [ 0.921, 45.9379 ], [ 0.9051, 45.9387 ], [ 0.9023, 45.9329 ], [ 0.8836, 45.9232 ], [ 0.8688, 45.9229 ], [ 0.8596, 45.9179 ], [ 0.8521, 45.9244 ], [ 0.8365, 45.9227 ], [ 0.8222, 45.9321 ], [ 0.8121, 45.9313 ], [ 0.8091, 45.9215 ], [ 0.8158, 45.918 ], [ 0.8173, 45.9019 ], [ 0.8126, 45.897 ], [ 0.8274, 45.8828 ], [ 0.8075, 45.87 ], [ 0.8208, 45.8672 ], [ 0.8168, 45.858 ], [ 0.7961, 45.8291 ], [ 0.7822, 45.8211 ], [ 0.7802, 45.816 ], [ 0.7858, 45.8075 ], [ 0.7768, 45.8053 ], [ 0.7769, 45.801 ], [ 0.7839, 45.7917 ], [ 0.7769, 45.788 ], [ 0.7684, 45.7891 ], [ 0.7627, 45.7988 ], [ 0.7495, 45.7961 ], [ 0.7413, 45.8057 ], [ 0.7352, 45.802 ], [ 0.7122, 45.8042 ], [ 0.7078, 45.795 ], [ 0.7112, 45.7831 ], [ 0.7058, 45.7777 ], [ 0.7152, 45.7719 ], [ 0.7149, 45.7631 ], [ 0.6906, 45.7612 ], [ 0.6832, 45.7537 ], [ 0.6662, 45.7482 ], [ 0.6649, 45.7392 ], [ 0.6525, 45.7405 ], [ 0.645, 45.7162 ], [ 0.633, 45.7212 ], [ 0.6255, 45.7133 ], [ 0.6287, 45.708 ], [ 0.6224, 45.6994 ], [ 0.6143, 45.6988 ], [ 0.6103, 45.6918 ], [ 0.604, 45.6942 ], [ 0.6025, 45.6795 ], [ 0.5915, 45.676 ], [ 0.6004, 45.6717 ], [ 0.5861, 45.6676 ], [ 0.5872, 45.6599 ], [ 0.5782, 45.6606 ], [ 0.5776, 45.6569 ], [ 0.567, 45.6533 ], [ 0.5754, 45.6409 ], [ 0.5612, 45.6327 ], [ 0.5468, 45.6351 ], [ 0.5465, 45.6287 ], [ 0.5408, 45.6316 ], [ 0.5384, 45.6287 ], [ 0.5337, 45.6359 ], [ 0.5358, 45.6425 ], [ 0.5254, 45.6443 ], [ 0.5267, 45.64 ], [ 0.5103, 45.631 ], [ 0.5076, 45.6195 ], [ 0.4996, 45.6173 ], [ 0.517, 45.5989 ], [ 0.5102, 45.5967 ], [ 0.5163, 45.5881 ], [ 0.5007, 45.5731 ], [ 0.5051, 45.5691 ], [ 0.4986, 45.5648 ], [ 0.5088, 45.5599 ], [ 0.5065, 45.5539 ], [ 0.4999, 45.5451 ], [ 0.4943, 45.5468 ], [ 0.4931, 45.5423 ], [ 0.4862, 45.5428 ], [ 0.4862, 45.5383 ], [ 0.4657, 45.5396 ], [ 0.4593, 45.526 ], [ 0.4495, 45.5236 ], [ 0.4502, 45.5173 ], [ 0.4321, 45.5039 ], [ 0.4317, 45.4856 ], [ 0.4209, 45.4849 ], [ 0.4092, 45.4925 ], [ 0.3909, 45.4853 ], [ 0.3817, 45.4863 ], [ 0.3766, 45.476 ], [ 0.361, 45.4768 ], [ 0.3589, 45.4661 ], [ 0.3329, 45.4594 ], [ 0.334, 45.4495 ], [ 0.3294, 45.4434 ], [ 0.3079, 45.4609 ], [ 0.3027, 45.4591 ], [ 0.3019, 45.446 ], [ 0.3177, 45.4357 ], [ 0.3121, 45.4327 ], [ 0.2928, 45.434 ], [ 0.2749, 45.4255 ], [ 0.2479, 45.3693 ], [ 0.267, 45.3317 ], [ 0.2673, 45.2985 ], [ 0.249, 45.2885 ], [ 0.2364, 45.2927 ], [ 0.2198, 45.2895 ], [ 0.2031, 45.2624 ], [ 0.1911, 45.2626 ], [ 0.189, 45.2595 ], [ 0.1749, 45.2614 ], [ 0.1781, 45.2545 ], [ 0.1723, 45.2517 ], [ 0.1723, 45.2389 ], [ 0.1658, 45.2304 ], [ 0.1586, 45.2257 ], [ 0.147, 45.2249 ], [ 0.1445, 45.2137 ], [ 0.1361, 45.2159 ], [ 0.1361, 45.21 ], [ 0.1308, 45.2078 ], [ 0.1157, 45.2136 ], [ 0.0985, 45.2273 ], [ 0.092, 45.2275 ], [ 0.0787, 45.2202 ], [ 0.0662, 45.2206 ], [ 0.0556, 45.2272 ], [ 0.0385, 45.2162 ], [ 0.0349, 45.2088 ], [ 0.0077, 45.202 ], [ 0.0043, 45.1916 ], [ -0.0024, 45.1989 ], [ 0.0061, 45.2202 ], [ 0.0037, 45.2288 ], [ -0.018, 45.2289 ], [ -0.0334, 45.2345 ], [ -0.0401, 45.2467 ], [ -0.0479, 45.2489 ], [ -0.0771, 45.2456 ], [ -0.1154, 45.2481 ], [ -0.1097, 45.2897 ], [ -0.1339, 45.2945 ], [ -0.1453, 45.2882 ], [ -0.144, 45.2954 ], [ -0.1578, 45.3056 ], [ -0.1822, 45.309 ], [ -0.1955, 45.3049 ], [ -0.201, 45.3065 ], [ -0.1997, 45.3117 ], [ -0.2103, 45.3117 ], [ -0.2203, 45.3168 ], [ -0.2205, 45.3224 ], [ -0.2288, 45.3217 ], [ -0.232, 45.3138 ], [ -0.2379, 45.3156 ], [ -0.2543, 45.3116 ], [ -0.2591, 45.3067 ], [ -0.2575, 45.2988 ], [ -0.2735, 45.3023 ], [ -0.2844, 45.309 ], [ -0.2828, 45.3193 ], [ -0.2904, 45.3273 ], [ -0.2779, 45.3366 ], [ -0.2827, 45.3389 ], [ -0.278, 45.348 ], [ -0.2651, 45.3391 ], [ -0.2607, 45.3426 ], [ -0.2503, 45.3413 ], [ -0.2448, 45.3606 ], [ -0.2511, 45.3575 ], [ -0.2722, 45.359 ], [ -0.2811, 45.355 ], [ -0.2796, 45.3648 ], [ -0.2938, 45.3658 ], [ -0.2904, 45.3708 ], [ -0.3088, 45.3731 ], [ -0.3113, 45.3845 ], [ -0.3008, 45.3888 ], [ -0.2832, 45.3884 ], [ -0.2812, 45.392 ], [ -0.2769, 45.3912 ], [ -0.2782, 45.3987 ], [ -0.2579, 45.402 ], [ -0.2544, 45.3987 ], [ -0.2498, 45.4096 ], [ -0.235, 45.4107 ], [ -0.2328, 45.4195 ], [ -0.2536, 45.418 ], [ -0.251, 45.4258 ], [ -0.2547, 45.4305 ], [ -0.2472, 45.4354 ], [ -0.2662, 45.4479 ], [ -0.2671, 45.4552 ], [ -0.2766, 45.4591 ], [ -0.2864, 45.4574 ], [ -0.2809, 45.4742 ], [ -0.2648, 45.4707 ], [ -0.2567, 45.4815 ], [ -0.2582, 45.4887 ], [ -0.2493, 45.4931 ], [ -0.2425, 45.4901 ], [ -0.2405, 45.4945 ], [ -0.2462, 45.4967 ], [ -0.2421, 45.5031 ], [ -0.2532, 45.5013 ], [ -0.2677, 45.5086 ], [ -0.2537, 45.5169 ], [ -0.255, 45.5212 ], [ -0.2698, 45.5256 ], [ -0.2824, 45.5207 ], [ -0.2794, 45.5251 ], [ -0.2912, 45.5315 ], [ -0.2966, 45.5274 ], [ -0.3045, 45.528 ], [ -0.3216, 45.535 ], [ -0.3221, 45.541 ], [ -0.318, 45.5447 ], [ -0.3106, 45.5437 ], [ -0.2966, 45.5645 ], [ -0.3145, 45.5793 ], [ -0.3244, 45.5809 ], [ -0.3315, 45.5875 ], [ -0.3414, 45.587 ], [ -0.3465, 45.5954 ], [ -0.3606, 45.5979 ], [ -0.3652, 45.6046 ], [ -0.3771, 45.6093 ], [ -0.3802, 45.6221 ], [ -0.3874, 45.6267 ], [ -0.4138, 45.6161 ], [ -0.4325, 45.625 ], [ -0.4087, 45.6561 ], [ -0.3976, 45.6524 ], [ -0.3824, 45.6554 ], [ -0.3825, 45.6598 ], [ -0.4105, 45.6834 ], [ -0.4229, 45.6856 ], [ -0.4149, 45.697 ], [ -0.4221, 45.7095 ], [ -0.4201, 45.7247 ], [ -0.4002, 45.735 ], [ -0.4158, 45.7417 ], [ -0.46, 45.7393 ], [ -0.4632, 45.7518 ], [ -0.4493, 45.766 ], [ -0.4321, 45.767 ], [ -0.4277, 45.7634 ], [ -0.4137, 45.7714 ], [ -0.4095, 45.7672 ], [ -0.4031, 45.7707 ], [ -0.4018, 45.7866 ], [ -0.3692, 45.7805 ], [ -0.3384, 45.787 ], [ -0.3213, 45.7845 ], [ -0.3058, 45.7881 ], [ -0.2965, 45.7969 ], [ -0.2992, 45.8021 ], [ -0.2888, 45.8065 ], [ -0.2771, 45.8032 ], [ -0.2736, 45.8066 ], [ -0.2381, 45.8037 ], [ -0.2435, 45.7962 ], [ -0.2351, 45.7951 ], [ -0.2211, 45.7752 ], [ -0.1999, 45.7788 ], [ -0.191, 45.7899 ], [ -0.1661, 45.7877 ], [ -0.1626, 45.7925 ], [ -0.1556, 45.7893 ], [ -0.1645, 45.7811 ], [ -0.1561, 45.7795 ], [ -0.1483, 45.7891 ], [ -0.155, 45.7978 ], [ -0.1463, 45.8022 ], [ -0.1349, 45.819 ], [ -0.1447, 45.8397 ], [ -0.137, 45.8469 ], [ -0.122, 45.8498 ], [ -0.1249, 45.8563 ], [ -0.1113, 45.8716 ], [ -0.1265, 45.8726 ], [ -0.1313, 45.878 ], [ -0.1309, 45.891 ], [ -0.1419, 45.889 ], [ -0.1445, 45.8918 ], [ -0.1492, 45.9006 ], [ -0.1376, 45.9036 ], [ -0.1318, 45.9102 ], [ -0.1424, 45.9172 ], [ -0.1509, 45.9138 ], [ -0.1464, 45.9245 ], [ -0.1511, 45.9266 ], [ -0.1405, 45.9315 ], [ -0.1298, 45.9271 ], [ -0.0968, 45.9285 ], [ -0.0983, 45.9351 ], [ -0.0864, 45.9507 ], [ -0.0918, 45.9515 ], [ -0.0946, 45.9624 ], [ -0.1064, 45.9589 ], [ -0.1029, 45.9697 ] ] ] } }
]
}
