{
"type": "FeatureCollection",
"name": "dep10",
"crs": { "type": "name", "properties": { "name": "urn:ogc:def:crs:OGC:1.3:CRS84" } },
"xy_coordinate_resolution": 0.0001,
"features": [
{ "type": "Feature", "properties": { "code": "10", "nom": "Aube" }, "geometry": { "type": "Polygon", "coordinates": [ [ [ 3.4133, 48.3763 ], [ 3.4221, 48.4162 ], [ 3.4025, 48.4152 ], [ 3.4024, 48.4177 ], [ 3.4115, 48.4174 ], [ 3.4118, 48.4213 ], [ 3.3917, 48.4233 ], [ 3.3952, 48.4368 ], [ 3.4016, 48.4357 ], [ 3.4049, 48.4394 ], [ 3.4065, 48.4525 ], [ 3.3944, 48.4627 ], [ 3.3996, 48.4677 ], [ 3.3911, 48.4705 ], [ 3.3834, 48.4794 ], [ 3.4051, 48.4886 ], [ 3.4097, 48.4857 ], [ 3.4204, 48.4917 ], [ 3.4346, 48.4903 ], [ 3.4236, 48.5148 ], [ 3.4054, 48.528 ], [ 3.4142, 48.5335 ], [ 3.44, 48.5284 ], [ 3.4569, 48.5296 ], [ 3.4757, 48.5414 ], [ 3.4817, 48.5414 ], [ 3.4791, 48.5455 ], [ 3.4859, 48.5473 ], [ 3.4764, 48.5521 ], [ 3.4742, 48.5645 ], [ 3.4655, 48.5705 ], [ 3.4853, 48.5804 ], [ 3.4932, 48.5902 ], [ 3.5159, 48.5898 ], [ 3.5032, 48.6046 ], [ 3.5346, 48.6103 ], [ 3.5408, 48.616 ], [ 3.557, 48.6159 ], [ 3.5556, 48.6203 ], [ 3.5632, 48.6132 ], [ 3.5626, 48.6026 ], [ 3.5799, 48.6049 ], [ 3.5826, 48.5855 ], [ 3.5927, 48.5876 ], [ 3.6025, 48.5798 ], [ 3.6042, 48.5724 ], [ 3.6212, 48.5802 ], [ 3.6263, 48.5777 ], [ 3.6334, 48.5686 ], [ 3.6287, 48.5623 ], [ 3.6336, 48.5418 ], [ 3.6398, 48.5382 ], [ 3.644, 48.5407 ], [ 3.6436, 48.5363 ], [ 3.6506, 48.5392 ], [ 3.6616, 48.5347 ], [ 3.688, 48.54 ], [ 3.7042, 48.5335 ], [ 3.7384, 48.5383 ], [ 3.7416, 48.534 ], [ 3.7589, 48.5325 ], [ 3.7661, 48.5281 ], [ 3.798, 48.5291 ], [ 3.8026, 48.5235 ], [ 3.8259, 48.5152 ], [ 3.8514, 48.5234 ], [ 3.8656, 48.5379 ], [ 3.8659, 48.5435 ], [ 3.86, 48.5435 ], [ 3.8586, 48.5582 ], [ 3.865, 48.5682 ], [ 3.8636, 48.5721 ], [ 3.8551, 48.5728 ], [ 3.8539, 48.5802 ], [ 3.8633, 48.5783 ], [ 3.8717, 48.5812 ], [ 3.9, 48.5748 ], [ 3.9014, 48.5797 ], [ 3.8972, 48.5797 ], [ 3.9059, 48.5873 ], [ 3.9084, 48.6018 ], [ 3.9208, 48.6064 ], [ 3.9492, 48.6034 ], [ 3.9586, 48.6229 ], [ 3.9684, 48.6317 ], [ 3.9701, 48.6269 ], [ 3.9787, 48.6264 ], [ 3.9847, 48.6534 ], [ 4.0017, 48.6639 ], [ 4.03, 48.6591 ], [ 4.047, 48.662 ], [ 4.0535, 48.6685 ], [ 4.0582, 48.6663 ], [ 4.069, 48.6792 ], [ 4.0628, 48.6821 ], [ 4.065, 48.687 ], [ 4.0798, 48.7011 ], [ 4.1311, 48.6861 ], [ 4.149, 48.7006 ], [ 4.1653, 48.7076 ], [ 4.233, 48.7023 ], [ 4.2431, 48.7167 ], [ 4.2524, 48.7087 ], [ 4.2641, 48.706 ], [ 4.2994, 48.7146 ], [ 4.3078, 48.7089 ], [ 4.3118, 48.7112 ], [ 4.3256, 48.7003 ], [ 4.3282, 48.6932 ], [ 4.3229, 48.6837 ], [ 4.3342, 48.6752 ], [ 4.3228, 48.6638 ], [ 4.3284, 48.6563 ], [ 4.3173, 48.6517 ], [ 4.3344, 48.6325 ], [ 4.3149, 48.6162 ], [ 4.3306, 48.602 ], [ 4.3496, 48.5977 ], [ 4.3974, 48.5639 ], [ 4.4206, 48.5547 ], [ 4.4703, 48.5472 ], [ 4.4939, 48.5387 ], [ 4.511, 48.5478 ], [ 4.522, 48.545 ], [ 4.5212, 48.5399 ], [ 4.5285, 48.5404 ], [ 4.5256, 48.5281 ], [ 4.5454, 48.5252 ], [ 4.5488, 48.5366 ], [ 4.5683, 48.5482 ], [ 4.5906, 48.5478 ], [ 4.593, 48.5517 ], [ 4.615, 48.5537 ], [ 4.6413, 48.5539 ], [ 4.6349, 48.5515 ], [ 4.6377, 48.5419 ], [ 4.6463, 48.5423 ], [ 4.651, 48.537 ], [ 4.6665, 48.5378 ], [ 4.6698, 48.5346 ], [ 4.6766, 48.5175 ], [ 4.6581, 48.5059 ], [ 4.6594, 48.493 ], [ 4.6504, 48.4775 ], [ 4.6535, 48.4705 ], [ 4.6278, 48.4686 ], [ 4.6293, 48.4612 ], [ 4.6784, 48.4405 ], [ 4.6778, 48.4321 ], [ 4.6895, 48.4247 ], [ 4.6818, 48.4176 ], [ 4.6935, 48.4152 ], [ 4.7084, 48.4012 ], [ 4.7001, 48.3959 ], [ 4.7053, 48.3908 ], [ 4.7171, 48.3956 ], [ 4.7602, 48.3876 ], [ 4.7546, 48.3665 ], [ 4.7787, 48.3562 ], [ 4.7943, 48.3567 ], [ 4.8156, 48.3448 ], [ 4.8325, 48.3462 ], [ 4.8415, 48.3395 ], [ 4.8142, 48.323 ], [ 4.8252, 48.3123 ], [ 4.8263, 48.3022 ], [ 4.8375, 48.3039 ], [ 4.8402, 48.2985 ], [ 4.8509, 48.2963 ], [ 4.8424, 48.2836 ], [ 4.8616, 48.2664 ], [ 4.8571, 48.26 ], [ 4.845, 48.2572 ], [ 4.8481, 48.2511 ], [ 4.8395, 48.2375 ], [ 4.8478, 48.239 ], [ 4.8539, 48.2288 ], [ 4.8353, 48.2211 ], [ 4.8417, 48.2144 ], [ 4.8589, 48.2118 ], [ 4.8636, 48.2079 ], [ 4.8644, 48.1992 ], [ 4.8471, 48.1799 ], [ 4.8506, 48.1761 ], [ 4.8369, 48.1679 ], [ 4.8354, 48.1617 ], [ 4.8399, 48.1581 ], [ 4.837, 48.1515 ], [ 4.8524, 48.1427 ], [ 4.8286, 48.1291 ], [ 4.8344, 48.1052 ], [ 4.8043, 48.1048 ], [ 4.7633, 48.1155 ], [ 4.744, 48.115 ], [ 4.7319, 48.1194 ], [ 4.7242, 48.1062 ], [ 4.7041, 48.1001 ], [ 4.7061, 48.0895 ], [ 4.6775, 48.0812 ], [ 4.6591, 48.0809 ], [ 4.6607, 48.0772 ], [ 4.6905, 48.0727 ], [ 4.711, 48.0499 ], [ 4.7232, 48.0458 ], [ 4.7218, 48.0404 ], [ 4.7107, 48.0362 ], [ 4.705, 48.0277 ], [ 4.7145, 48.0212 ], [ 4.7042, 48.0202 ], [ 4.6986, 48.0237 ], [ 4.6732, 48.0151 ], [ 4.6655, 48.0208 ], [ 4.6558, 48.0175 ], [ 4.6477, 48.0257 ], [ 4.622, 48.0244 ], [ 4.6168, 48.0314 ], [ 4.6068, 48.0285 ], [ 4.5786, 48.0291 ], [ 4.5633, 48.0152 ], [ 4.5556, 48.0136 ], [ 4.5494, 48.0045 ], [ 4.5358, 48.0066 ], [ 4.5409, 47.9921 ], [ 4.5571, 47.9819 ], [ 4.56, 47.9714 ], [ 4.5542, 47.9675 ], [ 4.4933, 47.9682 ], [ 4.447, 47.9562 ], [ 4.4179, 47.9685 ], [ 4.3838, 47.9597 ], [ 4.3686, 47.9619 ], [ 4.3663, 47.9583 ], [ 4.3432, 47.9559 ], [ 4.3128, 47.9625 ], [ 4.2979, 47.9497 ], [ 4.3029, 47.9385 ], [ 4.2934, 47.9257 ], [ 4.2737, 47.9235 ], [ 4.2455, 47.9297 ], [ 4.2371, 47.9407 ], [ 4.2221, 47.9497 ], [ 4.2281, 47.961 ], [ 4.226, 47.9719 ], [ 4.2024, 47.973 ], [ 4.1928, 47.9646 ], [ 4.2027, 47.9598 ], [ 4.2127, 47.9631 ], [ 4.2131, 47.9619 ], [ 4.2031, 47.9592 ], [ 4.2078, 47.9466 ], [ 4.2019, 47.9412 ], [ 4.1854, 47.9402 ], [ 4.1842, 47.9554 ], [ 4.1663, 47.9598 ], [ 4.1402, 47.9427 ], [ 4.1418, 47.9371 ], [ 4.1304, 47.9368 ], [ 4.1096, 47.926 ], [ 4.1071, 47.9298 ], [ 4.0921, 47.9282 ], [ 4.0897, 47.945 ], [ 4.0779, 47.9428 ], [ 4.0609, 47.9457 ], [ 4.0564, 47.9407 ], [ 4.0589, 47.9317 ], [ 4.0448, 47.9251 ], [ 4.0313, 47.9332 ], [ 4.0256, 47.9283 ], [ 4.0181, 47.9285 ], [ 4.0126, 47.9321 ], [ 4.0136, 47.9368 ], [ 4.0039, 47.942 ], [ 3.9856, 47.9305 ], [ 3.9626, 47.936 ], [ 3.9481, 47.9309 ], [ 3.9454, 47.9347 ], [ 3.9353, 47.932 ], [ 3.9265, 47.9346 ], [ 3.9185, 47.928 ], [ 3.9117, 47.9301 ], [ 3.9022, 47.9255 ], [ 3.894, 47.9293 ], [ 3.9036, 47.9383 ], [ 3.8995, 47.9407 ], [ 3.9147, 47.9757 ], [ 3.9109, 47.9818 ], [ 3.8934, 48.0017 ], [ 3.8817, 48.0003 ], [ 3.8854, 47.9915 ], [ 3.8777, 47.987 ], [ 3.8833, 47.9852 ], [ 3.88, 47.9792 ], [ 3.8618, 47.9764 ], [ 3.8659, 47.9844 ], [ 3.85, 47.9837 ], [ 3.8398, 48.0039 ], [ 3.8549, 48.0035 ], [ 3.8637, 48.007 ], [ 3.8707, 48.0029 ], [ 3.8706, 48.0168 ], [ 3.8472, 48.0293 ], [ 3.8426, 48.0362 ], [ 3.8321, 48.0362 ], [ 3.822, 48.0439 ], [ 3.8302, 48.0471 ], [ 3.8241, 48.0531 ], [ 3.8295, 48.0577 ], [ 3.8069, 48.0842 ], [ 3.7981, 48.0865 ], [ 3.7998, 48.0969 ], [ 3.8056, 48.1005 ], [ 3.7917, 48.1176 ], [ 3.7799, 48.1206 ], [ 3.7773, 48.1285 ], [ 3.768, 48.1338 ], [ 3.7569, 48.1253 ], [ 3.7397, 48.1328 ], [ 3.7429, 48.1429 ], [ 3.7548, 48.1502 ], [ 3.7475, 48.1662 ], [ 3.7185, 48.1754 ], [ 3.7135, 48.1739 ], [ 3.7216, 48.1553 ], [ 3.705, 48.1443 ], [ 3.693, 48.1546 ], [ 3.6909, 48.145 ], [ 3.6679, 48.1392 ], [ 3.6606, 48.1589 ], [ 3.6349, 48.1879 ], [ 3.6217, 48.192 ], [ 3.5942, 48.1789 ], [ 3.5798, 48.1843 ], [ 3.5752, 48.1887 ], [ 3.5999, 48.2023 ], [ 3.6216, 48.2257 ], [ 3.6148, 48.2318 ], [ 3.6047, 48.2299 ], [ 3.5999, 48.2359 ], [ 3.6243, 48.2545 ], [ 3.6168, 48.2713 ], [ 3.6019, 48.2759 ], [ 3.6004, 48.2795 ], [ 3.5778, 48.2846 ], [ 3.5857, 48.2901 ], [ 3.588, 48.3008 ], [ 3.5611, 48.3119 ], [ 3.565, 48.3133 ], [ 3.5634, 48.3214 ], [ 3.5439, 48.3198 ], [ 3.5451, 48.3345 ], [ 3.5204, 48.3493 ], [ 3.5045, 48.3658 ], [ 3.4976, 48.3696 ], [ 3.4749, 48.3693 ], [ 3.4675, 48.3757 ], [ 3.4508, 48.3739 ], [ 3.4483, 48.3684 ], [ 3.4274, 48.3581 ], [ 3.4217, 48.3717 ], [ 3.4133, 48.3763 ] ] ] } }
]
}
