{
"type": "FeatureCollection",
"name": "dep12",
"crs": { "type": "name", "properties": { "name": "urn:ogc:def:crs:OGC:1.3:CRS84" } },
"xy_coordinate_resolution": 0.0001,
"features": [
{ "type": "Feature", "properties": { "code": "12", "nom": "Aveyron" }, "geometry": { "type": "Polygon", "coordinates": [ [ [ 2.2075, 44.6155 ], [ 2.2206, 44.622 ], [ 2.2119, 44.6313 ], [ 2.2084, 44.6438 ], [ 2.2159, 44.6507 ], [ 2.2342, 44.6555 ], [ 2.2509, 44.6519 ], [ 2.2659, 44.6611 ], [ 2.2739, 44.6607 ], [ 2.2853, 44.6668 ], [ 2.3046, 44.6625 ], [ 2.3268, 44.6697 ], [ 2.3379, 44.6566 ], [ 2.333, 44.6487 ], [ 2.3545, 44.6401 ], [ 2.3667, 44.6412 ], [ 2.38, 44.6513 ], [ 2.3889, 44.6493 ], [ 2.3907, 44.6436 ], [ 2.4036, 44.6473 ], [ 2.4165, 44.6425 ], [ 2.4248, 44.6441 ], [ 2.435, 44.6389 ], [ 2.4485, 44.6487 ], [ 2.468, 44.6429 ], [ 2.471, 44.6516 ], [ 2.4832, 44.6503 ], [ 2.4913, 44.6575 ], [ 2.4875, 44.6684 ], [ 2.5001, 44.6902 ], [ 2.5111, 44.6958 ], [ 2.5141, 44.6931 ], [ 2.518, 44.7041 ], [ 2.5604, 44.7212 ], [ 2.5595, 44.7315 ], [ 2.5537, 44.7253 ], [ 2.5445, 44.7251 ], [ 2.5557, 44.7335 ], [ 2.5507, 44.7366 ], [ 2.5549, 44.7447 ], [ 2.55, 44.7484 ], [ 2.5537, 44.7481 ], [ 2.5506, 44.7561 ], [ 2.5613, 44.7592 ], [ 2.5628, 44.7779 ], [ 2.5735, 44.785 ], [ 2.5866, 44.784 ], [ 2.6, 44.7931 ], [ 2.602, 44.808 ], [ 2.597, 44.8203 ], [ 2.6075, 44.8239 ], [ 2.6116, 44.8307 ], [ 2.6027, 44.8432 ], [ 2.6185, 44.8522 ], [ 2.6232, 44.8665 ], [ 2.6305, 44.8728 ], [ 2.6543, 44.8697 ], [ 2.658, 44.8869 ], [ 2.6805, 44.9069 ], [ 2.6903, 44.9022 ], [ 2.6943, 44.9077 ], [ 2.6966, 44.9038 ], [ 2.7083, 44.9083 ], [ 2.7136, 44.9271 ], [ 2.7162, 44.9291 ], [ 2.724, 44.9246 ], [ 2.7292, 44.9369 ], [ 2.7383, 44.9412 ], [ 2.743, 44.9366 ], [ 2.7418, 44.9296 ], [ 2.7552, 44.933 ], [ 2.7761, 44.909 ], [ 2.7721, 44.8985 ], [ 2.7786, 44.8875 ], [ 2.7706, 44.8798 ], [ 2.7674, 44.8656 ], [ 2.7739, 44.8547 ], [ 2.8042, 44.8744 ], [ 2.8135, 44.8694 ], [ 2.8597, 44.8745 ], [ 2.8549, 44.8504 ], [ 2.8651, 44.8473 ], [ 2.86, 44.8388 ], [ 2.8704, 44.8294 ], [ 2.8879, 44.7892 ], [ 2.9051, 44.7838 ], [ 2.9202, 44.7943 ], [ 2.9378, 44.7749 ], [ 2.9307, 44.7618 ], [ 2.9174, 44.7667 ], [ 2.9115, 44.7618 ], [ 2.9201, 44.7548 ], [ 2.9275, 44.7567 ], [ 2.9338, 44.7499 ], [ 2.9322, 44.7382 ], [ 2.9233, 44.7286 ], [ 2.9351, 44.705 ], [ 2.9327, 44.6967 ], [ 2.9444, 44.6847 ], [ 2.9386, 44.6825 ], [ 2.9393, 44.6776 ], [ 2.9482, 44.6744 ], [ 2.9549, 44.6608 ], [ 2.9632, 44.6587 ], [ 2.9619, 44.6545 ], [ 2.973, 44.6457 ], [ 2.9856, 44.6441 ], [ 2.9991, 44.6333 ], [ 3.0332, 44.5969 ], [ 3.0501, 44.5905 ], [ 3.0604, 44.5796 ], [ 3.0759, 44.573 ], [ 3.0839, 44.5604 ], [ 3.0747, 44.5331 ], [ 3.0766, 44.5185 ], [ 3.0688, 44.5013 ], [ 3.0996, 44.4804 ], [ 3.1158, 44.4756 ], [ 3.1246, 44.4613 ], [ 3.1368, 44.4562 ], [ 3.1349, 44.4413 ], [ 3.1435, 44.4353 ], [ 3.1417, 44.4263 ], [ 3.1303, 44.4221 ], [ 3.1267, 44.414 ], [ 3.1372, 44.4109 ], [ 3.1404, 44.3922 ], [ 3.1217, 44.3887 ], [ 3.1178, 44.3843 ], [ 3.1244, 44.3802 ], [ 3.1193, 44.3641 ], [ 3.132, 44.3572 ], [ 3.1273, 44.347 ], [ 3.1337, 44.3303 ], [ 3.1543, 44.331 ], [ 3.1451, 44.3182 ], [ 3.1462, 44.3139 ], [ 3.1515, 44.3154 ], [ 3.1542, 44.3084 ], [ 3.1235, 44.2846 ], [ 3.1251, 44.2726 ], [ 3.1202, 44.2618 ], [ 3.1306, 44.2608 ], [ 3.1384, 44.2641 ], [ 3.1465, 44.2767 ], [ 3.1547, 44.2718 ], [ 3.1616, 44.2445 ], [ 3.1893, 44.2475 ], [ 3.1923, 44.2408 ], [ 3.2305, 44.2303 ], [ 3.2234, 44.22 ], [ 3.2247, 44.2119 ], [ 3.2041, 44.1897 ], [ 3.2377, 44.19 ], [ 3.2671, 44.2014 ], [ 3.2878, 44.1996 ], [ 3.2939, 44.207 ], [ 3.318, 44.2002 ], [ 3.3349, 44.2041 ], [ 3.3457, 44.2006 ], [ 3.3628, 44.2015 ], [ 3.3574, 44.1932 ], [ 3.3748, 44.1793 ], [ 3.3737, 44.1708 ], [ 3.3575, 44.168 ], [ 3.3442, 44.1587 ], [ 3.3346, 44.1588 ], [ 3.3323, 44.1418 ], [ 3.3203, 44.1359 ], [ 3.3229, 44.1098 ], [ 3.3118, 44.1043 ], [ 3.291, 44.1059 ], [ 3.2774, 44.0964 ], [ 3.2718, 44.0978 ], [ 3.2626, 44.0929 ], [ 3.2772, 44.0876 ], [ 3.2754, 44.0841 ], [ 3.2892, 44.0722 ], [ 3.2974, 44.0723 ], [ 3.2947, 44.0678 ], [ 3.3074, 44.0691 ], [ 3.3184, 44.0791 ], [ 3.3289, 44.079 ], [ 3.3377, 44.0583 ], [ 3.3518, 44.0502 ], [ 3.3671, 44.0582 ], [ 3.3717, 44.0559 ], [ 3.3714, 44.0494 ], [ 3.3806, 44.0563 ], [ 3.3901, 44.0575 ], [ 3.3935, 44.048 ], [ 3.4008, 44.0433 ], [ 3.4173, 44.0416 ], [ 3.4516, 44.0215 ], [ 3.4458, 44.0045 ], [ 3.4392, 43.998 ], [ 3.4178, 43.9926 ], [ 3.4056, 43.9697 ], [ 3.3782, 43.9676 ], [ 3.3756, 43.956 ], [ 3.3571, 43.949 ], [ 3.3505, 43.9323 ], [ 3.3584, 43.9138 ], [ 3.3403, 43.9017 ], [ 3.3426, 43.8942 ], [ 3.3189, 43.8906 ], [ 3.2934, 43.8958 ], [ 3.2834, 43.8927 ], [ 3.2751, 43.8983 ], [ 3.2695, 43.8975 ], [ 3.2568, 43.8787 ], [ 3.2379, 43.8703 ], [ 3.2345, 43.8576 ], [ 3.2402, 43.8489 ], [ 3.2514, 43.8434 ], [ 3.249, 43.8296 ], [ 3.2293, 43.8249 ], [ 3.2114, 43.8134 ], [ 3.1811, 43.8128 ], [ 3.158, 43.8176 ], [ 3.1496, 43.8136 ], [ 3.1319, 43.8162 ], [ 3.111, 43.8284 ], [ 3.0865, 43.8358 ], [ 3.0611, 43.8333 ], [ 3.0576, 43.8186 ], [ 3.0638, 43.8153 ], [ 3.0631, 43.8092 ], [ 3.0526, 43.8067 ], [ 3.0486, 43.8015 ], [ 3.0591, 43.7795 ], [ 3.0759, 43.7685 ], [ 3.0685, 43.7568 ], [ 3.0563, 43.7546 ], [ 3.0526, 43.7458 ], [ 3.0591, 43.7381 ], [ 3.0518, 43.7322 ], [ 3.0585, 43.7267 ], [ 3.0535, 43.7162 ], [ 3.0692, 43.7068 ], [ 3.0621, 43.7022 ], [ 3.0602, 43.6929 ], [ 3.0452, 43.6974 ], [ 3.0273, 43.6927 ], [ 3.0161, 43.6975 ], [ 3.0123, 43.7038 ], [ 3.009, 43.7017 ], [ 2.9851, 43.7088 ], [ 2.9376, 43.6905 ], [ 2.9375, 43.6968 ], [ 2.925, 43.7062 ], [ 2.9238, 43.7254 ], [ 2.918, 43.7313 ], [ 2.9216, 43.7354 ], [ 2.9026, 43.7423 ], [ 2.87, 43.7389 ], [ 2.8619, 43.7483 ], [ 2.8316, 43.7522 ], [ 2.8223, 43.7623 ], [ 2.7876, 43.752 ], [ 2.7812, 43.737 ], [ 2.7473, 43.7323 ], [ 2.7428, 43.729 ], [ 2.7179, 43.7411 ], [ 2.6817, 43.7435 ], [ 2.67, 43.7495 ], [ 2.6529, 43.7661 ], [ 2.6259, 43.7833 ], [ 2.6264, 43.788 ], [ 2.6103, 43.7986 ], [ 2.6119, 43.8029 ], [ 2.6084, 43.809 ], [ 2.6008, 43.8111 ], [ 2.5997, 43.8171 ], [ 2.5883, 43.8193 ], [ 2.5768, 43.8358 ], [ 2.5617, 43.8445 ], [ 2.5638, 43.8658 ], [ 2.5784, 43.873 ], [ 2.5802, 43.8788 ], [ 2.5504, 43.8925 ], [ 2.5564, 43.9183 ], [ 2.5502, 43.9232 ], [ 2.5538, 43.9251 ], [ 2.5445, 43.9246 ], [ 2.5461, 43.9294 ], [ 2.5378, 43.9249 ], [ 2.5383, 43.9328 ], [ 2.5331, 43.9366 ], [ 2.5138, 43.9435 ], [ 2.5093, 43.9421 ], [ 2.508, 43.9478 ], [ 2.4991, 43.9451 ], [ 2.5027, 43.9541 ], [ 2.5186, 43.9584 ], [ 2.525, 43.977 ], [ 2.5211, 43.9824 ], [ 2.5021, 43.9855 ], [ 2.4918, 44.0035 ], [ 2.4964, 44.0079 ], [ 2.4916, 44.0188 ], [ 2.4783, 44.0293 ], [ 2.464, 44.0333 ], [ 2.4601, 44.0513 ], [ 2.4102, 44.0558 ], [ 2.4121, 44.0697 ], [ 2.4019, 44.0757 ], [ 2.4023, 44.0825 ], [ 2.3894, 44.0907 ], [ 2.3892, 44.0946 ], [ 2.366, 44.098 ], [ 2.3405, 44.1102 ], [ 2.3324, 44.123 ], [ 2.3179, 44.1235 ], [ 2.3084, 44.1177 ], [ 2.3035, 44.122 ], [ 2.2883, 44.1222 ], [ 2.2978, 44.138 ], [ 2.2849, 44.1453 ], [ 2.2711, 44.148 ], [ 2.2376, 44.134 ], [ 2.2242, 44.1389 ], [ 2.1815, 44.1386 ], [ 2.1931, 44.1493 ], [ 2.1982, 44.1435 ], [ 2.2129, 44.1459 ], [ 2.2136, 44.1519 ], [ 2.2324, 44.1546 ], [ 2.2376, 44.1586 ], [ 2.2355, 44.1638 ], [ 2.2299, 44.1619 ], [ 2.225, 44.1682 ], [ 2.2059, 44.1711 ], [ 2.1918, 44.162 ], [ 2.1803, 44.1713 ], [ 2.1806, 44.1789 ], [ 2.1553, 44.1803 ], [ 2.1547, 44.1836 ], [ 2.1622, 44.1872 ], [ 2.1507, 44.1913 ], [ 2.1531, 44.1973 ], [ 2.1492, 44.2005 ], [ 2.1337, 44.201 ], [ 2.1281, 44.1957 ], [ 2.1061, 44.1944 ], [ 2.103, 44.1924 ], [ 2.107, 44.1812 ], [ 2.097, 44.1748 ], [ 2.0943, 44.1889 ], [ 2.0809, 44.18 ], [ 2.0694, 44.1843 ], [ 2.0689, 44.1897 ], [ 2.0521, 44.1887 ], [ 2.0594, 44.1723 ], [ 2.0298, 44.1688 ], [ 2.0297, 44.157 ], [ 1.9902, 44.1495 ], [ 2.0006, 44.1591 ], [ 1.9767, 44.162 ], [ 1.9731, 44.1716 ], [ 1.9801, 44.1764 ], [ 1.9781, 44.1795 ], [ 1.9622, 44.1844 ], [ 1.9448, 44.1826 ], [ 1.9407, 44.1698 ], [ 1.9308, 44.1781 ], [ 1.9351, 44.1814 ], [ 1.9334, 44.1881 ], [ 1.9253, 44.1912 ], [ 1.9209, 44.1906 ], [ 1.9244, 44.1879 ], [ 1.9111, 44.1855 ], [ 1.9123, 44.1901 ], [ 1.9029, 44.1928 ], [ 1.9072, 44.2007 ], [ 1.8904, 44.2076 ], [ 1.8907, 44.2135 ], [ 1.9044, 44.2095 ], [ 1.9118, 44.2143 ], [ 1.9335, 44.2458 ], [ 1.9413, 44.2448 ], [ 1.9431, 44.2476 ], [ 1.9494, 44.2425 ], [ 1.962, 44.2423 ], [ 1.9641, 44.2659 ], [ 1.9704, 44.2764 ], [ 1.9576, 44.2804 ], [ 1.9431, 44.2794 ], [ 1.9411, 44.2824 ], [ 1.9004, 44.2792 ], [ 1.8688, 44.292 ], [ 1.8816, 44.3043 ], [ 1.8593, 44.3204 ], [ 1.8611, 44.3236 ], [ 1.8776, 44.336 ], [ 1.8856, 44.3353 ], [ 1.8821, 44.3401 ], [ 1.8919, 44.353 ], [ 1.8956, 44.3499 ], [ 1.9089, 44.3501 ], [ 1.912, 44.3569 ], [ 1.9087, 44.3642 ], [ 1.8931, 44.371 ], [ 1.8912, 44.3799 ], [ 1.8672, 44.3976 ], [ 1.8758, 44.4073 ], [ 1.8719, 44.4109 ], [ 1.8732, 44.4241 ], [ 1.8499, 44.4357 ], [ 1.8511, 44.4437 ], [ 1.8462, 44.4473 ], [ 1.8532, 44.463 ], [ 1.8396, 44.4759 ], [ 1.8408, 44.4807 ], [ 1.8583, 44.4871 ], [ 1.8844, 44.4847 ], [ 1.8842, 44.4984 ], [ 1.8903, 44.5059 ], [ 1.905, 44.5014 ], [ 1.9081, 44.4882 ], [ 1.9165, 44.4863 ], [ 1.9211, 44.4915 ], [ 1.9116, 44.4998 ], [ 1.913, 44.5052 ], [ 1.9296, 44.5055 ], [ 1.9366, 44.5152 ], [ 1.9604, 44.52 ], [ 1.9866, 44.55 ], [ 2.0017, 44.5565 ], [ 2.0289, 44.5582 ], [ 2.0355, 44.5634 ], [ 2.035, 44.5711 ], [ 2.0574, 44.5829 ], [ 2.0638, 44.582 ], [ 2.0677, 44.5757 ], [ 2.0594, 44.5712 ], [ 2.0607, 44.5654 ], [ 2.0679, 44.5669 ], [ 2.0813, 44.587 ], [ 2.1016, 44.5724 ], [ 2.1133, 44.5718 ], [ 2.1249, 44.5794 ], [ 2.1325, 44.5695 ], [ 2.1538, 44.5719 ], [ 2.1681, 44.5908 ], [ 2.1785, 44.5943 ], [ 2.1806, 44.5878 ], [ 2.187, 44.5909 ], [ 2.1864, 44.5871 ], [ 2.1944, 44.5854 ], [ 2.1944, 44.5906 ], [ 2.2018, 44.596 ], [ 2.194, 44.6 ], [ 2.1979, 44.6037 ], [ 2.2077, 44.6019 ], [ 2.211, 44.6049 ], [ 2.2075, 44.6155 ] ] ] } }
]
}
