{
"type": "FeatureCollection",
"name": "dep11",
"crs": { "type": "name", "properties": { "name": "urn:ogc:def:crs:OGC:1.3:CRS84" } },
"xy_coordinate_resolution": 0.0001,
"features": [
{ "type": "Feature", "properties": { "code": "11", "nom": "Aude" }, "geometry": { "type": "Polygon", "coordinates": [ [ [ 1.6884, 43.2736 ], [ 1.6965, 43.2755 ], [ 1.7088, 43.2917 ], [ 1.7163, 43.2954 ], [ 1.704, 43.3028 ], [ 1.7265, 43.3136 ], [ 1.7358, 43.3142 ], [ 1.7341, 43.3231 ], [ 1.7272, 43.3244 ], [ 1.7238, 43.3297 ], [ 1.7297, 43.3362 ], [ 1.7238, 43.3409 ], [ 1.7335, 43.3351 ], [ 1.7516, 43.3496 ], [ 1.7723, 43.337 ], [ 1.7721, 43.3411 ], [ 1.7825, 43.3461 ], [ 1.797, 43.3406 ], [ 1.8135, 43.3415 ], [ 1.8166, 43.3494 ], [ 1.8042, 43.3579 ], [ 1.8066, 43.3651 ], [ 1.8032, 43.3684 ], [ 1.8074, 43.3725 ], [ 1.8015, 43.3762 ], [ 1.8111, 43.3818 ], [ 1.8025, 43.387 ], [ 1.803, 43.3926 ], [ 1.812, 43.3954 ], [ 1.8194, 43.3918 ], [ 1.8261, 43.3948 ], [ 1.8168, 43.4036 ], [ 1.8173, 43.4107 ], [ 1.8261, 43.4181 ], [ 1.8421, 43.4151 ], [ 1.8482, 43.4256 ], [ 1.843, 43.4325 ], [ 1.8564, 43.4433 ], [ 1.8718, 43.4381 ], [ 1.8732, 43.4288 ], [ 1.8961, 43.4185 ], [ 1.8976, 43.412 ], [ 1.9048, 43.4074 ], [ 1.8956, 43.3966 ], [ 1.905, 43.3934 ], [ 1.9146, 43.4007 ], [ 1.9102, 43.4059 ], [ 1.9167, 43.4072 ], [ 1.9214, 43.4136 ], [ 1.9204, 43.4216 ], [ 1.9342, 43.4253 ], [ 1.9494, 43.4196 ], [ 1.9541, 43.4265 ], [ 1.9638, 43.4228 ], [ 1.9659, 43.4152 ], [ 1.9721, 43.4209 ], [ 1.977, 43.416 ], [ 1.9782, 43.4183 ], [ 1.9883, 43.4076 ], [ 1.9977, 43.4131 ], [ 2.0144, 43.4147 ], [ 2.0207, 43.4232 ], [ 2.0312, 43.4194 ], [ 2.0372, 43.4221 ], [ 2.0291, 43.4369 ], [ 2.0531, 43.4303 ], [ 2.0611, 43.4151 ], [ 2.0718, 43.4064 ], [ 2.0663, 43.4052 ], [ 2.0746, 43.3947 ], [ 2.0867, 43.3988 ], [ 2.0919, 43.3939 ], [ 2.0953, 43.3963 ], [ 2.1093, 43.3946 ], [ 2.1141, 43.3988 ], [ 2.1276, 43.3992 ], [ 2.1408, 43.4042 ], [ 2.1574, 43.4164 ], [ 2.1701, 43.4168 ], [ 2.1859, 43.3953 ], [ 2.214, 43.3831 ], [ 2.2299, 43.4055 ], [ 2.2232, 43.4162 ], [ 2.2235, 43.4319 ], [ 2.2305, 43.4327 ], [ 2.2447, 43.4479 ], [ 2.2564, 43.4525 ], [ 2.2583, 43.4601 ], [ 2.282, 43.4412 ], [ 2.3055, 43.4477 ], [ 2.3114, 43.4415 ], [ 2.3349, 43.4372 ], [ 2.3631, 43.4245 ], [ 2.3968, 43.4166 ], [ 2.4069, 43.4193 ], [ 2.4033, 43.4247 ], [ 2.4177, 43.4276 ], [ 2.4287, 43.4357 ], [ 2.4522, 43.4319 ], [ 2.4896, 43.4379 ], [ 2.4968, 43.4369 ], [ 2.5021, 43.429 ], [ 2.5118, 43.4298 ], [ 2.5192, 43.4236 ], [ 2.5519, 43.4249 ], [ 2.5608, 43.4202 ], [ 2.5658, 43.423 ], [ 2.5797, 43.4125 ], [ 2.5935, 43.4126 ], [ 2.5927, 43.4039 ], [ 2.5876, 43.3998 ], [ 2.5692, 43.4003 ], [ 2.5552, 43.3883 ], [ 2.5514, 43.3784 ], [ 2.557, 43.3669 ], [ 2.5407, 43.346 ], [ 2.5513, 43.3344 ], [ 2.5563, 43.3376 ], [ 2.5854, 43.3334 ], [ 2.592, 43.318 ], [ 2.5997, 43.3138 ], [ 2.6014, 43.2981 ], [ 2.6168, 43.2891 ], [ 2.6171, 43.2843 ], [ 2.6274, 43.2888 ], [ 2.6325, 43.2982 ], [ 2.6591, 43.293 ], [ 2.6587, 43.2962 ], [ 2.6746, 43.3023 ], [ 2.6758, 43.3143 ], [ 2.6876, 43.3172 ], [ 2.6891, 43.3225 ], [ 2.6982, 43.3161 ], [ 2.6983, 43.3031 ], [ 2.7071, 43.2943 ], [ 2.6989, 43.2806 ], [ 2.7049, 43.2746 ], [ 2.7131, 43.274 ], [ 2.715, 43.2769 ], [ 2.7257, 43.2727 ], [ 2.7525, 43.2546 ], [ 2.7723, 43.2578 ], [ 2.7875, 43.2724 ], [ 2.7878, 43.2887 ], [ 2.8184, 43.3097 ], [ 2.8063, 43.3158 ], [ 2.8064, 43.32 ], [ 2.8182, 43.324 ], [ 2.8379, 43.3221 ], [ 2.8693, 43.3306 ], [ 2.8758, 43.3403 ], [ 2.8713, 43.3424 ], [ 2.8691, 43.3594 ], [ 2.8626, 43.3616 ], [ 2.8554, 43.373 ], [ 2.8686, 43.3821 ], [ 2.8728, 43.3787 ], [ 2.8697, 43.3733 ], [ 2.8902, 43.3654 ], [ 2.8879, 43.3542 ], [ 2.8924, 43.3436 ], [ 2.8841, 43.335 ], [ 2.8905, 43.3281 ], [ 2.9141, 43.3197 ], [ 2.9213, 43.3261 ], [ 2.9469, 43.3121 ], [ 3.0043, 43.3201 ], [ 3.0048, 43.2853 ], [ 3.0131, 43.2819 ], [ 3.0108, 43.274 ], [ 3.023, 43.2768 ], [ 3.0223, 43.2819 ], [ 3.0537, 43.2802 ], [ 3.0783, 43.2618 ], [ 3.0866, 43.2638 ], [ 3.1109, 43.2535 ], [ 3.1201, 43.2616 ], [ 3.1416, 43.2595 ], [ 3.1475, 43.2529 ], [ 3.144, 43.2473 ], [ 3.1576, 43.2425 ], [ 3.1754, 43.2437 ], [ 3.1873, 43.2511 ], [ 3.1988, 43.2504 ], [ 3.2259, 43.2201 ], [ 3.2406, 43.2128 ], [ 3.1807, 43.1683 ], [ 3.144, 43.1326 ], [ 3.1292, 43.1138 ], [ 3.1324, 43.1106 ], [ 3.1221, 43.1073 ], [ 3.0929, 43.0691 ], [ 3.0657, 43.0224 ], [ 3.0393, 42.9417 ], [ 3.0405, 42.9297 ], [ 3.0543, 42.9258 ], [ 3.0607, 42.9174 ], [ 3.0435, 42.8382 ], [ 2.985, 42.867 ], [ 2.9171, 42.8849 ], [ 2.9069, 42.8958 ], [ 2.8826, 42.8998 ], [ 2.8653, 42.9183 ], [ 2.8347, 42.9123 ], [ 2.8177, 42.9003 ], [ 2.789, 42.896 ], [ 2.7622, 42.8737 ], [ 2.7544, 42.8519 ], [ 2.7371, 42.8356 ], [ 2.7111, 42.8361 ], [ 2.6976, 42.8304 ], [ 2.6805, 42.8307 ], [ 2.6651, 42.8366 ], [ 2.6043, 42.8359 ], [ 2.5515, 42.8467 ], [ 2.5514, 42.8439 ], [ 2.5166, 42.8424 ], [ 2.5052, 42.8512 ], [ 2.4749, 42.8399 ], [ 2.4525, 42.8369 ], [ 2.3822, 42.8485 ], [ 2.3374, 42.8411 ], [ 2.3271, 42.8374 ], [ 2.3239, 42.8338 ], [ 2.3277, 42.8291 ], [ 2.3206, 42.8284 ], [ 2.3193, 42.824 ], [ 2.3321, 42.8204 ], [ 2.3334, 42.8019 ], [ 2.3439, 42.8012 ], [ 2.343, 42.7754 ], [ 2.3525, 42.7627 ], [ 2.3554, 42.727 ], [ 2.3456, 42.7252 ], [ 2.3197, 42.7065 ], [ 2.3054, 42.7059 ], [ 2.2971, 42.701 ], [ 2.2768, 42.7025 ], [ 2.2647, 42.7093 ], [ 2.2645, 42.7016 ], [ 2.2552, 42.698 ], [ 2.2465, 42.6812 ], [ 2.2063, 42.6671 ], [ 2.1922, 42.6591 ], [ 2.1913, 42.6521 ], [ 2.177, 42.6492 ], [ 2.1653, 42.6658 ], [ 2.176, 42.6815 ], [ 2.1679, 42.6962 ], [ 2.1597, 42.7022 ], [ 2.1467, 42.7014 ], [ 2.1395, 42.7123 ], [ 2.0922, 42.7347 ], [ 2.0874, 42.739 ], [ 2.0863, 42.7518 ], [ 2.0564, 42.756 ], [ 2.0416, 42.7463 ], [ 2.0314, 42.7465 ], [ 2.0254, 42.739 ], [ 2.0145, 42.7397 ], [ 2.0038, 42.7335 ], [ 1.9516, 42.7367 ], [ 1.9464, 42.7458 ], [ 1.9309, 42.7511 ], [ 1.9298, 42.7552 ], [ 1.9136, 42.7579 ], [ 1.9094, 42.7692 ], [ 1.9217, 42.77 ], [ 1.9288, 42.775 ], [ 1.8961, 42.8087 ], [ 1.8595, 42.8202 ], [ 1.8602, 42.8276 ], [ 1.8761, 42.8401 ], [ 1.8759, 42.8527 ], [ 1.9457, 42.8562 ], [ 1.9869, 42.871 ], [ 1.981, 42.8784 ], [ 1.9873, 42.8961 ], [ 1.9848, 42.903 ], [ 1.9919, 42.9051 ], [ 1.9806, 42.9296 ], [ 1.9337, 42.9391 ], [ 1.9364, 42.954 ], [ 1.9556, 42.9583 ], [ 1.9576, 42.9642 ], [ 1.9626, 42.961 ], [ 1.98, 42.9609 ], [ 1.9886, 42.9534 ], [ 1.9949, 42.953 ], [ 2.0059, 42.9622 ], [ 1.998, 42.9614 ], [ 1.985, 42.9673 ], [ 1.9823, 42.9884 ], [ 1.9876, 42.9935 ], [ 1.9868, 43.0025 ], [ 1.9709, 43.0096 ], [ 1.9847, 43.0224 ], [ 1.985, 43.0326 ], [ 1.9731, 43.0462 ], [ 1.9606, 43.0504 ], [ 1.9509, 43.0466 ], [ 1.9408, 43.0529 ], [ 1.943, 43.0674 ], [ 1.9514, 43.0657 ], [ 1.9639, 43.0692 ], [ 1.9569, 43.0803 ], [ 1.9497, 43.08 ], [ 1.9558, 43.0855 ], [ 1.9492, 43.1211 ], [ 1.928, 43.1242 ], [ 1.9273, 43.1295 ], [ 1.9142, 43.1336 ], [ 1.9023, 43.1302 ], [ 1.9023, 43.1233 ], [ 1.8937, 43.1154 ], [ 1.8887, 43.1194 ], [ 1.8907, 43.1254 ], [ 1.8809, 43.1268 ], [ 1.8801, 43.1471 ], [ 1.8768, 43.1428 ], [ 1.8566, 43.1445 ], [ 1.852, 43.1606 ], [ 1.8416, 43.1553 ], [ 1.8524, 43.1478 ], [ 1.8494, 43.146 ], [ 1.8248, 43.1458 ], [ 1.8052, 43.1567 ], [ 1.7928, 43.1591 ], [ 1.7836, 43.1512 ], [ 1.7806, 43.1598 ], [ 1.7446, 43.1761 ], [ 1.7409, 43.1841 ], [ 1.7239, 43.1883 ], [ 1.7113, 43.1867 ], [ 1.7082, 43.1982 ], [ 1.7255, 43.2119 ], [ 1.7209, 43.2188 ], [ 1.7238, 43.2245 ], [ 1.7021, 43.2404 ], [ 1.7051, 43.2459 ], [ 1.695, 43.247 ], [ 1.7022, 43.2571 ], [ 1.6884, 43.2736 ] ] ] } }
]
}
