{
"type": "FeatureCollection",
"name": "dep14",
"crs": { "type": "name", "properties": { "name": "urn:ogc:def:crs:OGC:1.3:CRS84" } },
"xy_coordinate_resolution": 0.0001,
"features": [
{ "type": "Feature", "properties": { "code": "14", "nom": "Calvados" }, "geometry": { "type": "MultiPolygon", "coordinates": [ [ [ [ -0.4313, 48.8655 ], [ -0.4329, 48.8633 ], [ -0.4334, 48.8655 ], [ -0.4313, 48.8655 ] ] ], [ [ [ -1.1196, 49.3556 ], [ -1.1155, 49.3515 ], [ -1.1179, 49.3605 ], [ -1.0727, 49.39 ], [ -1.0468, 49.388 ], [ -0.9887, 49.3974 ], [ -0.9472, 49.3958 ], [ -0.9244, 49.3925 ], [ -0.8959, 49.3766 ], [ -0.8512, 49.3625 ], [ -0.7553, 49.3489 ], [ -0.6495, 49.3465 ], [ -0.6242, 49.3405 ], [ -0.6035, 49.3398 ], [ -0.5583, 49.3459 ], [ -0.5287, 49.3457 ], [ -0.4526, 49.3355 ], [ -0.3966, 49.333 ], [ -0.3618, 49.3233 ], [ -0.3026, 49.2984 ], [ -0.2257, 49.2818 ], [ -0.2147, 49.2858 ], [ -0.1579, 49.2871 ], [ -0.0872, 49.2979 ], [ -0.0735, 49.3055 ], [ 0.0106, 49.3306 ], [ 0.0537, 49.3532 ], [ 0.0704, 49.367 ], [ 0.0755, 49.3662 ], [ 0.1117, 49.3953 ], [ 0.1298, 49.403 ], [ 0.1772, 49.4127 ], [ 0.2236, 49.4281 ], [ 0.2972, 49.4299 ], [ 0.2968, 49.4098 ], [ 0.309, 49.3894 ], [ 0.3018, 49.3712 ], [ 0.3113, 49.3531 ], [ 0.326, 49.3404 ], [ 0.3131, 49.323 ], [ 0.2982, 49.3144 ], [ 0.316, 49.3113 ], [ 0.315, 49.3042 ], [ 0.323, 49.297 ], [ 0.309, 49.2832 ], [ 0.3263, 49.2779 ], [ 0.3425, 49.2956 ], [ 0.3623, 49.2971 ], [ 0.3839, 49.2855 ], [ 0.3828, 49.264 ], [ 0.3663, 49.2598 ], [ 0.3646, 49.263 ], [ 0.3391, 49.2526 ], [ 0.3202, 49.2525 ], [ 0.3207, 49.2482 ], [ 0.3383, 49.2306 ], [ 0.3665, 49.2159 ], [ 0.3888, 49.2162 ], [ 0.3947, 49.2084 ], [ 0.3873, 49.1851 ], [ 0.3933, 49.1776 ], [ 0.3916, 49.1602 ], [ 0.3859, 49.1538 ], [ 0.4116, 49.146 ], [ 0.4237, 49.1479 ], [ 0.4332, 49.1407 ], [ 0.4284, 49.1399 ], [ 0.4249, 49.1302 ], [ 0.4083, 49.1286 ], [ 0.4069, 49.1122 ], [ 0.4016, 49.1111 ], [ 0.4004, 49.0971 ], [ 0.4153, 49.0962 ], [ 0.3974, 49.0906 ], [ 0.3992, 49.087 ], [ 0.4162, 49.0882 ], [ 0.4173, 49.0734 ], [ 0.4078, 49.0774 ], [ 0.391, 49.0779 ], [ 0.3786, 49.0706 ], [ 0.3812, 49.0602 ], [ 0.3671, 49.0524 ], [ 0.3789, 49.051 ], [ 0.3823, 49.039 ], [ 0.3906, 49.034 ], [ 0.4278, 49.0323 ], [ 0.4348, 49.0259 ], [ 0.4312, 49.0235 ], [ 0.4424, 49.0247 ], [ 0.4463, 49.015 ], [ 0.4339, 49.005 ], [ 0.4298, 48.9874 ], [ 0.4248, 48.9851 ], [ 0.4329, 48.9791 ], [ 0.4312, 48.9672 ], [ 0.4136, 48.9505 ], [ 0.4002, 48.9528 ], [ 0.4061, 48.9635 ], [ 0.3843, 48.9667 ], [ 0.3773, 48.9725 ], [ 0.3565, 48.9496 ], [ 0.3332, 48.9428 ], [ 0.3241, 48.9443 ], [ 0.3095, 48.9539 ], [ 0.2896, 48.9488 ], [ 0.2775, 48.95 ], [ 0.2799, 48.9632 ], [ 0.2631, 48.9647 ], [ 0.245, 48.9592 ], [ 0.2392, 48.9521 ], [ 0.2423, 48.9444 ], [ 0.2326, 48.9393 ], [ 0.2175, 48.9464 ], [ 0.1951, 48.9437 ], [ 0.1842, 48.9386 ], [ 0.1796, 48.9296 ], [ 0.1539, 48.9244 ], [ 0.148, 48.929 ], [ 0.1434, 48.9452 ], [ 0.1276, 48.9522 ], [ 0.1042, 48.9401 ], [ 0.1007, 48.9344 ], [ 0.0807, 48.938 ], [ 0.0667, 48.9274 ], [ 0.0561, 48.9016 ], [ -0.0071, 48.8854 ], [ -0.0069, 48.8724 ], [ -0.0126, 48.8776 ], [ -0.0192, 48.8742 ], [ -0.0233, 48.8779 ], [ -0.0267, 48.8764 ], [ -0.0349, 48.8661 ], [ -0.059, 48.8535 ], [ -0.0687, 48.8401 ], [ -0.0829, 48.845 ], [ -0.1141, 48.8395 ], [ -0.1244, 48.8474 ], [ -0.1233, 48.8396 ], [ -0.1335, 48.8346 ], [ -0.1463, 48.8345 ], [ -0.1275, 48.8163 ], [ -0.1475, 48.8227 ], [ -0.1518, 48.8202 ], [ -0.1701, 48.8248 ], [ -0.1688, 48.8274 ], [ -0.1792, 48.8292 ], [ -0.1784, 48.8355 ], [ -0.1914, 48.8405 ], [ -0.1953, 48.8382 ], [ -0.2044, 48.8464 ], [ -0.2129, 48.8401 ], [ -0.2424, 48.8494 ], [ -0.2605, 48.8494 ], [ -0.2622, 48.8536 ], [ -0.2806, 48.8542 ], [ -0.2986, 48.8492 ], [ -0.3054, 48.8582 ], [ -0.3285, 48.8576 ], [ -0.3359, 48.8458 ], [ -0.3274, 48.8391 ], [ -0.3462, 48.822 ], [ -0.3641, 48.8351 ], [ -0.3733, 48.8349 ], [ -0.3681, 48.8402 ], [ -0.3746, 48.8405 ], [ -0.361, 48.8423 ], [ -0.3596, 48.8475 ], [ -0.3761, 48.8456 ], [ -0.3812, 48.8495 ], [ -0.3862, 48.8453 ], [ -0.4042, 48.8608 ], [ -0.4062, 48.8698 ], [ -0.4261, 48.8657 ], [ -0.4252, 48.8723 ], [ -0.4322, 48.8748 ], [ -0.4369, 48.8725 ], [ -0.4339, 48.8689 ], [ -0.4388, 48.8729 ], [ -0.4499, 48.8693 ], [ -0.4637, 48.8714 ], [ -0.4762, 48.8588 ], [ -0.4966, 48.8583 ], [ -0.4998, 48.8546 ], [ -0.494, 48.8486 ], [ -0.5019, 48.8465 ], [ -0.5233, 48.8503 ], [ -0.5499, 48.8474 ], [ -0.5597, 48.8343 ], [ -0.5722, 48.8301 ], [ -0.5807, 48.838 ], [ -0.6054, 48.8342 ], [ -0.624, 48.827 ], [ -0.6454, 48.8272 ], [ -0.6434, 48.841 ], [ -0.656, 48.8375 ], [ -0.66, 48.8413 ], [ -0.6697, 48.8395 ], [ -0.6722, 48.8437 ], [ -0.6807, 48.8406 ], [ -0.6927, 48.8473 ], [ -0.7057, 48.8379 ], [ -0.6905, 48.8237 ], [ -0.6822, 48.8218 ], [ -0.7044, 48.8106 ], [ -0.7126, 48.8007 ], [ -0.7608, 48.7881 ], [ -0.7806, 48.7866 ], [ -0.7944, 48.7769 ], [ -0.8005, 48.7656 ], [ -0.8224, 48.7526 ], [ -0.8409, 48.7522 ], [ -0.8341, 48.7613 ], [ -0.8213, 48.7664 ], [ -0.8229, 48.7719 ], [ -0.8325, 48.7652 ], [ -0.8539, 48.7639 ], [ -0.8708, 48.7558 ], [ -0.8826, 48.7562 ], [ -0.8939, 48.7674 ], [ -0.9095, 48.7679 ], [ -0.917, 48.7725 ], [ -0.9192, 48.7698 ], [ -0.9363, 48.7752 ], [ -0.9511, 48.7892 ], [ -0.9613, 48.7845 ], [ -0.967, 48.7861 ], [ -0.971, 48.7728 ], [ -0.9914, 48.7781 ], [ -1.0065, 48.7774 ], [ -1.0127, 48.7718 ], [ -1.0451, 48.7832 ], [ -1.0587, 48.7733 ], [ -1.0825, 48.7778 ], [ -1.1012, 48.7897 ], [ -1.0975, 48.7938 ], [ -1.0912, 48.7931 ], [ -1.1023, 48.8143 ], [ -1.1574, 48.8239 ], [ -1.1571, 48.8364 ], [ -1.1497, 48.8346 ], [ -1.1417, 48.8376 ], [ -1.1315, 48.8495 ], [ -1.1212, 48.8482 ], [ -1.1217, 48.8553 ], [ -1.1147, 48.862 ], [ -1.1044, 48.864 ], [ -1.0985, 48.8761 ], [ -1.0921, 48.8791 ], [ -1.0778, 48.8678 ], [ -1.0704, 48.8702 ], [ -1.0592, 48.8773 ], [ -1.0492, 48.894 ], [ -1.0285, 48.9012 ], [ -1.0134, 48.9152 ], [ -1.0198, 48.9274 ], [ -1.0398, 48.922 ], [ -1.0497, 48.9242 ], [ -1.0659, 48.9203 ], [ -1.0321, 48.9381 ], [ -1.0265, 48.9364 ], [ -1.0115, 48.941 ], [ -1.0053, 48.9354 ], [ -0.9931, 48.9415 ], [ -0.9888, 48.9519 ], [ -0.9658, 48.9592 ], [ -0.9595, 48.9648 ], [ -0.9424, 48.968 ], [ -0.911, 48.9935 ], [ -0.9051, 49.0114 ], [ -0.898, 49.0098 ], [ -0.8867, 49.0221 ], [ -0.8626, 49.0264 ], [ -0.8609, 49.0308 ], [ -0.8624, 49.0347 ], [ -0.8685, 49.034 ], [ -0.8697, 49.0392 ], [ -0.8845, 49.0387 ], [ -0.8918, 49.0455 ], [ -0.8767, 49.0552 ], [ -0.8691, 49.0679 ], [ -0.8705, 49.0803 ], [ -0.8806, 49.0907 ], [ -0.8765, 49.0958 ], [ -0.8785, 49.1171 ], [ -0.8857, 49.1151 ], [ -0.8913, 49.1194 ], [ -0.9247, 49.1024 ], [ -0.9134, 49.1149 ], [ -0.9079, 49.1137 ], [ -0.8914, 49.1217 ], [ -0.8866, 49.1294 ], [ -0.9057, 49.1329 ], [ -0.9079, 49.1391 ], [ -0.933, 49.1461 ], [ -0.9409, 49.1525 ], [ -0.9313, 49.1579 ], [ -0.9588, 49.1614 ], [ -0.9499, 49.1677 ], [ -0.937, 49.1614 ], [ -0.9259, 49.164 ], [ -0.9214, 49.1782 ], [ -0.9142, 49.1787 ], [ -0.9161, 49.1844 ], [ -0.9061, 49.1838 ], [ -0.9159, 49.1895 ], [ -0.8873, 49.2015 ], [ -0.8894, 49.2044 ], [ -0.9009, 49.203 ], [ -0.9214, 49.2211 ], [ -0.9245, 49.2294 ], [ -0.9208, 49.2306 ], [ -0.926, 49.232 ], [ -0.9326, 49.2257 ], [ -0.9331, 49.2159 ], [ -0.9408, 49.2182 ], [ -0.9467, 49.2152 ], [ -0.9418, 49.212 ], [ -0.9521, 49.2069 ], [ -0.9544, 49.2002 ], [ -0.9735, 49.1914 ], [ -0.9964, 49.2006 ], [ -1.0073, 49.2011 ], [ -1.008, 49.2042 ], [ -1.0227, 49.2034 ], [ -1.0374, 49.2223 ], [ -1.0484, 49.2204 ], [ -1.0503, 49.228 ], [ -1.0609, 49.2252 ], [ -1.0619, 49.2287 ], [ -1.0782, 49.2339 ], [ -1.0882, 49.2462 ], [ -1.095, 49.2456 ], [ -1.0964, 49.2543 ], [ -1.1041, 49.2524 ], [ -1.1117, 49.2626 ], [ -1.1242, 49.2658 ], [ -1.1265, 49.2717 ], [ -1.127, 49.2673 ], [ -1.1359, 49.2703 ], [ -1.1337, 49.2786 ], [ -1.1239, 49.2743 ], [ -1.1206, 49.2791 ], [ -1.1347, 49.2868 ], [ -1.1407, 49.306 ], [ -1.1133, 49.3267 ], [ -1.1196, 49.3556 ] ] ] ] } }
]
}
