{
"type": "FeatureCollection",
"name": "dep21",
"crs": { "type": "name", "properties": { "name": "urn:ogc:def:crs:OGC:1.3:CRS84" } },
"xy_coordinate_resolution": 0.0001,
"features": [
{ "type": "Feature", "properties": { "code": "21", "nom": "Côte-d'Or" }, "geometry": { "type": "MultiPolygon", "coordinates": [ [ [ [ 4.116, 47.1233 ], [ 4.1068, 47.13 ], [ 4.1166, 47.1316 ], [ 4.1146, 47.1349 ], [ 4.1193, 47.1362 ], [ 4.1104, 47.1429 ], [ 4.1151, 47.1462 ], [ 4.1374, 47.1427 ], [ 4.1737, 47.1474 ], [ 4.1793, 47.1518 ], [ 4.1902, 47.1461 ], [ 4.1845, 47.1294 ], [ 4.18, 47.125 ], [ 4.1687, 47.1233 ], [ 4.1775, 47.1134 ], [ 4.1608, 47.1219 ], [ 4.1538, 47.1146 ], [ 4.1474, 47.114 ], [ 4.1331, 47.1215 ], [ 4.1268, 47.1306 ], [ 4.116, 47.1233 ] ] ], [ [ [ 4.2934, 47.9257 ], [ 4.3029, 47.9385 ], [ 4.2979, 47.9497 ], [ 4.3128, 47.9625 ], [ 4.3432, 47.9559 ], [ 4.3663, 47.9583 ], [ 4.3686, 47.9619 ], [ 4.3838, 47.9597 ], [ 4.4179, 47.9685 ], [ 4.447, 47.9562 ], [ 4.4933, 47.9682 ], [ 4.5542, 47.9675 ], [ 4.56, 47.9714 ], [ 4.5571, 47.9819 ], [ 4.5409, 47.9921 ], [ 4.5358, 48.0066 ], [ 4.5494, 48.0045 ], [ 4.5556, 48.0136 ], [ 4.5633, 48.0152 ], [ 4.5786, 48.0291 ], [ 4.6068, 48.0285 ], [ 4.6168, 48.0314 ], [ 4.622, 48.0244 ], [ 4.6477, 48.0257 ], [ 4.6558, 48.0175 ], [ 4.6655, 48.0208 ], [ 4.6732, 48.0151 ], [ 4.7004, 48.0237 ], [ 4.7199, 48.0089 ], [ 4.7421, 48.0046 ], [ 4.7891, 48.0078 ], [ 4.7932, 47.9965 ], [ 4.8102, 47.9886 ], [ 4.795, 47.9845 ], [ 4.7857, 47.9715 ], [ 4.7865, 47.9642 ], [ 4.811, 47.9593 ], [ 4.8194, 47.9604 ], [ 4.8198, 47.9645 ], [ 4.8275, 47.9609 ], [ 4.8452, 47.9613 ], [ 4.8661, 47.9405 ], [ 4.8464, 47.9274 ], [ 4.8468, 47.9213 ], [ 4.8394, 47.9226 ], [ 4.8312, 47.9179 ], [ 4.834, 47.9068 ], [ 4.8604, 47.8963 ], [ 4.8592, 47.9018 ], [ 4.8693, 47.9174 ], [ 4.8928, 47.9227 ], [ 4.9029, 47.921 ], [ 4.9154, 47.8978 ], [ 4.9286, 47.8862 ], [ 4.9275, 47.8715 ], [ 4.9541, 47.8668 ], [ 4.9634, 47.8522 ], [ 4.9604, 47.8394 ], [ 4.9662, 47.8394 ], [ 4.9684, 47.8319 ], [ 4.9847, 47.8289 ], [ 4.986, 47.8225 ], [ 4.9941, 47.8197 ], [ 4.9888, 47.8187 ], [ 4.9939, 47.8129 ], [ 4.9823, 47.8001 ], [ 4.918, 47.7771 ], [ 4.9238, 47.7734 ], [ 4.9171, 47.7669 ], [ 4.9267, 47.7648 ], [ 4.9227, 47.759 ], [ 4.9474, 47.7666 ], [ 4.959, 47.7619 ], [ 4.9662, 47.7406 ], [ 4.9568, 47.7325 ], [ 4.97, 47.7355 ], [ 4.9717, 47.7294 ], [ 4.9635, 47.7222 ], [ 4.9644, 47.7134 ], [ 4.9538, 47.7069 ], [ 4.9541, 47.7015 ], [ 4.972, 47.6916 ], [ 4.9691, 47.6858 ], [ 4.9967, 47.69 ], [ 5.0036, 47.6937 ], [ 5.0046, 47.7012 ], [ 5.0291, 47.7099 ], [ 5.0339, 47.7016 ], [ 5.0288, 47.6933 ], [ 5.0536, 47.6942 ], [ 5.0555, 47.6973 ], [ 5.0607, 47.6948 ], [ 5.0436, 47.6765 ], [ 5.0535, 47.6683 ], [ 5.067, 47.6678 ], [ 5.0674, 47.665 ], [ 5.0692, 47.6686 ], [ 5.0861, 47.6566 ], [ 5.104, 47.6589 ], [ 5.1089, 47.6497 ], [ 5.1169, 47.652 ], [ 5.1254, 47.6468 ], [ 5.1386, 47.6509 ], [ 5.1353, 47.6537 ], [ 5.155, 47.6672 ], [ 5.1619, 47.6805 ], [ 5.1783, 47.681 ], [ 5.1736, 47.6526 ], [ 5.2114, 47.6419 ], [ 5.2213, 47.6322 ], [ 5.2302, 47.6295 ], [ 5.2369, 47.6168 ], [ 5.2586, 47.6222 ], [ 5.238, 47.5965 ], [ 5.2476, 47.5898 ], [ 5.2531, 47.5768 ], [ 5.2779, 47.5814 ], [ 5.2778, 47.5898 ], [ 5.294, 47.5979 ], [ 5.2982, 47.6043 ], [ 5.3145, 47.6062 ], [ 5.3223, 47.6124 ], [ 5.3392, 47.6095 ], [ 5.3455, 47.6047 ], [ 5.3421, 47.5947 ], [ 5.3556, 47.5915 ], [ 5.3697, 47.6054 ], [ 5.3857, 47.601 ], [ 5.3905, 47.5942 ], [ 5.3959, 47.5949 ], [ 5.4256, 47.6321 ], [ 5.4416, 47.63 ], [ 5.4708, 47.6084 ], [ 5.4775, 47.6087 ], [ 5.4882, 47.577 ], [ 5.4805, 47.564 ], [ 5.4913, 47.5634 ], [ 5.4971, 47.5542 ], [ 5.4969, 47.5441 ], [ 5.4864, 47.527 ], [ 5.4719, 47.5273 ], [ 5.4475, 47.4962 ], [ 5.4389, 47.4924 ], [ 5.429, 47.4925 ], [ 5.4344, 47.4964 ], [ 5.4316, 47.498 ], [ 5.4274, 47.4955 ], [ 5.3992, 47.499 ], [ 5.3876, 47.4821 ], [ 5.4076, 47.4772 ], [ 5.3766, 47.4647 ], [ 5.3688, 47.4671 ], [ 5.3673, 47.4645 ], [ 5.3862, 47.459 ], [ 5.3798, 47.4507 ], [ 5.4068, 47.4618 ], [ 5.4159, 47.4582 ], [ 5.4131, 47.4557 ], [ 5.4182, 47.4489 ], [ 5.4388, 47.4504 ], [ 5.4407, 47.4455 ], [ 5.431, 47.436 ], [ 5.4304, 47.4214 ], [ 5.4445, 47.4041 ], [ 5.4358, 47.4028 ], [ 5.4338, 47.3931 ], [ 5.4518, 47.3832 ], [ 5.4774, 47.3953 ], [ 5.4971, 47.3898 ], [ 5.488, 47.362 ], [ 5.4953, 47.3389 ], [ 5.4872, 47.3265 ], [ 5.4769, 47.3312 ], [ 5.4763, 47.3212 ], [ 5.4701, 47.3165 ], [ 5.475, 47.3134 ], [ 5.4805, 47.3137 ], [ 5.4805, 47.3168 ], [ 5.4981, 47.3156 ], [ 5.5182, 47.3024 ], [ 5.505, 47.2832 ], [ 5.4883, 47.2893 ], [ 5.4882, 47.2681 ], [ 5.4801, 47.2563 ], [ 5.4863, 47.2434 ], [ 5.474, 47.2311 ], [ 5.48, 47.2174 ], [ 5.4457, 47.1996 ], [ 5.4555, 47.1927 ], [ 5.4593, 47.1826 ], [ 5.4511, 47.1623 ], [ 5.4378, 47.1528 ], [ 5.4385, 47.1415 ], [ 5.4085, 47.1267 ], [ 5.4107, 47.1141 ], [ 5.3982, 47.1055 ], [ 5.3989, 47.0957 ], [ 5.386, 47.082 ], [ 5.37, 47.0774 ], [ 5.3595, 47.0808 ], [ 5.3266, 47.0752 ], [ 5.3114, 47.0581 ], [ 5.3058, 47.063 ], [ 5.2839, 47.0479 ], [ 5.2753, 47.0269 ], [ 5.3146, 47.0168 ], [ 5.3183, 47.0128 ], [ 5.3045, 47.0121 ], [ 5.3008, 47.002 ], [ 5.2743, 46.9984 ], [ 5.2747, 46.9915 ], [ 5.2582, 46.981 ], [ 5.2397, 46.9816 ], [ 5.2406, 46.984 ], [ 5.222, 46.9889 ], [ 5.2122, 46.9802 ], [ 5.2051, 46.9853 ], [ 5.194, 46.9771 ], [ 5.1958, 46.9705 ], [ 5.1817, 46.9748 ], [ 5.1775, 46.9696 ], [ 5.1672, 46.9687 ], [ 5.1704, 46.9667 ], [ 5.1662, 46.9639 ], [ 5.1539, 46.967 ], [ 5.1405, 46.9619 ], [ 5.1202, 46.9632 ], [ 5.1072, 46.9587 ], [ 5.1056, 46.9503 ], [ 5.0975, 46.9449 ], [ 5.1026, 46.9575 ], [ 5.095, 46.9548 ], [ 5.0913, 46.9605 ], [ 5.074, 46.9597 ], [ 5.0734, 46.967 ], [ 5.0659, 46.967 ], [ 5.067, 46.9708 ], [ 5.0493, 46.9816 ], [ 5.0305, 46.9811 ], [ 5.0169, 46.9685 ], [ 5.0099, 46.9732 ], [ 5.0034, 46.9721 ], [ 4.9952, 46.9614 ], [ 5.0023, 46.9581 ], [ 4.9491, 46.9662 ], [ 4.8947, 46.9663 ], [ 4.8936, 46.9509 ], [ 4.8763, 46.951 ], [ 4.862, 46.9446 ], [ 4.8534, 46.9457 ], [ 4.8208, 46.9379 ], [ 4.8087, 46.9306 ], [ 4.8065, 46.9332 ], [ 4.7885, 46.9319 ], [ 4.7919, 46.926 ], [ 4.7746, 46.9169 ], [ 4.7547, 46.9167 ], [ 4.7445, 46.9244 ], [ 4.7281, 46.9194 ], [ 4.7217, 46.9219 ], [ 4.7217, 46.9132 ], [ 4.7147, 46.9119 ], [ 4.7175, 46.9079 ], [ 4.6871, 46.9001 ], [ 4.6645, 46.9142 ], [ 4.6791, 46.9302 ], [ 4.6609, 46.9339 ], [ 4.6501, 46.9413 ], [ 4.6164, 46.9415 ], [ 4.6168, 46.9481 ], [ 4.6009, 46.9499 ], [ 4.5896, 46.9557 ], [ 4.5922, 46.9681 ], [ 4.5737, 46.9734 ], [ 4.5659, 46.9853 ], [ 4.5696, 46.9853 ], [ 4.567, 46.9927 ], [ 4.5554, 46.9899 ], [ 4.5505, 46.9941 ], [ 4.5479, 46.9921 ], [ 4.5474, 46.9976 ], [ 4.5555, 46.9993 ], [ 4.5579, 47.0082 ], [ 4.5548, 47.02 ], [ 4.5286, 47.0116 ], [ 4.5122, 47.0118 ], [ 4.4986, 47.0199 ], [ 4.4988, 47.0256 ], [ 4.4897, 47.0334 ], [ 4.4818, 47.0297 ], [ 4.4716, 47.0305 ], [ 4.4553, 47.0421 ], [ 4.439, 47.0382 ], [ 4.4334, 47.041 ], [ 4.4276, 47.0374 ], [ 4.422, 47.047 ], [ 4.4009, 47.0529 ], [ 4.4082, 47.0645 ], [ 4.4049, 47.0696 ], [ 4.4163, 47.0766 ], [ 4.3995, 47.0832 ], [ 4.3705, 47.0796 ], [ 4.3653, 47.0662 ], [ 4.3588, 47.0619 ], [ 4.3442, 47.0724 ], [ 4.3468, 47.1014 ], [ 4.3065, 47.1033 ], [ 4.2971, 47.1131 ], [ 4.2747, 47.1071 ], [ 4.2538, 47.1174 ], [ 4.2569, 47.1258 ], [ 4.2516, 47.1315 ], [ 4.2427, 47.1329 ], [ 4.244, 47.1411 ], [ 4.2366, 47.1432 ], [ 4.2449, 47.146 ], [ 4.2419, 47.1482 ], [ 4.2324, 47.1425 ], [ 4.2262, 47.1472 ], [ 4.2132, 47.1444 ], [ 4.2162, 47.1482 ], [ 4.2151, 47.1544 ], [ 4.2098, 47.1554 ], [ 4.2102, 47.18 ], [ 4.2293, 47.1933 ], [ 4.2288, 47.2081 ], [ 4.2202, 47.214 ], [ 4.2215, 47.2197 ], [ 4.1924, 47.2342 ], [ 4.1793, 47.2546 ], [ 4.136, 47.2376 ], [ 4.1256, 47.2475 ], [ 4.1262, 47.2589 ], [ 4.1203, 47.2687 ], [ 4.1252, 47.2736 ], [ 4.1164, 47.2764 ], [ 4.1146, 47.2926 ], [ 4.1339, 47.3063 ], [ 4.1238, 47.3032 ], [ 4.1141, 47.308 ], [ 4.1289, 47.3175 ], [ 4.1249, 47.3359 ], [ 4.1433, 47.3543 ], [ 4.1338, 47.3561 ], [ 4.1162, 47.3366 ], [ 4.1063, 47.3352 ], [ 4.1066, 47.352 ], [ 4.0979, 47.3554 ], [ 4.0979, 47.3616 ], [ 4.106, 47.3627 ], [ 4.1068, 47.3763 ], [ 4.0992, 47.3712 ], [ 4.0934, 47.3775 ], [ 4.0928, 47.373 ], [ 4.0879, 47.3723 ], [ 4.0789, 47.3769 ], [ 4.0772, 47.3843 ], [ 4.09, 47.3946 ], [ 4.0811, 47.3943 ], [ 4.075, 47.4 ], [ 4.0668, 47.3985 ], [ 4.0652, 47.4073 ], [ 4.0716, 47.4074 ], [ 4.0736, 47.4151 ], [ 4.0845, 47.4206 ], [ 4.0859, 47.43 ], [ 4.0801, 47.4408 ], [ 4.0869, 47.44 ], [ 4.0986, 47.4305 ], [ 4.1083, 47.4374 ], [ 4.1011, 47.4439 ], [ 4.1077, 47.4467 ], [ 4.113, 47.4411 ], [ 4.1194, 47.4436 ], [ 4.1298, 47.4626 ], [ 4.1263, 47.468 ], [ 4.1298, 47.4748 ], [ 4.1154, 47.4814 ], [ 4.1234, 47.4906 ], [ 4.1124, 47.5035 ], [ 4.1176, 47.5064 ], [ 4.1146, 47.5148 ], [ 4.1387, 47.5192 ], [ 4.1507, 47.5325 ], [ 4.1459, 47.5404 ], [ 4.1534, 47.5429 ], [ 4.1565, 47.5516 ], [ 4.1744, 47.5521 ], [ 4.1882, 47.5729 ], [ 4.1872, 47.5818 ], [ 4.1989, 47.5957 ], [ 4.1969, 47.6046 ], [ 4.2036, 47.6006 ], [ 4.2142, 47.6015 ], [ 4.2121, 47.6282 ], [ 4.2226, 47.6311 ], [ 4.2284, 47.6432 ], [ 4.2491, 47.6595 ], [ 4.2256, 47.6712 ], [ 4.2266, 47.6782 ], [ 4.2504, 47.6767 ], [ 4.2518, 47.6839 ], [ 4.2725, 47.6805 ], [ 4.2841, 47.6827 ], [ 4.2664, 47.6899 ], [ 4.2618, 47.6942 ], [ 4.2675, 47.7055 ], [ 4.2567, 47.7067 ], [ 4.2528, 47.716 ], [ 4.2412, 47.7167 ], [ 4.2395, 47.7244 ], [ 4.258, 47.7258 ], [ 4.2605, 47.7422 ], [ 4.293, 47.7328 ], [ 4.3092, 47.7513 ], [ 4.3143, 47.749 ], [ 4.3325, 47.7565 ], [ 4.329, 47.77 ], [ 4.3349, 47.778 ], [ 4.3272, 47.7857 ], [ 4.3403, 47.7996 ], [ 4.32, 47.8114 ], [ 4.3254, 47.8209 ], [ 4.3193, 47.8374 ], [ 4.3303, 47.8377 ], [ 4.3298, 47.8462 ], [ 4.3008, 47.8488 ], [ 4.2713, 47.8388 ], [ 4.261, 47.8438 ], [ 4.2646, 47.8737 ], [ 4.2464, 47.8739 ], [ 4.2463, 47.8773 ], [ 4.2686, 47.888 ], [ 4.2785, 47.8999 ], [ 4.296, 47.8996 ], [ 4.3111, 47.9039 ], [ 4.3059, 47.9203 ], [ 4.2934, 47.9257 ] ] ] ] } }
]
}
