{
"type": "FeatureCollection",
"name": "dep24",
"crs": { "type": "name", "properties": { "name": "urn:ogc:def:crs:OGC:1.3:CRS84" } },
"xy_coordinate_resolution": 0.0001,
"features": [
{ "type": "Feature", "properties": { "code": "24", "nom": "Dordogne" }, "geometry": { "type": "Polygon", "coordinates": [ [ [ 0.6297, 45.7146 ], [ 0.6402, 45.6979 ], [ 0.6524, 45.6989 ], [ 0.6554, 45.6886 ], [ 0.6696, 45.6858 ], [ 0.6788, 45.6891 ], [ 0.6858, 45.6874 ], [ 0.6943, 45.6922 ], [ 0.7031, 45.6872 ], [ 0.711, 45.6939 ], [ 0.7252, 45.6956 ], [ 0.7337, 45.6897 ], [ 0.7422, 45.6906 ], [ 0.7639, 45.6681 ], [ 0.7764, 45.6672 ], [ 0.7728, 45.6501 ], [ 0.7641, 45.6421 ], [ 0.7635, 45.6285 ], [ 0.7523, 45.6167 ], [ 0.778, 45.5913 ], [ 0.806, 45.5954 ], [ 0.8115, 45.5759 ], [ 0.8426, 45.5823 ], [ 0.8694, 45.6235 ], [ 0.8767, 45.621 ], [ 0.8826, 45.608 ], [ 0.8979, 45.5998 ], [ 0.9067, 45.6089 ], [ 0.9156, 45.6041 ], [ 0.9337, 45.612 ], [ 0.9413, 45.6093 ], [ 0.9468, 45.615 ], [ 0.9499, 45.6104 ], [ 0.9603, 45.6076 ], [ 0.9694, 45.6108 ], [ 0.9816, 45.6033 ], [ 0.9972, 45.6153 ], [ 1.0048, 45.6106 ], [ 1.0232, 45.61 ], [ 1.0272, 45.6016 ], [ 1.0359, 45.6002 ], [ 1.0338, 45.592 ], [ 1.0421, 45.586 ], [ 1.0324, 45.5796 ], [ 1.0378, 45.5687 ], [ 1.047, 45.5626 ], [ 1.0454, 45.5573 ], [ 1.0629, 45.5539 ], [ 1.0755, 45.5452 ], [ 1.0826, 45.5321 ], [ 1.0867, 45.5373 ], [ 1.104, 45.5368 ], [ 1.1062, 45.5444 ], [ 1.1196, 45.5475 ], [ 1.1201, 45.544 ], [ 1.1296, 45.5439 ], [ 1.1292, 45.5409 ], [ 1.1372, 45.5406 ], [ 1.1673, 45.5248 ], [ 1.1342, 45.5053 ], [ 1.1282, 45.4937 ], [ 1.1184, 45.4879 ], [ 1.1203, 45.4748 ], [ 1.1241, 45.4789 ], [ 1.1349, 45.4696 ], [ 1.1619, 45.4786 ], [ 1.171, 45.471 ], [ 1.1761, 45.4715 ], [ 1.1776, 45.4571 ], [ 1.1866, 45.4553 ], [ 1.2098, 45.4632 ], [ 1.2359, 45.455 ], [ 1.234, 45.4399 ], [ 1.2433, 45.4364 ], [ 1.2568, 45.4451 ], [ 1.2689, 45.4411 ], [ 1.2756, 45.4337 ], [ 1.2836, 45.4377 ], [ 1.2917, 45.4357 ], [ 1.2884, 45.4312 ], [ 1.2879, 45.4341 ], [ 1.2825, 45.4324 ], [ 1.2904, 45.4216 ], [ 1.2862, 45.4156 ], [ 1.2784, 45.4126 ], [ 1.2716, 45.4183 ], [ 1.2591, 45.4198 ], [ 1.2597, 45.3979 ], [ 1.2699, 45.3961 ], [ 1.2762, 45.4034 ], [ 1.2804, 45.4019 ], [ 1.274, 45.3929 ], [ 1.2799, 45.3839 ], [ 1.294, 45.3912 ], [ 1.2936, 45.3976 ], [ 1.3251, 45.3801 ], [ 1.3158, 45.3609 ], [ 1.2852, 45.3532 ], [ 1.2794, 45.335 ], [ 1.2652, 45.323 ], [ 1.2595, 45.3202 ], [ 1.2358, 45.322 ], [ 1.2416, 45.3006 ], [ 1.2403, 45.2921 ], [ 1.2324, 45.2911 ], [ 1.2284, 45.2722 ], [ 1.242, 45.2663 ], [ 1.2394, 45.2604 ], [ 1.2546, 45.2549 ], [ 1.2745, 45.2571 ], [ 1.2785, 45.2501 ], [ 1.2745, 45.2379 ], [ 1.264, 45.231 ], [ 1.2336, 45.2222 ], [ 1.2278, 45.206 ], [ 1.2323, 45.1977 ], [ 1.2633, 45.1984 ], [ 1.2723, 45.2018 ], [ 1.2921, 45.1865 ], [ 1.2853, 45.1752 ], [ 1.2694, 45.1647 ], [ 1.2551, 45.1654 ], [ 1.2553, 45.1586 ], [ 1.2711, 45.154 ], [ 1.2721, 45.1507 ], [ 1.2786, 45.1512 ], [ 1.2938, 45.1389 ], [ 1.2986, 45.1417 ], [ 1.3095, 45.1348 ], [ 1.3213, 45.1431 ], [ 1.3321, 45.1376 ], [ 1.352, 45.1416 ], [ 1.3553, 45.1324 ], [ 1.3852, 45.1356 ], [ 1.4129, 45.1251 ], [ 1.4102, 45.1129 ], [ 1.3923, 45.1058 ], [ 1.3775, 45.1047 ], [ 1.3796, 45.1013 ], [ 1.3864, 45.1031 ], [ 1.3942, 45.0957 ], [ 1.3905, 45.0884 ], [ 1.4069, 45.07 ], [ 1.3996, 45.0612 ], [ 1.4063, 45.0586 ], [ 1.4134, 45.0609 ], [ 1.4075, 45.0531 ], [ 1.4173, 45.0498 ], [ 1.4262, 45.0354 ], [ 1.4483, 45.0193 ], [ 1.4413, 45.0153 ], [ 1.4444, 45.0141 ], [ 1.4093, 45.006 ], [ 1.4144, 44.9949 ], [ 1.4118, 44.9866 ], [ 1.4176, 44.983 ], [ 1.4126, 44.9724 ], [ 1.4216, 44.9686 ], [ 1.4166, 44.9606 ], [ 1.4279, 44.9466 ], [ 1.4347, 44.9445 ], [ 1.4331, 44.9372 ], [ 1.4424, 44.9166 ], [ 1.4253, 44.92 ], [ 1.4122, 44.9098 ], [ 1.4214, 44.9063 ], [ 1.418, 44.9006 ], [ 1.4231, 44.8954 ], [ 1.4399, 44.8889 ], [ 1.4425, 44.8797 ], [ 1.4311, 44.8713 ], [ 1.4113, 44.8723 ], [ 1.4025, 44.8501 ], [ 1.3873, 44.851 ], [ 1.3771, 44.8418 ], [ 1.3711, 44.8474 ], [ 1.3659, 44.8458 ], [ 1.3599, 44.8343 ], [ 1.3641, 44.8116 ], [ 1.3389, 44.8055 ], [ 1.3255, 44.806 ], [ 1.2983, 44.7962 ], [ 1.2933, 44.7898 ], [ 1.3046, 44.7891 ], [ 1.3047, 44.7845 ], [ 1.2962, 44.7778 ], [ 1.2985, 44.7742 ], [ 1.3136, 44.7651 ], [ 1.3228, 44.765 ], [ 1.3161, 44.7404 ], [ 1.3002, 44.7443 ], [ 1.2955, 44.736 ], [ 1.3003, 44.7337 ], [ 1.2986, 44.7259 ], [ 1.2894, 44.7206 ], [ 1.2878, 44.7148 ], [ 1.2794, 44.7158 ], [ 1.2708, 44.7227 ], [ 1.2634, 44.7106 ], [ 1.2487, 44.7081 ], [ 1.2434, 44.7037 ], [ 1.2419, 44.6929 ], [ 1.2301, 44.6914 ], [ 1.2245, 44.6843 ], [ 1.198, 44.6806 ], [ 1.1974, 44.6838 ], [ 1.1785, 44.6826 ], [ 1.1607, 44.6726 ], [ 1.1467, 44.6708 ], [ 1.15, 44.6552 ], [ 1.1465, 44.6528 ], [ 1.1533, 44.6377 ], [ 1.0946, 44.5923 ], [ 1.1025, 44.5864 ], [ 1.1035, 44.581 ], [ 1.0989, 44.5799 ], [ 1.1032, 44.5717 ], [ 1.0771, 44.5736 ], [ 1.0782, 44.5872 ], [ 1.073, 44.5963 ], [ 1.056, 44.5977 ], [ 1.0454, 44.6058 ], [ 1.0136, 44.6144 ], [ 0.9805, 44.6439 ], [ 0.968, 44.6347 ], [ 0.9496, 44.6411 ], [ 0.9387, 44.6397 ], [ 0.901, 44.6175 ], [ 0.8772, 44.6158 ], [ 0.8697, 44.5977 ], [ 0.8339, 44.5999 ], [ 0.8319, 44.6038 ], [ 0.8387, 44.606 ], [ 0.8393, 44.6137 ], [ 0.8374, 44.6161 ], [ 0.8293, 44.6129 ], [ 0.817, 44.627 ], [ 0.838, 44.6353 ], [ 0.8338, 44.6385 ], [ 0.8374, 44.6408 ], [ 0.8351, 44.6533 ], [ 0.844, 44.6544 ], [ 0.8423, 44.6662 ], [ 0.8524, 44.669 ], [ 0.8268, 44.6734 ], [ 0.8315, 44.6843 ], [ 0.827, 44.6919 ], [ 0.8179, 44.6985 ], [ 0.8161, 44.6953 ], [ 0.7977, 44.7018 ], [ 0.7869, 44.6936 ], [ 0.7876, 44.6854 ], [ 0.7798, 44.6834 ], [ 0.7625, 44.6886 ], [ 0.7631, 44.6786 ], [ 0.7467, 44.6824 ], [ 0.73, 44.6761 ], [ 0.7038, 44.6783 ], [ 0.6837, 44.6752 ], [ 0.6701, 44.6795 ], [ 0.6574, 44.6778 ], [ 0.6545, 44.6967 ], [ 0.6477, 44.7031 ], [ 0.6309, 44.7061 ], [ 0.622, 44.701 ], [ 0.6236, 44.6928 ], [ 0.62, 44.6913 ], [ 0.585, 44.699 ], [ 0.5747, 44.6912 ], [ 0.5673, 44.6716 ], [ 0.5462, 44.6647 ], [ 0.5402, 44.6651 ], [ 0.5361, 44.674 ], [ 0.5282, 44.6785 ], [ 0.5155, 44.6786 ], [ 0.4906, 44.6668 ], [ 0.4705, 44.6696 ], [ 0.4457, 44.6524 ], [ 0.4152, 44.6459 ], [ 0.3854, 44.657 ], [ 0.3754, 44.6528 ], [ 0.3656, 44.6622 ], [ 0.3537, 44.6544 ], [ 0.3489, 44.6702 ], [ 0.3597, 44.6903 ], [ 0.3551, 44.6966 ], [ 0.3405, 44.7031 ], [ 0.3482, 44.7105 ], [ 0.348, 44.7196 ], [ 0.3391, 44.7339 ], [ 0.3269, 44.7402 ], [ 0.3187, 44.7519 ], [ 0.2868, 44.7683 ], [ 0.2714, 44.7854 ], [ 0.2749, 44.8002 ], [ 0.266, 44.8126 ], [ 0.2637, 44.8264 ], [ 0.2868, 44.823 ], [ 0.2923, 44.8317 ], [ 0.3008, 44.8292 ], [ 0.301, 44.8403 ], [ 0.3083, 44.8392 ], [ 0.3151, 44.8454 ], [ 0.2922, 44.861 ], [ 0.2791, 44.867 ], [ 0.2554, 44.8675 ], [ 0.2381, 44.872 ], [ 0.2441, 44.8607 ], [ 0.2417, 44.8569 ], [ 0.2258, 44.846 ], [ 0.2086, 44.8407 ], [ 0.1913, 44.8201 ], [ 0.1785, 44.826 ], [ 0.1472, 44.8293 ], [ 0.1239, 44.8279 ], [ 0.1123, 44.819 ], [ 0.1084, 44.8315 ], [ 0.0987, 44.833 ], [ 0.083, 44.8312 ], [ 0.0718, 44.8187 ], [ 0.062, 44.8257 ], [ 0.0469, 44.8246 ], [ 0.0395, 44.8275 ], [ 0.0387, 44.8387 ], [ 0.0211, 44.8498 ], [ 0.0041, 44.8456 ], [ -0.0342, 44.8521 ], [ -0.033, 44.856 ], [ -0.011, 44.8577 ], [ -0.009, 44.8665 ], [ 0.0034, 44.8744 ], [ 0.0032, 44.8815 ], [ 0.012, 44.8843 ], [ 0.0152, 44.8935 ], [ 0.0337, 44.9138 ], [ 0.0032, 44.9474 ], [ 0.01, 44.9539 ], [ 0.0137, 44.9789 ], [ 0.0177, 44.9806 ], [ 0.0271, 44.9754 ], [ 0.0334, 44.9806 ], [ 0.0401, 44.9935 ], [ 0.0354, 45.0138 ], [ 0.0391, 45.0243 ], [ 0.0409, 45.0222 ], [ 0.0444, 45.0358 ], [ 0.0542, 45.0393 ], [ 0.0733, 45.0701 ], [ 0.0652, 45.0811 ], [ 0.063, 45.0964 ], [ 0.0549, 45.1 ], [ 0.0445, 45.1154 ], [ -0.0073, 45.1191 ], [ -0.0258, 45.1152 ], [ -0.0297, 45.1077 ], [ -0.0402, 45.1024 ], [ -0.0411, 45.1146 ], [ -0.0292, 45.1279 ], [ -0.0368, 45.1407 ], [ 0.0047, 45.1537 ], [ -0.0007, 45.1594 ], [ -0.0184, 45.1617 ], [ -0.0174, 45.1699 ], [ 0.0022, 45.1844 ], [ 0.0077, 45.202 ], [ 0.0349, 45.2088 ], [ 0.0385, 45.2162 ], [ 0.0534, 45.2269 ], [ 0.0662, 45.2206 ], [ 0.0787, 45.2202 ], [ 0.092, 45.2275 ], [ 0.0985, 45.2273 ], [ 0.1157, 45.2136 ], [ 0.1308, 45.2078 ], [ 0.1361, 45.21 ], [ 0.1361, 45.2159 ], [ 0.1445, 45.2137 ], [ 0.147, 45.2249 ], [ 0.1586, 45.2257 ], [ 0.1723, 45.2389 ], [ 0.1723, 45.2517 ], [ 0.1781, 45.2545 ], [ 0.1749, 45.2614 ], [ 0.189, 45.2595 ], [ 0.1911, 45.2626 ], [ 0.2031, 45.2624 ], [ 0.2198, 45.2895 ], [ 0.2364, 45.2927 ], [ 0.249, 45.2885 ], [ 0.2673, 45.2985 ], [ 0.267, 45.3317 ], [ 0.2479, 45.3693 ], [ 0.2749, 45.4255 ], [ 0.2928, 45.434 ], [ 0.3121, 45.4327 ], [ 0.3177, 45.4357 ], [ 0.3019, 45.446 ], [ 0.3027, 45.4591 ], [ 0.3079, 45.4609 ], [ 0.3294, 45.4434 ], [ 0.334, 45.4495 ], [ 0.3329, 45.4594 ], [ 0.3589, 45.4661 ], [ 0.361, 45.4768 ], [ 0.3766, 45.476 ], [ 0.3817, 45.4863 ], [ 0.3909, 45.4853 ], [ 0.4092, 45.4925 ], [ 0.4209, 45.4849 ], [ 0.4317, 45.4856 ], [ 0.4321, 45.5039 ], [ 0.4502, 45.5173 ], [ 0.4495, 45.5236 ], [ 0.4593, 45.526 ], [ 0.4657, 45.5396 ], [ 0.4862, 45.5383 ], [ 0.4862, 45.5428 ], [ 0.4931, 45.5423 ], [ 0.4943, 45.5468 ], [ 0.4999, 45.5451 ], [ 0.5065, 45.5539 ], [ 0.5088, 45.5599 ], [ 0.4986, 45.5648 ], [ 0.5051, 45.5691 ], [ 0.5007, 45.5731 ], [ 0.5163, 45.5881 ], [ 0.5102, 45.5967 ], [ 0.517, 45.5989 ], [ 0.4996, 45.6173 ], [ 0.5076, 45.6195 ], [ 0.5103, 45.631 ], [ 0.5267, 45.64 ], [ 0.5254, 45.6443 ], [ 0.5358, 45.6425 ], [ 0.5337, 45.6359 ], [ 0.5384, 45.6287 ], [ 0.5408, 45.6316 ], [ 0.5465, 45.6287 ], [ 0.5468, 45.6351 ], [ 0.5585, 45.6322 ], [ 0.5679, 45.6355 ], [ 0.5754, 45.6409 ], [ 0.567, 45.6533 ], [ 0.5776, 45.6569 ], [ 0.5782, 45.6606 ], [ 0.5872, 45.6599 ], [ 0.5861, 45.6676 ], [ 0.6004, 45.6717 ], [ 0.5915, 45.676 ], [ 0.6025, 45.6795 ], [ 0.604, 45.6942 ], [ 0.6103, 45.6918 ], [ 0.6143, 45.6988 ], [ 0.6224, 45.6994 ], [ 0.6287, 45.708 ], [ 0.6255, 45.7133 ], [ 0.6297, 45.7146 ] ] ] } }
]
}
