{
"type": "FeatureCollection",
"name": "dep26",
"crs": { "type": "name", "properties": { "name": "urn:ogc:def:crs:OGC:1.3:CRS84" } },
"xy_coordinate_resolution": 0.0001,
"features": [
{ "type": "Feature", "properties": { "code": "26", "nom": "Drôme" }, "geometry": { "type": "Polygon", "coordinates": [ [ [ 4.8005, 45.2984 ], [ 4.8588, 45.309 ], [ 4.8586, 45.2985 ], [ 4.8797, 45.2969 ], [ 4.9294, 45.3242 ], [ 4.9543, 45.3273 ], [ 4.9659, 45.3351 ], [ 4.9951, 45.344 ], [ 5.0097, 45.3422 ], [ 5.0227, 45.3178 ], [ 5.0543, 45.319 ], [ 5.0754, 45.2818 ], [ 5.1186, 45.2912 ], [ 5.1216, 45.2987 ], [ 5.1367, 45.298 ], [ 5.1209, 45.2476 ], [ 5.1415, 45.2436 ], [ 5.1519, 45.2555 ], [ 5.1582, 45.2555 ], [ 5.1567, 45.2474 ], [ 5.1765, 45.2484 ], [ 5.1846, 45.2312 ], [ 5.2017, 45.2174 ], [ 5.1787, 45.217 ], [ 5.1674, 45.2101 ], [ 5.1643, 45.1976 ], [ 5.1688, 45.1985 ], [ 5.1751, 45.1816 ], [ 5.1898, 45.1694 ], [ 5.1918, 45.1551 ], [ 5.1813, 45.1478 ], [ 5.1906, 45.1407 ], [ 5.1874, 45.1208 ], [ 5.1729, 45.1036 ], [ 5.1629, 45.0984 ], [ 5.1541, 45.0793 ], [ 5.1448, 45.0815 ], [ 5.141, 45.0764 ], [ 5.1379, 45.0815 ], [ 5.1352, 45.0742 ], [ 5.1486, 45.0769 ], [ 5.1568, 45.066 ], [ 5.1625, 45.0658 ], [ 5.1712, 45.069 ], [ 5.1794, 45.0833 ], [ 5.2082, 45.0842 ], [ 5.2261, 45.0792 ], [ 5.2325, 45.0705 ], [ 5.2445, 45.067 ], [ 5.2446, 45.0607 ], [ 5.2663, 45.0598 ], [ 5.2677, 45.0547 ], [ 5.2798, 45.0611 ], [ 5.2892, 45.0599 ], [ 5.2928, 45.0639 ], [ 5.3053, 45.061 ], [ 5.3063, 45.0534 ], [ 5.3202, 45.0516 ], [ 5.3207, 45.0571 ], [ 5.3263, 45.0555 ], [ 5.3355, 45.0626 ], [ 5.3403, 45.0621 ], [ 5.3459, 45.048 ], [ 5.3731, 45.0437 ], [ 5.3858, 45.0346 ], [ 5.3965, 45.0395 ], [ 5.3811, 45.0512 ], [ 5.3831, 45.0559 ], [ 5.3868, 45.0568 ], [ 5.3966, 45.0441 ], [ 5.4127, 45.0446 ], [ 5.4257, 45.0563 ], [ 5.4352, 45.0541 ], [ 5.4366, 45.0618 ], [ 5.4497, 45.0711 ], [ 5.461, 45.0864 ], [ 5.4693, 45.0886 ], [ 5.483, 45.0838 ], [ 5.4942, 45.0717 ], [ 5.4823, 45.0732 ], [ 5.4749, 45.0704 ], [ 5.4648, 45.0459 ], [ 5.478, 45.0336 ], [ 5.476, 45.025 ], [ 5.4836, 45.0228 ], [ 5.4804, 45.0129 ], [ 5.4936, 44.9961 ], [ 5.4777, 44.9667 ], [ 5.4837, 44.9223 ], [ 5.4803, 44.8968 ], [ 5.4701, 44.879 ], [ 5.4756, 44.867 ], [ 5.4638, 44.826 ], [ 5.4848, 44.8231 ], [ 5.4768, 44.8156 ], [ 5.4761, 44.807 ], [ 5.4585, 44.8004 ], [ 5.4619, 44.7949 ], [ 5.4802, 44.7928 ], [ 5.4769, 44.7889 ], [ 5.482, 44.7866 ], [ 5.5347, 44.7761 ], [ 5.5545, 44.7675 ], [ 5.554, 44.7793 ], [ 5.5441, 44.7889 ], [ 5.5445, 44.7957 ], [ 5.5498, 44.7945 ], [ 5.582, 44.7779 ], [ 5.5868, 44.7632 ], [ 5.6263, 44.7533 ], [ 5.6359, 44.7328 ], [ 5.644, 44.7316 ], [ 5.6471, 44.7241 ], [ 5.6523, 44.7226 ], [ 5.6616, 44.7207 ], [ 5.6631, 44.7255 ], [ 5.6988, 44.7221 ], [ 5.7, 44.7287 ], [ 5.7041, 44.7293 ], [ 5.7087, 44.7209 ], [ 5.7212, 44.7126 ], [ 5.7365, 44.7138 ], [ 5.7461, 44.701 ], [ 5.7561, 44.6959 ], [ 5.7681, 44.6992 ], [ 5.7718, 44.6968 ], [ 5.8015, 44.7068 ], [ 5.8271, 44.7003 ], [ 5.8297, 44.6887 ], [ 5.7994, 44.6742 ], [ 5.7906, 44.6533 ], [ 5.7638, 44.6556 ], [ 5.7539, 44.6627 ], [ 5.7475, 44.6547 ], [ 5.7536, 44.6486 ], [ 5.7368, 44.6498 ], [ 5.7386, 44.6406 ], [ 5.728, 44.6392 ], [ 5.7146, 44.6437 ], [ 5.7069, 44.6421 ], [ 5.68, 44.6522 ], [ 5.6684, 44.6484 ], [ 5.6555, 44.6515 ], [ 5.6545, 44.6554 ], [ 5.6417, 44.6511 ], [ 5.6392, 44.6355 ], [ 5.6431, 44.6222 ], [ 5.6495, 44.6194 ], [ 5.6472, 44.6116 ], [ 5.6353, 44.6091 ], [ 5.6263, 44.5866 ], [ 5.6178, 44.5839 ], [ 5.6154, 44.5733 ], [ 5.607, 44.5683 ], [ 5.5973, 44.5433 ], [ 5.615, 44.5328 ], [ 5.6274, 44.5346 ], [ 5.6645, 44.5019 ], [ 5.6501, 44.4992 ], [ 5.6413, 44.5023 ], [ 5.6298, 44.5012 ], [ 5.6181, 44.4748 ], [ 5.6034, 44.4654 ], [ 5.5703, 44.4768 ], [ 5.5588, 44.4731 ], [ 5.5453, 44.4825 ], [ 5.5161, 44.4917 ], [ 5.4799, 44.4912 ], [ 5.4714, 44.4998 ], [ 5.4584, 44.4994 ], [ 5.4589, 44.4885 ], [ 5.4677, 44.4733 ], [ 5.459, 44.469 ], [ 5.4644, 44.4479 ], [ 5.4977, 44.4382 ], [ 5.4936, 44.4282 ], [ 5.4866, 44.4293 ], [ 5.4765, 44.4197 ], [ 5.4367, 44.4337 ], [ 5.4184, 44.4248 ], [ 5.4229, 44.4158 ], [ 5.4312, 44.4143 ], [ 5.443, 44.3912 ], [ 5.4441, 44.3795 ], [ 5.4302, 44.377 ], [ 5.4319, 44.371 ], [ 5.4383, 44.3674 ], [ 5.4625, 44.3674 ], [ 5.4679, 44.3522 ], [ 5.4825, 44.3498 ], [ 5.4913, 44.3379 ], [ 5.5214, 44.3511 ], [ 5.529, 44.343 ], [ 5.5399, 44.3426 ], [ 5.5374, 44.3335 ], [ 5.5473, 44.33 ], [ 5.5605, 44.3356 ], [ 5.568, 44.3322 ], [ 5.6178, 44.3323 ], [ 5.6238, 44.3352 ], [ 5.6308, 44.333 ], [ 5.6326, 44.3284 ], [ 5.6111, 44.3159 ], [ 5.6079, 44.3067 ], [ 5.6162, 44.3094 ], [ 5.627, 44.3011 ], [ 5.6382, 44.299 ], [ 5.643, 44.2938 ], [ 5.633, 44.2905 ], [ 5.6321, 44.2839 ], [ 5.6475, 44.2725 ], [ 5.6468, 44.2671 ], [ 5.6756, 44.2759 ], [ 5.6866, 44.2669 ], [ 5.6742, 44.2564 ], [ 5.673, 44.2462 ], [ 5.673, 44.2398 ], [ 5.6824, 44.2343 ], [ 5.676, 44.2121 ], [ 5.6864, 44.1946 ], [ 5.675, 44.1888 ], [ 5.6516, 44.1896 ], [ 5.6433, 44.1707 ], [ 5.647, 44.1663 ], [ 5.6824, 44.1636 ], [ 5.6779, 44.1464 ], [ 5.6311, 44.1506 ], [ 5.6317, 44.1586 ], [ 5.6396, 44.1676 ], [ 5.632, 44.1737 ], [ 5.6161, 44.1778 ], [ 5.6093, 44.1907 ], [ 5.6021, 44.1915 ], [ 5.5962, 44.1876 ], [ 5.5746, 44.1868 ], [ 5.5644, 44.1709 ], [ 5.583, 44.1576 ], [ 5.5695, 44.1481 ], [ 5.5513, 44.1498 ], [ 5.5414, 44.1326 ], [ 5.5111, 44.1241 ], [ 5.5026, 44.1157 ], [ 5.4547, 44.1192 ], [ 5.4487, 44.1256 ], [ 5.4476, 44.1367 ], [ 5.4366, 44.14 ], [ 5.4358, 44.1523 ], [ 5.4239, 44.1493 ], [ 5.4168, 44.1551 ], [ 5.3966, 44.152 ], [ 5.3832, 44.1553 ], [ 5.3867, 44.1817 ], [ 5.3811, 44.1959 ], [ 5.3845, 44.2012 ], [ 5.3553, 44.2146 ], [ 5.3368, 44.2035 ], [ 5.3183, 44.2099 ], [ 5.3033, 44.2099 ], [ 5.3033, 44.2054 ], [ 5.2922, 44.2145 ], [ 5.2523, 44.2312 ], [ 5.2405, 44.2308 ], [ 5.2382, 44.2132 ], [ 5.2308, 44.2119 ], [ 5.2268, 44.215 ], [ 5.2067, 44.2138 ], [ 5.1887, 44.2203 ], [ 5.1767, 44.2202 ], [ 5.1549, 44.2309 ], [ 5.1495, 44.2353 ], [ 5.1616, 44.2456 ], [ 5.1607, 44.2665 ], [ 5.1487, 44.2694 ], [ 5.1471, 44.2756 ], [ 5.1497, 44.2821 ], [ 5.1681, 44.2899 ], [ 5.1737, 44.3084 ], [ 5.1677, 44.3148 ], [ 5.1506, 44.3096 ], [ 5.1548, 44.3019 ], [ 5.1191, 44.2869 ], [ 5.1079, 44.2809 ], [ 5.108, 44.2772 ], [ 5.0943, 44.2828 ], [ 5.0765, 44.2841 ], [ 5.0606, 44.3081 ], [ 5.0221, 44.2958 ], [ 5.0055, 44.2868 ], [ 4.9814, 44.2848 ], [ 4.9329, 44.2622 ], [ 4.9019, 44.2602 ], [ 4.8993, 44.2569 ], [ 4.8957, 44.2577 ], [ 4.9013, 44.2643 ], [ 4.8791, 44.2615 ], [ 4.8674, 44.2558 ], [ 4.8659, 44.2496 ], [ 4.8435, 44.2418 ], [ 4.8408, 44.2357 ], [ 4.8266, 44.2283 ], [ 4.8141, 44.2323 ], [ 4.8127, 44.2577 ], [ 4.804, 44.2692 ], [ 4.8046, 44.3039 ], [ 4.7905, 44.3075 ], [ 4.7797, 44.3194 ], [ 4.7718, 44.3175 ], [ 4.7622, 44.3254 ], [ 4.718, 44.3269 ], [ 4.713, 44.3207 ], [ 4.679, 44.3205 ], [ 4.6506, 44.3298 ], [ 4.649, 44.3725 ], [ 4.6639, 44.3965 ], [ 4.6674, 44.4307 ], [ 4.6717, 44.4356 ], [ 4.6936, 44.4435 ], [ 4.7004, 44.4599 ], [ 4.6999, 44.4794 ], [ 4.689, 44.4929 ], [ 4.6882, 44.5055 ], [ 4.7074, 44.5339 ], [ 4.6936, 44.5422 ], [ 4.6928, 44.5585 ], [ 4.6982, 44.5643 ], [ 4.7024, 44.5595 ], [ 4.7048, 44.5619 ], [ 4.7103, 44.5816 ], [ 4.7415, 44.5893 ], [ 4.7444, 44.6008 ], [ 4.7404, 44.6024 ], [ 4.7791, 44.6547 ], [ 4.7757, 44.6649 ], [ 4.7811, 44.6828 ], [ 4.7633, 44.7173 ], [ 4.759, 44.748 ], [ 4.7693, 44.7602 ], [ 4.7609, 44.7717 ], [ 4.7662, 44.7786 ], [ 4.7828, 44.7831 ], [ 4.7957, 44.7938 ], [ 4.7999, 44.813 ], [ 4.8225, 44.8171 ], [ 4.8202, 44.8362 ], [ 4.8444, 44.846 ], [ 4.8448, 44.8582 ], [ 4.8609, 44.8737 ], [ 4.8547, 44.8898 ], [ 4.8559, 44.9014 ], [ 4.8682, 44.9091 ], [ 4.8866, 44.9366 ], [ 4.8757, 44.9552 ], [ 4.8602, 44.9659 ], [ 4.8526, 44.9795 ], [ 4.8513, 44.9947 ], [ 4.8362, 45.0079 ], [ 4.8456, 45.0201 ], [ 4.8403, 45.0358 ], [ 4.8608, 45.0554 ], [ 4.8545, 45.0634 ], [ 4.8299, 45.0718 ], [ 4.83, 45.0973 ], [ 4.8032, 45.125 ], [ 4.8045, 45.1332 ], [ 4.8244, 45.1484 ], [ 4.8291, 45.1567 ], [ 4.8093, 45.1688 ], [ 4.8122, 45.1823 ], [ 4.8048, 45.194 ], [ 4.8126, 45.2043 ], [ 4.8026, 45.2269 ], [ 4.8013, 45.2429 ], [ 4.8103, 45.2639 ], [ 4.8095, 45.2899 ], [ 4.8005, 45.2984 ] ], [ [ 4.909, 44.3773 ], [ 4.8695, 44.3451 ], [ 4.8797, 44.3453 ], [ 4.8953, 44.3381 ], [ 4.8942, 44.3329 ], [ 4.8895, 44.3331 ], [ 4.8816, 44.3249 ], [ 4.8914, 44.3134 ], [ 4.8917, 44.3043 ], [ 4.9222, 44.3088 ], [ 4.944, 44.3059 ], [ 4.9509, 44.3009 ], [ 4.957, 44.3024 ], [ 4.9595, 44.2987 ], [ 4.9797, 44.2975 ], [ 4.987, 44.2927 ], [ 4.9966, 44.3197 ], [ 5.0138, 44.3258 ], [ 5.009, 44.3338 ], [ 5.0233, 44.346 ], [ 5.0239, 44.3606 ], [ 5.055, 44.365 ], [ 5.0721, 44.3804 ], [ 5.0625, 44.3841 ], [ 5.0476, 44.3814 ], [ 5.0345, 44.3908 ], [ 5.0156, 44.393 ], [ 5.0133, 44.4054 ], [ 5.0202, 44.4103 ], [ 5.0188, 44.416 ], [ 5.0122, 44.4158 ], [ 5.01, 44.4108 ], [ 5.0011, 44.4126 ], [ 4.9886, 44.4232 ], [ 4.9787, 44.4235 ], [ 4.9704, 44.4314 ], [ 4.9605, 44.4201 ], [ 4.952, 44.4201 ], [ 4.9462, 44.4149 ], [ 4.9185, 44.4078 ], [ 4.9097, 44.3967 ], [ 4.909, 44.3773 ] ] ] } }
]
}
