{
"type": "FeatureCollection",
"name": "dep2A",
"crs": { "type": "name", "properties": { "name": "urn:ogc:def:crs:OGC:1.3:CRS84" } },
"xy_coordinate_resolution": 0.0001,
"features": [
{ "type": "Feature", "properties": { "code": "2A", "nom": "Corse-du-Sud" }, "geometry": { "type": "MultiPolygon", "coordinates": [ [ [ [ 8.5942, 41.8742 ], [ 8.5867, 41.876 ], [ 8.5979, 41.8821 ], [ 8.5942, 41.8742 ] ] ], [ [ [ 9.3742, 41.5585 ], [ 9.3708, 41.5604 ], [ 9.371, 41.5629 ], [ 9.3745, 41.5615 ], [ 9.3742, 41.5585 ] ] ], [ [ [ 8.5376, 42.3728 ], [ 8.5417, 42.3662 ], [ 8.5351, 42.3708 ], [ 8.5376, 42.3728 ] ] ], [ [ [ 9.2609, 41.3387 ], [ 9.259, 41.3336 ], [ 9.2498, 41.3433 ], [ 9.2592, 41.3474 ], [ 9.2564, 41.3411 ], [ 9.2609, 41.3387 ] ] ], [ [ [ 9.3591, 41.5483 ], [ 9.3618, 41.5537 ], [ 9.3649, 41.5526 ], [ 9.3632, 41.5497 ], [ 9.3591, 41.5483 ] ] ], [ [ [ 9.271, 41.365 ], [ 9.2675, 41.3663 ], [ 9.2666, 41.3624 ], [ 9.2504, 41.3686 ], [ 9.2585, 41.3742 ], [ 9.2615, 41.371 ], [ 9.2683, 41.3729 ], [ 9.2659, 41.3686 ], [ 9.2747, 41.3685 ], [ 9.271, 41.365 ] ] ], [ [ [ 9.2303, 41.3722 ], [ 9.2274, 41.3715 ], [ 9.2279, 41.3741 ], [ 9.2303, 41.3722 ] ] ], [ [ [ 9.355, 41.5404 ], [ 9.352, 41.5403 ], [ 9.3523, 41.5413 ], [ 9.355, 41.5404 ] ] ], [ [ [ 9.3965, 41.67 ], [ 9.3897, 41.6704 ], [ 9.3941, 41.6727 ], [ 9.3965, 41.67 ] ] ], [ [ [ 9.3632, 41.6341 ], [ 9.3609, 41.6332 ], [ 9.3613, 41.6345 ], [ 9.3632, 41.6341 ] ] ], [ [ [ 8.5734, 42.3814 ], [ 8.5871, 42.3789 ], [ 8.595, 42.3704 ], [ 8.6016, 42.369 ], [ 8.6181, 42.3749 ], [ 8.6237, 42.3713 ], [ 8.6407, 42.3737 ], [ 8.6501, 42.3623 ], [ 8.6644, 42.3585 ], [ 8.6827, 42.3595 ], [ 8.6835, 42.348 ], [ 8.7145, 42.3491 ], [ 8.7303, 42.3396 ], [ 8.759, 42.3381 ], [ 8.7709, 42.3248 ], [ 8.7895, 42.3265 ], [ 8.8199, 42.316 ], [ 8.8531, 42.3303 ], [ 8.8613, 42.3299 ], [ 8.859, 42.2999 ], [ 8.8775, 42.2932 ], [ 8.8862, 42.2838 ], [ 8.882, 42.2711 ], [ 8.9048, 42.2539 ], [ 8.9232, 42.2578 ], [ 8.9267, 42.2516 ], [ 8.9331, 42.2504 ], [ 8.9401, 42.2372 ], [ 8.9743, 42.2325 ], [ 8.9798, 42.224 ], [ 8.9836, 42.2252 ], [ 8.9947, 42.2143 ], [ 9.0033, 42.2141 ], [ 9.0065, 42.2087 ], [ 9.0216, 42.2031 ], [ 9.0457, 42.2069 ], [ 9.0511, 42.1877 ], [ 9.048, 42.175 ], [ 9.0506, 42.17 ], [ 9.0655, 42.1667 ], [ 9.0765, 42.1369 ], [ 9.072, 42.13 ], [ 9.0939, 42.1151 ], [ 9.1076, 42.1153 ], [ 9.125, 42.1049 ], [ 9.1348, 42.087 ], [ 9.128, 42.0665 ], [ 9.1335, 42.0592 ], [ 9.1309, 42.0544 ], [ 9.1521, 42.0403 ], [ 9.1615, 42.0249 ], [ 9.1889, 42.0314 ], [ 9.195, 42.0282 ], [ 9.2211, 42.0276 ], [ 9.2152, 41.9936 ], [ 9.2202, 41.9896 ], [ 9.2204, 41.9758 ], [ 9.2266, 41.9721 ], [ 9.2231, 41.9505 ], [ 9.2154, 41.942 ], [ 9.2305, 41.9323 ], [ 9.2133, 41.9175 ], [ 9.2179, 41.9134 ], [ 9.2328, 41.9162 ], [ 9.2484, 41.9099 ], [ 9.2522, 41.899 ], [ 9.235, 41.8793 ], [ 9.2365, 41.8739 ], [ 9.2275, 41.8556 ], [ 9.2322, 41.8498 ], [ 9.2369, 41.8465 ], [ 9.2446, 41.8504 ], [ 9.2684, 41.8398 ], [ 9.3014, 41.8449 ], [ 9.3079, 41.8416 ], [ 9.3091, 41.8322 ], [ 9.3172, 41.8325 ], [ 9.3299, 41.8368 ], [ 9.339, 41.8466 ], [ 9.3437, 41.844 ], [ 9.3537, 41.8551 ], [ 9.3698, 41.8609 ], [ 9.3761, 41.8675 ], [ 9.3782, 41.865 ], [ 9.3859, 41.8678 ], [ 9.4023, 41.8587 ], [ 9.406, 41.8178 ], [ 9.3941, 41.7979 ], [ 9.3999, 41.7895 ], [ 9.3959, 41.7744 ], [ 9.4039, 41.7737 ], [ 9.4082, 41.7664 ], [ 9.402, 41.7304 ], [ 9.4056, 41.7217 ], [ 9.4014, 41.7177 ], [ 9.4065, 41.7137 ], [ 9.4027, 41.712 ], [ 9.4002, 41.693 ], [ 9.3826, 41.6889 ], [ 9.3723, 41.6788 ], [ 9.3757, 41.6706 ], [ 9.3881, 41.6703 ], [ 9.3813, 41.6644 ], [ 9.3868, 41.6601 ], [ 9.3813, 41.651 ], [ 9.3855, 41.6463 ], [ 9.3771, 41.6481 ], [ 9.3704, 41.6366 ], [ 9.3644, 41.6362 ], [ 9.3579, 41.641 ], [ 9.3494, 41.6385 ], [ 9.3464, 41.63 ], [ 9.3533, 41.6274 ], [ 9.3546, 41.6166 ], [ 9.3354, 41.6215 ], [ 9.3201, 41.6151 ], [ 9.3163, 41.6172 ], [ 9.3258, 41.6183 ], [ 9.3076, 41.6283 ], [ 9.3062, 41.6152 ], [ 9.2878, 41.6091 ], [ 9.2874, 41.5988 ], [ 9.2809, 41.5972 ], [ 9.2851, 41.5957 ], [ 9.2832, 41.5899 ], [ 9.296, 41.5847 ], [ 9.3181, 41.6049 ], [ 9.334, 41.6032 ], [ 9.3405, 41.5942 ], [ 9.3686, 41.5974 ], [ 9.368, 41.5912 ], [ 9.3613, 41.5908 ], [ 9.3476, 41.5752 ], [ 9.3502, 41.5662 ], [ 9.3428, 41.5594 ], [ 9.3294, 41.5594 ], [ 9.3173, 41.5508 ], [ 9.3114, 41.5506 ], [ 9.309, 41.545 ], [ 9.3026, 41.5456 ], [ 9.2876, 41.5304 ], [ 9.2738, 41.5309 ], [ 9.2737, 41.5225 ], [ 9.2797, 41.5228 ], [ 9.2845, 41.5173 ], [ 9.2779, 41.5068 ], [ 9.2682, 41.5008 ], [ 9.2761, 41.4959 ], [ 9.2858, 41.4992 ], [ 9.2879, 41.4946 ], [ 9.2835, 41.4891 ], [ 9.2877, 41.4839 ], [ 9.2757, 41.4708 ], [ 9.2671, 41.4707 ], [ 9.2675, 41.4676 ], [ 9.2779, 41.4642 ], [ 9.2711, 41.4621 ], [ 9.2664, 41.4661 ], [ 9.2588, 41.4612 ], [ 9.2592, 41.4562 ], [ 9.2438, 41.4468 ], [ 9.2239, 41.4425 ], [ 9.2289, 41.4261 ], [ 9.2239, 41.4147 ], [ 9.2154, 41.4144 ], [ 9.2197, 41.4052 ], [ 9.2237, 41.4047 ], [ 9.2455, 41.4221 ], [ 9.2651, 41.4283 ], [ 9.2597, 41.4137 ], [ 9.2508, 41.4099 ], [ 9.2218, 41.3773 ], [ 9.22, 41.3674 ], [ 9.1803, 41.3662 ], [ 9.1672, 41.3856 ], [ 9.149, 41.3852 ], [ 9.15, 41.3886 ], [ 9.159, 41.3895 ], [ 9.1428, 41.3879 ], [ 9.1351, 41.3945 ], [ 9.1295, 41.3929 ], [ 9.1267, 41.3943 ], [ 9.1329, 41.3998 ], [ 9.0985, 41.3914 ], [ 9.0936, 41.3939 ], [ 9.0958, 41.3987 ], [ 9.0912, 41.4018 ], [ 9.095, 41.4118 ], [ 9.1089, 41.4199 ], [ 9.1043, 41.4255 ], [ 9.1182, 41.4339 ], [ 9.1224, 41.4415 ], [ 9.108, 41.441 ], [ 9.1065, 41.4457 ], [ 9.099, 41.4428 ], [ 9.0938, 41.4498 ], [ 9.0826, 41.4418 ], [ 9.0701, 41.4446 ], [ 9.0662, 41.451 ], [ 9.0675, 41.4655 ], [ 9.0799, 41.4775 ], [ 9.0687, 41.4754 ], [ 9.0549, 41.4614 ], [ 9.0418, 41.4568 ], [ 9.0374, 41.4704 ], [ 9.0225, 41.4626 ], [ 9.0255, 41.4659 ], [ 9.018, 41.4676 ], [ 9.0152, 41.4725 ], [ 9.0182, 41.4778 ], [ 9.003, 41.4751 ], [ 8.9959, 41.4853 ], [ 8.9835, 41.4738 ], [ 8.9728, 41.4852 ], [ 8.9658, 41.4827 ], [ 8.9664, 41.489 ], [ 8.9599, 41.4919 ], [ 8.9408, 41.4894 ], [ 8.9329, 41.4959 ], [ 8.9272, 41.4898 ], [ 8.92, 41.4891 ], [ 8.9208, 41.4981 ], [ 8.9147, 41.5072 ], [ 8.8999, 41.5089 ], [ 8.8833, 41.5052 ], [ 8.8817, 41.5083 ], [ 8.8905, 41.5164 ], [ 8.8778, 41.5238 ], [ 8.8555, 41.5179 ], [ 8.8409, 41.5197 ], [ 8.8431, 41.5263 ], [ 8.8556, 41.5343 ], [ 8.8511, 41.5388 ], [ 8.8533, 41.5471 ], [ 8.8466, 41.5409 ], [ 8.8429, 41.5469 ], [ 8.8218, 41.5444 ], [ 8.8084, 41.5562 ], [ 8.7888, 41.5573 ], [ 8.7822, 41.5663 ], [ 8.7882, 41.5642 ], [ 8.8026, 41.5757 ], [ 8.7915, 41.5793 ], [ 8.7916, 41.5871 ], [ 8.7831, 41.5853 ], [ 8.7821, 41.5903 ], [ 8.7741, 41.5923 ], [ 8.7871, 41.5973 ], [ 8.7917, 41.6109 ], [ 8.7857, 41.6184 ], [ 8.7947, 41.6238 ], [ 8.7912, 41.6275 ], [ 8.7943, 41.6327 ], [ 8.803, 41.6334 ], [ 8.8058, 41.6417 ], [ 8.812, 41.6309 ], [ 8.8205, 41.6297 ], [ 8.8296, 41.6383 ], [ 8.8472, 41.6426 ], [ 8.8512, 41.6479 ], [ 8.8724, 41.6472 ], [ 8.8812, 41.6702 ], [ 8.8976, 41.678 ], [ 8.9012, 41.676 ], [ 8.9134, 41.6798 ], [ 8.9169, 41.6834 ], [ 8.9135, 41.691 ], [ 8.8862, 41.6895 ], [ 8.8783, 41.696 ], [ 8.8434, 41.6968 ], [ 8.8127, 41.7141 ], [ 8.8067, 41.7099 ], [ 8.7952, 41.7096 ], [ 8.7922, 41.7012 ], [ 8.7828, 41.6992 ], [ 8.7879, 41.7085 ], [ 8.7712, 41.7136 ], [ 8.7846, 41.7323 ], [ 8.775, 41.7414 ], [ 8.7072, 41.7218 ], [ 8.703, 41.726 ], [ 8.7077, 41.736 ], [ 8.7046, 41.7394 ], [ 8.682, 41.7399 ], [ 8.6718, 41.7437 ], [ 8.6587, 41.7403 ], [ 8.6598, 41.7495 ], [ 8.6733, 41.7525 ], [ 8.6845, 41.747 ], [ 8.7035, 41.758 ], [ 8.708, 41.7574 ], [ 8.728, 41.7739 ], [ 8.7327, 41.7796 ], [ 8.7242, 41.7898 ], [ 8.7175, 41.7908 ], [ 8.7175, 41.7949 ], [ 8.7106, 41.7947 ], [ 8.7108, 41.801 ], [ 8.7178, 41.8039 ], [ 8.7212, 41.7978 ], [ 8.7393, 41.7974 ], [ 8.741, 41.805 ], [ 8.749, 41.8111 ], [ 8.7552, 41.8123 ], [ 8.7591, 41.8088 ], [ 8.7713, 41.8112 ], [ 8.7749, 41.8253 ], [ 8.7845, 41.8311 ], [ 8.7722, 41.8348 ], [ 8.7638, 41.8439 ], [ 8.7565, 41.8409 ], [ 8.7509, 41.8452 ], [ 8.7603, 41.8484 ], [ 8.7715, 41.8457 ], [ 8.7882, 41.8505 ], [ 8.7903, 41.8664 ], [ 8.7807, 41.8737 ], [ 8.7853, 41.8789 ], [ 8.7793, 41.8836 ], [ 8.7893, 41.8842 ], [ 8.8033, 41.8931 ], [ 8.7858, 41.9203 ], [ 8.7727, 41.9274 ], [ 8.7629, 41.9227 ], [ 8.7524, 41.9334 ], [ 8.7404, 41.9313 ], [ 8.7413, 41.9158 ], [ 8.731, 41.9159 ], [ 8.7194, 41.9081 ], [ 8.6876, 41.909 ], [ 8.6757, 41.9042 ], [ 8.6415, 41.9099 ], [ 8.6066, 41.8952 ], [ 8.6157, 41.9028 ], [ 8.6091, 41.9096 ], [ 8.6156, 41.9237 ], [ 8.6225, 41.9261 ], [ 8.6194, 41.9304 ], [ 8.6234, 41.9348 ], [ 8.6208, 41.9395 ], [ 8.6093, 41.9395 ], [ 8.6047, 41.9474 ], [ 8.6068, 41.9519 ], [ 8.5973, 41.9529 ], [ 8.5978, 41.9601 ], [ 8.5912, 41.9619 ], [ 8.5921, 41.9644 ], [ 8.6143, 41.9715 ], [ 8.6482, 41.9684 ], [ 8.6689, 41.9824 ], [ 8.6682, 41.9923 ], [ 8.6589, 41.9915 ], [ 8.6545, 41.9993 ], [ 8.66, 42.0123 ], [ 8.6851, 42.0264 ], [ 8.7165, 42.0296 ], [ 8.7252, 42.0345 ], [ 8.7234, 42.0423 ], [ 8.7413, 42.0409 ], [ 8.7469, 42.0488 ], [ 8.7378, 42.0652 ], [ 8.7189, 42.0638 ], [ 8.7148, 42.0815 ], [ 8.7049, 42.0875 ], [ 8.7102, 42.0948 ], [ 8.7003, 42.106 ], [ 8.7003, 42.1123 ], [ 8.6892, 42.1151 ], [ 8.6804, 42.1053 ], [ 8.6656, 42.1065 ], [ 8.6589, 42.1013 ], [ 8.6579, 42.1091 ], [ 8.647, 42.1211 ], [ 8.6364, 42.1194 ], [ 8.6341, 42.1238 ], [ 8.6239, 42.1226 ], [ 8.6121, 42.1346 ], [ 8.5799, 42.1294 ], [ 8.5937, 42.1444 ], [ 8.5855, 42.1517 ], [ 8.5733, 42.1523 ], [ 8.5588, 42.1463 ], [ 8.5609, 42.1511 ], [ 8.5718, 42.1566 ], [ 8.5769, 42.1555 ], [ 8.5934, 42.1683 ], [ 8.5885, 42.1714 ], [ 8.5714, 42.1691 ], [ 8.5611, 42.1716 ], [ 8.5659, 42.1777 ], [ 8.5851, 42.179 ], [ 8.5779, 42.1887 ], [ 8.5814, 42.2059 ], [ 8.5677, 42.2045 ], [ 8.57, 42.2131 ], [ 8.5771, 42.2143 ], [ 8.5671, 42.2196 ], [ 8.5738, 42.228 ], [ 8.5618, 42.2318 ], [ 8.5516, 42.2275 ], [ 8.5397, 42.2371 ], [ 8.546, 42.24 ], [ 8.5565, 42.2357 ], [ 8.573, 42.2386 ], [ 8.5803, 42.2451 ], [ 8.5924, 42.245 ], [ 8.6092, 42.2529 ], [ 8.6164, 42.2519 ], [ 8.6167, 42.2555 ], [ 8.626, 42.2516 ], [ 8.6394, 42.253 ], [ 8.6439, 42.2576 ], [ 8.6874, 42.2627 ], [ 8.6928, 42.2683 ], [ 8.6872, 42.282 ], [ 8.6787, 42.2807 ], [ 8.6743, 42.2838 ], [ 8.6776, 42.289 ], [ 8.6731, 42.2907 ], [ 8.6744, 42.2942 ], [ 8.6669, 42.2948 ], [ 8.6605, 42.3024 ], [ 8.6484, 42.3029 ], [ 8.6413, 42.2995 ], [ 8.637, 42.3044 ], [ 8.629, 42.3046 ], [ 8.628, 42.3121 ], [ 8.6073, 42.3065 ], [ 8.6016, 42.309 ], [ 8.6042, 42.3115 ], [ 8.5978, 42.3187 ], [ 8.6282, 42.332 ], [ 8.6289, 42.3391 ], [ 8.6177, 42.3414 ], [ 8.6149, 42.3496 ], [ 8.6127, 42.3463 ], [ 8.6002, 42.353 ], [ 8.5904, 42.3524 ], [ 8.5646, 42.333 ], [ 8.5541, 42.3334 ], [ 8.5593, 42.3447 ], [ 8.5537, 42.3432 ], [ 8.5513, 42.3464 ], [ 8.5577, 42.36 ], [ 8.5551, 42.3652 ], [ 8.5432, 42.3673 ], [ 8.5446, 42.3752 ], [ 8.5503, 42.379 ], [ 8.5536, 42.371 ], [ 8.5692, 42.3694 ], [ 8.5783, 42.3753 ], [ 8.5734, 42.3814 ] ] ] ] } }
]
}
