{
"type": "FeatureCollection",
"name": "dep23",
"crs": { "type": "name", "properties": { "name": "urn:ogc:def:crs:OGC:1.3:CRS84" } },
"xy_coordinate_resolution": 0.0001,
"features": [
{ "type": "Feature", "properties": { "code": "23", "nom": "Creuse" }, "geometry": { "type": "Polygon", "coordinates": [ [ [ 2.1459, 46.4244 ], [ 2.1852, 46.4233 ], [ 2.1993, 46.4283 ], [ 2.2142, 46.4232 ], [ 2.2283, 46.425 ], [ 2.2333, 46.4224 ], [ 2.2499, 46.4264 ], [ 2.2548, 46.423 ], [ 2.2811, 46.4204 ], [ 2.282, 46.4108 ], [ 2.2778, 46.4097 ], [ 2.2867, 46.3828 ], [ 2.2983, 46.3841 ], [ 2.3155, 46.3752 ], [ 2.3314, 46.3787 ], [ 2.3379, 46.3641 ], [ 2.3231, 46.3674 ], [ 2.3169, 46.3584 ], [ 2.3112, 46.3599 ], [ 2.3114, 46.3556 ], [ 2.3028, 46.3544 ], [ 2.3094, 46.3487 ], [ 2.301, 46.3422 ], [ 2.3116, 46.3418 ], [ 2.3213, 46.329 ], [ 2.3309, 46.3287 ], [ 2.3359, 46.3233 ], [ 2.3549, 46.3257 ], [ 2.365, 46.3107 ], [ 2.3758, 46.3158 ], [ 2.3796, 46.3276 ], [ 2.3861, 46.332 ], [ 2.4207, 46.3101 ], [ 2.4211, 46.3015 ], [ 2.4142, 46.2969 ], [ 2.4213, 46.2846 ], [ 2.428, 46.2853 ], [ 2.4319, 46.2944 ], [ 2.443, 46.295 ], [ 2.47, 46.2881 ], [ 2.4808, 46.281 ], [ 2.4771, 46.2694 ], [ 2.4892, 46.2475 ], [ 2.5036, 46.2469 ], [ 2.511, 46.2391 ], [ 2.5146, 46.2399 ], [ 2.5147, 46.2248 ], [ 2.5234, 46.2125 ], [ 2.5196, 46.2095 ], [ 2.5259, 46.2072 ], [ 2.5217, 46.203 ], [ 2.528, 46.1955 ], [ 2.526, 46.1877 ], [ 2.5432, 46.1756 ], [ 2.5513, 46.177 ], [ 2.5598, 46.1734 ], [ 2.5594, 46.1596 ], [ 2.5655, 46.154 ], [ 2.5663, 46.1438 ], [ 2.5586, 46.1379 ], [ 2.5617, 46.1333 ], [ 2.5566, 46.1336 ], [ 2.554, 46.1264 ], [ 2.5582, 46.1245 ], [ 2.5473, 46.113 ], [ 2.5518, 46.104 ], [ 2.5504, 46.0861 ], [ 2.5707, 46.0473 ], [ 2.6025, 46.0335 ], [ 2.5936, 45.9898 ], [ 2.6116, 45.9721 ], [ 2.609, 45.9667 ], [ 2.5636, 45.9556 ], [ 2.5699, 45.9472 ], [ 2.5516, 45.9413 ], [ 2.5536, 45.9358 ], [ 2.5443, 45.9324 ], [ 2.5415, 45.9215 ], [ 2.5439, 45.9158 ], [ 2.555, 45.9125 ], [ 2.5428, 45.9065 ], [ 2.5414, 45.901 ], [ 2.5288, 45.8996 ], [ 2.5147, 45.89 ], [ 2.5142, 45.8857 ], [ 2.5022, 45.8885 ], [ 2.5033, 45.8782 ], [ 2.4922, 45.864 ], [ 2.4797, 45.8645 ], [ 2.479, 45.8704 ], [ 2.4706, 45.8723 ], [ 2.4571, 45.8657 ], [ 2.4434, 45.8666 ], [ 2.4426, 45.8569 ], [ 2.4497, 45.8536 ], [ 2.4495, 45.8482 ], [ 2.4459, 45.845 ], [ 2.4342, 45.8453 ], [ 2.4309, 45.8338 ], [ 2.4159, 45.8337 ], [ 2.4037, 45.8384 ], [ 2.388, 45.8274 ], [ 2.4126, 45.8081 ], [ 2.4128, 45.8023 ], [ 2.4273, 45.7946 ], [ 2.4355, 45.767 ], [ 2.4445, 45.7582 ], [ 2.4505, 45.7572 ], [ 2.4548, 45.7612 ], [ 2.4687, 45.7563 ], [ 2.4744, 45.7457 ], [ 2.4848, 45.7485 ], [ 2.4916, 45.7422 ], [ 2.4921, 45.7377 ], [ 2.4703, 45.7278 ], [ 2.4729, 45.7191 ], [ 2.4634, 45.7178 ], [ 2.4542, 45.7079 ], [ 2.4437, 45.7078 ], [ 2.4359, 45.6993 ], [ 2.4103, 45.7096 ], [ 2.3868, 45.7076 ], [ 2.385, 45.7101 ], [ 2.3828, 45.7075 ], [ 2.3682, 45.7132 ], [ 2.3485, 45.7092 ], [ 2.3439, 45.7065 ], [ 2.3483, 45.6926 ], [ 2.3377, 45.6806 ], [ 2.3228, 45.6765 ], [ 2.3262, 45.6716 ], [ 2.3209, 45.6686 ], [ 2.3081, 45.6764 ], [ 2.2825, 45.664 ], [ 2.2689, 45.6634 ], [ 2.2711, 45.6916 ], [ 2.2529, 45.6888 ], [ 2.2454, 45.6953 ], [ 2.2358, 45.6943 ], [ 2.2318, 45.7001 ], [ 2.2236, 45.6958 ], [ 2.2115, 45.7128 ], [ 2.2108, 45.7019 ], [ 2.1945, 45.6986 ], [ 2.1914, 45.702 ], [ 2.1978, 45.705 ], [ 2.1987, 45.7121 ], [ 2.2077, 45.7156 ], [ 2.183, 45.7206 ], [ 2.1765, 45.7317 ], [ 2.1644, 45.7363 ], [ 2.1566, 45.7216 ], [ 2.1445, 45.7232 ], [ 2.1352, 45.7292 ], [ 2.1336, 45.7355 ], [ 2.1213, 45.7324 ], [ 2.1136, 45.7248 ], [ 2.097, 45.7342 ], [ 2.0847, 45.7281 ], [ 2.0839, 45.746 ], [ 2.0584, 45.7545 ], [ 2.0521, 45.7651 ], [ 2.0365, 45.7541 ], [ 2.0176, 45.7555 ], [ 2.0015, 45.7488 ], [ 1.999, 45.7322 ], [ 1.991, 45.7256 ], [ 1.9914, 45.7208 ], [ 1.9829, 45.7195 ], [ 1.9789, 45.7247 ], [ 1.9667, 45.7219 ], [ 1.9566, 45.7248 ], [ 1.9479, 45.7217 ], [ 1.9414, 45.7131 ], [ 1.9484, 45.7059 ], [ 1.933, 45.706 ], [ 1.9224, 45.7137 ], [ 1.9117, 45.7083 ], [ 1.9141, 45.7036 ], [ 1.9042, 45.7036 ], [ 1.8987, 45.6983 ], [ 1.8797, 45.7124 ], [ 1.8925, 45.7183 ], [ 1.8879, 45.7263 ], [ 1.8733, 45.7253 ], [ 1.8864, 45.7452 ], [ 1.8743, 45.7558 ], [ 1.8794, 45.7596 ], [ 1.896, 45.7594 ], [ 1.9024, 45.7674 ], [ 1.8919, 45.7686 ], [ 1.8869, 45.7916 ], [ 1.8638, 45.8064 ], [ 1.8565, 45.8051 ], [ 1.8541, 45.8128 ], [ 1.8465, 45.8099 ], [ 1.8365, 45.8254 ], [ 1.8296, 45.8211 ], [ 1.8284, 45.8098 ], [ 1.7973, 45.8259 ], [ 1.7975, 45.8315 ], [ 1.7877, 45.828 ], [ 1.7765, 45.8328 ], [ 1.773, 45.8455 ], [ 1.7815, 45.853 ], [ 1.7708, 45.8684 ], [ 1.7576, 45.8677 ], [ 1.7558, 45.8557 ], [ 1.7408, 45.8521 ], [ 1.7309, 45.8419 ], [ 1.7149, 45.8401 ], [ 1.6922, 45.8447 ], [ 1.68, 45.8363 ], [ 1.6753, 45.8354 ], [ 1.6691, 45.8403 ], [ 1.6599, 45.8338 ], [ 1.6548, 45.8455 ], [ 1.6367, 45.8456 ], [ 1.6024, 45.8575 ], [ 1.6083, 45.8674 ], [ 1.605, 45.8804 ], [ 1.6003, 45.8823 ], [ 1.5978, 45.8792 ], [ 1.591, 45.8831 ], [ 1.5978, 45.8898 ], [ 1.6159, 45.8921 ], [ 1.6193, 45.8883 ], [ 1.6137, 45.8827 ], [ 1.6188, 45.881 ], [ 1.6207, 45.8829 ], [ 1.6197, 45.8994 ], [ 1.6257, 45.8998 ], [ 1.6264, 45.8922 ], [ 1.6318, 45.8894 ], [ 1.6412, 45.8919 ], [ 1.6389, 45.9041 ], [ 1.6279, 45.9033 ], [ 1.6341, 45.9079 ], [ 1.6247, 45.9161 ], [ 1.6371, 45.926 ], [ 1.6257, 45.9261 ], [ 1.6293, 45.9314 ], [ 1.6206, 45.9341 ], [ 1.6184, 45.9287 ], [ 1.6071, 45.9335 ], [ 1.5863, 45.9295 ], [ 1.5793, 45.9313 ], [ 1.5757, 45.9213 ], [ 1.5808, 45.9177 ], [ 1.5671, 45.9138 ], [ 1.5583, 45.9221 ], [ 1.5473, 45.9168 ], [ 1.5305, 45.9318 ], [ 1.5094, 45.9328 ], [ 1.509, 45.9403 ], [ 1.522, 45.9428 ], [ 1.5154, 45.947 ], [ 1.5208, 45.9524 ], [ 1.5278, 45.9503 ], [ 1.555, 45.9646 ], [ 1.5662, 45.9633 ], [ 1.5774, 45.9777 ], [ 1.5677, 45.9971 ], [ 1.5584, 46.0 ], [ 1.5437, 45.9965 ], [ 1.534, 46.0035 ], [ 1.5364, 46.0263 ], [ 1.5485, 46.0348 ], [ 1.5366, 46.0451 ], [ 1.5319, 46.0574 ], [ 1.5434, 46.0769 ], [ 1.5387, 46.0798 ], [ 1.5266, 46.0784 ], [ 1.5244, 46.0866 ], [ 1.5297, 46.0906 ], [ 1.5261, 46.0889 ], [ 1.5125, 46.0936 ], [ 1.5137, 46.0898 ], [ 1.5049, 46.0881 ], [ 1.4985, 46.1065 ], [ 1.4843, 46.1046 ], [ 1.4914, 46.1196 ], [ 1.4989, 46.1163 ], [ 1.5074, 46.1246 ], [ 1.5033, 46.1315 ], [ 1.4947, 46.1312 ], [ 1.4975, 46.1428 ], [ 1.4848, 46.1348 ], [ 1.4727, 46.1496 ], [ 1.4681, 46.1517 ], [ 1.4599, 46.149 ], [ 1.4572, 46.1528 ], [ 1.4514, 46.1527 ], [ 1.4652, 46.1603 ], [ 1.4658, 46.167 ], [ 1.4565, 46.1734 ], [ 1.4618, 46.1778 ], [ 1.4526, 46.1812 ], [ 1.4372, 46.1741 ], [ 1.4328, 46.1803 ], [ 1.4166, 46.1762 ], [ 1.4138, 46.182 ], [ 1.3972, 46.1855 ], [ 1.3952, 46.1993 ], [ 1.3846, 46.1992 ], [ 1.3838, 46.2118 ], [ 1.3726, 46.216 ], [ 1.3797, 46.2194 ], [ 1.3818, 46.2268 ], [ 1.3944, 46.2329 ], [ 1.3966, 46.2404 ], [ 1.4181, 46.2411 ], [ 1.4205, 46.2488 ], [ 1.4141, 46.2495 ], [ 1.4156, 46.2549 ], [ 1.4065, 46.2528 ], [ 1.4044, 46.2619 ], [ 1.4105, 46.2636 ], [ 1.4147, 46.2714 ], [ 1.4231, 46.2668 ], [ 1.4309, 46.2676 ], [ 1.4349, 46.2719 ], [ 1.4314, 46.2781 ], [ 1.4197, 46.2773 ], [ 1.4142, 46.2805 ], [ 1.4212, 46.2842 ], [ 1.4266, 46.2989 ], [ 1.4397, 46.3002 ], [ 1.4448, 46.3053 ], [ 1.4366, 46.3122 ], [ 1.4452, 46.3344 ], [ 1.4301, 46.3336 ], [ 1.4095, 46.3435 ], [ 1.4206, 46.3511 ], [ 1.4404, 46.3564 ], [ 1.4349, 46.3647 ], [ 1.443, 46.3652 ], [ 1.4464, 46.375 ], [ 1.4653, 46.3748 ], [ 1.4777, 46.3939 ], [ 1.4929, 46.3983 ], [ 1.4979, 46.395 ], [ 1.5112, 46.4206 ], [ 1.5219, 46.4264 ], [ 1.534, 46.4263 ], [ 1.5359, 46.4207 ], [ 1.5441, 46.4191 ], [ 1.5478, 46.3933 ], [ 1.5786, 46.4105 ], [ 1.5876, 46.4071 ], [ 1.5954, 46.4086 ], [ 1.5986, 46.4191 ], [ 1.6093, 46.4231 ], [ 1.62, 46.4217 ], [ 1.6222, 46.4158 ], [ 1.6142, 46.3995 ], [ 1.6262, 46.394 ], [ 1.6268, 46.3885 ], [ 1.6398, 46.3851 ], [ 1.655, 46.3949 ], [ 1.6626, 46.4057 ], [ 1.6836, 46.4182 ], [ 1.7109, 46.3921 ], [ 1.727, 46.3902 ], [ 1.7506, 46.4056 ], [ 1.7487, 46.413 ], [ 1.7603, 46.4271 ], [ 1.7548, 46.4381 ], [ 1.7588, 46.4403 ], [ 1.7476, 46.45 ], [ 1.7865, 46.4552 ], [ 1.7984, 46.4548 ], [ 1.8031, 46.4469 ], [ 1.8173, 46.4398 ], [ 1.8195, 46.43 ], [ 1.8398, 46.4257 ], [ 1.8546, 46.4339 ], [ 1.8834, 46.4325 ], [ 1.8849, 46.4409 ], [ 1.9025, 46.4378 ], [ 1.9092, 46.4435 ], [ 1.9205, 46.4401 ], [ 1.9242, 46.432 ], [ 1.9788, 46.4415 ], [ 1.9931, 46.4309 ], [ 2.0203, 46.4294 ], [ 2.0452, 46.421 ], [ 2.0742, 46.4198 ], [ 2.0794, 46.4125 ], [ 2.0889, 46.4089 ], [ 2.1033, 46.4095 ], [ 2.1155, 46.4219 ], [ 2.127, 46.4191 ], [ 2.1459, 46.4244 ] ] ] } }
]
}
