{
"type": "FeatureCollection",
"name": "dep28",
"crs": { "type": "name", "properties": { "name": "urn:ogc:def:crs:OGC:1.3:CRS84" } },
"xy_coordinate_resolution": 0.0001,
"features": [
{ "type": "Feature", "properties": { "code": "28", "nom": "Eure-et-Loir" }, "geometry": { "type": "Polygon", "coordinates": [ [ [ 0.8097, 48.6624 ], [ 0.8277, 48.6807 ], [ 0.8408, 48.6784 ], [ 0.8639, 48.6876 ], [ 0.8604, 48.6923 ], [ 0.8688, 48.6988 ], [ 0.8726, 48.7132 ], [ 0.8906, 48.7204 ], [ 0.8996, 48.7105 ], [ 0.9201, 48.7124 ], [ 0.9212, 48.7092 ], [ 0.9497, 48.7146 ], [ 0.9614, 48.7257 ], [ 0.9783, 48.731 ], [ 0.9912, 48.7257 ], [ 1.0166, 48.7284 ], [ 1.0206, 48.7348 ], [ 1.034, 48.7285 ], [ 1.0378, 48.7315 ], [ 1.0339, 48.7394 ], [ 1.0644, 48.7594 ], [ 1.0697, 48.7488 ], [ 1.0826, 48.7517 ], [ 1.0865, 48.7572 ], [ 1.0957, 48.7487 ], [ 1.103, 48.7531 ], [ 1.1035, 48.749 ], [ 1.1145, 48.7471 ], [ 1.1182, 48.766 ], [ 1.1253, 48.7673 ], [ 1.1175, 48.7836 ], [ 1.1214, 48.7892 ], [ 1.1351, 48.7852 ], [ 1.1512, 48.7858 ], [ 1.1488, 48.7774 ], [ 1.163, 48.7693 ], [ 1.1864, 48.773 ], [ 1.2231, 48.758 ], [ 1.2328, 48.7634 ], [ 1.2247, 48.7633 ], [ 1.2226, 48.7673 ], [ 1.2462, 48.7696 ], [ 1.2561, 48.7659 ], [ 1.2545, 48.7586 ], [ 1.2605, 48.7578 ], [ 1.2702, 48.7575 ], [ 1.2709, 48.7627 ], [ 1.2969, 48.7682 ], [ 1.3298, 48.761 ], [ 1.3535, 48.7792 ], [ 1.366, 48.7839 ], [ 1.3748, 48.7812 ], [ 1.377, 48.7918 ], [ 1.3564, 48.816 ], [ 1.3614, 48.8336 ], [ 1.3889, 48.8456 ], [ 1.4043, 48.8606 ], [ 1.4239, 48.8613 ], [ 1.432, 48.8663 ], [ 1.4413, 48.865 ], [ 1.4654, 48.8776 ], [ 1.4713, 48.8978 ], [ 1.4614, 48.8996 ], [ 1.4605, 48.9101 ], [ 1.4552, 48.9133 ], [ 1.4593, 48.9147 ], [ 1.448, 48.9246 ], [ 1.4598, 48.9278 ], [ 1.4613, 48.9376 ], [ 1.4807, 48.9405 ], [ 1.4901, 48.9361 ], [ 1.5025, 48.9407 ], [ 1.512, 48.9345 ], [ 1.5073, 48.9276 ], [ 1.5142, 48.9219 ], [ 1.5186, 48.9254 ], [ 1.5384, 48.9225 ], [ 1.5453, 48.913 ], [ 1.5392, 48.9049 ], [ 1.5534, 48.8933 ], [ 1.5637, 48.8906 ], [ 1.5472, 48.8711 ], [ 1.5552, 48.8651 ], [ 1.5605, 48.8678 ], [ 1.584, 48.8605 ], [ 1.5773, 48.8444 ], [ 1.5978, 48.8391 ], [ 1.5939, 48.8337 ], [ 1.579, 48.8294 ], [ 1.5912, 48.8149 ], [ 1.5773, 48.8052 ], [ 1.581, 48.7937 ], [ 1.5753, 48.7912 ], [ 1.5766, 48.783 ], [ 1.5876, 48.7736 ], [ 1.5815, 48.7655 ], [ 1.5855, 48.7617 ], [ 1.6083, 48.7608 ], [ 1.6265, 48.748 ], [ 1.6203, 48.736 ], [ 1.6158, 48.7361 ], [ 1.5876, 48.7106 ], [ 1.5917, 48.7077 ], [ 1.5768, 48.7026 ], [ 1.5912, 48.6925 ], [ 1.5944, 48.6948 ], [ 1.6118, 48.6895 ], [ 1.6047, 48.6752 ], [ 1.608, 48.6723 ], [ 1.6013, 48.6683 ], [ 1.6031, 48.6624 ], [ 1.6212, 48.6496 ], [ 1.6432, 48.6513 ], [ 1.6383, 48.6451 ], [ 1.6504, 48.6374 ], [ 1.6496, 48.6323 ], [ 1.6582, 48.6276 ], [ 1.6552, 48.6227 ], [ 1.6662, 48.6137 ], [ 1.6679, 48.6171 ], [ 1.6744, 48.6147 ], [ 1.6849, 48.6198 ], [ 1.6906, 48.6174 ], [ 1.6823, 48.6156 ], [ 1.6871, 48.6112 ], [ 1.6926, 48.6146 ], [ 1.7028, 48.6118 ], [ 1.7147, 48.6147 ], [ 1.7188, 48.6057 ], [ 1.702, 48.585 ], [ 1.7103, 48.5814 ], [ 1.7093, 48.578 ], [ 1.7274, 48.5726 ], [ 1.7318, 48.5755 ], [ 1.7368, 48.5723 ], [ 1.7439, 48.5725 ], [ 1.7459, 48.5761 ], [ 1.7574, 48.575 ], [ 1.7653, 48.5694 ], [ 1.7627, 48.5651 ], [ 1.768, 48.559 ], [ 1.7782, 48.5526 ], [ 1.7872, 48.5537 ], [ 1.7757, 48.5277 ], [ 1.7768, 48.5093 ], [ 1.783, 48.5002 ], [ 1.789, 48.5002 ], [ 1.7856, 48.4901 ], [ 1.7963, 48.4842 ], [ 1.7916, 48.4812 ], [ 1.8032, 48.4726 ], [ 1.8014, 48.466 ], [ 1.8366, 48.4671 ], [ 1.8449, 48.4461 ], [ 1.8576, 48.4468 ], [ 1.8717, 48.4398 ], [ 1.9043, 48.4386 ], [ 1.9071, 48.4454 ], [ 1.9207, 48.4477 ], [ 1.9222, 48.4576 ], [ 1.9295, 48.457 ], [ 1.933, 48.442 ], [ 1.9429, 48.4411 ], [ 1.9363, 48.4348 ], [ 1.9396, 48.4196 ], [ 1.9322, 48.4204 ], [ 1.9319, 48.4163 ], [ 1.9276, 48.4163 ], [ 1.9259, 48.4127 ], [ 1.9327, 48.4107 ], [ 1.9284, 48.4061 ], [ 1.9321, 48.4034 ], [ 1.9464, 48.4063 ], [ 1.9782, 48.402 ], [ 1.9667, 48.3804 ], [ 1.9803, 48.3783 ], [ 1.978, 48.3689 ], [ 1.989, 48.3636 ], [ 1.9733, 48.3558 ], [ 1.9754, 48.3448 ], [ 1.9687, 48.3413 ], [ 1.9823, 48.3283 ], [ 1.9745, 48.3232 ], [ 1.9807, 48.3188 ], [ 1.9791, 48.3127 ], [ 1.9735, 48.3159 ], [ 1.9588, 48.3066 ], [ 1.9652, 48.2952 ], [ 1.9824, 48.2955 ], [ 1.9727, 48.2882 ], [ 1.9903, 48.2877 ], [ 1.9947, 48.2829 ], [ 1.9843, 48.264 ], [ 1.9655, 48.2555 ], [ 1.9623, 48.2469 ], [ 1.9666, 48.2351 ], [ 1.9626, 48.2226 ], [ 1.9796, 48.2039 ], [ 1.9708, 48.19 ], [ 1.9624, 48.1945 ], [ 1.9666, 48.2022 ], [ 1.9573, 48.2036 ], [ 1.9511, 48.1951 ], [ 1.9515, 48.1896 ], [ 1.971, 48.1831 ], [ 1.971, 48.1711 ], [ 1.945, 48.1747 ], [ 1.9409, 48.1677 ], [ 1.9251, 48.1745 ], [ 1.9143, 48.1675 ], [ 1.9033, 48.1528 ], [ 1.9053, 48.1463 ], [ 1.9204, 48.1464 ], [ 1.9126, 48.1291 ], [ 1.9019, 48.1311 ], [ 1.8844, 48.0977 ], [ 1.8735, 48.099 ], [ 1.8705, 48.0946 ], [ 1.8649, 48.0952 ], [ 1.8657, 48.0839 ], [ 1.8491, 48.0847 ], [ 1.8446, 48.089 ], [ 1.8376, 48.0871 ], [ 1.8381, 48.0808 ], [ 1.8303, 48.0816 ], [ 1.8298, 48.079 ], [ 1.8015, 48.0894 ], [ 1.798, 48.0769 ], [ 1.7884, 48.0775 ], [ 1.7841, 48.0726 ], [ 1.7801, 48.0774 ], [ 1.7715, 48.07 ], [ 1.7618, 48.0716 ], [ 1.755, 48.0648 ], [ 1.7493, 48.0678 ], [ 1.745, 48.0639 ], [ 1.7417, 48.0682 ], [ 1.731, 48.0672 ], [ 1.7257, 48.0705 ], [ 1.7193, 48.0662 ], [ 1.709, 48.067 ], [ 1.6889, 48.078 ], [ 1.679, 48.0658 ], [ 1.6754, 48.0672 ], [ 1.6705, 48.0624 ], [ 1.6668, 48.0647 ], [ 1.6695, 48.0697 ], [ 1.6602, 48.0763 ], [ 1.6472, 48.0695 ], [ 1.6241, 48.07 ], [ 1.6194, 48.0431 ], [ 1.5972, 48.0432 ], [ 1.5941, 48.0307 ], [ 1.5453, 48.0446 ], [ 1.539, 48.0386 ], [ 1.5508, 48.0352 ], [ 1.5471, 48.0296 ], [ 1.5225, 48.0346 ], [ 1.5126, 48.0281 ], [ 1.5179, 48.0118 ], [ 1.5267, 48.0073 ], [ 1.5171, 47.997 ], [ 1.5255, 47.9928 ], [ 1.5187, 47.99 ], [ 1.5201, 47.9823 ], [ 1.5031, 47.988 ], [ 1.4988, 47.9853 ], [ 1.4811, 47.9974 ], [ 1.4397, 48.0119 ], [ 1.4326, 48.0085 ], [ 1.4374, 48.0069 ], [ 1.4336, 47.9992 ], [ 1.4401, 47.9836 ], [ 1.4372, 47.9765 ], [ 1.4069, 47.9701 ], [ 1.3869, 47.9813 ], [ 1.3775, 47.9719 ], [ 1.37, 47.9537 ], [ 1.3459, 47.9651 ], [ 1.3437, 47.9575 ], [ 1.3086, 47.9539 ], [ 1.2996, 47.9682 ], [ 1.265, 47.9618 ], [ 1.258, 47.9739 ], [ 1.2468, 47.9796 ], [ 1.2241, 47.9764 ], [ 1.2096, 47.9685 ], [ 1.1961, 47.968 ], [ 1.1915, 47.972 ], [ 1.2026, 47.9774 ], [ 1.1913, 47.9841 ], [ 1.1871, 48.0024 ], [ 1.1698, 48.0065 ], [ 1.1696, 48.0112 ], [ 1.159, 48.0177 ], [ 1.1672, 48.02 ], [ 1.1666, 48.0274 ], [ 1.1439, 48.0287 ], [ 1.1227, 48.036 ], [ 1.1169, 48.0509 ], [ 1.1063, 48.0601 ], [ 1.1149, 48.0766 ], [ 1.1122, 48.0807 ], [ 1.0705, 48.0756 ], [ 1.0691, 48.0851 ], [ 1.0637, 48.0865 ], [ 1.0392, 48.0852 ], [ 1.026, 48.0884 ], [ 1.0086, 48.0831 ], [ 0.9922, 48.0918 ], [ 0.9909, 48.0969 ], [ 1.0035, 48.1054 ], [ 1.046, 48.1176 ], [ 1.0481, 48.1238 ], [ 1.0406, 48.1319 ], [ 1.014, 48.1327 ], [ 0.9955, 48.1273 ], [ 0.9571, 48.1042 ], [ 0.9551, 48.0992 ], [ 0.9466, 48.0976 ], [ 0.944, 48.1124 ], [ 0.9299, 48.1121 ], [ 0.9102, 48.1032 ], [ 0.8795, 48.1038 ], [ 0.8816, 48.1081 ], [ 0.8759, 48.1094 ], [ 0.8412, 48.1031 ], [ 0.8554, 48.1226 ], [ 0.8504, 48.1331 ], [ 0.9137, 48.135 ], [ 0.9167, 48.1389 ], [ 0.9093, 48.1439 ], [ 0.9116, 48.1489 ], [ 0.8878, 48.1615 ], [ 0.8689, 48.1633 ], [ 0.8599, 48.1676 ], [ 0.8395, 48.1657 ], [ 0.8133, 48.1808 ], [ 0.8111, 48.1857 ], [ 0.7956, 48.188 ], [ 0.7977, 48.1945 ], [ 0.8088, 48.1976 ], [ 0.8056, 48.2054 ], [ 0.8305, 48.2107 ], [ 0.7891, 48.2616 ], [ 0.7859, 48.2711 ], [ 0.7964, 48.2871 ], [ 0.8071, 48.2897 ], [ 0.7934, 48.293 ], [ 0.7783, 48.3033 ], [ 0.7557, 48.2998 ], [ 0.7854, 48.3404 ], [ 0.8069, 48.3441 ], [ 0.8122, 48.3495 ], [ 0.8285, 48.3425 ], [ 0.8424, 48.3467 ], [ 0.8399, 48.3527 ], [ 0.859, 48.3498 ], [ 0.8716, 48.3597 ], [ 0.8758, 48.3553 ], [ 0.8837, 48.3567 ], [ 0.9009, 48.3738 ], [ 0.9074, 48.3701 ], [ 0.9163, 48.3745 ], [ 0.9143, 48.3793 ], [ 0.9179, 48.3773 ], [ 0.929, 48.3904 ], [ 0.9406, 48.3984 ], [ 0.95, 48.3994 ], [ 0.9445, 48.4173 ], [ 0.9765, 48.4411 ], [ 0.9559, 48.4444 ], [ 0.939, 48.4608 ], [ 0.9357, 48.4755 ], [ 0.9563, 48.4823 ], [ 0.9554, 48.4926 ], [ 0.9416, 48.4987 ], [ 0.954, 48.5038 ], [ 0.9677, 48.5239 ], [ 0.9251, 48.5356 ], [ 0.9229, 48.5384 ], [ 0.9388, 48.5506 ], [ 0.9257, 48.5596 ], [ 0.8936, 48.5718 ], [ 0.8691, 48.5726 ], [ 0.8506, 48.5826 ], [ 0.8471, 48.6095 ], [ 0.8196, 48.6099 ], [ 0.8172, 48.6155 ], [ 0.83, 48.6323 ], [ 0.8219, 48.6361 ], [ 0.8252, 48.6486 ], [ 0.8188, 48.6583 ], [ 0.8097, 48.6624 ] ] ] } }
]
}
