{
"type": "FeatureCollection",
"name": "dep25",
"crs": { "type": "name", "properties": { "name": "urn:ogc:def:crs:OGC:1.3:CRS84" } },
"xy_coordinate_resolution": 0.0001,
"features": [
{ "type": "Feature", "properties": { "code": "25", "nom": "Doubs" }, "geometry": { "type": "Polygon", "coordinates": [ [ [ 6.807, 47.5628 ], [ 6.8167, 47.5479 ], [ 6.8608, 47.5475 ], [ 6.8835, 47.5553 ], [ 6.8898, 47.5501 ], [ 6.9017, 47.5499 ], [ 6.9163, 47.5311 ], [ 6.9076, 47.5259 ], [ 6.9365, 47.5179 ], [ 6.9497, 47.5087 ], [ 6.9454, 47.5052 ], [ 6.9477, 47.4897 ], [ 6.9427, 47.4849 ], [ 6.9352, 47.4856 ], [ 6.9302, 47.5004 ], [ 6.908, 47.4939 ], [ 6.9161, 47.4775 ], [ 6.9085, 47.4728 ], [ 6.9204, 47.4684 ], [ 6.922, 47.4625 ], [ 6.931, 47.4575 ], [ 6.9328, 47.4404 ], [ 6.9405, 47.4334 ], [ 6.9384, 47.406 ], [ 6.9145, 47.4041 ], [ 6.9154, 47.3971 ], [ 6.9095, 47.3962 ], [ 6.913, 47.3873 ], [ 6.8854, 47.3746 ], [ 6.8793, 47.3525 ], [ 6.9017, 47.3594 ], [ 6.9243, 47.3554 ], [ 6.9744, 47.3598 ], [ 6.9981, 47.3642 ], [ 7.0156, 47.3728 ], [ 7.0338, 47.3695 ], [ 7.0346, 47.3634 ], [ 7.0482, 47.3622 ], [ 7.0529, 47.3514 ], [ 7.0498, 47.3477 ], [ 7.0622, 47.3442 ], [ 7.0529, 47.3369 ], [ 7.0567, 47.3346 ], [ 7.0462, 47.327 ], [ 7.0338, 47.3285 ], [ 7.0097, 47.3244 ], [ 7.0161, 47.3136 ], [ 7.0092, 47.3022 ], [ 6.9971, 47.2959 ], [ 6.9772, 47.2966 ], [ 6.9737, 47.2913 ], [ 6.9536, 47.2924 ], [ 6.9409, 47.2867 ], [ 6.9517, 47.2702 ], [ 6.9464, 47.2539 ], [ 6.9554, 47.2433 ], [ 6.9431, 47.2381 ], [ 6.9407, 47.2318 ], [ 6.9275, 47.2285 ], [ 6.9236, 47.2219 ], [ 6.9095, 47.2178 ], [ 6.88, 47.2003 ], [ 6.8742, 47.1855 ], [ 6.8412, 47.1713 ], [ 6.8449, 47.1664 ], [ 6.8582, 47.1654 ], [ 6.8502, 47.1566 ], [ 6.816, 47.1359 ], [ 6.8076, 47.1346 ], [ 6.8057, 47.1304 ], [ 6.7657, 47.1205 ], [ 6.7405, 47.1095 ], [ 6.7464, 47.0981 ], [ 6.7411, 47.0911 ], [ 6.7258, 47.0918 ], [ 6.7028, 47.0816 ], [ 6.7075, 47.0794 ], [ 6.7061, 47.0739 ], [ 6.6917, 47.0665 ], [ 6.7186, 47.0508 ], [ 6.6966, 47.0374 ], [ 6.6754, 47.0345 ], [ 6.6587, 47.0266 ], [ 6.6403, 47.0028 ], [ 6.6173, 46.9916 ], [ 6.5961, 46.9925 ], [ 6.5642, 46.9796 ], [ 6.5052, 46.9659 ], [ 6.4967, 46.9742 ], [ 6.4496, 46.936 ], [ 6.4327, 46.9286 ], [ 6.4646, 46.8902 ], [ 6.4601, 46.8517 ], [ 6.4426, 46.8323 ], [ 6.4407, 46.8158 ], [ 6.431, 46.8124 ], [ 6.4348, 46.8015 ], [ 6.4586, 46.7885 ], [ 6.4522, 46.7741 ], [ 6.4302, 46.7567 ], [ 6.3951, 46.7482 ], [ 6.3841, 46.731 ], [ 6.3681, 46.7292 ], [ 6.3717, 46.7241 ], [ 6.3602, 46.7231 ], [ 6.3413, 46.7101 ], [ 6.282, 46.6906 ], [ 6.228, 46.6483 ], [ 6.1796, 46.6199 ], [ 6.1786, 46.6155 ], [ 6.1611, 46.6099 ], [ 6.1261, 46.5894 ], [ 6.1107, 46.5763 ], [ 6.1381, 46.5577 ], [ 6.1314, 46.5537 ], [ 6.0486, 46.6077 ], [ 6.0537, 46.6135 ], [ 6.0646, 46.6131 ], [ 6.0582, 46.6189 ], [ 6.0592, 46.6261 ], [ 6.0988, 46.6427 ], [ 6.0969, 46.6462 ], [ 6.1055, 46.6505 ], [ 6.0698, 46.6895 ], [ 6.1812, 46.7422 ], [ 6.1837, 46.755 ], [ 6.2072, 46.765 ], [ 6.2033, 46.7727 ], [ 6.1807, 46.7962 ], [ 6.1773, 46.7949 ], [ 6.1741, 46.8011 ], [ 6.1645, 46.8025 ], [ 6.1544, 46.8151 ], [ 6.1488, 46.816 ], [ 6.1518, 46.8207 ], [ 6.1133, 46.8362 ], [ 6.1056, 46.8453 ], [ 6.0867, 46.8432 ], [ 6.087, 46.85 ], [ 6.065, 46.8602 ], [ 6.0471, 46.8456 ], [ 6.0478, 46.8484 ], [ 6.0227, 46.8526 ], [ 6.0327, 46.8709 ], [ 6.0221, 46.8753 ], [ 6.0243, 46.8723 ], [ 6.0174, 46.8681 ], [ 6.0156, 46.8723 ], [ 6.0058, 46.873 ], [ 6.0122, 46.8903 ], [ 6.0084, 46.8955 ], [ 6.0001, 46.8962 ], [ 5.9813, 46.9079 ], [ 5.9814, 46.9186 ], [ 5.9972, 46.9335 ], [ 5.9565, 46.9485 ], [ 5.9798, 46.9635 ], [ 5.9729, 46.9693 ], [ 5.9757, 46.9759 ], [ 5.9688, 46.9761 ], [ 5.9686, 46.9804 ], [ 5.944, 46.9799 ], [ 5.9495, 46.99 ], [ 5.94, 46.9822 ], [ 5.9267, 46.9836 ], [ 5.9236, 46.9786 ], [ 5.9203, 46.9805 ], [ 5.9216, 46.9853 ], [ 5.913, 46.9894 ], [ 5.9214, 47.0142 ], [ 5.9161, 47.0131 ], [ 5.9111, 46.9995 ], [ 5.8987, 46.9988 ], [ 5.8971, 46.9958 ], [ 5.8866, 46.997 ], [ 5.8818, 47.005 ], [ 5.8765, 47.0059 ], [ 5.8557, 47.0088 ], [ 5.8469, 47.0031 ], [ 5.8475, 47.009 ], [ 5.8387, 47.0089 ], [ 5.8395, 47.0153 ], [ 5.8287, 47.0121 ], [ 5.8137, 47.0174 ], [ 5.8179, 47.0406 ], [ 5.8158, 47.0458 ], [ 5.8101, 47.0468 ], [ 5.7971, 47.0423 ], [ 5.7992, 47.0307 ], [ 5.7877, 47.0206 ], [ 5.7704, 47.0182 ], [ 5.7632, 47.0114 ], [ 5.7612, 47.0155 ], [ 5.7495, 47.0172 ], [ 5.7444, 47.0218 ], [ 5.7409, 47.0311 ], [ 5.7486, 47.0312 ], [ 5.7533, 47.0392 ], [ 5.737, 47.0498 ], [ 5.7368, 47.055 ], [ 5.7459, 47.0572 ], [ 5.7634, 47.0448 ], [ 5.7847, 47.0549 ], [ 5.7686, 47.0894 ], [ 5.771, 47.0944 ], [ 5.7794, 47.0979 ], [ 5.7873, 47.0956 ], [ 5.7928, 47.1065 ], [ 5.8033, 47.1119 ], [ 5.8161, 47.1343 ], [ 5.8281, 47.1412 ], [ 5.8137, 47.15 ], [ 5.8096, 47.1704 ], [ 5.7933, 47.1747 ], [ 5.7851, 47.1706 ], [ 5.7872, 47.1846 ], [ 5.7783, 47.1908 ], [ 5.7807, 47.193 ], [ 5.7616, 47.1933 ], [ 5.7572, 47.1967 ], [ 5.7607, 47.2022 ], [ 5.754, 47.2062 ], [ 5.7377, 47.2013 ], [ 5.7382, 47.2083 ], [ 5.7204, 47.2199 ], [ 5.7213, 47.2313 ], [ 5.714, 47.236 ], [ 5.7197, 47.2404 ], [ 5.6987, 47.265 ], [ 5.7138, 47.2707 ], [ 5.7337, 47.2673 ], [ 5.7323, 47.2636 ], [ 5.7381, 47.2668 ], [ 5.7444, 47.2646 ], [ 5.7511, 47.2738 ], [ 5.7711, 47.2771 ], [ 5.7861, 47.2915 ], [ 5.798, 47.2893 ], [ 5.8124, 47.2967 ], [ 5.8139, 47.2931 ], [ 5.844, 47.3 ], [ 5.8605, 47.3155 ], [ 5.8739, 47.314 ], [ 5.881, 47.321 ], [ 5.8867, 47.3205 ], [ 5.8977, 47.3105 ], [ 5.9024, 47.3155 ], [ 5.8961, 47.3277 ], [ 5.9029, 47.3339 ], [ 5.9209, 47.3276 ], [ 5.9315, 47.3288 ], [ 5.9254, 47.3367 ], [ 5.9267, 47.3448 ], [ 5.9608, 47.3406 ], [ 5.9796, 47.326 ], [ 5.9864, 47.331 ], [ 5.9931, 47.3287 ], [ 5.9982, 47.3405 ], [ 6.0183, 47.3314 ], [ 6.0389, 47.3455 ], [ 6.0484, 47.3464 ], [ 6.0521, 47.3522 ], [ 6.0541, 47.3492 ], [ 6.0749, 47.3512 ], [ 6.0807, 47.3548 ], [ 6.0815, 47.3709 ], [ 6.0863, 47.3731 ], [ 6.1006, 47.3716 ], [ 6.1025, 47.3613 ], [ 6.113, 47.3613 ], [ 6.1127, 47.3677 ], [ 6.1165, 47.365 ], [ 6.1197, 47.3685 ], [ 6.1067, 47.3771 ], [ 6.1113, 47.3797 ], [ 6.1051, 47.3778 ], [ 6.1044, 47.3844 ], [ 6.1135, 47.3872 ], [ 6.1206, 47.3956 ], [ 6.1356, 47.3868 ], [ 6.1681, 47.3883 ], [ 6.1616, 47.3924 ], [ 6.1684, 47.3928 ], [ 6.1692, 47.3893 ], [ 6.1777, 47.4018 ], [ 6.1905, 47.4022 ], [ 6.1893, 47.4056 ], [ 6.1711, 47.4087 ], [ 6.1758, 47.4168 ], [ 6.1928, 47.4131 ], [ 6.2035, 47.4304 ], [ 6.2263, 47.4218 ], [ 6.2327, 47.4138 ], [ 6.2416, 47.4107 ], [ 6.2438, 47.4137 ], [ 6.2334, 47.4297 ], [ 6.239, 47.4318 ], [ 6.2558, 47.4244 ], [ 6.2623, 47.4306 ], [ 6.2645, 47.4472 ], [ 6.2802, 47.444 ], [ 6.2872, 47.4462 ], [ 6.2831, 47.4511 ], [ 6.2864, 47.4605 ], [ 6.302, 47.4698 ], [ 6.3025, 47.4915 ], [ 6.3195, 47.4855 ], [ 6.3357, 47.5065 ], [ 6.3476, 47.5052 ], [ 6.3681, 47.5135 ], [ 6.39, 47.5059 ], [ 6.3934, 47.5166 ], [ 6.4113, 47.5223 ], [ 6.441, 47.5147 ], [ 6.4522, 47.5168 ], [ 6.4635, 47.5121 ], [ 6.4711, 47.4872 ], [ 6.4758, 47.4885 ], [ 6.4759, 47.4965 ], [ 6.4832, 47.4976 ], [ 6.4988, 47.5107 ], [ 6.5158, 47.4966 ], [ 6.5303, 47.5006 ], [ 6.5345, 47.5061 ], [ 6.556, 47.4904 ], [ 6.5582, 47.4968 ], [ 6.5735, 47.4955 ], [ 6.5836, 47.51 ], [ 6.5814, 47.5293 ], [ 6.5726, 47.527 ], [ 6.5677, 47.5313 ], [ 6.5818, 47.5399 ], [ 6.5814, 47.544 ], [ 6.5967, 47.5421 ], [ 6.6094, 47.5308 ], [ 6.6246, 47.5289 ], [ 6.6494, 47.5369 ], [ 6.6702, 47.5579 ], [ 6.652, 47.5724 ], [ 6.6601, 47.5799 ], [ 6.6638, 47.5769 ], [ 6.6583, 47.572 ], [ 6.6889, 47.5708 ], [ 6.6852, 47.5632 ], [ 6.6886, 47.5606 ], [ 6.7081, 47.558 ], [ 6.7195, 47.5525 ], [ 6.7223, 47.5595 ], [ 6.7397, 47.557 ], [ 6.7551, 47.5423 ], [ 6.773, 47.535 ], [ 6.7829, 47.5377 ], [ 6.7853, 47.5434 ], [ 6.797, 47.549 ], [ 6.8012, 47.5624 ], [ 6.807, 47.5628 ] ] ] } }
]
}
