{
"type": "FeatureCollection",
"name": "dep2B",
"crs": { "type": "name", "properties": { "name": "urn:ogc:def:crs:OGC:1.3:CRS84" } },
"xy_coordinate_resolution": 0.0001,
"features": [
{ "type": "Feature", "properties": { "code": "2B", "nom": "Haute-Corse" }, "geometry": { "type": "MultiPolygon", "coordinates": [ [ [ [ 9.4088, 43.0223 ], [ 9.4039, 43.0259 ], [ 9.4043, 43.0274 ], [ 9.4064, 43.0277 ], [ 9.4088, 43.0223 ] ] ], [ [ [ 9.3429, 42.9638 ], [ 9.3402, 42.9653 ], [ 9.3414, 42.9657 ], [ 9.3429, 42.9638 ] ] ], [ [ [ 9.4023, 41.8587 ], [ 9.3859, 41.8678 ], [ 9.3782, 41.865 ], [ 9.3761, 41.8675 ], [ 9.3698, 41.8609 ], [ 9.3537, 41.8551 ], [ 9.3437, 41.844 ], [ 9.339, 41.8466 ], [ 9.3299, 41.8368 ], [ 9.3172, 41.8325 ], [ 9.3091, 41.8322 ], [ 9.3079, 41.8416 ], [ 9.3014, 41.8449 ], [ 9.2684, 41.8398 ], [ 9.2446, 41.8504 ], [ 9.2369, 41.8465 ], [ 9.2322, 41.8498 ], [ 9.2275, 41.8556 ], [ 9.2365, 41.8739 ], [ 9.235, 41.8793 ], [ 9.2522, 41.899 ], [ 9.2484, 41.9099 ], [ 9.2328, 41.9162 ], [ 9.2179, 41.9134 ], [ 9.2133, 41.9175 ], [ 9.2305, 41.9323 ], [ 9.2154, 41.942 ], [ 9.2231, 41.9505 ], [ 9.2266, 41.9721 ], [ 9.2204, 41.9758 ], [ 9.2202, 41.9896 ], [ 9.2152, 41.9936 ], [ 9.2211, 42.0276 ], [ 9.195, 42.0282 ], [ 9.1889, 42.0314 ], [ 9.1615, 42.0249 ], [ 9.1521, 42.0403 ], [ 9.1309, 42.0544 ], [ 9.1335, 42.0592 ], [ 9.128, 42.0665 ], [ 9.1348, 42.087 ], [ 9.125, 42.1049 ], [ 9.1076, 42.1153 ], [ 9.0939, 42.1151 ], [ 9.072, 42.13 ], [ 9.0765, 42.1369 ], [ 9.0655, 42.1667 ], [ 9.0506, 42.17 ], [ 9.048, 42.175 ], [ 9.0511, 42.1877 ], [ 9.0457, 42.2069 ], [ 9.0216, 42.2031 ], [ 9.0065, 42.2087 ], [ 9.0033, 42.2141 ], [ 8.9947, 42.2143 ], [ 8.9836, 42.2252 ], [ 8.9798, 42.224 ], [ 8.9743, 42.2325 ], [ 8.9401, 42.2372 ], [ 8.9331, 42.2504 ], [ 8.9267, 42.2516 ], [ 8.9232, 42.2578 ], [ 8.9048, 42.2539 ], [ 8.882, 42.2711 ], [ 8.8862, 42.2838 ], [ 8.8775, 42.2932 ], [ 8.859, 42.2999 ], [ 8.8613, 42.3299 ], [ 8.8531, 42.3303 ], [ 8.8199, 42.316 ], [ 8.7895, 42.3265 ], [ 8.7709, 42.3248 ], [ 8.759, 42.3381 ], [ 8.7303, 42.3396 ], [ 8.7145, 42.3491 ], [ 8.6835, 42.348 ], [ 8.6827, 42.3595 ], [ 8.6644, 42.3585 ], [ 8.6501, 42.3623 ], [ 8.6407, 42.3737 ], [ 8.6237, 42.3713 ], [ 8.6181, 42.3749 ], [ 8.6016, 42.369 ], [ 8.595, 42.3704 ], [ 8.5871, 42.3789 ], [ 8.5734, 42.3814 ], [ 8.5837, 42.3817 ], [ 8.586, 42.3851 ], [ 8.5946, 42.3817 ], [ 8.6079, 42.3861 ], [ 8.6079, 42.3936 ], [ 8.602, 42.3974 ], [ 8.6117, 42.4032 ], [ 8.6017, 42.4087 ], [ 8.6086, 42.4113 ], [ 8.6061, 42.4165 ], [ 8.6205, 42.4174 ], [ 8.622, 42.4215 ], [ 8.641, 42.4181 ], [ 8.6458, 42.4131 ], [ 8.6568, 42.4168 ], [ 8.6637, 42.4345 ], [ 8.6482, 42.4423 ], [ 8.6683, 42.4448 ], [ 8.6699, 42.4504 ], [ 8.6647, 42.4568 ], [ 8.6797, 42.4701 ], [ 8.6748, 42.4762 ], [ 8.6512, 42.4736 ], [ 8.6502, 42.4789 ], [ 8.6636, 42.4905 ], [ 8.6667, 42.5156 ], [ 8.6744, 42.5187 ], [ 8.6826, 42.5148 ], [ 8.6954, 42.5207 ], [ 8.6993, 42.5268 ], [ 8.7067, 42.5232 ], [ 8.7202, 42.5254 ], [ 8.7144, 42.5309 ], [ 8.7171, 42.5335 ], [ 8.7103, 42.5357 ], [ 8.7227, 42.5452 ], [ 8.7166, 42.549 ], [ 8.7228, 42.5568 ], [ 8.7155, 42.5638 ], [ 8.7184, 42.5706 ], [ 8.7066, 42.5704 ], [ 8.7128, 42.574 ], [ 8.7092, 42.5767 ], [ 8.7253, 42.5845 ], [ 8.727, 42.5616 ], [ 8.74, 42.5685 ], [ 8.7446, 42.5669 ], [ 8.7558, 42.5714 ], [ 8.7623, 42.5697 ], [ 8.7562, 42.5637 ], [ 8.7604, 42.5586 ], [ 8.781, 42.5565 ], [ 8.8048, 42.5709 ], [ 8.8042, 42.5781 ], [ 8.7979, 42.5831 ], [ 8.8111, 42.5917 ], [ 8.8026, 42.6026 ], [ 8.8277, 42.6061 ], [ 8.8324, 42.6015 ], [ 8.8506, 42.6118 ], [ 8.8541, 42.6085 ], [ 8.8674, 42.6084 ], [ 8.8833, 42.6252 ], [ 8.8792, 42.6287 ], [ 8.9115, 42.629 ], [ 8.9225, 42.6394 ], [ 8.9343, 42.639 ], [ 8.9365, 42.6425 ], [ 8.9307, 42.6453 ], [ 8.9363, 42.6445 ], [ 8.9389, 42.6354 ], [ 8.9467, 42.6336 ], [ 8.9625, 42.6343 ], [ 8.9854, 42.6414 ], [ 8.9956, 42.6397 ], [ 9.0028, 42.6441 ], [ 9.0149, 42.6414 ], [ 9.0285, 42.6527 ], [ 9.0401, 42.6529 ], [ 9.0593, 42.6601 ], [ 9.0618, 42.6646 ], [ 9.0553, 42.6694 ], [ 9.0589, 42.6721 ], [ 9.0536, 42.681 ], [ 9.0601, 42.6829 ], [ 9.0571, 42.6955 ], [ 9.0702, 42.6922 ], [ 9.0843, 42.7055 ], [ 9.0858, 42.7149 ], [ 9.1004, 42.7156 ], [ 9.1068, 42.7245 ], [ 9.1122, 42.727 ], [ 9.118, 42.7245 ], [ 9.1246, 42.7316 ], [ 9.1351, 42.7285 ], [ 9.1432, 42.7338 ], [ 9.1486, 42.7313 ], [ 9.1629, 42.7367 ], [ 9.1981, 42.725 ], [ 9.2211, 42.7357 ], [ 9.2331, 42.7203 ], [ 9.2578, 42.7179 ], [ 9.254, 42.7062 ], [ 9.2603, 42.7002 ], [ 9.269, 42.7016 ], [ 9.2844, 42.6763 ], [ 9.2933, 42.6743 ], [ 9.301, 42.6783 ], [ 9.3003, 42.6833 ], [ 9.3228, 42.697 ], [ 9.3228, 42.717 ], [ 9.3346, 42.7226 ], [ 9.3451, 42.7364 ], [ 9.3375, 42.7638 ], [ 9.3417, 42.7701 ], [ 9.3416, 42.7976 ], [ 9.3095, 42.8338 ], [ 9.329, 42.8531 ], [ 9.3332, 42.8635 ], [ 9.3403, 42.8657 ], [ 9.329, 42.8738 ], [ 9.328, 42.8899 ], [ 9.321, 42.8936 ], [ 9.322, 42.9001 ], [ 9.3542, 42.9162 ], [ 9.3565, 42.9234 ], [ 9.3615, 42.9248 ], [ 9.3497, 42.9288 ], [ 9.359, 42.9454 ], [ 9.3471, 42.9528 ], [ 9.3456, 42.9577 ], [ 9.3499, 42.9609 ], [ 9.3457, 42.9635 ], [ 9.3505, 42.9683 ], [ 9.3415, 42.9805 ], [ 9.3455, 42.9861 ], [ 9.3402, 42.9931 ], [ 9.3577, 43.0073 ], [ 9.3756, 43.005 ], [ 9.3832, 43.0102 ], [ 9.4084, 43.0055 ], [ 9.4199, 43.0116 ], [ 9.4284, 43.0091 ], [ 9.4308, 43.0027 ], [ 9.441, 43.0011 ], [ 9.4437, 42.9934 ], [ 9.4635, 42.9864 ], [ 9.4541, 42.9731 ], [ 9.4577, 42.9658 ], [ 9.4531, 42.9659 ], [ 9.4516, 42.9618 ], [ 9.4694, 42.9363 ], [ 9.4651, 42.9322 ], [ 9.4725, 42.9237 ], [ 9.469, 42.9051 ], [ 9.4745, 42.9001 ], [ 9.4735, 42.8863 ], [ 9.4782, 42.8805 ], [ 9.4729, 42.8744 ], [ 9.4815, 42.8674 ], [ 9.4856, 42.8509 ], [ 9.4802, 42.8371 ], [ 9.4859, 42.8332 ], [ 9.4928, 42.8059 ], [ 9.4913, 42.7943 ], [ 9.4667, 42.7606 ], [ 9.4686, 42.7531 ], [ 9.4615, 42.7409 ], [ 9.4462, 42.6736 ], [ 9.4622, 42.6401 ], [ 9.5191, 42.5789 ], [ 9.5327, 42.548 ], [ 9.5347, 42.523 ], [ 9.5296, 42.4894 ], [ 9.5411, 42.4604 ], [ 9.5435, 42.4293 ], [ 9.5322, 42.3719 ], [ 9.5377, 42.3436 ], [ 9.56, 42.2823 ], [ 9.5525, 42.2331 ], [ 9.5591, 42.1967 ], [ 9.55, 42.1042 ], [ 9.417, 41.9612 ], [ 9.4117, 41.9472 ], [ 9.4161, 41.9284 ], [ 9.4137, 41.9151 ], [ 9.4021, 41.8972 ], [ 9.397, 41.8746 ], [ 9.4023, 41.8587 ] ] ] ] } }
]
}
