{
"type": "FeatureCollection",
"name": "dep22",
"crs": { "type": "name", "properties": { "name": "urn:ogc:def:crs:OGC:1.3:CRS84" } },
"xy_coordinate_resolution": 0.0001,
"features": [
{ "type": "Feature", "properties": { "code": "22", "nom": "Côtes-d'Armor" }, "geometry": { "type": "MultiPolygon", "coordinates": [ [ [ [ -3.4772, 48.8813 ], [ -3.4845, 48.8814 ], [ -3.486, 48.8832 ], [ -3.4783, 48.8844 ], [ -3.4772, 48.8813 ] ] ], [ [ [ -3.4359, 48.8988 ], [ -3.4392, 48.8992 ], [ -3.4356, 48.9006 ], [ -3.4359, 48.8988 ] ] ], [ [ [ -2.9821, 48.7961 ], [ -2.9828, 48.7995 ], [ -2.9764, 48.7984 ], [ -2.9766, 48.7972 ], [ -2.9821, 48.7961 ] ] ], [ [ [ -2.9779, 48.8463 ], [ -2.9809, 48.8468 ], [ -2.9802, 48.8483 ], [ -2.9779, 48.8463 ] ] ], [ [ [ -2.98, 48.8595 ], [ -2.9833, 48.859 ], [ -2.9812, 48.8608 ], [ -2.98, 48.8595 ] ] ], [ [ [ -3.4894, 48.878 ], [ -3.4949, 48.8791 ], [ -3.4885, 48.8793 ], [ -3.4894, 48.878 ] ] ], [ [ [ -2.951, 48.7799 ], [ -2.9468, 48.7805 ], [ -2.9462, 48.7799 ], [ -2.948, 48.7784 ], [ -2.951, 48.7799 ] ] ], [ [ [ -3.0198, 48.8392 ], [ -3.0211, 48.8444 ], [ -3.0188, 48.8453 ], [ -3.0156, 48.84 ], [ -3.0198, 48.8392 ] ] ], [ [ [ -2.9862, 48.8489 ], [ -2.9863, 48.845 ], [ -2.9886, 48.8486 ], [ -2.9862, 48.8489 ] ] ], [ [ [ -2.9885, 48.8392 ], [ -2.9923, 48.8399 ], [ -2.9886, 48.8404 ], [ -2.9885, 48.8392 ] ] ], [ [ [ -2.1938, 48.6184 ], [ -2.1955, 48.6207 ], [ -2.1868, 48.6269 ], [ -2.1868, 48.6228 ], [ -2.1938, 48.6184 ] ] ], [ [ [ -3.0023, 48.8363 ], [ -3.0025, 48.8401 ], [ -3.0115, 48.837 ], [ -3.0092, 48.8448 ], [ -3.0141, 48.8502 ], [ -2.9986, 48.8516 ], [ -3.0132, 48.8569 ], [ -2.9868, 48.8649 ], [ -2.9867, 48.8592 ], [ -2.995, 48.8596 ], [ -2.9974, 48.8508 ], [ -2.9933, 48.8487 ], [ -2.9981, 48.845 ], [ -2.9968, 48.8384 ], [ -3.0023, 48.8363 ] ] ], [ [ [ -3.5839, 48.7941 ], [ -3.5851, 48.8044 ], [ -3.5757, 48.8038 ], [ -3.5672, 48.808 ], [ -3.5649, 48.8006 ], [ -3.5741, 48.7964 ], [ -3.5784, 48.7987 ], [ -3.5801, 48.7987 ], [ -3.5839, 48.7941 ] ] ], [ [ [ -3.592, 48.7659 ], [ -3.5993, 48.7669 ], [ -3.6034, 48.771 ], [ -3.5958, 48.7698 ], [ -3.592, 48.7659 ] ] ], [ [ [ -3.5931, 48.7955 ], [ -3.5961, 48.7975 ], [ -3.6021, 48.7982 ], [ -3.5932, 48.8009 ], [ -3.5931, 48.7955 ] ] ], [ [ [ -3.6077, 48.796 ], [ -3.6091, 48.7939 ], [ -3.6119, 48.7961 ], [ -3.6077, 48.796 ] ] ], [ [ [ -3.0183, 48.8368 ], [ -3.0212, 48.8358 ], [ -3.0217, 48.8376 ], [ -3.0183, 48.8368 ] ] ], [ [ [ -3.5759, 48.7961 ], [ -3.5792, 48.7963 ], [ -3.5769, 48.7975 ], [ -3.5759, 48.7961 ] ] ], [ [ [ -3.1839, 48.8644 ], [ -3.1853, 48.8727 ], [ -3.1919, 48.8716 ], [ -3.1941, 48.8754 ], [ -3.1817, 48.8743 ], [ -3.1839, 48.8644 ] ] ], [ [ [ -3.4054, 48.8364 ], [ -3.4083, 48.8325 ], [ -3.41, 48.8399 ], [ -3.4054, 48.8364 ] ] ], [ [ [ -3.0385, 48.861 ], [ -3.0446, 48.8606 ], [ -3.032, 48.8627 ], [ -3.0385, 48.861 ] ] ], [ [ [ -3.2814, 48.8468 ], [ -3.2818, 48.8439 ], [ -3.2843, 48.8451 ], [ -3.2814, 48.8468 ] ] ], [ [ [ -3.195, 48.8655 ], [ -3.1982, 48.8643 ], [ -3.1964, 48.8677 ], [ -3.195, 48.8655 ] ] ], [ [ [ -3.3013, 48.8468 ], [ -3.3058, 48.8464 ], [ -3.3036, 48.8477 ], [ -3.3013, 48.8468 ] ] ], [ [ [ -3.2605, 48.8495 ], [ -3.2598, 48.8536 ], [ -3.2616, 48.8558 ], [ -3.2593, 48.8542 ], [ -3.2605, 48.8495 ] ] ], [ [ [ -3.2021, 48.8537 ], [ -3.2041, 48.8505 ], [ -3.2043, 48.8542 ], [ -3.2021, 48.8537 ] ] ], [ [ [ -3.5544, 48.8019 ], [ -3.5569, 48.8029 ], [ -3.5559, 48.8043 ], [ -3.5544, 48.8019 ] ] ], [ [ [ -3.307, 48.8446 ], [ -3.3101, 48.8466 ], [ -3.3097, 48.8479 ], [ -3.3074, 48.8474 ], [ -3.307, 48.8446 ] ] ], [ [ [ -3.2944, 48.8456 ], [ -3.2982, 48.8455 ], [ -3.298, 48.8463 ], [ -3.2944, 48.8456 ] ] ], [ [ [ -3.2717, 48.8389 ], [ -3.274, 48.839 ], [ -3.2724, 48.8408 ], [ -3.2717, 48.8389 ] ] ], [ [ [ -3.2927, 48.8375 ], [ -3.2954, 48.8387 ], [ -3.2938, 48.8392 ], [ -3.2927, 48.8375 ] ] ], [ [ [ -2.1237, 48.6044 ], [ -2.1247, 48.5914 ], [ -2.1019, 48.5757 ], [ -2.098, 48.5768 ], [ -2.095, 48.571 ], [ -2.076, 48.5677 ], [ -2.0584, 48.5704 ], [ -2.0572, 48.5665 ], [ -2.0448, 48.5642 ], [ -2.0453, 48.5574 ], [ -2.0536, 48.554 ], [ -2.0443, 48.5413 ], [ -2.0388, 48.542 ], [ -2.0303, 48.5549 ], [ -2.0224, 48.5531 ], [ -2.0165, 48.5625 ], [ -2.0041, 48.5687 ], [ -1.992, 48.5568 ], [ -1.9928, 48.5517 ], [ -1.9868, 48.5506 ], [ -1.9892, 48.5454 ], [ -1.9737, 48.5441 ], [ -1.9723, 48.5346 ], [ -1.9928, 48.5233 ], [ -1.9853, 48.5244 ], [ -1.9859, 48.5167 ], [ -1.98, 48.5162 ], [ -1.9857, 48.5116 ], [ -1.9824, 48.5006 ], [ -1.9948, 48.4976 ], [ -2.0017, 48.4917 ], [ -1.9816, 48.4984 ], [ -1.9813, 48.5096 ], [ -1.9701, 48.5122 ], [ -1.9707, 48.5219 ], [ -1.9647, 48.5263 ], [ -1.9578, 48.5253 ], [ -1.9525, 48.5183 ], [ -1.9482, 48.5192 ], [ -1.9546, 48.5219 ], [ -1.9507, 48.534 ], [ -1.9333, 48.5503 ], [ -1.9219, 48.5438 ], [ -1.9266, 48.5378 ], [ -1.9192, 48.5354 ], [ -1.9105, 48.5148 ], [ -1.9115, 48.5062 ], [ -1.9228, 48.5049 ], [ -1.9231, 48.4988 ], [ -1.909, 48.4816 ], [ -1.9285, 48.4755 ], [ -1.9328, 48.4703 ], [ -1.9242, 48.4625 ], [ -1.9263, 48.456 ], [ -1.9389, 48.447 ], [ -1.9486, 48.4465 ], [ -1.9522, 48.4304 ], [ -1.9368, 48.4201 ], [ -1.941, 48.4107 ], [ -1.9364, 48.4067 ], [ -1.9429, 48.4006 ], [ -1.93, 48.3948 ], [ -1.9398, 48.393 ], [ -1.9384, 48.3829 ], [ -1.946, 48.3802 ], [ -1.9471, 48.3667 ], [ -1.9428, 48.3604 ], [ -1.9331, 48.3607 ], [ -1.9291, 48.347 ], [ -1.9473, 48.3422 ], [ -1.9669, 48.3428 ], [ -1.954, 48.3156 ], [ -1.959, 48.3145 ], [ -1.9566, 48.307 ], [ -1.9682, 48.3033 ], [ -1.9564, 48.2964 ], [ -1.9646, 48.2904 ], [ -1.9751, 48.3017 ], [ -1.9932, 48.2989 ], [ -1.9994, 48.2904 ], [ -2.0049, 48.2916 ], [ -2.0022, 48.2805 ], [ -2.0141, 48.2795 ], [ -2.0493, 48.2899 ], [ -2.0472, 48.2945 ], [ -2.0533, 48.2983 ], [ -2.0795, 48.2928 ], [ -2.075, 48.2849 ], [ -2.0806, 48.277 ], [ -2.1105, 48.2751 ], [ -2.1145, 48.2707 ], [ -2.1094, 48.2676 ], [ -2.0958, 48.2668 ], [ -2.1037, 48.2579 ], [ -2.1112, 48.2574 ], [ -2.1066, 48.2518 ], [ -2.1241, 48.2595 ], [ -2.1544, 48.2612 ], [ -2.1868, 48.2478 ], [ -2.1909, 48.2254 ], [ -2.1845, 48.2102 ], [ -2.202, 48.2077 ], [ -2.2125, 48.214 ], [ -2.2282, 48.2102 ], [ -2.224, 48.2039 ], [ -2.2183, 48.2042 ], [ -2.223, 48.1741 ], [ -2.2285, 48.1651 ], [ -2.2445, 48.1613 ], [ -2.249, 48.1566 ], [ -2.2484, 48.1529 ], [ -2.2354, 48.1493 ], [ -2.2359, 48.1448 ], [ -2.2504, 48.1439 ], [ -2.2593, 48.1513 ], [ -2.2711, 48.1515 ], [ -2.2746, 48.1468 ], [ -2.2833, 48.1453 ], [ -2.2873, 48.1337 ], [ -2.2964, 48.1324 ], [ -2.2963, 48.135 ], [ -2.3077, 48.1368 ], [ -2.3212, 48.133 ], [ -2.323, 48.122 ], [ -2.3365, 48.1193 ], [ -2.3377, 48.1254 ], [ -2.3492, 48.1265 ], [ -2.3575, 48.1113 ], [ -2.3754, 48.127 ], [ -2.3744, 48.1402 ], [ -2.399, 48.1538 ], [ -2.4064, 48.1678 ], [ -2.4184, 48.1728 ], [ -2.4492, 48.173 ], [ -2.4533, 48.1637 ], [ -2.4718, 48.16 ], [ -2.4792, 48.1674 ], [ -2.4878, 48.1664 ], [ -2.4891, 48.1599 ], [ -2.4841, 48.1569 ], [ -2.4878, 48.1553 ], [ -2.5091, 48.1601 ], [ -2.5322, 48.1578 ], [ -2.5317, 48.1503 ], [ -2.5165, 48.142 ], [ -2.514, 48.1324 ], [ -2.5326, 48.1088 ], [ -2.5541, 48.0981 ], [ -2.5484, 48.0942 ], [ -2.5523, 48.0815 ], [ -2.5477, 48.0772 ], [ -2.5612, 48.0741 ], [ -2.565, 48.0673 ], [ -2.5773, 48.0709 ], [ -2.5906, 48.0557 ], [ -2.6282, 48.0338 ], [ -2.636, 48.0378 ], [ -2.6454, 48.0355 ], [ -2.6451, 48.0421 ], [ -2.6556, 48.0326 ], [ -2.6612, 48.0378 ], [ -2.6591, 48.0448 ], [ -2.6655, 48.0443 ], [ -2.6704, 48.0484 ], [ -2.6656, 48.0564 ], [ -2.673, 48.0627 ], [ -2.6649, 48.0693 ], [ -2.6623, 48.0819 ], [ -2.6562, 48.0843 ], [ -2.6567, 48.0926 ], [ -2.6503, 48.0979 ], [ -2.6568, 48.1069 ], [ -2.6523, 48.1071 ], [ -2.6516, 48.1123 ], [ -2.6572, 48.1153 ], [ -2.6523, 48.1188 ], [ -2.661, 48.1306 ], [ -2.6762, 48.1318 ], [ -2.7024, 48.1188 ], [ -2.704, 48.1124 ], [ -2.7248, 48.1142 ], [ -2.7244, 48.1174 ], [ -2.7446, 48.1131 ], [ -2.755, 48.1154 ], [ -2.76, 48.0984 ], [ -2.7731, 48.0864 ], [ -2.7777, 48.0904 ], [ -2.7736, 48.0959 ], [ -2.7791, 48.099 ], [ -2.7766, 48.1045 ], [ -2.7836, 48.111 ], [ -2.782, 48.1209 ], [ -2.7888, 48.1243 ], [ -2.7893, 48.1309 ], [ -2.8061, 48.1407 ], [ -2.8038, 48.1446 ], [ -2.8175, 48.147 ], [ -2.8435, 48.1404 ], [ -2.8529, 48.1416 ], [ -2.8822, 48.1528 ], [ -2.8914, 48.1647 ], [ -2.9027, 48.1628 ], [ -2.9397, 48.1716 ], [ -2.9613, 48.1699 ], [ -2.9821, 48.1604 ], [ -2.9998, 48.1607 ], [ -2.9956, 48.1707 ], [ -3.0118, 48.1721 ], [ -3.0126, 48.1853 ], [ -3.0204, 48.1924 ], [ -3.0149, 48.198 ], [ -3.0285, 48.1958 ], [ -3.0373, 48.204 ], [ -3.0477, 48.2026 ], [ -3.0565, 48.2069 ], [ -3.0694, 48.205 ], [ -3.078, 48.2109 ], [ -3.0937, 48.2019 ], [ -3.0964, 48.2057 ], [ -3.1153, 48.2068 ], [ -3.1203, 48.2004 ], [ -3.13, 48.2003 ], [ -3.1367, 48.1902 ], [ -3.1369, 48.1819 ], [ -3.1302, 48.1769 ], [ -3.1395, 48.1637 ], [ -3.1553, 48.1585 ], [ -3.1581, 48.1679 ], [ -3.1754, 48.1589 ], [ -3.1916, 48.1648 ], [ -3.2053, 48.1602 ], [ -3.2078, 48.154 ], [ -3.2144, 48.1544 ], [ -3.2122, 48.1429 ], [ -3.2411, 48.1516 ], [ -3.2566, 48.1481 ], [ -3.2595, 48.1433 ], [ -3.2679, 48.1453 ], [ -3.2722, 48.14 ], [ -3.2751, 48.1436 ], [ -3.2829, 48.1416 ], [ -3.2929, 48.1504 ], [ -3.2909, 48.153 ], [ -3.2973, 48.1514 ], [ -3.3001, 48.1548 ], [ -3.3161, 48.1555 ], [ -3.3181, 48.1489 ], [ -3.3254, 48.1502 ], [ -3.3236, 48.1607 ], [ -3.3377, 48.1708 ], [ -3.3439, 48.171 ], [ -3.3497, 48.1648 ], [ -3.3727, 48.1648 ], [ -3.3936, 48.1516 ], [ -3.4023, 48.1569 ], [ -3.4082, 48.1488 ], [ -3.4176, 48.1456 ], [ -3.4365, 48.1555 ], [ -3.4384, 48.1626 ], [ -3.4211, 48.1745 ], [ -3.4381, 48.1841 ], [ -3.4442, 48.1846 ], [ -3.4529, 48.1774 ], [ -3.4632, 48.181 ], [ -3.47, 48.1777 ], [ -3.4788, 48.1862 ], [ -3.5022, 48.1805 ], [ -3.5361, 48.1779 ], [ -3.5555, 48.1799 ], [ -3.566, 48.1869 ], [ -3.5667, 48.19 ], [ -3.5444, 48.1938 ], [ -3.5194, 48.1895 ], [ -3.5212, 48.2022 ], [ -3.5397, 48.2065 ], [ -3.5578, 48.2285 ], [ -3.553, 48.2343 ], [ -3.5561, 48.242 ], [ -3.5423, 48.2435 ], [ -3.5358, 48.2559 ], [ -3.5269, 48.2533 ], [ -3.5268, 48.2724 ], [ -3.5204, 48.2743 ], [ -3.5187, 48.2809 ], [ -3.555, 48.2937 ], [ -3.5525, 48.2994 ], [ -3.5409, 48.299 ], [ -3.5283, 48.3167 ], [ -3.5185, 48.3189 ], [ -3.5254, 48.3233 ], [ -3.541, 48.3117 ], [ -3.5509, 48.3151 ], [ -3.5554, 48.345 ], [ -3.5632, 48.3479 ], [ -3.5558, 48.3559 ], [ -3.5592, 48.366 ], [ -3.5517, 48.3712 ], [ -3.5543, 48.3789 ], [ -3.5658, 48.3796 ], [ -3.5677, 48.3767 ], [ -3.5733, 48.3809 ], [ -3.5865, 48.3811 ], [ -3.5941, 48.3864 ], [ -3.6077, 48.3883 ], [ -3.6011, 48.3936 ], [ -3.6005, 48.4216 ], [ -3.5856, 48.433 ], [ -3.5642, 48.4392 ], [ -3.5505, 48.4478 ], [ -3.5536, 48.4538 ], [ -3.5676, 48.4524 ], [ -3.5823, 48.4648 ], [ -3.5931, 48.4639 ], [ -3.6, 48.4785 ], [ -3.6076, 48.4784 ], [ -3.6013, 48.4849 ], [ -3.6045, 48.4958 ], [ -3.5842, 48.5045 ], [ -3.5581, 48.5288 ], [ -3.5411, 48.5371 ], [ -3.5524, 48.5406 ], [ -3.5715, 48.5583 ], [ -3.5817, 48.553 ], [ -3.5987, 48.5572 ], [ -3.5842, 48.5743 ], [ -3.5886, 48.5827 ], [ -3.6176, 48.5902 ], [ -3.6292, 48.5879 ], [ -3.6406, 48.5961 ], [ -3.6384, 48.6102 ], [ -3.6494, 48.6102 ], [ -3.6543, 48.617 ], [ -3.6654, 48.6532 ], [ -3.6544, 48.6642 ], [ -3.635, 48.6712 ], [ -3.6373, 48.6806 ], [ -3.624, 48.6862 ], [ -3.6165, 48.684 ], [ -3.6097, 48.6697 ], [ -3.5813, 48.67 ], [ -3.57, 48.6781 ], [ -3.5688, 48.6863 ], [ -3.5845, 48.6909 ], [ -3.5799, 48.6968 ], [ -3.5843, 48.7185 ], [ -3.5817, 48.7235 ], [ -3.566, 48.7262 ], [ -3.5649, 48.7314 ], [ -3.5554, 48.7275 ], [ -3.5496, 48.7467 ], [ -3.566, 48.7605 ], [ -3.585, 48.757 ], [ -3.5781, 48.7627 ], [ -3.5859, 48.7774 ], [ -3.5791, 48.7809 ], [ -3.5803, 48.7874 ], [ -3.5698, 48.7904 ], [ -3.567, 48.7979 ], [ -3.5544, 48.7916 ], [ -3.5412, 48.7986 ], [ -3.5424, 48.8015 ], [ -3.5352, 48.802 ], [ -3.5369, 48.8115 ], [ -3.5471, 48.8096 ], [ -3.548, 48.812 ], [ -3.5401, 48.8162 ], [ -3.5413, 48.8227 ], [ -3.5335, 48.8242 ], [ -3.5196, 48.819 ], [ -3.5255, 48.8228 ], [ -3.5257, 48.83 ], [ -3.5035, 48.8387 ], [ -3.5003, 48.8379 ], [ -3.5053, 48.8337 ], [ -3.5106, 48.8343 ], [ -3.5102, 48.8277 ], [ -3.5031, 48.8243 ], [ -3.5024, 48.8293 ], [ -3.4858, 48.8264 ], [ -3.4912, 48.832 ], [ -3.4808, 48.8378 ], [ -3.4604, 48.8168 ], [ -3.4282, 48.8204 ], [ -3.4268, 48.8172 ], [ -3.4375, 48.8106 ], [ -3.436, 48.8064 ], [ -3.4424, 48.805 ], [ -3.4406, 48.7983 ], [ -3.3975, 48.8008 ], [ -3.3874, 48.8049 ], [ -3.3892, 48.8157 ], [ -3.3736, 48.8165 ], [ -3.3625, 48.8217 ], [ -3.3526, 48.8205 ], [ -3.3495, 48.8253 ], [ -3.3344, 48.8289 ], [ -3.3221, 48.838 ], [ -3.3038, 48.836 ], [ -3.2931, 48.83 ], [ -3.2837, 48.8421 ], [ -3.2767, 48.8433 ], [ -3.2759, 48.8383 ], [ -3.2643, 48.8342 ], [ -3.2555, 48.8428 ], [ -3.2572, 48.848 ], [ -3.2348, 48.862 ], [ -3.2355, 48.8673 ], [ -3.2245, 48.8699 ], [ -3.211, 48.8548 ], [ -3.2123, 48.8498 ], [ -3.206, 48.8474 ], [ -3.2105, 48.8486 ], [ -3.2183, 48.8353 ], [ -3.2058, 48.8374 ], [ -3.2027, 48.8349 ], [ -3.2068, 48.814 ], [ -3.2269, 48.7987 ], [ -3.2258, 48.7941 ], [ -3.2367, 48.7888 ], [ -3.2297, 48.7918 ], [ -3.2197, 48.7838 ], [ -3.2236, 48.7964 ], [ -3.199, 48.8159 ], [ -3.1992, 48.8254 ], [ -3.1828, 48.8438 ], [ -3.1736, 48.8419 ], [ -3.1679, 48.8531 ], [ -3.1471, 48.8538 ], [ -3.1322, 48.8594 ], [ -3.1298, 48.8644 ], [ -3.095, 48.8694 ], [ -3.0742, 48.882 ], [ -3.0825, 48.8749 ], [ -3.0936, 48.8692 ], [ -3.1014, 48.8666 ], [ -3.0851, 48.8674 ], [ -3.076, 48.8577 ], [ -3.0788, 48.8563 ], [ -3.0865, 48.8635 ], [ -3.0935, 48.8607 ], [ -3.0842, 48.8472 ], [ -3.0975, 48.8324 ], [ -3.0839, 48.8335 ], [ -3.0792, 48.83 ], [ -3.0729, 48.8334 ], [ -3.0716, 48.8306 ], [ -3.0849, 48.8257 ], [ -3.0884, 48.8114 ], [ -3.0988, 48.8048 ], [ -3.0973, 48.7959 ], [ -3.1026, 48.788 ], [ -3.099, 48.7837 ], [ -3.1234, 48.7726 ], [ -3.1235, 48.7601 ], [ -3.1196, 48.7589 ], [ -3.1161, 48.7645 ], [ -3.0977, 48.7689 ], [ -3.1042, 48.7805 ], [ -3.095, 48.7813 ], [ -3.0882, 48.806 ], [ -3.0728, 48.8204 ], [ -3.0549, 48.8225 ], [ -3.0572, 48.8176 ], [ -3.0523, 48.8154 ], [ -3.0191, 48.8221 ], [ -3.009, 48.8197 ], [ -3.0168, 48.8104 ], [ -3.0024, 48.8036 ], [ -3.0049, 48.799 ], [ -3.0174, 48.7986 ], [ -3.025, 48.7914 ], [ -3.0398, 48.7899 ], [ -3.0464, 48.7856 ], [ -3.0099, 48.7822 ], [ -3.0287, 48.778 ], [ -3.0158, 48.7663 ], [ -2.9645, 48.7625 ], [ -2.9516, 48.7717 ], [ -2.9504, 48.7633 ], [ -2.9285, 48.7548 ], [ -2.9417, 48.7453 ], [ -2.9414, 48.7404 ], [ -2.9342, 48.7371 ], [ -2.9483, 48.7263 ], [ -2.9451, 48.7208 ], [ -2.9305, 48.7195 ], [ -2.927, 48.709 ], [ -2.9211, 48.706 ], [ -2.9043, 48.6995 ], [ -2.8905, 48.6988 ], [ -2.8833, 48.6903 ], [ -2.8872, 48.6848 ], [ -2.8831, 48.6755 ], [ -2.866, 48.6716 ], [ -2.8591, 48.6752 ], [ -2.8538, 48.6672 ], [ -2.8418, 48.6643 ], [ -2.8378, 48.656 ], [ -2.8265, 48.6554 ], [ -2.8232, 48.6242 ], [ -2.8141, 48.6102 ], [ -2.8239, 48.5972 ], [ -2.7932, 48.5849 ], [ -2.779, 48.5847 ], [ -2.7751, 48.572 ], [ -2.7646, 48.5669 ], [ -2.7143, 48.5556 ], [ -2.7248, 48.5469 ], [ -2.7181, 48.5396 ], [ -2.7211, 48.5313 ], [ -2.7103, 48.533 ], [ -2.7167, 48.5245 ], [ -2.6816, 48.4917 ], [ -2.6769, 48.4919 ], [ -2.6848, 48.4981 ], [ -2.6755, 48.5087 ], [ -2.6821, 48.532 ], [ -2.6695, 48.5357 ], [ -2.6547, 48.5251 ], [ -2.6303, 48.5261 ], [ -2.6325, 48.5373 ], [ -2.606, 48.5506 ], [ -2.5803, 48.5695 ], [ -2.5698, 48.5835 ], [ -2.5535, 48.5911 ], [ -2.5529, 48.5995 ], [ -2.5368, 48.5966 ], [ -2.5126, 48.6026 ], [ -2.4734, 48.6225 ], [ -2.4681, 48.6358 ], [ -2.4845, 48.6381 ], [ -2.4879, 48.6452 ], [ -2.477, 48.6443 ], [ -2.4676, 48.65 ], [ -2.4533, 48.6476 ], [ -2.4377, 48.6528 ], [ -2.4208, 48.6463 ], [ -2.4171, 48.6331 ], [ -2.4097, 48.6369 ], [ -2.4164, 48.6416 ], [ -2.3963, 48.6428 ], [ -2.3857, 48.6527 ], [ -2.3791, 48.6521 ], [ -2.3699, 48.6579 ], [ -2.3609, 48.6556 ], [ -2.3322, 48.6706 ], [ -2.3268, 48.6827 ], [ -2.3177, 48.6887 ], [ -2.3106, 48.6805 ], [ -2.3127, 48.6721 ], [ -2.2858, 48.6677 ], [ -2.2852, 48.6645 ], [ -2.3082, 48.6451 ], [ -2.3121, 48.6338 ], [ -2.3359, 48.62 ], [ -2.3211, 48.6178 ], [ -2.3166, 48.6104 ], [ -2.2975, 48.6264 ], [ -2.2927, 48.6241 ], [ -2.2873, 48.6317 ], [ -2.2741, 48.6365 ], [ -2.274, 48.6402 ], [ -2.2474, 48.6461 ], [ -2.2431, 48.644 ], [ -2.2562, 48.6357 ], [ -2.2547, 48.6326 ], [ -2.241, 48.624 ], [ -2.2456, 48.6152 ], [ -2.2289, 48.6112 ], [ -2.2228, 48.6024 ], [ -2.2244, 48.5948 ], [ -2.2141, 48.5929 ], [ -2.21, 48.5852 ], [ -2.2129, 48.5728 ], [ -2.1915, 48.5923 ], [ -2.1951, 48.609 ], [ -2.1846, 48.6059 ], [ -2.1831, 48.5913 ], [ -2.1881, 48.5838 ], [ -2.1769, 48.5762 ], [ -2.1643, 48.5798 ], [ -2.1572, 48.5884 ], [ -2.1704, 48.5966 ], [ -2.1641, 48.6073 ], [ -2.1523, 48.6101 ], [ -2.149, 48.6186 ], [ -2.1442, 48.6194 ], [ -2.1429, 48.6112 ], [ -2.1237, 48.6044 ] ] ] ] } }
]
}
