{
"type": "FeatureCollection",
"name": "dep27",
"crs": { "type": "name", "properties": { "name": "urn:ogc:def:crs:OGC:1.3:CRS84" } },
"xy_coordinate_resolution": 0.0001,
"features": [
{ "type": "Feature", "properties": { "code": "27", "nom": "Eure" }, "geometry": { "type": "Polygon", "coordinates": [ [ [ 0.2972, 49.4299 ], [ 0.3406, 49.4343 ], [ 0.339, 49.4409 ], [ 0.4145, 49.4537 ], [ 0.4901, 49.4836 ], [ 0.5025, 49.4851 ], [ 0.5249, 49.4779 ], [ 0.571, 49.4402 ], [ 0.5882, 49.4312 ], [ 0.6116, 49.4292 ], [ 0.6425, 49.4443 ], [ 0.6461, 49.4396 ], [ 0.6335, 49.4339 ], [ 0.6295, 49.4223 ], [ 0.6413, 49.4276 ], [ 0.645, 49.4261 ], [ 0.6398, 49.4192 ], [ 0.6443, 49.415 ], [ 0.6522, 49.4218 ], [ 0.6598, 49.4162 ], [ 0.6495, 49.4092 ], [ 0.6644, 49.4017 ], [ 0.6905, 49.4065 ], [ 0.7049, 49.4022 ], [ 0.708, 49.411 ], [ 0.7383, 49.4081 ], [ 0.7424, 49.413 ], [ 0.7595, 49.4147 ], [ 0.7649, 49.4196 ], [ 0.7756, 49.4175 ], [ 0.7831, 49.4108 ], [ 0.7979, 49.4175 ], [ 0.805, 49.4116 ], [ 0.7993, 49.4269 ], [ 0.8028, 49.4273 ], [ 0.8108, 49.4046 ], [ 0.8211, 49.397 ], [ 0.8453, 49.392 ], [ 0.8785, 49.3963 ], [ 0.8739, 49.3909 ], [ 0.8857, 49.388 ], [ 0.8793, 49.3735 ], [ 0.8929, 49.3722 ], [ 0.8957, 49.3797 ], [ 0.9181, 49.3855 ], [ 0.9243, 49.3589 ], [ 0.9213, 49.3524 ], [ 0.9305, 49.3434 ], [ 0.9208, 49.3382 ], [ 0.882, 49.3477 ], [ 0.8708, 49.3419 ], [ 0.8601, 49.3463 ], [ 0.8592, 49.3396 ], [ 0.8478, 49.336 ], [ 0.8527, 49.3315 ], [ 0.8417, 49.3294 ], [ 0.8451, 49.3242 ], [ 0.8619, 49.326 ], [ 0.8875, 49.3191 ], [ 0.8919, 49.3142 ], [ 0.8983, 49.3167 ], [ 0.8926, 49.3032 ], [ 0.9017, 49.2979 ], [ 0.9104, 49.2985 ], [ 0.9073, 49.3078 ], [ 0.9289, 49.3139 ], [ 0.9402, 49.3229 ], [ 0.9499, 49.2969 ], [ 0.9526, 49.2941 ], [ 0.9634, 49.2945 ], [ 0.9577, 49.2893 ], [ 0.9655, 49.2864 ], [ 0.959, 49.2867 ], [ 0.956, 49.28 ], [ 0.9492, 49.2792 ], [ 0.9558, 49.2714 ], [ 0.9733, 49.2799 ], [ 0.9755, 49.272 ], [ 0.9873, 49.268 ], [ 0.9851, 49.2609 ], [ 1.0069, 49.2649 ], [ 1.0084, 49.2628 ], [ 0.992, 49.258 ], [ 0.9928, 49.2532 ], [ 1.0055, 49.2508 ], [ 1.0276, 49.2596 ], [ 1.0412, 49.2585 ], [ 1.0495, 49.2634 ], [ 1.0627, 49.259 ], [ 1.0651, 49.2629 ], [ 1.0562, 49.2664 ], [ 1.052, 49.2731 ], [ 1.0688, 49.2763 ], [ 1.0482, 49.2979 ], [ 1.0807, 49.3088 ], [ 1.134, 49.3098 ], [ 1.1347, 49.3246 ], [ 1.1451, 49.3298 ], [ 1.1455, 49.3355 ], [ 1.1541, 49.3355 ], [ 1.1601, 49.3418 ], [ 1.1668, 49.3414 ], [ 1.1686, 49.336 ], [ 1.172, 49.3417 ], [ 1.1827, 49.3438 ], [ 1.1875, 49.3412 ], [ 1.1849, 49.3381 ], [ 1.2007, 49.3392 ], [ 1.2031, 49.3365 ], [ 1.1995, 49.3511 ], [ 1.2096, 49.3524 ], [ 1.2186, 49.3486 ], [ 1.2721, 49.3463 ], [ 1.2722, 49.3571 ], [ 1.2817, 49.3568 ], [ 1.2899, 49.3757 ], [ 1.2855, 49.3882 ], [ 1.2915, 49.3883 ], [ 1.2932, 49.395 ], [ 1.3081, 49.3954 ], [ 1.3143, 49.4154 ], [ 1.3096, 49.4287 ], [ 1.3273, 49.4315 ], [ 1.3367, 49.4277 ], [ 1.3375, 49.4389 ], [ 1.3472, 49.4346 ], [ 1.3507, 49.4382 ], [ 1.3412, 49.4426 ], [ 1.3452, 49.4481 ], [ 1.361, 49.4482 ], [ 1.3758, 49.4531 ], [ 1.3874, 49.463 ], [ 1.3911, 49.4606 ], [ 1.3824, 49.4532 ], [ 1.3841, 49.4485 ], [ 1.3927, 49.449 ], [ 1.4003, 49.4568 ], [ 1.4357, 49.4551 ], [ 1.4486, 49.45 ], [ 1.4772, 49.4513 ], [ 1.4958, 49.4463 ], [ 1.5042, 49.438 ], [ 1.5296, 49.4423 ], [ 1.5372, 49.4301 ], [ 1.5473, 49.4364 ], [ 1.5471, 49.4409 ], [ 1.5762, 49.4401 ], [ 1.6045, 49.4117 ], [ 1.6144, 49.41 ], [ 1.6221, 49.4158 ], [ 1.6282, 49.4151 ], [ 1.6279, 49.4107 ], [ 1.6562, 49.3995 ], [ 1.668, 49.407 ], [ 1.6806, 49.4061 ], [ 1.6943, 49.3949 ], [ 1.6986, 49.3989 ], [ 1.6944, 49.4011 ], [ 1.7045, 49.4107 ], [ 1.707, 49.4065 ], [ 1.7139, 49.4092 ], [ 1.719, 49.4034 ], [ 1.7376, 49.4071 ], [ 1.7404, 49.4057 ], [ 1.7205, 49.394 ], [ 1.7302, 49.3907 ], [ 1.7449, 49.38 ], [ 1.7476, 49.372 ], [ 1.761, 49.3662 ], [ 1.7582, 49.3562 ], [ 1.7675, 49.34 ], [ 1.7742, 49.3372 ], [ 1.7675, 49.3205 ], [ 1.7753, 49.3057 ], [ 1.7725, 49.2911 ], [ 1.7844, 49.2932 ], [ 1.7915, 49.288 ], [ 1.7975, 49.2884 ], [ 1.7932, 49.2743 ], [ 1.8027, 49.2719 ], [ 1.7898, 49.2538 ], [ 1.7906, 49.2466 ], [ 1.7669, 49.252 ], [ 1.767, 49.2615 ], [ 1.757, 49.266 ], [ 1.7587, 49.2724 ], [ 1.7499, 49.2675 ], [ 1.7367, 49.2702 ], [ 1.7265, 49.2648 ], [ 1.7092, 49.2645 ], [ 1.7077, 49.255 ], [ 1.6987, 49.2467 ], [ 1.7041, 49.2293 ], [ 1.6722, 49.2062 ], [ 1.6769, 49.2032 ], [ 1.6691, 49.1867 ], [ 1.6718, 49.1809 ], [ 1.6664, 49.1769 ], [ 1.6702, 49.1695 ], [ 1.661, 49.1578 ], [ 1.6644, 49.1534 ], [ 1.6531, 49.1446 ], [ 1.6577, 49.1319 ], [ 1.6186, 49.097 ], [ 1.6233, 49.0861 ], [ 1.6088, 49.0779 ], [ 1.6051, 49.0852 ], [ 1.5734, 49.0785 ], [ 1.5581, 49.0692 ], [ 1.5413, 49.0737 ], [ 1.5213, 49.0684 ], [ 1.5159, 49.0809 ], [ 1.5079, 49.0854 ], [ 1.5143, 49.0794 ], [ 1.5033, 49.0591 ], [ 1.4874, 49.0517 ], [ 1.4803, 49.052 ], [ 1.4617, 49.0641 ], [ 1.4473, 49.0535 ], [ 1.4528, 49.0505 ], [ 1.4465, 49.0464 ], [ 1.458, 49.0348 ], [ 1.4578, 49.0263 ], [ 1.4749, 49.0177 ], [ 1.4741, 49.0096 ], [ 1.48, 49.0075 ], [ 1.4788, 48.9989 ], [ 1.4691, 48.9935 ], [ 1.4715, 48.9897 ], [ 1.4609, 48.9864 ], [ 1.4709, 48.9748 ], [ 1.4786, 48.9805 ], [ 1.4984, 48.9792 ], [ 1.5079, 48.9838 ], [ 1.5184, 48.9784 ], [ 1.4919, 48.9644 ], [ 1.4994, 48.9605 ], [ 1.495, 48.9568 ], [ 1.5011, 48.9527 ], [ 1.511, 48.9536 ], [ 1.4987, 48.9388 ], [ 1.4901, 48.9361 ], [ 1.4807, 48.9405 ], [ 1.4613, 48.9376 ], [ 1.4598, 48.9278 ], [ 1.448, 48.9246 ], [ 1.4593, 48.9147 ], [ 1.4552, 48.9133 ], [ 1.4605, 48.9101 ], [ 1.4614, 48.8996 ], [ 1.4713, 48.8978 ], [ 1.4606, 48.8723 ], [ 1.4413, 48.865 ], [ 1.4285, 48.8654 ], [ 1.4239, 48.8613 ], [ 1.4043, 48.8606 ], [ 1.3889, 48.8456 ], [ 1.3614, 48.8336 ], [ 1.3564, 48.816 ], [ 1.377, 48.7918 ], [ 1.3748, 48.7812 ], [ 1.366, 48.7839 ], [ 1.3535, 48.7792 ], [ 1.3275, 48.7604 ], [ 1.2969, 48.7682 ], [ 1.2709, 48.7627 ], [ 1.2702, 48.7575 ], [ 1.2605, 48.7578 ], [ 1.2545, 48.7586 ], [ 1.2561, 48.7659 ], [ 1.2462, 48.7696 ], [ 1.2226, 48.7673 ], [ 1.2247, 48.7633 ], [ 1.2328, 48.7634 ], [ 1.2231, 48.758 ], [ 1.1864, 48.773 ], [ 1.163, 48.7693 ], [ 1.1488, 48.7774 ], [ 1.1512, 48.7858 ], [ 1.1351, 48.7852 ], [ 1.1214, 48.7892 ], [ 1.1175, 48.7836 ], [ 1.1253, 48.7673 ], [ 1.1182, 48.766 ], [ 1.1145, 48.7471 ], [ 1.1035, 48.749 ], [ 1.103, 48.7531 ], [ 1.0957, 48.7487 ], [ 1.0865, 48.7572 ], [ 1.0826, 48.7517 ], [ 1.0697, 48.7488 ], [ 1.0644, 48.7594 ], [ 1.0339, 48.7394 ], [ 1.0378, 48.7315 ], [ 1.034, 48.7285 ], [ 1.0206, 48.7348 ], [ 1.0166, 48.7284 ], [ 0.9912, 48.7257 ], [ 0.9783, 48.731 ], [ 0.9614, 48.7257 ], [ 0.9497, 48.7146 ], [ 0.9212, 48.7092 ], [ 0.9201, 48.7124 ], [ 0.8996, 48.7105 ], [ 0.8906, 48.7204 ], [ 0.8726, 48.7132 ], [ 0.8688, 48.6988 ], [ 0.8604, 48.6923 ], [ 0.8639, 48.6876 ], [ 0.8408, 48.6784 ], [ 0.8277, 48.6807 ], [ 0.8148, 48.6702 ], [ 0.792, 48.6745 ], [ 0.7809, 48.6665 ], [ 0.7687, 48.6699 ], [ 0.7648, 48.6753 ], [ 0.7691, 48.6785 ], [ 0.7615, 48.6801 ], [ 0.766, 48.6968 ], [ 0.7527, 48.7041 ], [ 0.7318, 48.7032 ], [ 0.7288, 48.7069 ], [ 0.7436, 48.717 ], [ 0.7591, 48.7202 ], [ 0.7605, 48.7282 ], [ 0.775, 48.7375 ], [ 0.7495, 48.7607 ], [ 0.7584, 48.768 ], [ 0.7396, 48.777 ], [ 0.7319, 48.7855 ], [ 0.7203, 48.7879 ], [ 0.7155, 48.7854 ], [ 0.6955, 48.7951 ], [ 0.6893, 48.7934 ], [ 0.6651, 48.8099 ], [ 0.6431, 48.8162 ], [ 0.6221, 48.8296 ], [ 0.6079, 48.8325 ], [ 0.6202, 48.8469 ], [ 0.6362, 48.8543 ], [ 0.6094, 48.8533 ], [ 0.6121, 48.8575 ], [ 0.6024, 48.8625 ], [ 0.615, 48.8777 ], [ 0.6092, 48.8791 ], [ 0.6035, 48.8742 ], [ 0.5896, 48.8726 ], [ 0.5866, 48.8814 ], [ 0.5953, 48.883 ], [ 0.5956, 48.888 ], [ 0.578, 48.8937 ], [ 0.5515, 48.8744 ], [ 0.5209, 48.8808 ], [ 0.5069, 48.8772 ], [ 0.4949, 48.8786 ], [ 0.4632, 48.8885 ], [ 0.4573, 48.8861 ], [ 0.4574, 48.8798 ], [ 0.4509, 48.8799 ], [ 0.4429, 48.8829 ], [ 0.45, 48.891 ], [ 0.4388, 48.8887 ], [ 0.4415, 48.8854 ], [ 0.4211, 48.8868 ], [ 0.4216, 48.8987 ], [ 0.4062, 48.9005 ], [ 0.3862, 48.9104 ], [ 0.3915, 48.9282 ], [ 0.4312, 48.9672 ], [ 0.4329, 48.9791 ], [ 0.4248, 48.9851 ], [ 0.4461, 49.019 ], [ 0.4424, 49.0247 ], [ 0.4312, 49.0235 ], [ 0.4348, 49.0259 ], [ 0.4278, 49.0323 ], [ 0.3855, 49.0361 ], [ 0.3789, 49.051 ], [ 0.3671, 49.0524 ], [ 0.3812, 49.0602 ], [ 0.3786, 49.0706 ], [ 0.391, 49.0779 ], [ 0.4078, 49.0774 ], [ 0.4173, 49.0734 ], [ 0.4162, 49.0882 ], [ 0.3992, 49.087 ], [ 0.3974, 49.0906 ], [ 0.4153, 49.0962 ], [ 0.4004, 49.0971 ], [ 0.4016, 49.1111 ], [ 0.4069, 49.1122 ], [ 0.4083, 49.1286 ], [ 0.4249, 49.1302 ], [ 0.4284, 49.1399 ], [ 0.4332, 49.1407 ], [ 0.4237, 49.1479 ], [ 0.4116, 49.146 ], [ 0.3859, 49.1538 ], [ 0.3916, 49.1602 ], [ 0.3933, 49.1776 ], [ 0.3873, 49.1851 ], [ 0.3947, 49.2084 ], [ 0.3888, 49.2162 ], [ 0.3665, 49.2159 ], [ 0.3383, 49.2306 ], [ 0.3207, 49.2482 ], [ 0.3202, 49.2525 ], [ 0.3391, 49.2526 ], [ 0.3646, 49.263 ], [ 0.3663, 49.2598 ], [ 0.3828, 49.264 ], [ 0.3839, 49.2855 ], [ 0.3623, 49.2971 ], [ 0.3425, 49.2956 ], [ 0.3263, 49.2779 ], [ 0.309, 49.2832 ], [ 0.323, 49.297 ], [ 0.315, 49.3042 ], [ 0.316, 49.3113 ], [ 0.2982, 49.3144 ], [ 0.3131, 49.323 ], [ 0.326, 49.3404 ], [ 0.3113, 49.3531 ], [ 0.3018, 49.3712 ], [ 0.309, 49.3894 ], [ 0.2968, 49.4098 ], [ 0.2972, 49.4299 ] ] ] } }
]
}
