{
"type": "FeatureCollection",
"name": "dep29",
"crs": { "type": "name", "properties": { "name": "urn:ogc:def:crs:OGC:1.3:CRS84" } },
"xy_coordinate_resolution": 0.0001,
"features": [
{ "type": "Feature", "properties": { "code": "29", "nom": "Finistère" }, "geometry": { "type": "MultiPolygon", "coordinates": [ [ [ [ -3.9975, 47.7239 ], [ -4.0036, 47.7239 ], [ -3.9976, 47.7252 ], [ -3.9975, 47.7239 ] ] ], [ [ [ -3.9918, 48.7364 ], [ -3.9937, 48.7406 ], [ -4.0053, 48.74 ], [ -4.0116, 48.7441 ], [ -4.0225, 48.7386 ], [ -4.0402, 48.7464 ], [ -4.0196, 48.7537 ], [ -4.0059, 48.7529 ], [ -4.0035, 48.7479 ], [ -3.9896, 48.7453 ], [ -3.9918, 48.7364 ] ] ], [ [ [ -3.957, 47.7121 ], [ -3.9581, 47.7196 ], [ -3.9514, 47.7216 ], [ -3.9508, 47.7205 ], [ -3.957, 47.7121 ] ] ], [ [ [ -4.0072, 47.717 ], [ -4.0124, 47.7164 ], [ -4.0119, 47.7191 ], [ -4.0072, 47.717 ] ] ], [ [ [ -4.029, 47.7741 ], [ -4.0271, 47.778 ], [ -4.0205, 47.7768 ], [ -4.0216, 47.775 ], [ -4.029, 47.7741 ] ] ], [ [ [ -4.8506, 48.0402 ], [ -4.8488, 48.0318 ], [ -4.8578, 48.0393 ], [ -4.8708, 48.0404 ], [ -4.8675, 48.0439 ], [ -4.8553, 48.0388 ], [ -4.8506, 48.0402 ] ] ], [ [ [ -3.9971, 47.7011 ], [ -4.0021, 47.7078 ], [ -3.9987, 47.7101 ], [ -3.9908, 47.7028 ], [ -3.9971, 47.7011 ] ] ], [ [ [ -3.7995, 47.7846 ], [ -3.8005, 47.783 ], [ -3.803, 47.7842 ], [ -3.7995, 47.7846 ] ] ], [ [ [ -5.0102, 48.4266 ], [ -5.0141, 48.4258 ], [ -5.0116, 48.4308 ], [ -5.0102, 48.4266 ] ] ], [ [ [ -4.6349, 48.6015 ], [ -4.6374, 48.6001 ], [ -4.6367, 48.6023 ], [ -4.6349, 48.6015 ] ] ], [ [ [ -4.0598, 48.7027 ], [ -4.0716, 48.7047 ], [ -4.0728, 48.7057 ], [ -4.0642, 48.7066 ], [ -4.0598, 48.7027 ] ] ], [ [ [ -4.1781, 47.851 ], [ -4.1935, 47.8642 ], [ -4.186, 47.8676 ], [ -4.182, 47.8673 ], [ -4.1781, 47.851 ] ] ], [ [ [ -4.1767, 47.8407 ], [ -4.1838, 47.8446 ], [ -4.1833, 47.8471 ], [ -4.1767, 47.844 ], [ -4.1767, 47.8407 ] ] ], [ [ [ -4.1837, 47.8507 ], [ -4.1867, 47.8502 ], [ -4.1857, 47.851 ], [ -4.1837, 47.8507 ] ] ], [ [ [ -4.3354, 48.1016 ], [ -4.3385, 48.1007 ], [ -4.3392, 48.103 ], [ -4.3354, 48.1016 ] ] ], [ [ [ -4.535, 48.3029 ], [ -4.5389, 48.3026 ], [ -4.5362, 48.3042 ], [ -4.535, 48.3029 ] ] ], [ [ [ -4.5287, 48.3052 ], [ -4.5319, 48.3045 ], [ -4.5297, 48.3064 ], [ -4.5287, 48.3052 ] ] ], [ [ [ -4.9592, 48.3894 ], [ -4.9673, 48.3979 ], [ -4.9628, 48.4017 ], [ -4.9534, 48.3961 ], [ -4.9592, 48.3894 ] ] ], [ [ [ -4.9855, 48.4169 ], [ -4.9804, 48.419 ], [ -4.9838, 48.4164 ], [ -4.9855, 48.4169 ] ] ], [ [ [ -4.7875, 48.4373 ], [ -4.7901, 48.438 ], [ -4.7887, 48.4389 ], [ -4.7875, 48.4373 ] ] ], [ [ [ -4.6162, 48.5868 ], [ -4.6195, 48.5853 ], [ -4.6192, 48.5862 ], [ -4.6162, 48.5868 ] ] ], [ [ [ -4.8623, 48.3413 ], [ -4.8577, 48.3507 ], [ -4.848, 48.3564 ], [ -4.8416, 48.3549 ], [ -4.8623, 48.3413 ] ] ], [ [ [ -4.8944, 48.3724 ], [ -4.9058, 48.3723 ], [ -4.9112, 48.3744 ], [ -4.898, 48.3759 ], [ -4.8944, 48.3724 ] ] ], [ [ [ -4.9448, 48.3699 ], [ -4.9352, 48.3753 ], [ -4.9333, 48.3748 ], [ -4.937, 48.3714 ], [ -4.9448, 48.3699 ] ] ], [ [ [ -4.9498, 48.3979 ], [ -4.9526, 48.4008 ], [ -4.9475, 48.4026 ], [ -4.9469, 48.4014 ], [ -4.9498, 48.3979 ] ] ], [ [ [ -4.8973, 48.3803 ], [ -4.8998, 48.3802 ], [ -4.9002, 48.383 ], [ -4.8973, 48.3803 ] ] ], [ [ [ -3.9224, 48.6796 ], [ -3.9268, 48.6808 ], [ -3.9232, 48.6841 ], [ -3.929, 48.6919 ], [ -3.926, 48.6992 ], [ -3.9193, 48.6842 ], [ -3.9224, 48.6796 ] ] ], [ [ [ -4.5693, 48.6076 ], [ -4.5729, 48.6062 ], [ -4.5742, 48.608 ], [ -4.5693, 48.6076 ] ] ], [ [ [ -4.5517, 48.6293 ], [ -4.5583, 48.6291 ], [ -4.5578, 48.6308 ], [ -4.5517, 48.6293 ] ] ], [ [ [ -4.5666, 48.6384 ], [ -4.5707, 48.638 ], [ -4.5697, 48.6402 ], [ -4.5666, 48.6384 ] ] ], [ [ [ -4.593, 48.6255 ], [ -4.5946, 48.6233 ], [ -4.5947, 48.6254 ], [ -4.593, 48.6255 ] ] ], [ [ [ -4.403, 48.6393 ], [ -4.406, 48.6393 ], [ -4.4035, 48.6405 ], [ -4.403, 48.6393 ] ] ], [ [ [ -4.2773, 48.2838 ], [ -4.282, 48.2836 ], [ -4.2801, 48.285 ], [ -4.2773, 48.2838 ] ] ], [ [ [ -3.6393, 48.6733 ], [ -3.6656, 48.6508 ], [ -3.6543, 48.617 ], [ -3.6494, 48.6102 ], [ -3.6384, 48.6102 ], [ -3.6406, 48.5961 ], [ -3.6292, 48.5879 ], [ -3.6176, 48.5902 ], [ -3.5886, 48.5827 ], [ -3.5842, 48.5743 ], [ -3.5987, 48.5572 ], [ -3.5817, 48.553 ], [ -3.5715, 48.5583 ], [ -3.5524, 48.5406 ], [ -3.5411, 48.5371 ], [ -3.5581, 48.5288 ], [ -3.5842, 48.5045 ], [ -3.6045, 48.4958 ], [ -3.6013, 48.4849 ], [ -3.6075, 48.4773 ], [ -3.6, 48.4785 ], [ -3.5931, 48.4639 ], [ -3.5823, 48.4648 ], [ -3.5676, 48.4524 ], [ -3.5536, 48.4538 ], [ -3.5505, 48.4478 ], [ -3.5642, 48.4392 ], [ -3.5856, 48.433 ], [ -3.6005, 48.4216 ], [ -3.6011, 48.3936 ], [ -3.6077, 48.3883 ], [ -3.5941, 48.3864 ], [ -3.5865, 48.3811 ], [ -3.5733, 48.3809 ], [ -3.5677, 48.3767 ], [ -3.5658, 48.3796 ], [ -3.5543, 48.3789 ], [ -3.5517, 48.3712 ], [ -3.5592, 48.366 ], [ -3.5558, 48.3559 ], [ -3.5632, 48.3479 ], [ -3.5554, 48.345 ], [ -3.5509, 48.3151 ], [ -3.541, 48.3117 ], [ -3.5254, 48.3233 ], [ -3.5185, 48.3189 ], [ -3.5283, 48.3167 ], [ -3.5409, 48.299 ], [ -3.5525, 48.2994 ], [ -3.555, 48.2937 ], [ -3.5187, 48.2809 ], [ -3.5204, 48.2743 ], [ -3.5268, 48.2724 ], [ -3.5269, 48.2533 ], [ -3.5358, 48.2559 ], [ -3.5423, 48.2435 ], [ -3.5561, 48.242 ], [ -3.553, 48.2343 ], [ -3.5578, 48.2285 ], [ -3.5397, 48.2065 ], [ -3.5212, 48.2022 ], [ -3.5194, 48.1895 ], [ -3.5423, 48.1939 ], [ -3.5667, 48.19 ], [ -3.5648, 48.1857 ], [ -3.6261, 48.1695 ], [ -3.6519, 48.1566 ], [ -3.6719, 48.1516 ], [ -3.6933, 48.1518 ], [ -3.6977, 48.1454 ], [ -3.7155, 48.1422 ], [ -3.7085, 48.1358 ], [ -3.7219, 48.1293 ], [ -3.7239, 48.1245 ], [ -3.7182, 48.1199 ], [ -3.7344, 48.1126 ], [ -3.7291, 48.1044 ], [ -3.7332, 48.0965 ], [ -3.7032, 48.0978 ], [ -3.695, 48.0935 ], [ -3.7043, 48.0866 ], [ -3.6988, 48.0687 ], [ -3.7082, 48.0694 ], [ -3.7087, 48.0668 ], [ -3.6869, 48.0587 ], [ -3.6735, 48.0581 ], [ -3.6757, 48.0475 ], [ -3.67, 48.0428 ], [ -3.6711, 48.0373 ], [ -3.6641, 48.0367 ], [ -3.6625, 48.0193 ], [ -3.6483, 48.0065 ], [ -3.6402, 47.9852 ], [ -3.6334, 47.9838 ], [ -3.6312, 47.9865 ], [ -3.62, 47.9819 ], [ -3.6077, 47.9893 ], [ -3.597, 47.9904 ], [ -3.5841, 47.9846 ], [ -3.577, 47.9906 ], [ -3.5608, 47.9912 ], [ -3.5587, 47.9942 ], [ -3.5463, 47.9865 ], [ -3.5311, 47.9887 ], [ -3.5197, 47.9761 ], [ -3.4915, 47.9749 ], [ -3.4814, 47.9519 ], [ -3.4676, 47.9457 ], [ -3.4623, 47.9489 ], [ -3.4614, 47.9595 ], [ -3.456, 47.9567 ], [ -3.4447, 47.9587 ], [ -3.4128, 47.9742 ], [ -3.4082, 47.9669 ], [ -3.4034, 47.967 ], [ -3.4027, 47.9603 ], [ -3.3931, 47.9584 ], [ -3.3926, 47.9519 ], [ -3.4017, 47.9431 ], [ -3.3982, 47.9345 ], [ -3.3868, 47.9264 ], [ -3.3933, 47.9179 ], [ -3.4088, 47.9159 ], [ -3.4061, 47.9059 ], [ -3.4192, 47.9056 ], [ -3.4054, 47.9022 ], [ -3.404, 47.8662 ], [ -3.399, 47.8636 ], [ -3.4079, 47.8627 ], [ -3.412, 47.868 ], [ -3.4248, 47.8691 ], [ -3.4397, 47.8629 ], [ -3.4483, 47.8632 ], [ -3.4491, 47.8462 ], [ -3.4577, 47.8366 ], [ -3.4752, 47.8355 ], [ -3.4874, 47.8237 ], [ -3.5117, 47.832 ], [ -3.5162, 47.8393 ], [ -3.5218, 47.8399 ], [ -3.5195, 47.849 ], [ -3.532, 47.8566 ], [ -3.5422, 47.8567 ], [ -3.5421, 47.8628 ], [ -3.5443, 47.858 ], [ -3.5425, 47.8562 ], [ -3.5379, 47.8558 ], [ -3.5314, 47.8515 ], [ -3.5276, 47.844 ], [ -3.5386, 47.8379 ], [ -3.5419, 47.8215 ], [ -3.5351, 47.8206 ], [ -3.5357, 47.813 ], [ -3.5247, 47.8098 ], [ -3.5267, 47.8045 ], [ -3.5218, 47.8037 ], [ -3.5212, 47.7989 ], [ -3.5314, 47.7911 ], [ -3.5278, 47.7869 ], [ -3.5313, 47.7709 ], [ -3.5386, 47.7626 ], [ -3.5494, 47.7661 ], [ -3.5548, 47.7636 ], [ -3.5645, 47.7688 ], [ -3.6019, 47.7687 ], [ -3.6087, 47.7724 ], [ -3.6054, 47.7744 ], [ -3.6037, 47.7768 ], [ -3.6173, 47.7695 ], [ -3.6461, 47.7747 ], [ -3.6493, 47.7816 ], [ -3.6451, 47.7834 ], [ -3.644, 47.7885 ], [ -3.6523, 47.7793 ], [ -3.6651, 47.7814 ], [ -3.6808, 47.7768 ], [ -3.7232, 47.7983 ], [ -3.7226, 47.8034 ], [ -3.7079, 47.8132 ], [ -3.7007, 47.8081 ], [ -3.697, 47.819 ], [ -3.6849, 47.8187 ], [ -3.6715, 47.8244 ], [ -3.6498, 47.8208 ], [ -3.6412, 47.8284 ], [ -3.6516, 47.8219 ], [ -3.6729, 47.8256 ], [ -3.6906, 47.8202 ], [ -3.6966, 47.821 ], [ -3.6938, 47.8278 ], [ -3.6955, 47.8311 ], [ -3.7045, 47.8148 ], [ -3.7327, 47.8035 ], [ -3.7418, 47.8124 ], [ -3.7436, 47.8276 ], [ -3.7504, 47.8355 ], [ -3.7456, 47.8351 ], [ -3.749, 47.8451 ], [ -3.7518, 47.8472 ], [ -3.7483, 47.8419 ], [ -3.7579, 47.8358 ], [ -3.7459, 47.8263 ], [ -3.7454, 47.8192 ], [ -3.7518, 47.8146 ], [ -3.7465, 47.8157 ], [ -3.7412, 47.8092 ], [ -3.738, 47.7999 ], [ -3.742, 47.7975 ], [ -3.7598, 47.7907 ], [ -3.7884, 47.7913 ], [ -3.8004, 47.7874 ], [ -3.821, 47.7972 ], [ -3.8286, 47.7935 ], [ -3.8387, 47.7977 ], [ -3.8561, 47.7896 ], [ -3.8507, 47.7981 ], [ -3.8546, 47.804 ], [ -3.9024, 47.8357 ], [ -3.8984, 47.8468 ], [ -3.8928, 47.8464 ], [ -3.8922, 47.8429 ], [ -3.8888, 47.8487 ], [ -3.8953, 47.8493 ], [ -3.8806, 47.8592 ], [ -3.8973, 47.8492 ], [ -3.9092, 47.8503 ], [ -3.9194, 47.8564 ], [ -3.913, 47.8595 ], [ -3.9059, 47.8561 ], [ -3.9008, 47.8624 ], [ -3.9078, 47.8625 ], [ -3.9138, 47.872 ], [ -3.9172, 47.8679 ], [ -3.9305, 47.8708 ], [ -3.9335, 47.8818 ], [ -3.95, 47.8905 ], [ -3.9474, 47.9002 ], [ -3.9541, 47.894 ], [ -3.9597, 47.897 ], [ -3.9732, 47.8947 ], [ -3.9773, 47.9097 ], [ -3.9807, 47.8947 ], [ -3.9923, 47.8959 ], [ -3.9805, 47.8892 ], [ -3.99, 47.8827 ], [ -3.9771, 47.8538 ], [ -4.0256, 47.8504 ], [ -4.0398, 47.8447 ], [ -4.0567, 47.856 ], [ -4.0883, 47.8621 ], [ -4.0671, 47.8598 ], [ -4.0538, 47.8553 ], [ -4.047, 47.8517 ], [ -4.0596, 47.8614 ], [ -4.0737, 47.8647 ], [ -4.0708, 47.8685 ], [ -4.079, 47.8691 ], [ -4.0789, 47.8766 ], [ -4.0851, 47.8733 ], [ -4.0784, 47.8657 ], [ -4.0909, 47.8612 ], [ -4.0994, 47.8625 ], [ -4.1018, 47.8701 ], [ -4.1175, 47.8766 ], [ -4.1111, 47.8841 ], [ -4.1205, 47.8856 ], [ -4.1252, 47.8915 ], [ -4.1183, 47.8932 ], [ -4.1285, 47.8927 ], [ -4.1331, 47.8986 ], [ -4.1406, 47.8998 ], [ -4.1447, 47.9093 ], [ -4.1387, 47.9259 ], [ -4.1313, 47.9254 ], [ -4.1303, 47.9303 ], [ -4.1163, 47.9306 ], [ -4.1098, 47.9364 ], [ -4.1094, 47.9421 ], [ -4.1039, 47.9397 ], [ -4.0993, 47.943 ], [ -4.0957, 47.9383 ], [ -4.079, 47.9365 ], [ -4.0777, 47.9374 ], [ -4.0949, 47.9413 ], [ -4.0854, 47.95 ], [ -4.0796, 47.9494 ], [ -4.0836, 47.9515 ], [ -4.0953, 47.9426 ], [ -4.1021, 47.9438 ], [ -4.1095, 47.9427 ], [ -4.1093, 47.9499 ], [ -4.0972, 47.9534 ], [ -4.0952, 47.9672 ], [ -4.1024, 47.9744 ], [ -4.116, 47.9774 ], [ -4.1172, 47.9835 ], [ -4.117, 47.9754 ], [ -4.101, 47.9705 ], [ -4.1093, 47.9638 ], [ -4.1145, 47.966 ], [ -4.1121, 47.9557 ], [ -4.1221, 47.9532 ], [ -4.1126, 47.9524 ], [ -4.1108, 47.9364 ], [ -4.1174, 47.9315 ], [ -4.1306, 47.9315 ], [ -4.1333, 47.9257 ], [ -4.1408, 47.9263 ], [ -4.1509, 47.9106 ], [ -4.1456, 47.8974 ], [ -4.1656, 47.8955 ], [ -4.1763, 47.9071 ], [ -4.1712, 47.8946 ], [ -4.1507, 47.8944 ], [ -4.1482, 47.8893 ], [ -4.1492, 47.8935 ], [ -4.1404, 47.8961 ], [ -4.1304, 47.89 ], [ -4.1214, 47.8824 ], [ -4.1247, 47.8783 ], [ -4.1144, 47.8715 ], [ -4.1133, 47.862 ], [ -4.1232, 47.8648 ], [ -4.1407, 47.8595 ], [ -4.1636, 47.8492 ], [ -4.1698, 47.8395 ], [ -4.1651, 47.8524 ], [ -4.1742, 47.8707 ], [ -4.1716, 47.8744 ], [ -4.1788, 47.879 ], [ -4.1829, 47.8795 ], [ -4.1847, 47.8753 ], [ -4.1957, 47.8761 ], [ -4.1915, 47.869 ], [ -4.1978, 47.8586 ], [ -4.2068, 47.8662 ], [ -4.2114, 47.8676 ], [ -4.2156, 47.866 ], [ -4.2078, 47.8652 ], [ -4.1894, 47.8514 ], [ -4.1912, 47.8469 ], [ -4.1794, 47.8393 ], [ -4.1832, 47.8361 ], [ -4.1749, 47.8341 ], [ -4.1788, 47.8371 ], [ -4.1748, 47.8381 ], [ -4.1721, 47.8342 ], [ -4.1676, 47.8357 ], [ -4.1588, 47.8315 ], [ -4.165, 47.8145 ], [ -4.1748, 47.8123 ], [ -4.1738, 47.8074 ], [ -4.183, 47.8002 ], [ -4.1924, 47.7961 ], [ -4.2077, 47.8003 ], [ -4.2168, 47.8121 ], [ -4.2102, 47.7964 ], [ -4.214, 47.7974 ], [ -4.2192, 47.7921 ], [ -4.2772, 47.7912 ], [ -4.2719, 47.8007 ], [ -4.2858, 47.7921 ], [ -4.2957, 47.7928 ], [ -4.2961, 47.7994 ], [ -4.3065, 47.801 ], [ -4.3622, 47.7959 ], [ -4.3742, 47.798 ], [ -4.3715, 47.8084 ], [ -4.3753, 47.8164 ], [ -4.3819, 47.8162 ], [ -4.3806, 47.8202 ], [ -4.3666, 47.8276 ], [ -4.3521, 47.8288 ], [ -4.3479, 47.8348 ], [ -4.3541, 47.8375 ], [ -4.346, 47.8402 ], [ -4.3624, 47.8895 ], [ -4.3836, 47.9209 ], [ -4.4082, 47.9428 ], [ -4.4225, 47.9624 ], [ -4.4509, 47.9811 ], [ -4.4759, 47.986 ], [ -4.4827, 47.9938 ], [ -4.5006, 48.0022 ], [ -4.5238, 48.0056 ], [ -4.5367, 48.0116 ], [ -4.5311, 48.0349 ], [ -4.4882, 48.0384 ], [ -4.5056, 48.0376 ], [ -4.5099, 48.0422 ], [ -4.5118, 48.0386 ], [ -4.5211, 48.0382 ], [ -4.5217, 48.0422 ], [ -4.5332, 48.035 ], [ -4.5348, 48.0368 ], [ -4.5397, 48.0383 ], [ -4.5339, 48.0338 ], [ -4.5385, 48.0227 ], [ -4.5355, 48.0171 ], [ -4.5425, 48.0112 ], [ -4.5558, 48.0096 ], [ -4.5648, 47.9998 ], [ -4.5923, 48.0066 ], [ -4.5973, 48.0149 ], [ -4.6226, 48.0179 ], [ -4.633, 48.0294 ], [ -4.6503, 48.0218 ], [ -4.6639, 48.0268 ], [ -4.6957, 48.029 ], [ -4.6973, 48.0261 ], [ -4.71, 48.0331 ], [ -4.7263, 48.0329 ], [ -4.7408, 48.0406 ], [ -4.7079, 48.0441 ], [ -4.7058, 48.0494 ], [ -4.7142, 48.0528 ], [ -4.7143, 48.0644 ], [ -4.6939, 48.0603 ], [ -4.6883, 48.0645 ], [ -4.6867, 48.0615 ], [ -4.6719, 48.0602 ], [ -4.6652, 48.0726 ], [ -4.656, 48.0679 ], [ -4.6316, 48.0675 ], [ -4.6298, 48.0725 ], [ -4.6217, 48.0685 ], [ -4.6051, 48.076 ], [ -4.5911, 48.0737 ], [ -4.5921, 48.0765 ], [ -4.5812, 48.0823 ], [ -4.5672, 48.0822 ], [ -4.5516, 48.0763 ], [ -4.5416, 48.0813 ], [ -4.5364, 48.0899 ], [ -4.5258, 48.0856 ], [ -4.5214, 48.0865 ], [ -4.5222, 48.0911 ], [ -4.5033, 48.0879 ], [ -4.5003, 48.091 ], [ -4.4893, 48.0862 ], [ -4.4775, 48.0955 ], [ -4.4665, 48.0959 ], [ -4.4659, 48.0994 ], [ -4.4573, 48.0965 ], [ -4.433, 48.0974 ], [ -4.4161, 48.1067 ], [ -4.4048, 48.1038 ], [ -4.3625, 48.1093 ], [ -4.3523, 48.1021 ], [ -4.341, 48.1005 ], [ -4.3335, 48.0846 ], [ -4.3353, 48.0973 ], [ -4.3276, 48.0997 ], [ -4.3229, 48.0929 ], [ -4.3044, 48.0894 ], [ -4.2866, 48.103 ], [ -4.2806, 48.1189 ], [ -4.2853, 48.1264 ], [ -4.2754, 48.1342 ], [ -4.2703, 48.1313 ], [ -4.269, 48.1334 ], [ -4.2731, 48.1542 ], [ -4.2954, 48.1583 ], [ -4.2991, 48.1676 ], [ -4.2931, 48.1678 ], [ -4.2912, 48.1757 ], [ -4.3032, 48.1953 ], [ -4.3124, 48.197 ], [ -4.3161, 48.2038 ], [ -4.3277, 48.2018 ], [ -4.3345, 48.2069 ], [ -4.3691, 48.2051 ], [ -4.3782, 48.2186 ], [ -4.413, 48.2224 ], [ -4.4256, 48.2293 ], [ -4.4393, 48.2245 ], [ -4.4323, 48.2298 ], [ -4.4484, 48.2356 ], [ -4.4606, 48.2353 ], [ -4.4639, 48.2394 ], [ -4.489, 48.2362 ], [ -4.5016, 48.2304 ], [ -4.5039, 48.2251 ], [ -4.4946, 48.2217 ], [ -4.4973, 48.2168 ], [ -4.5112, 48.2108 ], [ -4.5207, 48.1959 ], [ -4.518, 48.1923 ], [ -4.5402, 48.1807 ], [ -4.5396, 48.1704 ], [ -4.5541, 48.1678 ], [ -4.5596, 48.1771 ], [ -4.551, 48.1812 ], [ -4.5521, 48.2084 ], [ -4.5613, 48.2302 ], [ -4.5716, 48.2315 ], [ -4.5703, 48.2351 ], [ -4.5452, 48.2403 ], [ -4.5433, 48.2491 ], [ -4.5582, 48.259 ], [ -4.5825, 48.2505 ], [ -4.5974, 48.2524 ], [ -4.6023, 48.2598 ], [ -4.6127, 48.262 ], [ -4.6233, 48.2532 ], [ -4.625, 48.2593 ], [ -4.6151, 48.2725 ], [ -4.6294, 48.2808 ], [ -4.6115, 48.28 ], [ -4.6015, 48.287 ], [ -4.6, 48.282 ], [ -4.5909, 48.2802 ], [ -4.5972, 48.2812 ], [ -4.5956, 48.2768 ], [ -4.5878, 48.275 ], [ -4.5699, 48.2819 ], [ -4.566, 48.2873 ], [ -4.573, 48.2995 ], [ -4.5704, 48.3039 ], [ -4.5764, 48.3168 ], [ -4.5826, 48.3194 ], [ -4.5554, 48.3383 ], [ -4.5344, 48.3419 ], [ -4.5453, 48.3245 ], [ -4.5478, 48.3097 ], [ -4.5517, 48.3057 ], [ -4.5596, 48.3056 ], [ -4.5527, 48.2943 ], [ -4.544, 48.2904 ], [ -4.5371, 48.2919 ], [ -4.5418, 48.2899 ], [ -4.5358, 48.2839 ], [ -4.5218, 48.2911 ], [ -4.5262, 48.2946 ], [ -4.5177, 48.298 ], [ -4.5077, 48.3107 ], [ -4.4993, 48.3112 ], [ -4.5179, 48.2953 ], [ -4.5026, 48.2809 ], [ -4.4675, 48.2881 ], [ -4.4612, 48.2944 ], [ -4.4459, 48.2911 ], [ -4.4191, 48.2931 ], [ -4.4208, 48.2859 ], [ -4.4099, 48.276 ], [ -4.3854, 48.2751 ], [ -4.3661, 48.278 ], [ -4.3519, 48.2865 ], [ -4.338, 48.2856 ], [ -4.3071, 48.2975 ], [ -4.2724, 48.296 ], [ -4.2655, 48.2929 ], [ -4.2656, 48.2846 ], [ -4.2825, 48.2889 ], [ -4.289, 48.2742 ], [ -4.2808, 48.2748 ], [ -4.2557, 48.2636 ], [ -4.2662, 48.2573 ], [ -4.2548, 48.2594 ], [ -4.2439, 48.2497 ], [ -4.2317, 48.2503 ], [ -4.2177, 48.2582 ], [ -4.2149, 48.2484 ], [ -4.2087, 48.242 ], [ -4.2112, 48.2468 ], [ -4.1838, 48.2465 ], [ -4.1813, 48.2424 ], [ -4.1796, 48.2456 ], [ -4.161, 48.2449 ], [ -4.1354, 48.2362 ], [ -4.1136, 48.2446 ], [ -4.1169, 48.2183 ], [ -4.1088, 48.2457 ], [ -4.097, 48.2555 ], [ -4.1094, 48.2479 ], [ -4.1135, 48.2496 ], [ -4.1349, 48.2414 ], [ -4.1528, 48.2475 ], [ -4.2001, 48.2515 ], [ -4.2043, 48.249 ], [ -4.2167, 48.261 ], [ -4.2407, 48.2544 ], [ -4.2485, 48.2651 ], [ -4.2794, 48.2778 ], [ -4.2769, 48.2812 ], [ -4.2587, 48.2803 ], [ -4.234, 48.2917 ], [ -4.226, 48.2876 ], [ -4.1874, 48.2952 ], [ -4.2386, 48.2995 ], [ -4.2409, 48.3075 ], [ -4.2267, 48.3136 ], [ -4.2451, 48.3089 ], [ -4.2474, 48.299 ], [ -4.2593, 48.3063 ], [ -4.256, 48.3097 ], [ -4.2718, 48.3085 ], [ -4.2819, 48.3125 ], [ -4.2662, 48.3209 ], [ -4.2499, 48.3238 ], [ -4.2492, 48.3268 ], [ -4.2707, 48.3195 ], [ -4.2823, 48.3193 ], [ -4.2932, 48.3114 ], [ -4.3094, 48.3172 ], [ -4.3094, 48.3145 ], [ -4.3332, 48.3131 ], [ -4.3359, 48.3157 ], [ -4.3243, 48.3233 ], [ -4.3182, 48.3227 ], [ -4.3168, 48.3253 ], [ -4.3229, 48.327 ], [ -4.3027, 48.3307 ], [ -4.317, 48.3319 ], [ -4.3178, 48.3348 ], [ -4.2838, 48.3423 ], [ -4.278, 48.3449 ], [ -4.2925, 48.3502 ], [ -4.2708, 48.3532 ], [ -4.2645, 48.3582 ], [ -4.2917, 48.353 ], [ -4.3022, 48.3556 ], [ -4.3057, 48.3497 ], [ -4.2997, 48.3449 ], [ -4.33, 48.3387 ], [ -4.3309, 48.3464 ], [ -4.3185, 48.3622 ], [ -4.3464, 48.3423 ], [ -4.3555, 48.3433 ], [ -4.3466, 48.3547 ], [ -4.3665, 48.3448 ], [ -4.3673, 48.3355 ], [ -4.3782, 48.3255 ], [ -4.4152, 48.3242 ], [ -4.4044, 48.3372 ], [ -4.3924, 48.3409 ], [ -4.3972, 48.3422 ], [ -4.4408, 48.327 ], [ -4.4574, 48.3271 ], [ -4.4493, 48.3299 ], [ -4.4501, 48.3362 ], [ -4.4396, 48.3413 ], [ -4.4455, 48.3495 ], [ -4.4359, 48.3562 ], [ -4.4372, 48.3598 ], [ -4.4162, 48.3703 ], [ -4.4075, 48.3805 ], [ -4.368, 48.3949 ], [ -4.3593, 48.4021 ], [ -4.3423, 48.4034 ], [ -4.3103, 48.4174 ], [ -4.2791, 48.4356 ], [ -4.2701, 48.445 ], [ -4.3142, 48.4198 ], [ -4.3387, 48.4147 ], [ -4.3472, 48.407 ], [ -4.3606, 48.4098 ], [ -4.3691, 48.4062 ], [ -4.3689, 48.4015 ], [ -4.3832, 48.3964 ], [ -4.3917, 48.3976 ], [ -4.4017, 48.3896 ], [ -4.4307, 48.3974 ], [ -4.4373, 48.3825 ], [ -4.4496, 48.3851 ], [ -4.4534, 48.3816 ], [ -4.4547, 48.3874 ], [ -4.4673, 48.381 ], [ -4.4737, 48.3833 ], [ -4.4746, 48.3797 ], [ -4.4773, 48.3832 ], [ -4.4838, 48.3826 ], [ -4.507, 48.3752 ], [ -4.5302, 48.3634 ], [ -4.5333, 48.3578 ], [ -4.5524, 48.3622 ], [ -4.5717, 48.3492 ], [ -4.5848, 48.3479 ], [ -4.6087, 48.3379 ], [ -4.6281, 48.3375 ], [ -4.6407, 48.3459 ], [ -4.6504, 48.345 ], [ -4.6806, 48.3556 ], [ -4.7003, 48.3503 ], [ -4.7034, 48.3459 ], [ -4.6978, 48.3387 ], [ -4.7111, 48.3308 ], [ -4.7367, 48.3328 ], [ -4.769, 48.3283 ], [ -4.7748, 48.3359 ], [ -4.7701, 48.3475 ], [ -4.7809, 48.3543 ], [ -4.7807, 48.3586 ], [ -4.7682, 48.362 ], [ -4.7506, 48.3601 ], [ -4.7559, 48.3622 ], [ -4.7461, 48.3657 ], [ -4.7864, 48.3613 ], [ -4.7857, 48.3665 ], [ -4.7693, 48.365 ], [ -4.7607, 48.3782 ], [ -4.7757, 48.3898 ], [ -4.7737, 48.4054 ], [ -4.7845, 48.4053 ], [ -4.7954, 48.4147 ], [ -4.7844, 48.4298 ], [ -4.7845, 48.437 ], [ -4.776, 48.4436 ], [ -4.783, 48.4456 ], [ -4.7646, 48.4669 ], [ -4.7568, 48.4679 ], [ -4.7563, 48.4638 ], [ -4.7504, 48.4711 ], [ -4.7196, 48.4756 ], [ -4.7625, 48.4721 ], [ -4.7796, 48.4974 ], [ -4.7779, 48.5047 ], [ -4.7667, 48.5093 ], [ -4.7704, 48.5163 ], [ -4.7772, 48.5149 ], [ -4.776, 48.5192 ], [ -4.7667, 48.5156 ], [ -4.7637, 48.5199 ], [ -4.7697, 48.5214 ], [ -4.7579, 48.5211 ], [ -4.7644, 48.531 ], [ -4.7584, 48.5298 ], [ -4.7581, 48.5345 ], [ -4.748, 48.528 ], [ -4.753, 48.5439 ], [ -4.7391, 48.548 ], [ -4.7306, 48.5564 ], [ -4.7154, 48.5594 ], [ -4.7173, 48.5557 ], [ -4.7083, 48.5554 ], [ -4.7039, 48.5513 ], [ -4.6993, 48.5556 ], [ -4.7053, 48.5572 ], [ -4.7006, 48.5653 ], [ -4.7044, 48.57 ], [ -4.6875, 48.5724 ], [ -4.6802, 48.5671 ], [ -4.6704, 48.5744 ], [ -4.6464, 48.5721 ], [ -4.6278, 48.5789 ], [ -4.6253, 48.5751 ], [ -4.5966, 48.5716 ], [ -4.5907, 48.5545 ], [ -4.5815, 48.5562 ], [ -4.5851, 48.5596 ], [ -4.557, 48.5598 ], [ -4.5408, 48.5562 ], [ -4.5317, 48.5498 ], [ -4.5263, 48.5546 ], [ -4.5053, 48.5459 ], [ -4.5091, 48.5522 ], [ -4.5144, 48.5512 ], [ -4.5262, 48.5583 ], [ -4.5335, 48.5556 ], [ -4.5404, 48.5603 ], [ -4.548, 48.5581 ], [ -4.5519, 48.5626 ], [ -4.5865, 48.5625 ], [ -4.5931, 48.5742 ], [ -4.6123, 48.5783 ], [ -4.6032, 48.584 ], [ -4.6085, 48.5886 ], [ -4.6074, 48.5976 ], [ -4.5983, 48.608 ], [ -4.5857, 48.6019 ], [ -4.5953, 48.5933 ], [ -4.5435, 48.5983 ], [ -4.5231, 48.5924 ], [ -4.5214, 48.5846 ], [ -4.5021, 48.5868 ], [ -4.4911, 48.5752 ], [ -4.4784, 48.573 ], [ -4.498, 48.5843 ], [ -4.4993, 48.5899 ], [ -4.5194, 48.5889 ], [ -4.5211, 48.593 ], [ -4.5275, 48.5963 ], [ -4.5605, 48.604 ], [ -4.5539, 48.6111 ], [ -4.5683, 48.6091 ], [ -4.5639, 48.6145 ], [ -4.5698, 48.6164 ], [ -4.5689, 48.6199 ], [ -4.5625, 48.6206 ], [ -4.5652, 48.6255 ], [ -4.5417, 48.6243 ], [ -4.5485, 48.6334 ], [ -4.5438, 48.6365 ], [ -4.5396, 48.6312 ], [ -4.5302, 48.629 ], [ -4.5218, 48.6344 ], [ -4.5138, 48.6344 ], [ -4.5109, 48.6292 ], [ -4.5063, 48.6298 ], [ -4.5125, 48.6288 ], [ -4.5098, 48.6231 ], [ -4.5013, 48.6209 ], [ -4.4936, 48.6254 ], [ -4.4798, 48.6235 ], [ -4.4652, 48.6261 ], [ -4.4409, 48.6413 ], [ -4.4344, 48.6355 ], [ -4.4306, 48.6371 ], [ -4.4333, 48.6418 ], [ -4.3988, 48.636 ], [ -4.3979, 48.6381 ], [ -4.4046, 48.6413 ], [ -4.416, 48.6414 ], [ -4.4325, 48.6475 ], [ -4.4366, 48.6547 ], [ -4.4315, 48.6558 ], [ -4.4271, 48.6523 ], [ -4.398, 48.6556 ], [ -4.3876, 48.6608 ], [ -4.3792, 48.6601 ], [ -4.3729, 48.6689 ], [ -4.35, 48.6765 ], [ -4.3298, 48.6771 ], [ -4.3262, 48.6744 ], [ -4.3291, 48.6679 ], [ -4.3223, 48.6662 ], [ -4.3176, 48.6724 ], [ -4.3124, 48.6725 ], [ -4.3114, 48.6682 ], [ -4.2941, 48.6617 ], [ -4.3004, 48.658 ], [ -4.2999, 48.6525 ], [ -4.3181, 48.6463 ], [ -4.3082, 48.6437 ], [ -4.3162, 48.6378 ], [ -4.2969, 48.6326 ], [ -4.2935, 48.6371 ], [ -4.3008, 48.6402 ], [ -4.2811, 48.6428 ], [ -4.2745, 48.6495 ], [ -4.2384, 48.6506 ], [ -4.2243, 48.6558 ], [ -4.2336, 48.6493 ], [ -4.196, 48.6522 ], [ -4.1994, 48.656 ], [ -4.2222, 48.6579 ], [ -4.1933, 48.6827 ], [ -4.1293, 48.6969 ], [ -4.1269, 48.6937 ], [ -4.0952, 48.6935 ], [ -4.0947, 48.689 ], [ -4.0809, 48.693 ], [ -4.0573, 48.6708 ], [ -4.0567, 48.6756 ], [ -4.0663, 48.6833 ], [ -4.0619, 48.6876 ], [ -4.055, 48.6853 ], [ -4.0478, 48.6877 ], [ -4.0567, 48.6875 ], [ -4.0568, 48.7006 ], [ -4.0494, 48.7053 ], [ -4.0399, 48.704 ], [ -4.0344, 48.7138 ], [ -4.0256, 48.7107 ], [ -4.0158, 48.7124 ], [ -4.0069, 48.7264 ], [ -4.0009, 48.7118 ], [ -3.993, 48.7151 ], [ -3.9892, 48.7268 ], [ -3.9768, 48.7222 ], [ -3.9709, 48.7273 ], [ -3.9651, 48.7218 ], [ -3.9757, 48.699 ], [ -3.9652, 48.6917 ], [ -3.9715, 48.6741 ], [ -3.95, 48.6726 ], [ -3.9554, 48.6692 ], [ -3.9514, 48.6614 ], [ -3.9561, 48.6465 ], [ -3.9501, 48.6401 ], [ -3.9565, 48.6168 ], [ -3.9488, 48.6177 ], [ -3.9415, 48.603 ], [ -3.935, 48.5987 ], [ -3.9425, 48.6108 ], [ -3.9389, 48.6145 ], [ -3.9506, 48.6234 ], [ -3.948, 48.6412 ], [ -3.9513, 48.6502 ], [ -3.9398, 48.6577 ], [ -3.9301, 48.6578 ], [ -3.9221, 48.6755 ], [ -3.9114, 48.67 ], [ -3.8911, 48.6709 ], [ -3.8914, 48.6666 ], [ -3.9062, 48.6608 ], [ -3.8977, 48.6464 ], [ -3.8608, 48.6326 ], [ -3.8567, 48.6206 ], [ -3.8621, 48.6128 ], [ -3.8582, 48.6093 ], [ -3.8644, 48.6078 ], [ -3.8677, 48.6041 ], [ -3.8616, 48.6074 ], [ -3.8515, 48.6067 ], [ -3.8595, 48.6143 ], [ -3.846, 48.6268 ], [ -3.8166, 48.6286 ], [ -3.8454, 48.6289 ], [ -3.8565, 48.6479 ], [ -3.8565, 48.6614 ], [ -3.8644, 48.6703 ], [ -3.8556, 48.6737 ], [ -3.8535, 48.6618 ], [ -3.8463, 48.6602 ], [ -3.8458, 48.6714 ], [ -3.8524, 48.6765 ], [ -3.8489, 48.6792 ], [ -3.8544, 48.6893 ], [ -3.8403, 48.6967 ], [ -3.8419, 48.7059 ], [ -3.8309, 48.7119 ], [ -3.8274, 48.7036 ], [ -3.8208, 48.7013 ], [ -3.8168, 48.7116 ], [ -3.8209, 48.7182 ], [ -3.8097, 48.712 ], [ -3.7984, 48.7125 ], [ -3.7959, 48.7062 ], [ -3.7866, 48.7015 ], [ -3.7771, 48.7024 ], [ -3.7658, 48.7091 ], [ -3.7338, 48.7088 ], [ -3.7169, 48.7048 ], [ -3.7181, 48.7002 ], [ -3.7013, 48.6898 ], [ -3.6885, 48.6917 ], [ -3.6803, 48.6867 ], [ -3.6558, 48.6966 ], [ -3.653, 48.6938 ], [ -3.6433, 48.6959 ], [ -3.6548, 48.6824 ], [ -3.6393, 48.6733 ] ] ], [ [ [ -5.1026, 48.4361 ], [ -5.1174, 48.439 ], [ -5.0979, 48.4451 ], [ -5.0933, 48.4526 ], [ -5.1, 48.4564 ], [ -5.1403, 48.448 ], [ -5.1332, 48.4585 ], [ -5.1073, 48.4655 ], [ -5.1067, 48.4718 ], [ -5.095, 48.4728 ], [ -5.0914, 48.4764 ], [ -5.0901, 48.4733 ], [ -5.0769, 48.4743 ], [ -5.0725, 48.4827 ], [ -5.0601, 48.4759 ], [ -5.0525, 48.4777 ], [ -5.0586, 48.4669 ], [ -5.0344, 48.4633 ], [ -5.0377, 48.4584 ], [ -5.049, 48.459 ], [ -5.0627, 48.4488 ], [ -5.0796, 48.4509 ], [ -5.0889, 48.4405 ], [ -5.1026, 48.4361 ] ] ], [ [ [ -5.0963, 48.4776 ], [ -5.1042, 48.4809 ], [ -5.1027, 48.4823 ], [ -5.0902, 48.4799 ], [ -5.0963, 48.4776 ] ] ], [ [ [ -4.7725, 48.5273 ], [ -4.7769, 48.5301 ], [ -4.7733, 48.5308 ], [ -4.7725, 48.5273 ] ] ] ] } }
]
}
