{
"type": "FeatureCollection",
"name": "dep32",
"crs": { "type": "name", "properties": { "name": "urn:ogc:def:crs:OGC:1.3:CRS84" } },
"xy_coordinate_resolution": 0.0001,
"features": [
{ "type": "Feature", "properties": { "code": "32", "nom": "Gers" }, "geometry": { "type": "Polygon", "coordinates": [ [ [ 0.076, 43.9831 ], [ 0.0797, 43.9812 ], [ 0.0887, 43.9856 ], [ 0.1051, 43.9846 ], [ 0.1168, 43.988 ], [ 0.12, 43.9954 ], [ 0.1264, 43.9965 ], [ 0.1268, 44.0019 ], [ 0.1417, 43.9942 ], [ 0.1386, 43.9748 ], [ 0.1575, 43.9728 ], [ 0.1659, 43.9809 ], [ 0.1668, 43.9968 ], [ 0.1803, 44.0005 ], [ 0.1896, 44.0146 ], [ 0.1979, 44.0161 ], [ 0.2028, 44.0127 ], [ 0.2059, 44.021 ], [ 0.2114, 44.0196 ], [ 0.214, 44.023 ], [ 0.2247, 44.0192 ], [ 0.234, 44.0216 ], [ 0.2297, 44.0111 ], [ 0.2334, 44.0089 ], [ 0.2534, 44.0025 ], [ 0.2572, 44.0078 ], [ 0.27, 44.0036 ], [ 0.2735, 43.9988 ], [ 0.3029, 43.991 ], [ 0.3091, 43.9955 ], [ 0.3177, 43.9946 ], [ 0.3165, 44.0101 ], [ 0.3271, 44.0073 ], [ 0.3543, 44.0126 ], [ 0.3581, 44.017 ], [ 0.3714, 44.0082 ], [ 0.3815, 44.0064 ], [ 0.3969, 44.0223 ], [ 0.4112, 44.0207 ], [ 0.4172, 44.0295 ], [ 0.425, 44.0261 ], [ 0.4425, 44.0288 ], [ 0.445, 44.0394 ], [ 0.4595, 44.0552 ], [ 0.4841, 44.0527 ], [ 0.4852, 44.0579 ], [ 0.5023, 44.0575 ], [ 0.5059, 44.0519 ], [ 0.5121, 44.0633 ], [ 0.5211, 44.0572 ], [ 0.5306, 44.0576 ], [ 0.5384, 44.0529 ], [ 0.5423, 44.0562 ], [ 0.5555, 44.0547 ], [ 0.5669, 44.0603 ], [ 0.5784, 44.0732 ], [ 0.5759, 44.0759 ], [ 0.5857, 44.0752 ], [ 0.5938, 44.0793 ], [ 0.6279, 44.0606 ], [ 0.6317, 44.0495 ], [ 0.6541, 44.0424 ], [ 0.6523, 44.0331 ], [ 0.6626, 44.0241 ], [ 0.6771, 44.027 ], [ 0.6857, 44.0462 ], [ 0.6953, 44.0444 ], [ 0.7079, 44.0583 ], [ 0.7387, 44.061 ], [ 0.7419, 44.0652 ], [ 0.7517, 44.0664 ], [ 0.7532, 44.0556 ], [ 0.7597, 44.0507 ], [ 0.7568, 44.04 ], [ 0.764, 44.0296 ], [ 0.8106, 44.0487 ], [ 0.8198, 44.0562 ], [ 0.8274, 44.0553 ], [ 0.8358, 44.0469 ], [ 0.8515, 44.0459 ], [ 0.8523, 44.0413 ], [ 0.8549, 44.0432 ], [ 0.8641, 44.0373 ], [ 0.8515, 44.0364 ], [ 0.8396, 44.024 ], [ 0.8253, 44.0299 ], [ 0.8126, 44.0243 ], [ 0.8249, 44.015 ], [ 0.8189, 44.0097 ], [ 0.8241, 44.0072 ], [ 0.8276, 43.9966 ], [ 0.8166, 43.9909 ], [ 0.8161, 43.9838 ], [ 0.805, 43.9766 ], [ 0.7963, 43.9757 ], [ 0.7837, 43.9545 ], [ 0.7725, 43.9534 ], [ 0.7607, 43.947 ], [ 0.7628, 43.9303 ], [ 0.7715, 43.9225 ], [ 0.8093, 43.9323 ], [ 0.8426, 43.9145 ], [ 0.8521, 43.9227 ], [ 0.8577, 43.9204 ], [ 0.8636, 43.9236 ], [ 0.874, 43.9134 ], [ 0.8882, 43.9096 ], [ 0.8911, 43.9026 ], [ 0.9037, 43.8992 ], [ 0.884, 43.8908 ], [ 0.8835, 43.8753 ], [ 0.9057, 43.8597 ], [ 0.9124, 43.8497 ], [ 0.8947, 43.8503 ], [ 0.8952, 43.8399 ], [ 0.9253, 43.8299 ], [ 0.9044, 43.8099 ], [ 0.8977, 43.7865 ], [ 0.9043, 43.7831 ], [ 0.9091, 43.7875 ], [ 0.9168, 43.7847 ], [ 0.9243, 43.7929 ], [ 0.9305, 43.7885 ], [ 0.938, 43.7927 ], [ 0.949, 43.7918 ], [ 0.9569, 43.781 ], [ 0.9562, 43.7736 ], [ 0.9699, 43.7622 ], [ 0.9661, 43.7596 ], [ 0.9693, 43.7574 ], [ 0.9712, 43.7615 ], [ 0.9754, 43.7611 ], [ 0.9858, 43.7478 ], [ 0.9928, 43.7459 ], [ 0.9859, 43.7438 ], [ 0.9894, 43.7393 ], [ 1.0227, 43.723 ], [ 1.0204, 43.7189 ], [ 1.0282, 43.7101 ], [ 1.0379, 43.7136 ], [ 1.0642, 43.7028 ], [ 1.0574, 43.6917 ], [ 1.0601, 43.6873 ], [ 1.0518, 43.6853 ], [ 1.0487, 43.6753 ], [ 1.0637, 43.6715 ], [ 1.0748, 43.6617 ], [ 1.095, 43.665 ], [ 1.1004, 43.6613 ], [ 1.0877, 43.645 ], [ 1.1112, 43.6374 ], [ 1.1185, 43.641 ], [ 1.1258, 43.6386 ], [ 1.1306, 43.6427 ], [ 1.1401, 43.6419 ], [ 1.1475, 43.6342 ], [ 1.1429, 43.6213 ], [ 1.1586, 43.6052 ], [ 1.1727, 43.6075 ], [ 1.1805, 43.6146 ], [ 1.1939, 43.6033 ], [ 1.1917, 43.6013 ], [ 1.2014, 43.5963 ], [ 1.1993, 43.5692 ], [ 1.1633, 43.5739 ], [ 1.1564, 43.5568 ], [ 1.1251, 43.5544 ], [ 1.1122, 43.5567 ], [ 1.1187, 43.5458 ], [ 1.0993, 43.5336 ], [ 1.0877, 43.5469 ], [ 1.0715, 43.5462 ], [ 1.0665, 43.5399 ], [ 1.053, 43.541 ], [ 1.067, 43.5359 ], [ 1.0764, 43.5269 ], [ 1.07, 43.523 ], [ 1.0578, 43.527 ], [ 1.0521, 43.5242 ], [ 1.0554, 43.5206 ], [ 1.0504, 43.5158 ], [ 1.0614, 43.5136 ], [ 1.0729, 43.5044 ], [ 1.0592, 43.5054 ], [ 1.0542, 43.4984 ], [ 1.0564, 43.4935 ], [ 1.0462, 43.4966 ], [ 1.0538, 43.4899 ], [ 1.0519, 43.487 ], [ 1.0364, 43.4867 ], [ 1.0368, 43.4838 ], [ 1.0236, 43.4803 ], [ 1.0175, 43.4736 ], [ 1.0454, 43.459 ], [ 1.0374, 43.4572 ], [ 1.032, 43.4417 ], [ 1.0221, 43.4378 ], [ 1.019, 43.4308 ], [ 1.0299, 43.4183 ], [ 1.0263, 43.4196 ], [ 1.0228, 43.4117 ], [ 1.0045, 43.4143 ], [ 0.9933, 43.4095 ], [ 1.0023, 43.391 ], [ 0.9984, 43.3819 ], [ 1.0055, 43.3797 ], [ 0.996, 43.3763 ], [ 0.9937, 43.3665 ], [ 0.9805, 43.363 ], [ 0.9671, 43.3693 ], [ 0.9693, 43.3772 ], [ 0.9625, 43.3878 ], [ 0.9469, 43.3852 ], [ 0.9443, 43.3809 ], [ 0.9419, 43.3857 ], [ 0.9332, 43.3875 ], [ 0.9281, 43.4001 ], [ 0.918, 43.4021 ], [ 0.9173, 43.4063 ], [ 0.8949, 43.4053 ], [ 0.8881, 43.4119 ], [ 0.8729, 43.4107 ], [ 0.8658, 43.4157 ], [ 0.8499, 43.4138 ], [ 0.8444, 43.4099 ], [ 0.8205, 43.417 ], [ 0.8073, 43.3997 ], [ 0.7704, 43.4168 ], [ 0.7582, 43.4145 ], [ 0.7489, 43.4205 ], [ 0.7591, 43.4046 ], [ 0.7514, 43.4031 ], [ 0.7449, 43.3954 ], [ 0.7537, 43.3894 ], [ 0.7337, 43.371 ], [ 0.7138, 43.3774 ], [ 0.6798, 43.3347 ], [ 0.653, 43.3148 ], [ 0.6463, 43.3119 ], [ 0.6117, 43.3157 ], [ 0.6068, 43.3109 ], [ 0.5963, 43.3158 ], [ 0.5909, 43.3141 ], [ 0.5756, 43.3226 ], [ 0.5718, 43.3197 ], [ 0.5632, 43.3209 ], [ 0.5621, 43.3251 ], [ 0.5527, 43.3262 ], [ 0.5524, 43.3294 ], [ 0.5411, 43.3271 ], [ 0.5079, 43.3341 ], [ 0.494, 43.3251 ], [ 0.4822, 43.332 ], [ 0.445, 43.3407 ], [ 0.443, 43.3279 ], [ 0.4144, 43.3288 ], [ 0.3957, 43.3336 ], [ 0.3951, 43.3499 ], [ 0.3993, 43.3502 ], [ 0.3911, 43.35 ], [ 0.3918, 43.3556 ], [ 0.348, 43.3491 ], [ 0.3318, 43.3432 ], [ 0.3271, 43.3727 ], [ 0.3245, 43.3745 ], [ 0.3154, 43.3674 ], [ 0.3066, 43.3681 ], [ 0.3001, 43.3729 ], [ 0.298, 43.3881 ], [ 0.2784, 43.3862 ], [ 0.257, 43.3766 ], [ 0.249, 43.377 ], [ 0.2326, 43.3678 ], [ 0.2203, 43.3704 ], [ 0.2063, 43.3678 ], [ 0.1995, 43.3753 ], [ 0.182, 43.3712 ], [ 0.1766, 43.3766 ], [ 0.1801, 43.3816 ], [ 0.1738, 43.4028 ], [ 0.1531, 43.3995 ], [ 0.1449, 43.4147 ], [ 0.1323, 43.4242 ], [ 0.1375, 43.434 ], [ 0.1659, 43.4443 ], [ 0.15, 43.4647 ], [ 0.135, 43.4657 ], [ 0.1271, 43.4917 ], [ 0.1305, 43.4949 ], [ 0.1165, 43.5101 ], [ 0.1166, 43.5149 ], [ 0.1121, 43.5174 ], [ 0.1003, 43.5134 ], [ 0.1013, 43.5108 ], [ 0.0897, 43.5102 ], [ 0.0803, 43.5239 ], [ 0.0723, 43.5198 ], [ 0.0514, 43.5185 ], [ 0.043, 43.5344 ], [ 0.0296, 43.5449 ], [ 0.0168, 43.5431 ], [ 0.0089, 43.5605 ], [ -0.0029, 43.5662 ], [ -0.0036, 43.5854 ], [ -0.0154, 43.6055 ], [ -0.0334, 43.604 ], [ -0.0447, 43.6132 ], [ -0.0548, 43.6062 ], [ -0.074, 43.6063 ], [ -0.0757, 43.5916 ], [ -0.0975, 43.5894 ], [ -0.0992, 43.5818 ], [ -0.1216, 43.5868 ], [ -0.1289, 43.5812 ], [ -0.1382, 43.5799 ], [ -0.1481, 43.5858 ], [ -0.1604, 43.5806 ], [ -0.1766, 43.5968 ], [ -0.2047, 43.5836 ], [ -0.2106, 43.5932 ], [ -0.2294, 43.5901 ], [ -0.2382, 43.5827 ], [ -0.2475, 43.5902 ], [ -0.2482, 43.5967 ], [ -0.2546, 43.5971 ], [ -0.2472, 43.616 ], [ -0.2776, 43.6159 ], [ -0.2809, 43.6224 ], [ -0.2813, 43.6429 ], [ -0.2638, 43.6359 ], [ -0.2634, 43.6528 ], [ -0.2421, 43.6551 ], [ -0.2447, 43.6645 ], [ -0.2397, 43.6712 ], [ -0.258, 43.6737 ], [ -0.2568, 43.6832 ], [ -0.2391, 43.6939 ], [ -0.2506, 43.7078 ], [ -0.2108, 43.7243 ], [ -0.1941, 43.737 ], [ -0.1973, 43.7477 ], [ -0.2189, 43.7503 ], [ -0.2181, 43.7542 ], [ -0.2075, 43.7561 ], [ -0.2067, 43.7592 ], [ -0.2173, 43.7715 ], [ -0.2128, 43.7788 ], [ -0.2223, 43.7893 ], [ -0.2178, 43.7982 ], [ -0.2243, 43.8012 ], [ -0.2271, 43.8083 ], [ -0.216, 43.8125 ], [ -0.2008, 43.8067 ], [ -0.1918, 43.8101 ], [ -0.1981, 43.8294 ], [ -0.1881, 43.8326 ], [ -0.2089, 43.8577 ], [ -0.1957, 43.8653 ], [ -0.1964, 43.8716 ], [ -0.1873, 43.8619 ], [ -0.1857, 43.8669 ], [ -0.1905, 43.8807 ], [ -0.2012, 43.8855 ], [ -0.2113, 43.8853 ], [ -0.2223, 43.8942 ], [ -0.2267, 43.8901 ], [ -0.2385, 43.8938 ], [ -0.2347, 43.8955 ], [ -0.2393, 43.8983 ], [ -0.2334, 43.8991 ], [ -0.2283, 43.9115 ], [ -0.2215, 43.9125 ], [ -0.2177, 43.9068 ], [ -0.2001, 43.9148 ], [ -0.192, 43.9262 ], [ -0.1811, 43.9304 ], [ -0.1791, 43.9379 ], [ -0.1656, 43.9276 ], [ -0.1598, 43.9277 ], [ -0.1607, 43.9312 ], [ -0.1539, 43.9323 ], [ -0.1535, 43.9398 ], [ -0.1358, 43.9361 ], [ -0.1247, 43.9444 ], [ -0.1077, 43.9326 ], [ -0.1082, 43.9291 ], [ -0.0952, 43.9295 ], [ -0.0939, 43.933 ], [ -0.0993, 43.9362 ], [ -0.0934, 43.9485 ], [ -0.0811, 43.9426 ], [ -0.0702, 43.9449 ], [ -0.0594, 43.9609 ], [ -0.044, 43.9628 ], [ -0.0362, 43.9837 ], [ 0.0067, 43.9537 ], [ 0.0055, 43.9435 ], [ -0.0239, 43.9298 ], [ 0.0177, 43.9117 ], [ 0.0308, 43.9006 ], [ 0.0406, 43.9038 ], [ 0.059, 43.8968 ], [ 0.0767, 43.9165 ], [ 0.0706, 43.9352 ], [ 0.0568, 43.9493 ], [ 0.0547, 43.9601 ], [ 0.061, 43.9652 ], [ 0.0663, 43.9647 ], [ 0.0671, 43.9736 ], [ 0.076, 43.9831 ] ] ] } }
]
}
