{
"type": "FeatureCollection",
"name": "dep38",
"crs": { "type": "name", "properties": { "name": "urn:ogc:def:crs:OGC:1.3:CRS84" } },
"xy_coordinate_resolution": 0.0001,
"features": [
{ "type": "Feature", "properties": { "code": "38", "nom": "Isère" }, "geometry": { "type": "Polygon", "coordinates": [ [ [ 5.6238, 45.6133 ], [ 5.623, 45.6043 ], [ 5.6457, 45.5842 ], [ 5.6471, 45.5767 ], [ 5.6745, 45.5591 ], [ 5.6696, 45.5558 ], [ 5.6752, 45.5525 ], [ 5.6723, 45.5466 ], [ 5.6797, 45.5465 ], [ 5.6811, 45.542 ], [ 5.6733, 45.5435 ], [ 5.6697, 45.5381 ], [ 5.676, 45.5307 ], [ 5.692, 45.5276 ], [ 5.6912, 45.5218 ], [ 5.7037, 45.5134 ], [ 5.7012, 45.5082 ], [ 5.7126, 45.5075 ], [ 5.7098, 45.5023 ], [ 5.7191, 45.4838 ], [ 5.7365, 45.4717 ], [ 5.732, 45.4528 ], [ 5.7402, 45.4368 ], [ 5.7577, 45.4349 ], [ 5.7661, 45.4404 ], [ 5.7828, 45.4423 ], [ 5.7873, 45.4386 ], [ 5.7981, 45.4382 ], [ 5.8081, 45.4258 ], [ 5.8197, 45.4211 ], [ 5.8543, 45.4166 ], [ 5.8607, 45.4093 ], [ 5.8811, 45.4067 ], [ 5.8899, 45.4013 ], [ 5.8916, 45.3907 ], [ 5.9096, 45.3904 ], [ 5.9283, 45.4167 ], [ 5.9036, 45.408 ], [ 5.9045, 45.4326 ], [ 5.9136, 45.4355 ], [ 5.9212, 45.4437 ], [ 5.9253, 45.4641 ], [ 5.9154, 45.4764 ], [ 5.9534, 45.4848 ], [ 5.9662, 45.4923 ], [ 5.9751, 45.4916 ], [ 5.9912, 45.4751 ], [ 6.0109, 45.4732 ], [ 6.0085, 45.4538 ], [ 6.0491, 45.4379 ], [ 6.0632, 45.4442 ], [ 6.093, 45.4442 ], [ 6.0954, 45.4317 ], [ 6.1228, 45.4389 ], [ 6.134, 45.4325 ], [ 6.1447, 45.4136 ], [ 6.1775, 45.3932 ], [ 6.1918, 45.3693 ], [ 6.1711, 45.3571 ], [ 6.1948, 45.3522 ], [ 6.1924, 45.3382 ], [ 6.1845, 45.3282 ], [ 6.1868, 45.3199 ], [ 6.1539, 45.3114 ], [ 6.1541, 45.3043 ], [ 6.1412, 45.2988 ], [ 6.143, 45.296 ], [ 6.1307, 45.2849 ], [ 6.1332, 45.2706 ], [ 6.141, 45.2613 ], [ 6.1257, 45.2443 ], [ 6.1271, 45.2324 ], [ 6.1418, 45.2223 ], [ 6.1378, 45.2133 ], [ 6.1595, 45.2025 ], [ 6.1619, 45.1884 ], [ 6.1537, 45.1687 ], [ 6.1449, 45.1652 ], [ 6.1483, 45.1601 ], [ 6.1438, 45.1546 ], [ 6.1613, 45.151 ], [ 6.1787, 45.164 ], [ 6.1901, 45.1642 ], [ 6.2156, 45.1525 ], [ 6.2241, 45.1411 ], [ 6.25, 45.1508 ], [ 6.2654, 45.1396 ], [ 6.2571, 45.1222 ], [ 6.2465, 45.1203 ], [ 6.2402, 45.1128 ], [ 6.2289, 45.1083 ], [ 6.2392, 45.0751 ], [ 6.2445, 45.0717 ], [ 6.2401, 45.0677 ], [ 6.2201, 45.0654 ], [ 6.2156, 45.0483 ], [ 6.2086, 45.0407 ], [ 6.2098, 45.0292 ], [ 6.2028, 45.0228 ], [ 6.2039, 45.0125 ], [ 6.2534, 44.9952 ], [ 6.2965, 45.0035 ], [ 6.3182, 45.0039 ], [ 6.3234, 44.9982 ], [ 6.3159, 44.99 ], [ 6.3148, 44.9802 ], [ 6.3295, 44.9692 ], [ 6.3228, 44.9618 ], [ 6.3229, 44.953 ], [ 6.3305, 44.9464 ], [ 6.3588, 44.9413 ], [ 6.353, 44.9245 ], [ 6.3575, 44.9221 ], [ 6.3589, 44.9072 ], [ 6.3536, 44.8975 ], [ 6.3593, 44.8881 ], [ 6.3508, 44.8812 ], [ 6.3504, 44.8737 ], [ 6.3554, 44.8548 ], [ 6.3445, 44.8493 ], [ 6.3363, 44.8484 ], [ 6.3204, 44.8536 ], [ 6.3174, 44.8619 ], [ 6.3039, 44.873 ], [ 6.2886, 44.8741 ], [ 6.2815, 44.8699 ], [ 6.2694, 44.8705 ], [ 6.2584, 44.8637 ], [ 6.25, 44.8519 ], [ 6.2254, 44.8522 ], [ 6.1964, 44.859 ], [ 6.1877, 44.8538 ], [ 6.1685, 44.8522 ], [ 6.1585, 44.8586 ], [ 6.1438, 44.8584 ], [ 6.1329, 44.8645 ], [ 6.1107, 44.8432 ], [ 6.1007, 44.8426 ], [ 6.0565, 44.8158 ], [ 6.0302, 44.8381 ], [ 6.0218, 44.8376 ], [ 6.0094, 44.8304 ], [ 6.0055, 44.8208 ], [ 5.9792, 44.8186 ], [ 5.9495, 44.8045 ], [ 5.9538, 44.7995 ], [ 5.9778, 44.791 ], [ 5.9802, 44.7812 ], [ 5.9532, 44.7713 ], [ 5.9511, 44.7596 ], [ 5.9373, 44.7636 ], [ 5.919, 44.7514 ], [ 5.9109, 44.7577 ], [ 5.9001, 44.7583 ], [ 5.8818, 44.7466 ], [ 5.8667, 44.7516 ], [ 5.8468, 44.7516 ], [ 5.8384, 44.7578 ], [ 5.8271, 44.7597 ], [ 5.8293, 44.7416 ], [ 5.8177, 44.731 ], [ 5.8112, 44.7128 ], [ 5.7718, 44.6968 ], [ 5.7681, 44.6992 ], [ 5.7561, 44.6959 ], [ 5.7461, 44.701 ], [ 5.7365, 44.7138 ], [ 5.7212, 44.7126 ], [ 5.7087, 44.7209 ], [ 5.7041, 44.7293 ], [ 5.7, 44.7287 ], [ 5.6988, 44.7221 ], [ 5.6631, 44.7255 ], [ 5.6616, 44.7207 ], [ 5.6471, 44.7241 ], [ 5.644, 44.7316 ], [ 5.6359, 44.7328 ], [ 5.6315, 44.7388 ], [ 5.6263, 44.7533 ], [ 5.5868, 44.7632 ], [ 5.582, 44.7779 ], [ 5.5498, 44.7945 ], [ 5.5445, 44.7957 ], [ 5.5441, 44.7889 ], [ 5.554, 44.7793 ], [ 5.5545, 44.7675 ], [ 5.5347, 44.7761 ], [ 5.482, 44.7866 ], [ 5.4769, 44.7889 ], [ 5.4802, 44.7928 ], [ 5.4619, 44.7949 ], [ 5.4585, 44.8004 ], [ 5.4761, 44.807 ], [ 5.4768, 44.8156 ], [ 5.4848, 44.8231 ], [ 5.4638, 44.826 ], [ 5.4756, 44.867 ], [ 5.4701, 44.879 ], [ 5.4803, 44.8968 ], [ 5.4837, 44.9223 ], [ 5.4777, 44.9667 ], [ 5.4936, 44.9961 ], [ 5.4804, 45.0129 ], [ 5.4836, 45.0228 ], [ 5.476, 45.025 ], [ 5.478, 45.0336 ], [ 5.4648, 45.0459 ], [ 5.4749, 45.0704 ], [ 5.4823, 45.0732 ], [ 5.4942, 45.0717 ], [ 5.483, 45.0838 ], [ 5.4693, 45.0886 ], [ 5.461, 45.0864 ], [ 5.4497, 45.0711 ], [ 5.4366, 45.0618 ], [ 5.4352, 45.0541 ], [ 5.4257, 45.0563 ], [ 5.4127, 45.0446 ], [ 5.3966, 45.0441 ], [ 5.3868, 45.0568 ], [ 5.3831, 45.0559 ], [ 5.3811, 45.0512 ], [ 5.3965, 45.0395 ], [ 5.3858, 45.0346 ], [ 5.3731, 45.0437 ], [ 5.3459, 45.048 ], [ 5.3403, 45.0621 ], [ 5.3355, 45.0626 ], [ 5.3263, 45.0555 ], [ 5.3207, 45.0571 ], [ 5.3202, 45.0516 ], [ 5.3063, 45.0534 ], [ 5.3053, 45.061 ], [ 5.2928, 45.0639 ], [ 5.2892, 45.0599 ], [ 5.2798, 45.0611 ], [ 5.2677, 45.0547 ], [ 5.2663, 45.0598 ], [ 5.2446, 45.0607 ], [ 5.2445, 45.067 ], [ 5.2325, 45.0705 ], [ 5.2261, 45.0792 ], [ 5.2082, 45.0842 ], [ 5.1794, 45.0833 ], [ 5.1712, 45.069 ], [ 5.1625, 45.0658 ], [ 5.1568, 45.066 ], [ 5.1486, 45.0769 ], [ 5.1384, 45.0726 ], [ 5.1359, 45.08 ], [ 5.141, 45.0764 ], [ 5.1448, 45.0815 ], [ 5.1541, 45.0793 ], [ 5.1629, 45.0984 ], [ 5.1729, 45.1036 ], [ 5.1874, 45.1208 ], [ 5.1906, 45.1407 ], [ 5.1813, 45.1478 ], [ 5.1918, 45.1551 ], [ 5.1898, 45.1694 ], [ 5.1751, 45.1816 ], [ 5.1688, 45.1985 ], [ 5.1643, 45.1976 ], [ 5.1674, 45.2101 ], [ 5.1787, 45.217 ], [ 5.2017, 45.2174 ], [ 5.1846, 45.2312 ], [ 5.1765, 45.2484 ], [ 5.1567, 45.2474 ], [ 5.1582, 45.2555 ], [ 5.1519, 45.2555 ], [ 5.1415, 45.2436 ], [ 5.1209, 45.2476 ], [ 5.1302, 45.2672 ], [ 5.1314, 45.2865 ], [ 5.1386, 45.2967 ], [ 5.1216, 45.2987 ], [ 5.1186, 45.2912 ], [ 5.0754, 45.2818 ], [ 5.0543, 45.319 ], [ 5.0227, 45.3178 ], [ 5.0097, 45.3422 ], [ 4.9951, 45.344 ], [ 4.9659, 45.3351 ], [ 4.9543, 45.3273 ], [ 4.9294, 45.3242 ], [ 4.8797, 45.2969 ], [ 4.8586, 45.2985 ], [ 4.8588, 45.309 ], [ 4.8005, 45.2984 ], [ 4.7619, 45.3241 ], [ 4.762, 45.3424 ], [ 4.7736, 45.3465 ], [ 4.774, 45.3526 ], [ 4.756, 45.3657 ], [ 4.7581, 45.3912 ], [ 4.7421, 45.4146 ], [ 4.7603, 45.4336 ], [ 4.7569, 45.4557 ], [ 4.7795, 45.455 ], [ 4.7806, 45.4709 ], [ 4.812, 45.4834 ], [ 4.8251, 45.4953 ], [ 4.8419, 45.501 ], [ 4.8728, 45.5313 ], [ 4.8644, 45.5373 ], [ 4.8351, 45.5454 ], [ 4.8111, 45.5711 ], [ 4.7821, 45.5806 ], [ 4.7771, 45.5874 ], [ 4.8296, 45.588 ], [ 4.8576, 45.5765 ], [ 4.8598, 45.5908 ], [ 4.8823, 45.6018 ], [ 4.8928, 45.6016 ], [ 4.901, 45.6062 ], [ 4.9275, 45.6057 ], [ 4.9709, 45.6132 ], [ 4.998, 45.6034 ], [ 5.002, 45.614 ], [ 4.9894, 45.6185 ], [ 5.0047, 45.6231 ], [ 5.0367, 45.6129 ], [ 5.0436, 45.6213 ], [ 5.0351, 45.6285 ], [ 5.0391, 45.6322 ], [ 5.0351, 45.6372 ], [ 5.0383, 45.645 ], [ 5.0581, 45.6532 ], [ 5.054, 45.6601 ], [ 5.0608, 45.6664 ], [ 5.1081, 45.688 ], [ 5.1049, 45.7004 ], [ 5.1107, 45.6985 ], [ 5.1126, 45.7026 ], [ 5.1191, 45.6997 ], [ 5.1311, 45.7077 ], [ 5.1431, 45.7 ], [ 5.1502, 45.7058 ], [ 5.154, 45.6997 ], [ 5.1602, 45.7118 ], [ 5.1553, 45.7175 ], [ 5.1439, 45.72 ], [ 5.139, 45.731 ], [ 5.126, 45.7379 ], [ 5.0945, 45.7395 ], [ 5.0894, 45.7497 ], [ 5.0954, 45.7692 ], [ 5.0675, 45.7653 ], [ 5.0593, 45.792 ], [ 5.0893, 45.7843 ], [ 5.1011, 45.8134 ], [ 5.1102, 45.7979 ], [ 5.1144, 45.7991 ], [ 5.1125, 45.8099 ], [ 5.1255, 45.8111 ], [ 5.158, 45.8034 ], [ 5.1679, 45.7952 ], [ 5.1757, 45.7942 ], [ 5.1915, 45.7717 ], [ 5.2267, 45.7695 ], [ 5.2702, 45.7917 ], [ 5.2777, 45.8035 ], [ 5.2889, 45.8111 ], [ 5.302, 45.8477 ], [ 5.3142, 45.8583 ], [ 5.3293, 45.8636 ], [ 5.3409, 45.8805 ], [ 5.351, 45.8837 ], [ 5.4131, 45.8522 ], [ 5.419, 45.8397 ], [ 5.4362, 45.8281 ], [ 5.4212, 45.822 ], [ 5.4222, 45.8077 ], [ 5.4574, 45.781 ], [ 5.4847, 45.7527 ], [ 5.5162, 45.7323 ], [ 5.5257, 45.7167 ], [ 5.5495, 45.7118 ], [ 5.5544, 45.7073 ], [ 5.552, 45.7022 ], [ 5.5737, 45.6947 ], [ 5.5755, 45.6881 ], [ 5.5668, 45.6841 ], [ 5.556, 45.6976 ], [ 5.546, 45.6973 ], [ 5.5452, 45.6874 ], [ 5.5548, 45.6781 ], [ 5.5525, 45.6723 ], [ 5.5632, 45.6744 ], [ 5.5864, 45.6671 ], [ 5.5874, 45.6599 ], [ 5.6027, 45.6515 ], [ 5.6052, 45.6336 ], [ 5.6126, 45.6301 ], [ 5.6238, 45.6133 ] ] ] } }
]
}
