{
"type": "FeatureCollection",
"name": "dep33",
"crs": { "type": "name", "properties": { "name": "urn:ogc:def:crs:OGC:1.3:CRS84" } },
"xy_coordinate_resolution": 0.0001,
"features": [
{ "type": "Feature", "properties": { "code": "33", "nom": "Gironde" }, "geometry": { "type": "MultiPolygon", "coordinates": [ [ [ [ -1.239, 44.5928 ], [ -1.2335, 44.5936 ], [ -1.2295, 44.5887 ], [ -1.2379, 44.5917 ], [ -1.2436, 44.5889 ], [ -1.2436, 44.5844 ], [ -1.2344, 44.5844 ], [ -1.2495, 44.5803 ], [ -1.2463, 44.5718 ], [ -1.2516, 44.5796 ], [ -1.2479, 44.5869 ], [ -1.239, 44.5928 ] ] ], [ [ [ -1.03, 44.6492 ], [ -1.0326, 44.6513 ], [ -1.0263, 44.6625 ], [ -1.0138, 44.6518 ], [ -1.0206, 44.6499 ], [ -1.0246, 44.6529 ], [ -1.03, 44.6492 ] ] ], [ [ [ -1.0237, 44.6442 ], [ -1.0276, 44.647 ], [ -1.0268, 44.6502 ], [ -1.0206, 44.6462 ], [ -1.0237, 44.6442 ] ] ], [ [ [ -1.1779, 44.6974 ], [ -1.1852, 44.6972 ], [ -1.1877, 44.7022 ], [ -1.1794, 44.704 ], [ -1.1779, 44.6974 ] ] ], [ [ [ -1.18, 44.6928 ], [ -1.1847, 44.6951 ], [ -1.1847, 44.6966 ], [ -1.1818, 44.6968 ], [ -1.18, 44.6928 ] ] ], [ [ [ -1.0257, 45.5747 ], [ -0.9265, 45.4961 ], [ -0.8411, 45.4351 ], [ -0.774, 45.3692 ], [ -0.7527, 45.3218 ], [ -0.7137, 45.3279 ], [ -0.6443, 45.322 ], [ -0.642, 45.3151 ], [ -0.6146, 45.3234 ], [ -0.5945, 45.3211 ], [ -0.5938, 45.3348 ], [ -0.5869, 45.3438 ], [ -0.569, 45.3315 ], [ -0.5754, 45.3156 ], [ -0.5658, 45.2959 ], [ -0.561, 45.2988 ], [ -0.5136, 45.2863 ], [ -0.4731, 45.2939 ], [ -0.4255, 45.2786 ], [ -0.4154, 45.2693 ], [ -0.4246, 45.2483 ], [ -0.4073, 45.2478 ], [ -0.4051, 45.2398 ], [ -0.4208, 45.2085 ], [ -0.4017, 45.1885 ], [ -0.3849, 45.1461 ], [ -0.3639, 45.1703 ], [ -0.3391, 45.1671 ], [ -0.3206, 45.1562 ], [ -0.3138, 45.1378 ], [ -0.308, 45.149 ], [ -0.2754, 45.1414 ], [ -0.2585, 45.1145 ], [ -0.2468, 45.1086 ], [ -0.2221, 45.108 ], [ -0.191, 45.0939 ], [ -0.1636, 45.0929 ], [ -0.1541, 45.0891 ], [ -0.1416, 45.09 ], [ -0.1306, 45.0967 ], [ -0.1284, 45.105 ], [ -0.0979, 45.121 ], [ -0.0877, 45.1214 ], [ -0.0636, 45.0992 ], [ -0.0527, 45.1012 ], [ -0.0477, 45.0975 ], [ -0.0345, 45.1035 ], [ -0.0258, 45.1152 ], [ -0.0073, 45.1191 ], [ 0.0445, 45.1154 ], [ 0.0549, 45.1 ], [ 0.063, 45.0964 ], [ 0.0652, 45.0811 ], [ 0.0733, 45.0701 ], [ 0.0542, 45.0393 ], [ 0.0444, 45.0358 ], [ 0.0409, 45.0222 ], [ 0.0391, 45.0243 ], [ 0.0354, 45.0138 ], [ 0.0401, 44.9935 ], [ 0.0334, 44.9806 ], [ 0.0271, 44.9754 ], [ 0.0177, 44.9806 ], [ 0.0137, 44.9789 ], [ 0.01, 44.9539 ], [ 0.0032, 44.9474 ], [ 0.012, 44.9413 ], [ 0.0182, 44.928 ], [ 0.0346, 44.9156 ], [ 0.012, 44.8843 ], [ 0.0032, 44.8815 ], [ 0.0034, 44.8744 ], [ -0.009, 44.8665 ], [ -0.011, 44.8577 ], [ -0.033, 44.856 ], [ -0.0342, 44.8521 ], [ 0.0041, 44.8456 ], [ 0.0211, 44.8498 ], [ 0.0387, 44.8387 ], [ 0.0395, 44.8275 ], [ 0.0469, 44.8246 ], [ 0.062, 44.8257 ], [ 0.0718, 44.8187 ], [ 0.083, 44.8312 ], [ 0.0987, 44.833 ], [ 0.1084, 44.8315 ], [ 0.1123, 44.819 ], [ 0.1239, 44.8279 ], [ 0.1472, 44.8293 ], [ 0.1785, 44.826 ], [ 0.1913, 44.8201 ], [ 0.2086, 44.8407 ], [ 0.2258, 44.846 ], [ 0.2417, 44.8569 ], [ 0.2441, 44.8607 ], [ 0.2371, 44.8706 ], [ 0.2414, 44.8725 ], [ 0.2554, 44.8675 ], [ 0.2791, 44.867 ], [ 0.3151, 44.8454 ], [ 0.3083, 44.8392 ], [ 0.301, 44.8403 ], [ 0.3008, 44.8292 ], [ 0.2923, 44.8317 ], [ 0.2868, 44.823 ], [ 0.2637, 44.8264 ], [ 0.266, 44.8126 ], [ 0.2749, 44.8002 ], [ 0.2714, 44.7854 ], [ 0.2781, 44.7754 ], [ 0.2973, 44.7623 ], [ 0.2951, 44.7574 ], [ 0.2516, 44.7502 ], [ 0.2449, 44.7526 ], [ 0.2403, 44.7632 ], [ 0.2265, 44.7644 ], [ 0.21, 44.7405 ], [ 0.2191, 44.7246 ], [ 0.2015, 44.7231 ], [ 0.1917, 44.7488 ], [ 0.1842, 44.7487 ], [ 0.1751, 44.7337 ], [ 0.1644, 44.7358 ], [ 0.1508, 44.7301 ], [ 0.1399, 44.7364 ], [ 0.1394, 44.7213 ], [ 0.1347, 44.7217 ], [ 0.1395, 44.7141 ], [ 0.1324, 44.7089 ], [ 0.1334, 44.7046 ], [ 0.118, 44.7131 ], [ 0.1077, 44.7107 ], [ 0.1063, 44.7015 ], [ 0.1003, 44.701 ], [ 0.1057, 44.6958 ], [ 0.1041, 44.6856 ], [ 0.1143, 44.6811 ], [ 0.1337, 44.6824 ], [ 0.1326, 44.6683 ], [ 0.1443, 44.6655 ], [ 0.1622, 44.6705 ], [ 0.1773, 44.6673 ], [ 0.1828, 44.6614 ], [ 0.1685, 44.647 ], [ 0.1652, 44.6329 ], [ 0.1498, 44.6328 ], [ 0.1412, 44.6413 ], [ 0.1381, 44.639 ], [ 0.1393, 44.6271 ], [ 0.145, 44.6263 ], [ 0.155, 44.6152 ], [ 0.1509, 44.6086 ], [ 0.1355, 44.6079 ], [ 0.1115, 44.5902 ], [ 0.0822, 44.584 ], [ 0.0862, 44.5763 ], [ 0.0816, 44.563 ], [ 0.0764, 44.5636 ], [ 0.0745, 44.5518 ], [ 0.0686, 44.5482 ], [ 0.0377, 44.5541 ], [ 0.025, 44.5481 ], [ 0.021, 44.5415 ], [ -0.001, 44.5518 ], [ 0.0181, 44.5298 ], [ 0.0096, 44.5219 ], [ -0.0061, 44.5175 ], [ -0.0151, 44.5066 ], [ -0.0182, 44.4917 ], [ -0.0132, 44.4606 ], [ 0.0049, 44.4568 ], [ 0.0075, 44.4471 ], [ -0.0047, 44.4419 ], [ -0.0088, 44.4338 ], [ -0.0059, 44.424 ], [ -0.0139, 44.4187 ], [ -0.0052, 44.4179 ], [ -0.0087, 44.4123 ], [ 0.0059, 44.4006 ], [ 0.0043, 44.3977 ], [ 0.0182, 44.3899 ], [ 0.007, 44.3818 ], [ 0.0236, 44.3775 ], [ 0.0147, 44.3666 ], [ 0.0061, 44.3672 ], [ 0.0012, 44.3723 ], [ -0.0122, 44.372 ], [ -0.0288, 44.3602 ], [ -0.0584, 44.3613 ], [ -0.0696, 44.3529 ], [ -0.0788, 44.3537 ], [ -0.0857, 44.3376 ], [ -0.0666, 44.3224 ], [ -0.0595, 44.3214 ], [ -0.0348, 44.2967 ], [ -0.0434, 44.2936 ], [ -0.033, 44.2717 ], [ -0.0534, 44.2658 ], [ -0.0666, 44.2468 ], [ -0.0744, 44.2524 ], [ -0.0882, 44.2363 ], [ -0.0967, 44.2382 ], [ -0.0985, 44.2339 ], [ -0.1081, 44.231 ], [ -0.1232, 44.2406 ], [ -0.1271, 44.2332 ], [ -0.1407, 44.2264 ], [ -0.166, 44.2414 ], [ -0.1748, 44.2575 ], [ -0.1938, 44.2718 ], [ -0.2044, 44.2642 ], [ -0.226, 44.2648 ], [ -0.2235, 44.2059 ], [ -0.2721, 44.1938 ], [ -0.3113, 44.2033 ], [ -0.3896, 44.2095 ], [ -0.3966, 44.2366 ], [ -0.3834, 44.2863 ], [ -0.4047, 44.2874 ], [ -0.4203, 44.2995 ], [ -0.4315, 44.3009 ], [ -0.4318, 44.3226 ], [ -0.4789, 44.3249 ], [ -0.5176, 44.3391 ], [ -0.5281, 44.3647 ], [ -0.5609, 44.375 ], [ -0.571, 44.3825 ], [ -0.6422, 44.4003 ], [ -0.6259, 44.4071 ], [ -0.6278, 44.4427 ], [ -0.6406, 44.4494 ], [ -0.676, 44.4573 ], [ -0.6828, 44.4507 ], [ -0.6787, 44.45 ], [ -0.6819, 44.4441 ], [ -0.6905, 44.4412 ], [ -0.7297, 44.4482 ], [ -0.7806, 44.4401 ], [ -0.7768, 44.4374 ], [ -0.7803, 44.4281 ], [ -0.798, 44.4276 ], [ -0.8102, 44.4201 ], [ -0.8434, 44.4182 ], [ -0.912, 44.4369 ], [ -0.9192, 44.4433 ], [ -0.9696, 44.4294 ], [ -1.0292, 44.4227 ], [ -1.0076, 44.4366 ], [ -0.9807, 44.4829 ], [ -0.9877, 44.5083 ], [ -0.9911, 44.5119 ], [ -1.0266, 44.5071 ], [ -1.0852, 44.5322 ], [ -1.1065, 44.5028 ], [ -1.2539, 44.4676 ], [ -1.2507, 44.506 ], [ -1.2602, 44.5432 ], [ -1.2317, 44.5694 ], [ -1.2121, 44.5995 ], [ -1.2049, 44.6144 ], [ -1.2042, 44.6404 ], [ -1.1915, 44.6607 ], [ -1.1635, 44.664 ], [ -1.1423, 44.6593 ], [ -1.14, 44.653 ], [ -1.154, 44.6471 ], [ -1.1492, 44.64 ], [ -1.1439, 44.64 ], [ -1.1435, 44.6466 ], [ -1.1278, 44.6475 ], [ -1.118, 44.6467 ], [ -1.1174, 44.643 ], [ -1.1044, 44.6435 ], [ -1.1028, 44.6463 ], [ -1.0811, 44.6402 ], [ -1.0656, 44.6472 ], [ -1.0508, 44.6443 ], [ -1.0515, 44.6486 ], [ -1.0452, 44.6478 ], [ -1.0393, 44.6538 ], [ -1.0222, 44.6421 ], [ -1.0197, 44.6427 ], [ -1.0198, 44.6485 ], [ -1.0036, 44.6484 ], [ -1.0052, 44.6542 ], [ -1.0189, 44.6644 ], [ -1.0244, 44.6757 ], [ -1.0194, 44.6782 ], [ -1.0381, 44.6788 ], [ -1.0439, 44.6811 ], [ -1.0403, 44.6861 ], [ -1.05, 44.682 ], [ -1.0693, 44.6962 ], [ -1.0374, 44.6923 ], [ -1.0536, 44.7036 ], [ -1.0513, 44.7058 ], [ -1.0859, 44.726 ], [ -1.1017, 44.7404 ], [ -1.1182, 44.7441 ], [ -1.1226, 44.751 ], [ -1.1161, 44.7553 ], [ -1.1278, 44.7508 ], [ -1.1676, 44.776 ], [ -1.18, 44.7581 ], [ -1.1737, 44.7545 ], [ -1.1738, 44.7454 ], [ -1.1901, 44.737 ], [ -1.1908, 44.7309 ], [ -1.2045, 44.7215 ], [ -1.2044, 44.7177 ], [ -1.2226, 44.7102 ], [ -1.2326, 44.693 ], [ -1.2462, 44.6419 ], [ -1.244, 44.6366 ], [ -1.2413, 44.6433 ], [ -1.2431, 44.6288 ], [ -1.2485, 44.6188 ], [ -1.2568, 44.6211 ], [ -1.2621, 44.6322 ], [ -1.2079, 44.9622 ], [ -1.162, 45.2997 ], [ -1.1605, 45.4107 ], [ -1.1511, 45.4416 ], [ -1.1562, 45.4761 ], [ -1.1364, 45.511 ], [ -1.1014, 45.5396 ], [ -1.0912, 45.5624 ], [ -1.0619, 45.5723 ], [ -1.0257, 45.5747 ] ] ] ] } }
]
}
