{
"type": "FeatureCollection",
"name": "dep35",
"crs": { "type": "name", "properties": { "name": "urn:ogc:def:crs:OGC:1.3:CRS84" } },
"xy_coordinate_resolution": 0.0001,
"features": [
{ "type": "Feature", "properties": { "code": "35", "nom": "Ille-et-Vilaine" }, "geometry": { "type": "MultiPolygon", "coordinates": [ [ [ [ -2.1586, 48.6394 ], [ -2.1614, 48.6373 ], [ -2.1605, 48.6394 ], [ -2.1586, 48.6394 ] ] ], [ [ [ -1.8398, 48.7072 ], [ -1.8392, 48.7098 ], [ -1.8356, 48.7122 ], [ -1.8398, 48.7072 ] ] ], [ [ [ -1.9537, 48.6969 ], [ -1.9548, 48.6992 ], [ -1.9525, 48.6988 ], [ -1.9537, 48.6969 ] ] ], [ [ [ -2.1237, 48.6044 ], [ -2.1311, 48.6126 ], [ -2.1365, 48.6128 ], [ -2.1386, 48.6249 ], [ -2.1503, 48.6271 ], [ -2.1507, 48.6347 ], [ -2.1414, 48.6315 ], [ -2.1323, 48.6385 ], [ -2.122, 48.6358 ], [ -2.1121, 48.6437 ], [ -2.1112, 48.6377 ], [ -2.0984, 48.6381 ], [ -2.0953, 48.6338 ], [ -2.0823, 48.6358 ], [ -2.077, 48.6408 ], [ -2.0567, 48.6399 ], [ -2.0523, 48.6356 ], [ -2.0492, 48.6387 ], [ -2.0459, 48.6364 ], [ -2.0537, 48.6257 ], [ -2.0336, 48.6267 ], [ -2.0298, 48.6238 ], [ -2.0292, 48.6148 ], [ -2.0343, 48.6101 ], [ -2.0309, 48.6044 ], [ -2.0205, 48.6044 ], [ -2.0251, 48.5979 ], [ -2.0197, 48.5977 ], [ -2.0125, 48.5862 ], [ -2.0052, 48.5884 ], [ -2.0034, 48.5836 ], [ -1.9967, 48.5841 ], [ -1.9943, 48.5777 ], [ -2.013, 48.5706 ], [ -2.0069, 48.5661 ], [ -2.0165, 48.5625 ], [ -2.0224, 48.5531 ], [ -2.0303, 48.5549 ], [ -2.0388, 48.542 ], [ -2.0443, 48.5413 ], [ -2.0536, 48.554 ], [ -2.0453, 48.5574 ], [ -2.0448, 48.5642 ], [ -2.0572, 48.5665 ], [ -2.0584, 48.5704 ], [ -2.076, 48.5677 ], [ -2.095, 48.571 ], [ -2.098, 48.5768 ], [ -2.1019, 48.5757 ], [ -2.1247, 48.5914 ], [ -2.1237, 48.6044 ] ] ], [ [ [ -2.0678, 48.677 ], [ -2.0753, 48.676 ], [ -2.0694, 48.6788 ], [ -2.0678, 48.677 ] ] ], [ [ [ -1.948, 48.5388 ], [ -1.9694, 48.5365 ], [ -1.9606, 48.5491 ], [ -1.9631, 48.5559 ], [ -1.9775, 48.557 ], [ -1.9737, 48.5679 ], [ -1.9817, 48.5725 ], [ -1.987, 48.5845 ], [ -1.9819, 48.5862 ], [ -1.9607, 48.5753 ], [ -1.9546, 48.5765 ], [ -1.9657, 48.5843 ], [ -1.9614, 48.5922 ], [ -1.973, 48.5894 ], [ -1.9932, 48.5943 ], [ -1.9983, 48.5907 ], [ -2.0016, 48.5937 ], [ -1.997, 48.6037 ], [ -2.0119, 48.5983 ], [ -2.0012, 48.6152 ], [ -2.0151, 48.614 ], [ -2.0185, 48.6198 ], [ -2.0136, 48.627 ], [ -2.0225, 48.6347 ], [ -2.0305, 48.634 ], [ -2.0306, 48.638 ], [ -2.0203, 48.6399 ], [ -2.0286, 48.6503 ], [ -2.0095, 48.6541 ], [ -1.9888, 48.6646 ], [ -1.982, 48.6757 ], [ -1.9885, 48.6841 ], [ -1.9815, 48.6816 ], [ -1.9646, 48.6872 ], [ -1.9578, 48.6806 ], [ -1.9381, 48.684 ], [ -1.9479, 48.6901 ], [ -1.9564, 48.6873 ], [ -1.9594, 48.6905 ], [ -1.9381, 48.6945 ], [ -1.9371, 48.7023 ], [ -1.9328, 48.701 ], [ -1.9327, 48.6941 ], [ -1.9245, 48.6921 ], [ -1.9174, 48.6958 ], [ -1.9047, 48.6899 ], [ -1.89, 48.6991 ], [ -1.8746, 48.6949 ], [ -1.8451, 48.7118 ], [ -1.8438, 48.7023 ], [ -1.8501, 48.6994 ], [ -1.8451, 48.6967 ], [ -1.8466, 48.6895 ], [ -1.8358, 48.6803 ], [ -1.8627, 48.6673 ], [ -1.8642, 48.6549 ], [ -1.8721, 48.6457 ], [ -1.8622, 48.6295 ], [ -1.8473, 48.6176 ], [ -1.8221, 48.61 ], [ -1.7677, 48.6024 ], [ -1.6642, 48.6101 ], [ -1.5711, 48.6264 ], [ -1.5661, 48.6143 ], [ -1.5445, 48.6062 ], [ -1.5471, 48.6015 ], [ -1.5372, 48.5988 ], [ -1.543, 48.5804 ], [ -1.5277, 48.5791 ], [ -1.5189, 48.5666 ], [ -1.5267, 48.5657 ], [ -1.5263, 48.5566 ], [ -1.5345, 48.5503 ], [ -1.5159, 48.5379 ], [ -1.5178, 48.5298 ], [ -1.4952, 48.5069 ], [ -1.49, 48.4894 ], [ -1.4838, 48.491 ], [ -1.4819, 48.4868 ], [ -1.4732, 48.4854 ], [ -1.4503, 48.4876 ], [ -1.4351, 48.4774 ], [ -1.4403, 48.4711 ], [ -1.4279, 48.4619 ], [ -1.3976, 48.462 ], [ -1.3799, 48.4561 ], [ -1.365, 48.4664 ], [ -1.3539, 48.4678 ], [ -1.3447, 48.4731 ], [ -1.3494, 48.4817 ], [ -1.3394, 48.4909 ], [ -1.3289, 48.4863 ], [ -1.3275, 48.4981 ], [ -1.3218, 48.4998 ], [ -1.3173, 48.4959 ], [ -1.3007, 48.499 ], [ -1.2876, 48.5095 ], [ -1.2798, 48.5086 ], [ -1.2696, 48.5241 ], [ -1.2723, 48.5339 ], [ -1.2543, 48.5433 ], [ -1.2387, 48.5378 ], [ -1.2175, 48.5369 ], [ -1.2064, 48.5388 ], [ -1.2069, 48.5422 ], [ -1.1929, 48.5289 ], [ -1.1699, 48.5311 ], [ -1.1541, 48.519 ], [ -1.1163, 48.5215 ], [ -1.1037, 48.513 ], [ -1.0702, 48.5085 ], [ -1.067, 48.5045 ], [ -1.0767, 48.5023 ], [ -1.0785, 48.4901 ], [ -1.07, 48.4855 ], [ -1.0788, 48.4816 ], [ -1.073, 48.4818 ], [ -1.0714, 48.4693 ], [ -1.064, 48.4669 ], [ -1.0652, 48.4514 ], [ -1.0796, 48.4436 ], [ -1.0836, 48.4337 ], [ -1.0775, 48.4215 ], [ -1.0803, 48.414 ], [ -1.0687, 48.4055 ], [ -1.0539, 48.384 ], [ -1.0648, 48.3672 ], [ -1.0554, 48.3638 ], [ -1.06, 48.3492 ], [ -1.045, 48.3282 ], [ -1.0592, 48.3121 ], [ -1.0906, 48.2892 ], [ -1.0936, 48.2729 ], [ -1.102, 48.2625 ], [ -1.0896, 48.2391 ], [ -1.0915, 48.2326 ], [ -1.0806, 48.2195 ], [ -1.0873, 48.2093 ], [ -1.0736, 48.1997 ], [ -1.0804, 48.1754 ], [ -1.0748, 48.1719 ], [ -1.0782, 48.1687 ], [ -1.0726, 48.1661 ], [ -1.0739, 48.1593 ], [ -1.0644, 48.1604 ], [ -1.0603, 48.1501 ], [ -1.0498, 48.0904 ], [ -1.0406, 48.0782 ], [ -1.0216, 48.068 ], [ -1.0338, 48.0521 ], [ -1.0264, 48.0456 ], [ -1.035, 48.0336 ], [ -1.0158, 48.0036 ], [ -1.0213, 47.9949 ], [ -1.0503, 47.9845 ], [ -1.0636, 47.9853 ], [ -1.0718, 47.9818 ], [ -1.1035, 47.989 ], [ -1.1248, 47.9868 ], [ -1.1254, 47.9717 ], [ -1.1553, 47.9655 ], [ -1.1617, 47.952 ], [ -1.1595, 47.9392 ], [ -1.1672, 47.9357 ], [ -1.163, 47.9277 ], [ -1.1771, 47.9075 ], [ -1.1762, 47.8974 ], [ -1.1819, 47.8922 ], [ -1.1966, 47.8893 ], [ -1.197, 47.8778 ], [ -1.189, 47.867 ], [ -1.2036, 47.8576 ], [ -1.2158, 47.8575 ], [ -1.2231, 47.8524 ], [ -1.214, 47.8445 ], [ -1.216, 47.8312 ], [ -1.2221, 47.8258 ], [ -1.2203, 47.8211 ], [ -1.2321, 47.8204 ], [ -1.2426, 47.8078 ], [ -1.2362, 47.7981 ], [ -1.2459, 47.7767 ], [ -1.3651, 47.7991 ], [ -1.3615, 47.8034 ], [ -1.3781, 47.8099 ], [ -1.381, 47.822 ], [ -1.3946, 47.8294 ], [ -1.4057, 47.8245 ], [ -1.4233, 47.8325 ], [ -1.4543, 47.831 ], [ -1.4626, 47.8359 ], [ -1.4718, 47.833 ], [ -1.4782, 47.8359 ], [ -1.4824, 47.8309 ], [ -1.4667, 47.8092 ], [ -1.4705, 47.8034 ], [ -1.4909, 47.7984 ], [ -1.5033, 47.8014 ], [ -1.5203, 47.7936 ], [ -1.529, 47.7848 ], [ -1.5497, 47.7828 ], [ -1.5533, 47.7851 ], [ -1.5756, 47.7779 ], [ -1.5864, 47.7799 ], [ -1.5983, 47.7702 ], [ -1.5944, 47.767 ], [ -1.6049, 47.7625 ], [ -1.6231, 47.7636 ], [ -1.6365, 47.7424 ], [ -1.6382, 47.7223 ], [ -1.6485, 47.7209 ], [ -1.6575, 47.7094 ], [ -1.6895, 47.7134 ], [ -1.7106, 47.7084 ], [ -1.7113, 47.7004 ], [ -1.7221, 47.6984 ], [ -1.7514, 47.7075 ], [ -1.7716, 47.6983 ], [ -1.8209, 47.7048 ], [ -1.8275, 47.7106 ], [ -1.84, 47.7055 ], [ -1.8583, 47.7083 ], [ -1.8783, 47.6953 ], [ -1.8987, 47.6955 ], [ -1.9363, 47.6867 ], [ -1.9538, 47.6723 ], [ -1.9612, 47.6709 ], [ -1.9693, 47.6738 ], [ -1.9689, 47.6896 ], [ -1.9744, 47.6939 ], [ -2.0129, 47.666 ], [ -2.0391, 47.6695 ], [ -2.0499, 47.6617 ], [ -2.0515, 47.6496 ], [ -2.0812, 47.6502 ], [ -2.097, 47.6314 ], [ -2.1046, 47.6384 ], [ -2.094, 47.6396 ], [ -2.0964, 47.6474 ], [ -2.1021, 47.6441 ], [ -2.1138, 47.6477 ], [ -2.1029, 47.667 ], [ -2.1038, 47.6762 ], [ -2.1227, 47.6827 ], [ -2.1251, 47.6907 ], [ -2.1186, 47.7094 ], [ -2.1315, 47.7222 ], [ -2.107, 47.7319 ], [ -2.1088, 47.7367 ], [ -2.0587, 47.7383 ], [ -2.0581, 47.742 ], [ -2.0623, 47.7513 ], [ -2.0843, 47.7499 ], [ -2.0847, 47.7627 ], [ -2.126, 47.761 ], [ -2.1282, 47.7687 ], [ -2.1104, 47.7713 ], [ -2.1101, 47.7786 ], [ -2.0949, 47.7787 ], [ -2.0799, 47.7893 ], [ -2.0741, 47.789 ], [ -2.0705, 47.8114 ], [ -2.047, 47.8185 ], [ -2.036, 47.8335 ], [ -2.0516, 47.8406 ], [ -2.0547, 47.8688 ], [ -2.0686, 47.852 ], [ -2.0912, 47.8434 ], [ -2.1018, 47.8441 ], [ -2.1094, 47.8488 ], [ -2.1045, 47.8595 ], [ -2.0956, 47.8617 ], [ -2.1143, 47.8774 ], [ -2.116, 47.8901 ], [ -2.112, 47.8949 ], [ -2.101, 47.896 ], [ -2.1061, 47.9021 ], [ -2.0865, 47.9036 ], [ -2.082, 47.9089 ], [ -2.0857, 47.9137 ], [ -2.0788, 47.9191 ], [ -2.0977, 47.9332 ], [ -2.1001, 47.9483 ], [ -2.11, 47.9529 ], [ -2.1108, 47.9598 ], [ -2.1253, 47.9647 ], [ -2.1444, 47.984 ], [ -2.1778, 47.9796 ], [ -2.1866, 47.9826 ], [ -2.1911, 47.9908 ], [ -2.2261, 47.9945 ], [ -2.2391, 47.9997 ], [ -2.2875, 47.9915 ], [ -2.2895, 48.0009 ], [ -2.2755, 48.0099 ], [ -2.2829, 48.0179 ], [ -2.2796, 48.0264 ], [ -2.2613, 48.0416 ], [ -2.2419, 48.0528 ], [ -2.1888, 48.0524 ], [ -2.1882, 48.0568 ], [ -2.1704, 48.0634 ], [ -2.1685, 48.0762 ], [ -2.1809, 48.0832 ], [ -2.2196, 48.0809 ], [ -2.236, 48.0759 ], [ -2.2343, 48.0632 ], [ -2.2561, 48.0629 ], [ -2.2579, 48.073 ], [ -2.2481, 48.0853 ], [ -2.2558, 48.0968 ], [ -2.2551, 48.1095 ], [ -2.2873, 48.1367 ], [ -2.2833, 48.1453 ], [ -2.2746, 48.1468 ], [ -2.2711, 48.1515 ], [ -2.2593, 48.1513 ], [ -2.2504, 48.1439 ], [ -2.2359, 48.1448 ], [ -2.2354, 48.1493 ], [ -2.2484, 48.1529 ], [ -2.249, 48.1566 ], [ -2.2445, 48.1613 ], [ -2.2285, 48.1651 ], [ -2.223, 48.1741 ], [ -2.2183, 48.2042 ], [ -2.224, 48.2039 ], [ -2.2282, 48.2102 ], [ -2.2125, 48.214 ], [ -2.202, 48.2077 ], [ -2.1845, 48.2102 ], [ -2.1909, 48.2254 ], [ -2.1838, 48.2494 ], [ -2.1544, 48.2612 ], [ -2.1241, 48.2595 ], [ -2.1066, 48.2518 ], [ -2.1112, 48.2574 ], [ -2.1037, 48.2579 ], [ -2.0958, 48.2668 ], [ -2.1094, 48.2676 ], [ -2.1145, 48.2707 ], [ -2.1105, 48.2751 ], [ -2.0806, 48.277 ], [ -2.075, 48.2849 ], [ -2.0795, 48.2928 ], [ -2.0533, 48.2983 ], [ -2.0472, 48.2945 ], [ -2.0493, 48.2899 ], [ -2.0141, 48.2795 ], [ -2.0022, 48.2805 ], [ -2.0049, 48.2916 ], [ -1.9994, 48.2904 ], [ -1.9932, 48.2989 ], [ -1.9751, 48.3017 ], [ -1.9675, 48.2916 ], [ -1.958, 48.2931 ], [ -1.9564, 48.2964 ], [ -1.9682, 48.3033 ], [ -1.9566, 48.307 ], [ -1.959, 48.3145 ], [ -1.954, 48.3156 ], [ -1.9669, 48.3428 ], [ -1.9473, 48.3422 ], [ -1.9291, 48.347 ], [ -1.9331, 48.3607 ], [ -1.9428, 48.3604 ], [ -1.9477, 48.3689 ], [ -1.946, 48.3802 ], [ -1.9384, 48.3829 ], [ -1.9398, 48.393 ], [ -1.93, 48.3948 ], [ -1.9429, 48.4006 ], [ -1.9364, 48.4067 ], [ -1.941, 48.4107 ], [ -1.9361, 48.4173 ], [ -1.9519, 48.4292 ], [ -1.9517, 48.4389 ], [ -1.9486, 48.4465 ], [ -1.9389, 48.447 ], [ -1.9263, 48.456 ], [ -1.9242, 48.4625 ], [ -1.9328, 48.4703 ], [ -1.9285, 48.4755 ], [ -1.909, 48.4816 ], [ -1.9231, 48.4988 ], [ -1.9228, 48.5049 ], [ -1.9115, 48.5062 ], [ -1.9105, 48.5148 ], [ -1.9192, 48.5354 ], [ -1.9266, 48.5378 ], [ -1.9219, 48.5438 ], [ -1.9319, 48.5508 ], [ -1.948, 48.5388 ] ] ] ] } }
]
}
