{
"type": "FeatureCollection",
"name": "dep36",
"crs": { "type": "name", "properties": { "name": "urn:ogc:def:crs:OGC:1.3:CRS84" } },
"xy_coordinate_resolution": 0.0001,
"features": [
{ "type": "Feature", "properties": { "code": "36", "nom": "Indre" }, "geometry": { "type": "Polygon", "coordinates": [ [ [ 1.3267, 47.1862 ], [ 1.3385, 47.1955 ], [ 1.3509, 47.1936 ], [ 1.3714, 47.1997 ], [ 1.4014, 47.2125 ], [ 1.4212, 47.2292 ], [ 1.4581, 47.2399 ], [ 1.4816, 47.2392 ], [ 1.4951, 47.2354 ], [ 1.4936, 47.232 ], [ 1.5031, 47.2351 ], [ 1.5245, 47.226 ], [ 1.5312, 47.2185 ], [ 1.5348, 47.2253 ], [ 1.5255, 47.2419 ], [ 1.531, 47.2488 ], [ 1.524, 47.2552 ], [ 1.5595, 47.2614 ], [ 1.5929, 47.2577 ], [ 1.5924, 47.2767 ], [ 1.6128, 47.2773 ], [ 1.6187, 47.2721 ], [ 1.6275, 47.2755 ], [ 1.6523, 47.2728 ], [ 1.6446, 47.2644 ], [ 1.668, 47.257 ], [ 1.6714, 47.2607 ], [ 1.7045, 47.265 ], [ 1.7048, 47.2706 ], [ 1.716, 47.2768 ], [ 1.7487, 47.2479 ], [ 1.7761, 47.2314 ], [ 1.791, 47.2315 ], [ 1.7958, 47.2378 ], [ 1.8391, 47.2193 ], [ 1.8422, 47.1776 ], [ 1.8226, 47.1735 ], [ 1.8108, 47.1643 ], [ 1.8082, 47.1532 ], [ 1.7748, 47.1306 ], [ 1.7899, 47.1262 ], [ 1.7937, 47.1209 ], [ 1.8271, 47.1218 ], [ 1.8489, 47.1094 ], [ 1.8831, 47.1005 ], [ 1.9049, 47.1091 ], [ 1.9234, 47.1019 ], [ 1.9261, 47.1065 ], [ 1.9637, 47.1247 ], [ 1.9693, 47.1251 ], [ 1.9733, 47.1205 ], [ 1.9967, 47.127 ], [ 2.0002, 47.1139 ], [ 2.0126, 47.1114 ], [ 2.0033, 47.0942 ], [ 2.0289, 47.0951 ], [ 2.0245, 47.1045 ], [ 2.0488, 47.1068 ], [ 2.0534, 47.1035 ], [ 2.0472, 47.0944 ], [ 2.0539, 47.0865 ], [ 2.0557, 47.0717 ], [ 2.0412, 47.0655 ], [ 2.0288, 47.0459 ], [ 2.0314, 47.0423 ], [ 2.0515, 47.0421 ], [ 2.0637, 47.0279 ], [ 2.0752, 47.0256 ], [ 2.086, 47.0161 ], [ 2.0934, 47.0157 ], [ 2.1089, 46.9972 ], [ 2.0921, 46.9882 ], [ 2.0963, 46.9852 ], [ 2.0867, 46.9732 ], [ 2.0909, 46.9681 ], [ 2.0883, 46.9605 ], [ 2.0702, 46.9544 ], [ 2.0704, 46.9344 ], [ 2.11, 46.9134 ], [ 2.1467, 46.9176 ], [ 2.1548, 46.9116 ], [ 2.139, 46.8886 ], [ 2.1264, 46.88 ], [ 2.1142, 46.8804 ], [ 2.107, 46.8721 ], [ 2.083, 46.8686 ], [ 2.0965, 46.8552 ], [ 2.0763, 46.8347 ], [ 2.045, 46.8365 ], [ 2.0725, 46.8088 ], [ 2.0959, 46.8012 ], [ 2.1166, 46.7797 ], [ 2.1149, 46.7736 ], [ 2.1076, 46.7759 ], [ 2.1072, 46.7653 ], [ 2.098, 46.761 ], [ 2.0959, 46.7555 ], [ 2.0669, 46.7515 ], [ 2.0657, 46.7425 ], [ 2.0719, 46.7351 ], [ 2.0912, 46.7274 ], [ 2.087, 46.7126 ], [ 2.1018, 46.7078 ], [ 2.107, 46.7111 ], [ 2.1181, 46.7103 ], [ 2.131, 46.7056 ], [ 2.1407, 46.6955 ], [ 2.1555, 46.6922 ], [ 2.1444, 46.6821 ], [ 2.148, 46.6771 ], [ 2.1367, 46.6773 ], [ 2.1391, 46.6643 ], [ 2.1629, 46.6541 ], [ 2.1628, 46.6463 ], [ 2.1758, 46.6509 ], [ 2.1795, 46.6425 ], [ 2.1894, 46.6421 ], [ 2.1796, 46.6281 ], [ 2.1875, 46.6167 ], [ 2.1836, 46.6119 ], [ 2.1863, 46.6039 ], [ 2.177, 46.6017 ], [ 2.1671, 46.589 ], [ 2.1747, 46.5645 ], [ 2.1589, 46.5575 ], [ 2.1811, 46.529 ], [ 2.1834, 46.509 ], [ 2.1986, 46.5023 ], [ 2.1944, 46.4961 ], [ 2.2044, 46.4906 ], [ 2.2043, 46.4842 ], [ 2.1932, 46.4703 ], [ 2.1514, 46.4577 ], [ 2.1513, 46.4483 ], [ 2.1581, 46.4404 ], [ 2.1544, 46.4341 ], [ 2.1678, 46.4241 ], [ 2.1459, 46.4244 ], [ 2.127, 46.4191 ], [ 2.1155, 46.4219 ], [ 2.1033, 46.4095 ], [ 2.0889, 46.4089 ], [ 2.0794, 46.4125 ], [ 2.0742, 46.4198 ], [ 2.0452, 46.421 ], [ 2.0203, 46.4294 ], [ 1.9931, 46.4309 ], [ 1.9788, 46.4415 ], [ 1.9242, 46.432 ], [ 1.9205, 46.4401 ], [ 1.9092, 46.4435 ], [ 1.9025, 46.4378 ], [ 1.8849, 46.4409 ], [ 1.8834, 46.4325 ], [ 1.8546, 46.4339 ], [ 1.8398, 46.4257 ], [ 1.8195, 46.43 ], [ 1.8173, 46.4398 ], [ 1.8031, 46.4469 ], [ 1.7984, 46.4548 ], [ 1.7865, 46.4552 ], [ 1.7476, 46.45 ], [ 1.7588, 46.4403 ], [ 1.7548, 46.4381 ], [ 1.7603, 46.4271 ], [ 1.7487, 46.413 ], [ 1.7506, 46.4056 ], [ 1.727, 46.3902 ], [ 1.7109, 46.3921 ], [ 1.6836, 46.4182 ], [ 1.6626, 46.4057 ], [ 1.6424, 46.3851 ], [ 1.6268, 46.3885 ], [ 1.6262, 46.394 ], [ 1.6142, 46.3995 ], [ 1.6227, 46.4183 ], [ 1.6093, 46.4231 ], [ 1.5986, 46.4191 ], [ 1.5954, 46.4086 ], [ 1.5876, 46.4071 ], [ 1.5786, 46.4105 ], [ 1.5538, 46.3943 ], [ 1.5462, 46.3935 ], [ 1.5441, 46.4191 ], [ 1.5359, 46.4207 ], [ 1.534, 46.4263 ], [ 1.5267, 46.4269 ], [ 1.5112, 46.4206 ], [ 1.4979, 46.395 ], [ 1.4929, 46.3983 ], [ 1.4777, 46.3939 ], [ 1.4653, 46.3748 ], [ 1.4464, 46.375 ], [ 1.443, 46.3652 ], [ 1.4349, 46.3647 ], [ 1.4404, 46.3564 ], [ 1.4167, 46.3472 ], [ 1.4108, 46.3499 ], [ 1.409, 46.3613 ], [ 1.3947, 46.3676 ], [ 1.3966, 46.3719 ], [ 1.3835, 46.3748 ], [ 1.356, 46.4001 ], [ 1.3443, 46.4015 ], [ 1.3139, 46.3954 ], [ 1.3228, 46.3855 ], [ 1.3205, 46.3816 ], [ 1.3111, 46.3835 ], [ 1.308, 46.3799 ], [ 1.3123, 46.3729 ], [ 1.3031, 46.371 ], [ 1.2918, 46.3748 ], [ 1.2837, 46.3723 ], [ 1.2796, 46.3765 ], [ 1.2604, 46.3788 ], [ 1.251, 46.377 ], [ 1.2382, 46.3662 ], [ 1.2237, 46.3691 ], [ 1.2196, 46.366 ], [ 1.2116, 46.3789 ], [ 1.2147, 46.3871 ], [ 1.2097, 46.3898 ], [ 1.1915, 46.3768 ], [ 1.1822, 46.3761 ], [ 1.1773, 46.384 ], [ 1.1968, 46.4013 ], [ 1.1932, 46.4098 ], [ 1.2127, 46.4322 ], [ 1.2039, 46.4346 ], [ 1.1865, 46.4281 ], [ 1.186, 46.4411 ], [ 1.1518, 46.4487 ], [ 1.1355, 46.4709 ], [ 1.1574, 46.4694 ], [ 1.1334, 46.4976 ], [ 1.1491, 46.5022 ], [ 1.1459, 46.5064 ], [ 1.1083, 46.5315 ], [ 1.0913, 46.5377 ], [ 1.0783, 46.5351 ], [ 1.0657, 46.5399 ], [ 1.0507, 46.5358 ], [ 1.0229, 46.5359 ], [ 1.02, 46.5411 ], [ 1.0249, 46.5495 ], [ 1.0148, 46.5678 ], [ 0.9872, 46.5656 ], [ 0.982, 46.5733 ], [ 0.9736, 46.5746 ], [ 0.9637, 46.5711 ], [ 0.9575, 46.5781 ], [ 0.9414, 46.5809 ], [ 0.9353, 46.5863 ], [ 0.9378, 46.5944 ], [ 0.9159, 46.5966 ], [ 0.9085, 46.6046 ], [ 0.9064, 46.6191 ], [ 0.8939, 46.6286 ], [ 0.9081, 46.6442 ], [ 0.9064, 46.6486 ], [ 0.9177, 46.6506 ], [ 0.9067, 46.6656 ], [ 0.9107, 46.6772 ], [ 0.9027, 46.68 ], [ 0.928, 46.6954 ], [ 0.9081, 46.7188 ], [ 0.9132, 46.7257 ], [ 0.9031, 46.7306 ], [ 0.9018, 46.7362 ], [ 0.8787, 46.7386 ], [ 0.8675, 46.7482 ], [ 0.8846, 46.7549 ], [ 0.9042, 46.7544 ], [ 0.9061, 46.7588 ], [ 0.9273, 46.757 ], [ 0.9445, 46.7367 ], [ 0.9564, 46.7371 ], [ 0.9657, 46.7483 ], [ 0.9799, 46.7543 ], [ 0.9834, 46.7642 ], [ 1.0117, 46.7578 ], [ 1.0112, 46.7672 ], [ 0.9992, 46.7811 ], [ 1.0048, 46.7864 ], [ 1.0039, 46.7933 ], [ 0.9872, 46.7982 ], [ 0.9836, 46.8038 ], [ 1.0032, 46.8141 ], [ 1.0067, 46.8107 ], [ 1.0102, 46.8148 ], [ 1.0069, 46.8233 ], [ 1.0105, 46.8374 ], [ 1.0226, 46.8456 ], [ 1.0168, 46.8561 ], [ 1.0342, 46.908 ], [ 1.0361, 46.9405 ], [ 1.0597, 46.95 ], [ 1.0644, 46.9558 ], [ 1.059, 46.9738 ], [ 1.0499, 46.9806 ], [ 1.0557, 46.9827 ], [ 1.0557, 46.9957 ], [ 1.0737, 47.0026 ], [ 1.0696, 47.0072 ], [ 1.0837, 47.0211 ], [ 1.0872, 47.0194 ], [ 1.1103, 47.0292 ], [ 1.1152, 47.0255 ], [ 1.1293, 47.027 ], [ 1.1614, 47.0396 ], [ 1.1825, 47.0407 ], [ 1.1986, 47.028 ], [ 1.2231, 47.0243 ], [ 1.2321, 47.0141 ], [ 1.2531, 47.0218 ], [ 1.2776, 47.0404 ], [ 1.269, 47.0493 ], [ 1.283, 47.055 ], [ 1.2938, 47.0723 ], [ 1.3122, 47.0719 ], [ 1.3168, 47.0849 ], [ 1.3101, 47.0942 ], [ 1.3178, 47.1041 ], [ 1.3218, 47.1061 ], [ 1.3322, 47.0996 ], [ 1.3435, 47.1005 ], [ 1.3557, 47.1085 ], [ 1.3654, 47.122 ], [ 1.3638, 47.1351 ], [ 1.3513, 47.1523 ], [ 1.3467, 47.1688 ], [ 1.3267, 47.1862 ] ] ] } }
]
}
