{
"type": "FeatureCollection",
"name": "dep37",
"crs": { "type": "name", "properties": { "name": "urn:ogc:def:crs:OGC:1.3:CRS84" } },
"xy_coordinate_resolution": 0.0001,
"features": [
{ "type": "Feature", "properties": { "code": "37", "nom": "Indre-et-Loire" }, "geometry": { "type": "Polygon", "coordinates": [ [ [ 0.6144, 47.6942 ], [ 0.6267, 47.7075 ], [ 0.6391, 47.7097 ], [ 0.6438, 47.7 ], [ 0.6541, 47.6988 ], [ 0.6439, 47.6881 ], [ 0.6483, 47.684 ], [ 0.6543, 47.6842 ], [ 0.6748, 47.699 ], [ 0.6942, 47.6869 ], [ 0.7122, 47.6818 ], [ 0.7197, 47.6907 ], [ 0.7387, 47.6961 ], [ 0.7597, 47.6908 ], [ 0.7704, 47.6839 ], [ 0.8004, 47.6793 ], [ 0.8118, 47.6822 ], [ 0.8279, 47.6768 ], [ 0.867, 47.6906 ], [ 0.8598, 47.6808 ], [ 0.86, 47.6653 ], [ 0.8534, 47.662 ], [ 0.8437, 47.6455 ], [ 0.8632, 47.6321 ], [ 0.8591, 47.626 ], [ 0.8503, 47.6245 ], [ 0.8608, 47.5991 ], [ 0.8976, 47.6042 ], [ 0.8994, 47.609 ], [ 0.8922, 47.6115 ], [ 0.9063, 47.616 ], [ 0.9052, 47.6204 ], [ 0.9156, 47.6252 ], [ 0.9197, 47.6327 ], [ 0.954, 47.6248 ], [ 0.9653, 47.6296 ], [ 0.971, 47.6219 ], [ 0.9918, 47.62 ], [ 0.9839, 47.6052 ], [ 0.9867, 47.5907 ], [ 0.997, 47.584 ], [ 1.0037, 47.5844 ], [ 1.0123, 47.6039 ], [ 1.024, 47.6088 ], [ 1.0328, 47.6081 ], [ 1.0593, 47.5778 ], [ 1.0635, 47.5662 ], [ 1.0769, 47.5714 ], [ 1.0747, 47.5584 ], [ 1.0466, 47.5395 ], [ 1.0453, 47.5315 ], [ 1.056, 47.5276 ], [ 1.0562, 47.5236 ], [ 1.0699, 47.5228 ], [ 1.0671, 47.5154 ], [ 1.0739, 47.5121 ], [ 1.0657, 47.5052 ], [ 1.0788, 47.4942 ], [ 1.0946, 47.4695 ], [ 1.0854, 47.4643 ], [ 1.0871, 47.4618 ], [ 1.1129, 47.4659 ], [ 1.1259, 47.4514 ], [ 1.1334, 47.4489 ], [ 1.1138, 47.428 ], [ 1.1051, 47.4318 ], [ 1.0851, 47.43 ], [ 1.1111, 47.4094 ], [ 1.114, 47.3958 ], [ 1.1235, 47.392 ], [ 1.119, 47.387 ], [ 1.1216, 47.3824 ], [ 1.1132, 47.3799 ], [ 1.1044, 47.3702 ], [ 1.1164, 47.3632 ], [ 1.123, 47.3536 ], [ 1.1133, 47.3479 ], [ 1.1063, 47.3311 ], [ 1.0949, 47.3285 ], [ 1.1064, 47.3008 ], [ 1.1224, 47.2931 ], [ 1.1274, 47.2979 ], [ 1.1623, 47.2723 ], [ 1.1763, 47.288 ], [ 1.1945, 47.283 ], [ 1.222, 47.2941 ], [ 1.2423, 47.2872 ], [ 1.2433, 47.2739 ], [ 1.2602, 47.2645 ], [ 1.2662, 47.2557 ], [ 1.2764, 47.2568 ], [ 1.2801, 47.248 ], [ 1.2946, 47.2374 ], [ 1.3237, 47.1875 ], [ 1.3435, 47.1737 ], [ 1.3638, 47.1351 ], [ 1.3654, 47.122 ], [ 1.3557, 47.1085 ], [ 1.3435, 47.1005 ], [ 1.3322, 47.0996 ], [ 1.3218, 47.1061 ], [ 1.3178, 47.1041 ], [ 1.3101, 47.0942 ], [ 1.3168, 47.0849 ], [ 1.3122, 47.0719 ], [ 1.2938, 47.0723 ], [ 1.283, 47.055 ], [ 1.269, 47.0493 ], [ 1.2776, 47.0404 ], [ 1.2531, 47.0218 ], [ 1.2321, 47.0141 ], [ 1.2231, 47.0243 ], [ 1.1986, 47.028 ], [ 1.1825, 47.0407 ], [ 1.1748, 47.0414 ], [ 1.1293, 47.027 ], [ 1.1152, 47.0255 ], [ 1.1103, 47.0292 ], [ 1.0872, 47.0194 ], [ 1.0837, 47.0211 ], [ 1.0696, 47.0072 ], [ 1.0737, 47.0026 ], [ 1.0564, 46.9964 ], [ 1.0557, 46.9827 ], [ 1.0499, 46.9806 ], [ 1.059, 46.9738 ], [ 1.0644, 46.9558 ], [ 1.0597, 46.95 ], [ 1.0361, 46.9405 ], [ 1.0342, 46.908 ], [ 1.0168, 46.8561 ], [ 1.0226, 46.8456 ], [ 1.0105, 46.8374 ], [ 1.0069, 46.8233 ], [ 1.0102, 46.8148 ], [ 1.0067, 46.8107 ], [ 1.0032, 46.8141 ], [ 0.9836, 46.8038 ], [ 0.9872, 46.7982 ], [ 1.0039, 46.7933 ], [ 1.0048, 46.7864 ], [ 0.9992, 46.7811 ], [ 1.0112, 46.7672 ], [ 1.0117, 46.7578 ], [ 0.9834, 46.7642 ], [ 0.9799, 46.7543 ], [ 0.9657, 46.7483 ], [ 0.9564, 46.7371 ], [ 0.9445, 46.7367 ], [ 0.9273, 46.757 ], [ 0.9061, 46.7588 ], [ 0.9042, 46.7544 ], [ 0.8846, 46.7549 ], [ 0.8675, 46.7482 ], [ 0.859, 46.7604 ], [ 0.8479, 46.7607 ], [ 0.828, 46.7768 ], [ 0.828, 46.7868 ], [ 0.8163, 46.7878 ], [ 0.8119, 46.7945 ], [ 0.8171, 46.8035 ], [ 0.8101, 46.8086 ], [ 0.8093, 46.8279 ], [ 0.7951, 46.8325 ], [ 0.7868, 46.8405 ], [ 0.7965, 46.849 ], [ 0.7903, 46.8524 ], [ 0.7675, 46.8515 ], [ 0.77, 46.8651 ], [ 0.754, 46.8596 ], [ 0.7473, 46.8694 ], [ 0.7337, 46.876 ], [ 0.7267, 46.8867 ], [ 0.7043, 46.9033 ], [ 0.7089, 46.9181 ], [ 0.703, 46.9263 ], [ 0.7062, 46.9362 ], [ 0.6926, 46.9743 ], [ 0.6616, 46.9781 ], [ 0.6565, 46.9854 ], [ 0.6477, 46.9883 ], [ 0.6334, 46.9867 ], [ 0.622, 46.9956 ], [ 0.6239, 47.0039 ], [ 0.6189, 47.0075 ], [ 0.5677, 47.0063 ], [ 0.574, 46.9829 ], [ 0.6012, 46.9731 ], [ 0.5983, 46.9568 ], [ 0.5644, 46.9555 ], [ 0.5434, 46.9604 ], [ 0.5134, 46.9556 ], [ 0.5052, 46.9599 ], [ 0.4448, 46.9411 ], [ 0.4387, 46.9296 ], [ 0.419, 46.9375 ], [ 0.4054, 46.9361 ], [ 0.3665, 46.9496 ], [ 0.3493, 46.9372 ], [ 0.3238, 46.9314 ], [ 0.3112, 46.9378 ], [ 0.3013, 46.9557 ], [ 0.3079, 46.9628 ], [ 0.2982, 46.9713 ], [ 0.308, 46.9774 ], [ 0.3029, 46.9819 ], [ 0.3055, 46.9862 ], [ 0.2981, 46.9836 ], [ 0.2919, 46.9892 ], [ 0.3041, 46.9906 ], [ 0.313, 46.998 ], [ 0.305, 47.0026 ], [ 0.307, 47.011 ], [ 0.2987, 47.0196 ], [ 0.3103, 47.0257 ], [ 0.3054, 47.0527 ], [ 0.2931, 47.0529 ], [ 0.2682, 47.0428 ], [ 0.2652, 47.0547 ], [ 0.26, 47.0556 ], [ 0.2676, 47.0675 ], [ 0.2455, 47.0713 ], [ 0.2352, 47.0692 ], [ 0.2277, 47.0604 ], [ 0.208, 47.0532 ], [ 0.1922, 47.0654 ], [ 0.1893, 47.0608 ], [ 0.1758, 47.0606 ], [ 0.1742, 47.0713 ], [ 0.2009, 47.0914 ], [ 0.1871, 47.1013 ], [ 0.1832, 47.1144 ], [ 0.166, 47.1072 ], [ 0.1626, 47.1007 ], [ 0.1347, 47.1079 ], [ 0.1334, 47.115 ], [ 0.1404, 47.1239 ], [ 0.1272, 47.12 ], [ 0.1229, 47.1287 ], [ 0.1112, 47.1303 ], [ 0.1047, 47.1208 ], [ 0.0901, 47.1222 ], [ 0.0814, 47.1185 ], [ 0.0764, 47.1239 ], [ 0.082, 47.1365 ], [ 0.0784, 47.1463 ], [ 0.0656, 47.1431 ], [ 0.0616, 47.1549 ], [ 0.0536, 47.1606 ], [ 0.0666, 47.1898 ], [ 0.053, 47.1968 ], [ 0.0682, 47.2158 ], [ 0.0793, 47.2168 ], [ 0.0725, 47.2199 ], [ 0.0739, 47.2369 ], [ 0.0679, 47.2473 ], [ 0.0748, 47.248 ], [ 0.0748, 47.2621 ], [ 0.09, 47.2816 ], [ 0.0786, 47.2839 ], [ 0.094, 47.3028 ], [ 0.0991, 47.3031 ], [ 0.099, 47.3081 ], [ 0.113, 47.3179 ], [ 0.1175, 47.3323 ], [ 0.138, 47.3362 ], [ 0.1473, 47.3454 ], [ 0.1404, 47.3618 ], [ 0.1536, 47.3636 ], [ 0.1834, 47.3812 ], [ 0.1675, 47.3856 ], [ 0.1695, 47.3956 ], [ 0.1539, 47.3987 ], [ 0.1809, 47.4162 ], [ 0.1853, 47.4247 ], [ 0.1809, 47.4534 ], [ 0.1905, 47.4613 ], [ 0.1998, 47.4834 ], [ 0.2201, 47.502 ], [ 0.2203, 47.5198 ], [ 0.2261, 47.5266 ], [ 0.2175, 47.5292 ], [ 0.2156, 47.524 ], [ 0.2066, 47.5264 ], [ 0.2056, 47.5347 ], [ 0.1933, 47.5391 ], [ 0.2041, 47.5481 ], [ 0.2151, 47.573 ], [ 0.2343, 47.5779 ], [ 0.2295, 47.5846 ], [ 0.2339, 47.5899 ], [ 0.2321, 47.6108 ], [ 0.2532, 47.6133 ], [ 0.2678, 47.6087 ], [ 0.2679, 47.6026 ], [ 0.2756, 47.5984 ], [ 0.3221, 47.5952 ], [ 0.3384, 47.585 ], [ 0.3397, 47.5794 ], [ 0.3785, 47.5685 ], [ 0.3914, 47.5765 ], [ 0.4024, 47.5784 ], [ 0.3959, 47.5868 ], [ 0.397, 47.594 ], [ 0.3835, 47.6102 ], [ 0.3643, 47.6205 ], [ 0.3642, 47.6253 ], [ 0.3828, 47.6431 ], [ 0.3962, 47.6409 ], [ 0.4239, 47.6178 ], [ 0.4499, 47.6193 ], [ 0.4569, 47.6284 ], [ 0.4531, 47.6338 ], [ 0.464, 47.6456 ], [ 0.4984, 47.6448 ], [ 0.5161, 47.6566 ], [ 0.523, 47.6531 ], [ 0.5517, 47.6592 ], [ 0.5596, 47.6662 ], [ 0.5588, 47.6708 ], [ 0.5865, 47.6689 ], [ 0.6078, 47.6824 ], [ 0.6148, 47.6827 ], [ 0.6191, 47.6909 ], [ 0.6144, 47.6942 ] ] ] } }
]
}
