{
"type": "FeatureCollection",
"name": "dep30",
"crs": { "type": "name", "properties": { "name": "urn:ogc:def:crs:OGC:1.3:CRS84" } },
"xy_coordinate_resolution": 0.0001,
"features": [
{ "type": "Feature", "properties": { "code": "30", "nom": "Gard" }, "geometry": { "type": "Polygon", "coordinates": [ [ [ 3.3737, 44.1708 ], [ 3.3956, 44.1686 ], [ 3.3965, 44.1612 ], [ 3.4051, 44.1619 ], [ 3.4114, 44.1534 ], [ 3.4226, 44.1528 ], [ 3.4308, 44.148 ], [ 3.4327, 44.1353 ], [ 3.4397, 44.129 ], [ 3.5323, 44.122 ], [ 3.5407, 44.1189 ], [ 3.5434, 44.1093 ], [ 3.546, 44.1143 ], [ 3.5638, 44.1232 ], [ 3.598, 44.1191 ], [ 3.6032, 44.1158 ], [ 3.6328, 44.1212 ], [ 3.636, 44.1406 ], [ 3.6532, 44.146 ], [ 3.6275, 44.1545 ], [ 3.6371, 44.1763 ], [ 3.6496, 44.1809 ], [ 3.6603, 44.1738 ], [ 3.6715, 44.1796 ], [ 3.6698, 44.1864 ], [ 3.684, 44.1825 ], [ 3.6941, 44.1704 ], [ 3.7063, 44.1647 ], [ 3.7256, 44.1642 ], [ 3.737, 44.1559 ], [ 3.7604, 44.1512 ], [ 3.7653, 44.1412 ], [ 3.7736, 44.1435 ], [ 3.7827, 44.1341 ], [ 3.797, 44.1274 ], [ 3.8126, 44.1288 ], [ 3.8224, 44.1362 ], [ 3.8321, 44.1373 ], [ 3.8382, 44.1344 ], [ 3.8474, 44.1359 ], [ 3.8565, 44.13 ], [ 3.8614, 44.1326 ], [ 3.8755, 44.1265 ], [ 3.8756, 44.1323 ], [ 3.8896, 44.1449 ], [ 3.9008, 44.1498 ], [ 3.9095, 44.1471 ], [ 3.9131, 44.16 ], [ 3.9273, 44.1613 ], [ 3.9233, 44.1823 ], [ 3.9738, 44.164 ], [ 3.9766, 44.1711 ], [ 3.9719, 44.1739 ], [ 3.9659, 44.1707 ], [ 3.9614, 44.1752 ], [ 3.9646, 44.1778 ], [ 3.9572, 44.1843 ], [ 3.9599, 44.1912 ], [ 3.9366, 44.1949 ], [ 3.9516, 44.2183 ], [ 3.9448, 44.2325 ], [ 3.9462, 44.2424 ], [ 3.9547, 44.2496 ], [ 3.9551, 44.2468 ], [ 3.9627, 44.2504 ], [ 3.9663, 44.2479 ], [ 3.9748, 44.2558 ], [ 3.9689, 44.2664 ], [ 3.9601, 44.2708 ], [ 3.9557, 44.2721 ], [ 3.9457, 44.2667 ], [ 3.9337, 44.2757 ], [ 3.9394, 44.287 ], [ 3.9229, 44.3052 ], [ 3.9427, 44.316 ], [ 3.9522, 44.3315 ], [ 3.9456, 44.336 ], [ 3.9346, 44.3359 ], [ 3.9073, 44.3754 ], [ 3.8978, 44.3776 ], [ 3.8859, 44.3883 ], [ 3.8887, 44.393 ], [ 3.8998, 44.391 ], [ 3.9079, 44.4026 ], [ 3.9165, 44.4046 ], [ 3.9264, 44.4058 ], [ 3.9444, 44.3996 ], [ 3.9511, 44.4014 ], [ 3.9487, 44.4126 ], [ 3.9571, 44.4112 ], [ 3.9611, 44.414 ], [ 3.973, 44.4267 ], [ 3.9753, 44.4429 ], [ 3.984, 44.4455 ], [ 3.9982, 44.4598 ], [ 4.0145, 44.4547 ], [ 4.0232, 44.4456 ], [ 4.0376, 44.4457 ], [ 4.0465, 44.4327 ], [ 4.0355, 44.4201 ], [ 4.0572, 44.4138 ], [ 4.0684, 44.4051 ], [ 4.0627, 44.3987 ], [ 4.0645, 44.3946 ], [ 4.0563, 44.3926 ], [ 4.0478, 44.3975 ], [ 4.0405, 44.3913 ], [ 4.053, 44.3787 ], [ 4.0508, 44.3744 ], [ 4.0576, 44.3635 ], [ 4.0528, 44.3597 ], [ 4.0535, 44.3387 ], [ 4.0357, 44.3302 ], [ 4.0514, 44.3173 ], [ 4.0737, 44.3299 ], [ 4.0933, 44.3305 ], [ 4.0938, 44.3345 ], [ 4.104, 44.3339 ], [ 4.1158, 44.3269 ], [ 4.1268, 44.3377 ], [ 4.1345, 44.3286 ], [ 4.1403, 44.3279 ], [ 4.1429, 44.3133 ], [ 4.165, 44.3121 ], [ 4.178, 44.3177 ], [ 4.1872, 44.2993 ], [ 4.2152, 44.2907 ], [ 4.2415, 44.2698 ], [ 4.2579, 44.2648 ], [ 4.2779, 44.2752 ], [ 4.2886, 44.2919 ], [ 4.2884, 44.315 ], [ 4.3027, 44.3147 ], [ 4.3166, 44.3207 ], [ 4.3299, 44.3321 ], [ 4.3258, 44.3383 ], [ 4.3677, 44.3394 ], [ 4.3913, 44.3469 ], [ 4.4033, 44.3336 ], [ 4.3896, 44.3011 ], [ 4.3941, 44.2996 ], [ 4.3954, 44.2909 ], [ 4.4201, 44.2871 ], [ 4.4331, 44.2911 ], [ 4.4347, 44.2833 ], [ 4.4404, 44.2834 ], [ 4.4532, 44.2979 ], [ 4.4484, 44.2966 ], [ 4.4542, 44.3396 ], [ 4.4749, 44.342 ], [ 4.4815, 44.3369 ], [ 4.499, 44.3383 ], [ 4.5037, 44.3442 ], [ 4.5132, 44.3341 ], [ 4.5128, 44.3281 ], [ 4.5229, 44.3304 ], [ 4.5322, 44.3227 ], [ 4.5488, 44.3257 ], [ 4.5445, 44.3208 ], [ 4.5587, 44.3024 ], [ 4.5773, 44.3004 ], [ 4.587, 44.2946 ], [ 4.6045, 44.2914 ], [ 4.616, 44.2782 ], [ 4.6349, 44.2848 ], [ 4.6412, 44.2744 ], [ 4.6492, 44.2704 ], [ 4.6541, 44.2543 ], [ 4.6779, 44.2341 ], [ 4.6742, 44.214 ], [ 4.7066, 44.2144 ], [ 4.7099, 44.208 ], [ 4.7044, 44.2006 ], [ 4.7058, 44.1928 ], [ 4.7221, 44.1874 ], [ 4.7164, 44.1767 ], [ 4.7189, 44.1445 ], [ 4.7117, 44.1347 ], [ 4.7061, 44.1078 ], [ 4.7188, 44.0925 ], [ 4.7206, 44.0818 ], [ 4.7259, 44.0784 ], [ 4.7488, 44.0872 ], [ 4.7609, 44.0863 ], [ 4.7596, 44.0751 ], [ 4.788, 44.0651 ], [ 4.7876, 44.054 ], [ 4.8162, 44.0321 ], [ 4.8211, 44.0165 ], [ 4.8409, 44.0129 ], [ 4.8444, 43.9894 ], [ 4.8377, 43.9852 ], [ 4.8125, 43.9877 ], [ 4.814, 43.964 ], [ 4.7928, 43.9538 ], [ 4.779, 43.9379 ], [ 4.7445, 43.9293 ], [ 4.7401, 43.9197 ], [ 4.7234, 43.906 ], [ 4.7007, 43.8984 ], [ 4.7093, 43.898 ], [ 4.6922, 43.8842 ], [ 4.6702, 43.8775 ], [ 4.6624, 43.8708 ], [ 4.6592, 43.8758 ], [ 4.6419, 43.8675 ], [ 4.6483, 43.8588 ], [ 4.6415, 43.8511 ], [ 4.6602, 43.8532 ], [ 4.6668, 43.8461 ], [ 4.6502, 43.8391 ], [ 4.6424, 43.8314 ], [ 4.6551, 43.8076 ], [ 4.6519, 43.7841 ], [ 4.6295, 43.7619 ], [ 4.6123, 43.7248 ], [ 4.6147, 43.7094 ], [ 4.6254, 43.6957 ], [ 4.6275, 43.6854 ], [ 4.6169, 43.6889 ], [ 4.593, 43.6875 ], [ 4.5789, 43.6975 ], [ 4.5581, 43.6995 ], [ 4.5399, 43.7073 ], [ 4.5244, 43.7021 ], [ 4.4872, 43.6992 ], [ 4.4757, 43.6845 ], [ 4.4775, 43.6725 ], [ 4.4513, 43.6641 ], [ 4.4262, 43.6245 ], [ 4.4398, 43.6107 ], [ 4.4668, 43.6152 ], [ 4.4725, 43.612 ], [ 4.4741, 43.6039 ], [ 4.4607, 43.5893 ], [ 4.447, 43.583 ], [ 4.4255, 43.5852 ], [ 4.4029, 43.573 ], [ 4.4166, 43.5713 ], [ 4.4093, 43.5611 ], [ 4.3874, 43.5622 ], [ 4.3817, 43.553 ], [ 4.3651, 43.5472 ], [ 4.3504, 43.5468 ], [ 4.3492, 43.5425 ], [ 4.3341, 43.5355 ], [ 4.3161, 43.5449 ], [ 4.3229, 43.5543 ], [ 4.314, 43.5556 ], [ 4.3171, 43.5521 ], [ 4.3114, 43.5513 ], [ 4.3079, 43.5452 ], [ 4.3247, 43.5282 ], [ 4.3088, 43.5245 ], [ 4.2958, 43.5145 ], [ 4.2586, 43.5075 ], [ 4.2397, 43.4992 ], [ 4.2306, 43.4787 ], [ 4.2303, 43.4602 ], [ 4.1656, 43.4719 ], [ 4.1409, 43.4804 ], [ 4.1272, 43.4895 ], [ 4.1165, 43.5083 ], [ 4.1219, 43.5109 ], [ 4.1231, 43.5214 ], [ 4.1373, 43.5247 ], [ 4.1391, 43.5319 ], [ 4.1216, 43.5471 ], [ 4.101, 43.5544 ], [ 4.1094, 43.5685 ], [ 4.0959, 43.5815 ], [ 4.0805, 43.5902 ], [ 4.0747, 43.5886 ], [ 4.0844, 43.592 ], [ 4.0989, 43.5852 ], [ 4.124, 43.589 ], [ 4.1502, 43.5856 ], [ 4.1498, 43.5982 ], [ 4.1688, 43.609 ], [ 4.1938, 43.6421 ], [ 4.1908, 43.6467 ], [ 4.1941, 43.6546 ], [ 4.1775, 43.6722 ], [ 4.1793, 43.6748 ], [ 4.1628, 43.6873 ], [ 4.1667, 43.6993 ], [ 4.1518, 43.7173 ], [ 4.143, 43.7368 ], [ 4.1306, 43.741 ], [ 4.1219, 43.7368 ], [ 4.114, 43.7377 ], [ 4.1067, 43.7471 ], [ 4.0937, 43.7525 ], [ 4.0898, 43.7652 ], [ 4.0836, 43.7685 ], [ 4.0675, 43.7647 ], [ 4.0633, 43.7723 ], [ 4.054, 43.7722 ], [ 4.0535, 43.7856 ], [ 4.0186, 43.8072 ], [ 4.0013, 43.813 ], [ 3.9743, 43.8015 ], [ 3.9659, 43.8024 ], [ 3.9606, 43.8068 ], [ 3.9616, 43.8165 ], [ 3.9784, 43.8299 ], [ 3.9726, 43.8372 ], [ 3.9794, 43.8429 ], [ 3.9583, 43.8437 ], [ 3.9579, 43.8544 ], [ 3.9379, 43.8536 ], [ 3.9221, 43.8584 ], [ 3.917, 43.8879 ], [ 3.8971, 43.8776 ], [ 3.8568, 43.8771 ], [ 3.8518, 43.8676 ], [ 3.838, 43.8707 ], [ 3.8308, 43.8664 ], [ 3.8224, 43.8748 ], [ 3.8037, 43.8793 ], [ 3.7995, 43.8908 ], [ 3.829, 43.9245 ], [ 3.8236, 43.9294 ], [ 3.8267, 43.9367 ], [ 3.8203, 43.9424 ], [ 3.7955, 43.9423 ], [ 3.7868, 43.9545 ], [ 3.7873, 43.9669 ], [ 3.759, 43.9676 ], [ 3.7521, 43.9728 ], [ 3.7438, 43.9666 ], [ 3.7314, 43.9719 ], [ 3.7173, 43.961 ], [ 3.7051, 43.9621 ], [ 3.6901, 43.9515 ], [ 3.6855, 43.954 ], [ 3.6822, 43.9471 ], [ 3.6895, 43.9399 ], [ 3.6836, 43.9404 ], [ 3.6758, 43.9315 ], [ 3.6786, 43.9247 ], [ 3.6715, 43.9096 ], [ 3.6426, 43.9156 ], [ 3.6476, 43.9024 ], [ 3.639, 43.8965 ], [ 3.6325, 43.8993 ], [ 3.639, 43.9162 ], [ 3.6236, 43.917 ], [ 3.6116, 43.9018 ], [ 3.6076, 43.9022 ], [ 3.6003, 43.8872 ], [ 3.5854, 43.88 ], [ 3.5755, 43.8654 ], [ 3.5839, 43.8588 ], [ 3.5994, 43.8547 ], [ 3.6009, 43.8494 ], [ 3.5813, 43.8481 ], [ 3.5789, 43.8436 ], [ 3.5581, 43.8567 ], [ 3.5538, 43.8518 ], [ 3.5381, 43.8532 ], [ 3.5324, 43.8574 ], [ 3.5283, 43.8543 ], [ 3.5278, 43.8605 ], [ 3.5237, 43.8644 ], [ 3.5191, 43.8634 ], [ 3.5231, 43.8667 ], [ 3.523, 43.8884 ], [ 3.5159, 43.8889 ], [ 3.5187, 43.8919 ], [ 3.5133, 43.8962 ], [ 3.5027, 43.8973 ], [ 3.5032, 43.8914 ], [ 3.4957, 43.8895 ], [ 3.483, 43.892 ], [ 3.4627, 43.872 ], [ 3.4461, 43.8695 ], [ 3.4321, 43.8629 ], [ 3.4216, 43.8723 ], [ 3.4314, 43.8726 ], [ 3.4353, 43.8851 ], [ 3.4415, 43.8875 ], [ 3.4322, 43.8938 ], [ 3.4403, 43.8968 ], [ 3.4245, 43.9116 ], [ 3.401, 43.915 ], [ 3.3947, 43.9092 ], [ 3.3777, 43.9123 ], [ 3.3702, 43.9175 ], [ 3.3603, 43.9106 ], [ 3.3505, 43.9323 ], [ 3.3571, 43.949 ], [ 3.3756, 43.956 ], [ 3.3782, 43.9676 ], [ 3.4056, 43.9697 ], [ 3.4178, 43.9926 ], [ 3.4392, 43.998 ], [ 3.4458, 44.0045 ], [ 3.4516, 44.0215 ], [ 3.4173, 44.0416 ], [ 3.4008, 44.0433 ], [ 3.3935, 44.048 ], [ 3.3901, 44.0575 ], [ 3.3806, 44.0563 ], [ 3.3714, 44.0494 ], [ 3.3717, 44.0559 ], [ 3.3671, 44.0582 ], [ 3.3518, 44.0502 ], [ 3.3377, 44.0583 ], [ 3.3289, 44.079 ], [ 3.3184, 44.0791 ], [ 3.3074, 44.0691 ], [ 3.2947, 44.0678 ], [ 3.2974, 44.0723 ], [ 3.2892, 44.0722 ], [ 3.2754, 44.0841 ], [ 3.2772, 44.0876 ], [ 3.2626, 44.0929 ], [ 3.2718, 44.0978 ], [ 3.2774, 44.0964 ], [ 3.291, 44.1059 ], [ 3.3118, 44.1043 ], [ 3.3229, 44.1098 ], [ 3.3203, 44.1359 ], [ 3.3323, 44.1418 ], [ 3.3346, 44.1588 ], [ 3.3442, 44.1587 ], [ 3.3575, 44.168 ], [ 3.3737, 44.1708 ] ] ] } }
]
}
