{
"type": "FeatureCollection",
"name": "dep34",
"crs": { "type": "name", "properties": { "name": "urn:ogc:def:crs:OGC:1.3:CRS84" } },
"xy_coordinate_resolution": 0.0001,
"features": [
{ "type": "Feature", "properties": { "code": "34", "nom": "Hérault" }, "geometry": { "type": "MultiPolygon", "coordinates": [ [ [ [ 3.5007, 43.2629 ], [ 3.5022, 43.2642 ], [ 3.5036, 43.2631 ], [ 3.5007, 43.2629 ] ] ], [ [ [ 3.3584, 43.9138 ], [ 3.3618, 43.9102 ], [ 3.3702, 43.9175 ], [ 3.3777, 43.9123 ], [ 3.3947, 43.9092 ], [ 3.401, 43.915 ], [ 3.4245, 43.9116 ], [ 3.4403, 43.8968 ], [ 3.4322, 43.8938 ], [ 3.4415, 43.8875 ], [ 3.4353, 43.8851 ], [ 3.4314, 43.8726 ], [ 3.4216, 43.8723 ], [ 3.4321, 43.8629 ], [ 3.4461, 43.8695 ], [ 3.4627, 43.872 ], [ 3.483, 43.892 ], [ 3.4957, 43.8895 ], [ 3.5032, 43.8914 ], [ 3.5027, 43.8973 ], [ 3.5133, 43.8962 ], [ 3.5187, 43.8919 ], [ 3.5159, 43.8889 ], [ 3.523, 43.8884 ], [ 3.5231, 43.8667 ], [ 3.5191, 43.8634 ], [ 3.5237, 43.8644 ], [ 3.5278, 43.8605 ], [ 3.5283, 43.8543 ], [ 3.5324, 43.8574 ], [ 3.5381, 43.8532 ], [ 3.5538, 43.8518 ], [ 3.5581, 43.8567 ], [ 3.5789, 43.8436 ], [ 3.5813, 43.8481 ], [ 3.6009, 43.8494 ], [ 3.5994, 43.8547 ], [ 3.5839, 43.8588 ], [ 3.5755, 43.8654 ], [ 3.5854, 43.88 ], [ 3.6003, 43.8872 ], [ 3.6076, 43.9022 ], [ 3.6116, 43.9018 ], [ 3.6236, 43.917 ], [ 3.639, 43.9162 ], [ 3.6325, 43.8993 ], [ 3.639, 43.8965 ], [ 3.6476, 43.9024 ], [ 3.6426, 43.9156 ], [ 3.6715, 43.9096 ], [ 3.6786, 43.9247 ], [ 3.6758, 43.9315 ], [ 3.6836, 43.9404 ], [ 3.6895, 43.9399 ], [ 3.6822, 43.9471 ], [ 3.6855, 43.954 ], [ 3.6901, 43.9515 ], [ 3.7051, 43.9621 ], [ 3.7173, 43.961 ], [ 3.7314, 43.9719 ], [ 3.7438, 43.9666 ], [ 3.7521, 43.9728 ], [ 3.759, 43.9676 ], [ 3.7873, 43.9669 ], [ 3.7868, 43.9545 ], [ 3.7955, 43.9423 ], [ 3.8203, 43.9424 ], [ 3.8267, 43.9367 ], [ 3.8236, 43.9294 ], [ 3.829, 43.9245 ], [ 3.7995, 43.8908 ], [ 3.8037, 43.8793 ], [ 3.8224, 43.8748 ], [ 3.8308, 43.8664 ], [ 3.838, 43.8707 ], [ 3.8518, 43.8676 ], [ 3.8568, 43.8771 ], [ 3.8971, 43.8776 ], [ 3.917, 43.8879 ], [ 3.9221, 43.8584 ], [ 3.9379, 43.8536 ], [ 3.9579, 43.8544 ], [ 3.9583, 43.8437 ], [ 3.9794, 43.8429 ], [ 3.9726, 43.8372 ], [ 3.9784, 43.8299 ], [ 3.9616, 43.8165 ], [ 3.9606, 43.8068 ], [ 3.9659, 43.8024 ], [ 3.9743, 43.8015 ], [ 4.0013, 43.813 ], [ 4.0186, 43.8072 ], [ 4.0535, 43.7856 ], [ 4.054, 43.7722 ], [ 4.0633, 43.7723 ], [ 4.0675, 43.7647 ], [ 4.0836, 43.7685 ], [ 4.0898, 43.7652 ], [ 4.0937, 43.7525 ], [ 4.1067, 43.7471 ], [ 4.114, 43.7377 ], [ 4.1219, 43.7368 ], [ 4.1306, 43.741 ], [ 4.143, 43.7368 ], [ 4.1518, 43.7173 ], [ 4.1667, 43.6993 ], [ 4.1628, 43.6873 ], [ 4.1793, 43.6748 ], [ 4.1775, 43.6722 ], [ 4.1941, 43.6546 ], [ 4.1908, 43.6467 ], [ 4.1938, 43.6421 ], [ 4.1688, 43.609 ], [ 4.1498, 43.5982 ], [ 4.1502, 43.5856 ], [ 4.124, 43.589 ], [ 4.0989, 43.5852 ], [ 4.0844, 43.592 ], [ 4.0747, 43.5886 ], [ 4.0805, 43.5902 ], [ 4.1081, 43.5702 ], [ 4.101, 43.5544 ], [ 4.0561, 43.5575 ], [ 4.0112, 43.5524 ], [ 3.9343, 43.5279 ], [ 3.932, 43.5235 ], [ 3.9275, 43.5246 ], [ 3.8942, 43.5109 ], [ 3.8512, 43.4865 ], [ 3.7967, 43.441 ], [ 3.7766, 43.4314 ], [ 3.7249, 43.4158 ], [ 3.7256, 43.4012 ], [ 3.7084, 43.3988 ], [ 3.6917, 43.3916 ], [ 3.6736, 43.3903 ], [ 3.6649, 43.3932 ], [ 3.6461, 43.3848 ], [ 3.5786, 43.3361 ], [ 3.5095, 43.2717 ], [ 3.4444, 43.2819 ], [ 3.4303, 43.2902 ], [ 3.394, 43.2859 ], [ 3.3427, 43.2699 ], [ 3.2761, 43.2362 ], [ 3.2406, 43.2128 ], [ 3.2259, 43.2201 ], [ 3.1988, 43.2504 ], [ 3.1873, 43.2511 ], [ 3.1754, 43.2437 ], [ 3.1576, 43.2425 ], [ 3.144, 43.2473 ], [ 3.1475, 43.2529 ], [ 3.1416, 43.2595 ], [ 3.1201, 43.2616 ], [ 3.1109, 43.2535 ], [ 3.0866, 43.2638 ], [ 3.0783, 43.2618 ], [ 3.0537, 43.2802 ], [ 3.0223, 43.2819 ], [ 3.023, 43.2768 ], [ 3.0108, 43.274 ], [ 3.0131, 43.2819 ], [ 3.0048, 43.2853 ], [ 3.0043, 43.3201 ], [ 2.9469, 43.3121 ], [ 2.9213, 43.3261 ], [ 2.9141, 43.3197 ], [ 2.8905, 43.3281 ], [ 2.8841, 43.335 ], [ 2.8924, 43.3436 ], [ 2.8879, 43.3542 ], [ 2.8902, 43.3654 ], [ 2.8697, 43.3733 ], [ 2.8728, 43.3787 ], [ 2.8686, 43.3821 ], [ 2.8554, 43.373 ], [ 2.8626, 43.3616 ], [ 2.8691, 43.3594 ], [ 2.8713, 43.3424 ], [ 2.8758, 43.3403 ], [ 2.8693, 43.3306 ], [ 2.8379, 43.3221 ], [ 2.8182, 43.324 ], [ 2.8064, 43.32 ], [ 2.8063, 43.3158 ], [ 2.8184, 43.3097 ], [ 2.7878, 43.2887 ], [ 2.7875, 43.2724 ], [ 2.7723, 43.2578 ], [ 2.7525, 43.2546 ], [ 2.7257, 43.2727 ], [ 2.715, 43.2769 ], [ 2.7131, 43.274 ], [ 2.7049, 43.2746 ], [ 2.6989, 43.2806 ], [ 2.7071, 43.2943 ], [ 2.6983, 43.3031 ], [ 2.6982, 43.3161 ], [ 2.6891, 43.3225 ], [ 2.6876, 43.3172 ], [ 2.6758, 43.3143 ], [ 2.6746, 43.3023 ], [ 2.6587, 43.2962 ], [ 2.6591, 43.293 ], [ 2.6325, 43.2982 ], [ 2.6274, 43.2888 ], [ 2.6171, 43.2843 ], [ 2.6168, 43.2891 ], [ 2.6014, 43.2981 ], [ 2.5997, 43.3138 ], [ 2.592, 43.318 ], [ 2.5854, 43.3334 ], [ 2.5563, 43.3376 ], [ 2.5513, 43.3344 ], [ 2.5407, 43.346 ], [ 2.557, 43.3669 ], [ 2.5514, 43.3784 ], [ 2.5552, 43.3883 ], [ 2.5692, 43.4003 ], [ 2.5861, 43.399 ], [ 2.5947, 43.4092 ], [ 2.5935, 43.4126 ], [ 2.5797, 43.4125 ], [ 2.5658, 43.423 ], [ 2.5807, 43.4232 ], [ 2.5874, 43.4285 ], [ 2.5957, 43.4292 ], [ 2.5968, 43.4328 ], [ 2.6061, 43.4311 ], [ 2.6058, 43.4409 ], [ 2.6178, 43.4377 ], [ 2.6462, 43.4591 ], [ 2.6379, 43.4652 ], [ 2.6426, 43.4691 ], [ 2.6655, 43.462 ], [ 2.668, 43.47 ], [ 2.6581, 43.479 ], [ 2.6553, 43.4917 ], [ 2.6605, 43.5034 ], [ 2.6588, 43.5169 ], [ 2.676, 43.5135 ], [ 2.6668, 43.5233 ], [ 2.6546, 43.5272 ], [ 2.6156, 43.5665 ], [ 2.6318, 43.5841 ], [ 2.6272, 43.5933 ], [ 2.6215, 43.5924 ], [ 2.6146, 43.5999 ], [ 2.6286, 43.6101 ], [ 2.6255, 43.6183 ], [ 2.635, 43.6252 ], [ 2.6462, 43.6603 ], [ 2.6519, 43.6581 ], [ 2.6523, 43.649 ], [ 2.6705, 43.6493 ], [ 2.6847, 43.6538 ], [ 2.7113, 43.6441 ], [ 2.7202, 43.6454 ], [ 2.7254, 43.6373 ], [ 2.7383, 43.6316 ], [ 2.744, 43.6198 ], [ 2.7545, 43.6141 ], [ 2.7833, 43.6264 ], [ 2.7949, 43.6244 ], [ 2.8076, 43.636 ], [ 2.8133, 43.6358 ], [ 2.8138, 43.6411 ], [ 2.8284, 43.6374 ], [ 2.8467, 43.6458 ], [ 2.8737, 43.6451 ], [ 2.8791, 43.6573 ], [ 2.9073, 43.6542 ], [ 2.9197, 43.6623 ], [ 2.9218, 43.6897 ], [ 2.9333, 43.6953 ], [ 2.9376, 43.6905 ], [ 2.9465, 43.6929 ], [ 2.9813, 43.708 ], [ 2.9928, 43.7084 ], [ 3.009, 43.7017 ], [ 3.0123, 43.7038 ], [ 3.0161, 43.6975 ], [ 3.0273, 43.6927 ], [ 3.0452, 43.6974 ], [ 3.0602, 43.6929 ], [ 3.0621, 43.7022 ], [ 3.0692, 43.7068 ], [ 3.0535, 43.7162 ], [ 3.0585, 43.7267 ], [ 3.0518, 43.7322 ], [ 3.0591, 43.7381 ], [ 3.0526, 43.7458 ], [ 3.0563, 43.7546 ], [ 3.0685, 43.7568 ], [ 3.0759, 43.7685 ], [ 3.0591, 43.7795 ], [ 3.0486, 43.8015 ], [ 3.0526, 43.8067 ], [ 3.0631, 43.8092 ], [ 3.0638, 43.8153 ], [ 3.0576, 43.8186 ], [ 3.0611, 43.8333 ], [ 3.0865, 43.8358 ], [ 3.113, 43.8275 ], [ 3.1245, 43.8184 ], [ 3.1496, 43.8136 ], [ 3.158, 43.8176 ], [ 3.1811, 43.8128 ], [ 3.2114, 43.8134 ], [ 3.2293, 43.8249 ], [ 3.249, 43.8296 ], [ 3.2514, 43.8434 ], [ 3.2402, 43.8489 ], [ 3.2344, 43.8594 ], [ 3.2431, 43.8752 ], [ 3.259, 43.8809 ], [ 3.265, 43.8953 ], [ 3.2751, 43.8983 ], [ 3.2834, 43.8927 ], [ 3.2934, 43.8958 ], [ 3.3189, 43.8906 ], [ 3.3426, 43.8942 ], [ 3.3403, 43.9017 ], [ 3.3584, 43.9138 ] ] ] ] } }
]
}
