{
"type": "FeatureCollection",
"name": "dep31",
"crs": { "type": "name", "properties": { "name": "urn:ogc:def:crs:OGC:1.3:CRS84" } },
"xy_coordinate_resolution": 0.0001,
"features": [
{ "type": "Feature", "properties": { "code": "31", "nom": "Haute-Garonne" }, "geometry": { "type": "Polygon", "coordinates": [ [ [ 0.954, 43.7874 ], [ 0.9619, 43.7904 ], [ 0.9714, 43.7853 ], [ 0.9793, 43.7864 ], [ 0.9915, 43.7973 ], [ 1.0173, 43.8019 ], [ 1.0258, 43.7978 ], [ 1.0362, 43.8042 ], [ 1.0466, 43.7986 ], [ 1.0573, 43.7979 ], [ 1.0833, 43.8163 ], [ 1.0969, 43.8073 ], [ 1.1105, 43.8056 ], [ 1.1051, 43.8014 ], [ 1.1103, 43.7963 ], [ 1.1272, 43.8106 ], [ 1.1419, 43.8152 ], [ 1.1446, 43.8223 ], [ 1.1504, 43.8222 ], [ 1.1578, 43.8184 ], [ 1.1609, 43.8082 ], [ 1.1753, 43.8044 ], [ 1.1814, 43.7948 ], [ 1.2167, 43.7919 ], [ 1.2183, 43.7821 ], [ 1.2085, 43.7797 ], [ 1.2054, 43.7747 ], [ 1.2128, 43.7677 ], [ 1.2782, 43.7876 ], [ 1.2803, 43.7905 ], [ 1.2694, 43.792 ], [ 1.267, 43.7977 ], [ 1.2782, 43.803 ], [ 1.2826, 43.7962 ], [ 1.3115, 43.8007 ], [ 1.327, 43.8091 ], [ 1.3434, 43.8105 ], [ 1.3498, 43.8171 ], [ 1.36, 43.8172 ], [ 1.3544, 43.8365 ], [ 1.328, 43.8382 ], [ 1.3138, 43.8321 ], [ 1.3098, 43.8399 ], [ 1.2938, 43.8456 ], [ 1.3194, 43.8581 ], [ 1.33, 43.855 ], [ 1.3303, 43.8511 ], [ 1.3546, 43.8536 ], [ 1.3595, 43.8512 ], [ 1.3646, 43.8555 ], [ 1.3481, 43.8692 ], [ 1.3568, 43.8758 ], [ 1.3561, 43.8838 ], [ 1.3652, 43.8896 ], [ 1.3932, 43.8805 ], [ 1.4019, 43.8855 ], [ 1.4147, 43.8784 ], [ 1.4181, 43.8714 ], [ 1.4315, 43.8688 ], [ 1.4472, 43.8741 ], [ 1.4489, 43.8703 ], [ 1.457, 43.8865 ], [ 1.4747, 43.9021 ], [ 1.4756, 43.9074 ], [ 1.4879, 43.902 ], [ 1.4922, 43.8874 ], [ 1.5166, 43.9008 ], [ 1.5152, 43.906 ], [ 1.5233, 43.9036 ], [ 1.5326, 43.9127 ], [ 1.5328, 43.9213 ], [ 1.5484, 43.917 ], [ 1.5547, 43.9187 ], [ 1.5473, 43.8995 ], [ 1.5501, 43.8901 ], [ 1.5622, 43.8791 ], [ 1.556, 43.8782 ], [ 1.556, 43.8752 ], [ 1.564, 43.8719 ], [ 1.5551, 43.8685 ], [ 1.5726, 43.8488 ], [ 1.5926, 43.8426 ], [ 1.5923, 43.8357 ], [ 1.5871, 43.8329 ], [ 1.593, 43.8264 ], [ 1.5877, 43.821 ], [ 1.5902, 43.8145 ], [ 1.6303, 43.7994 ], [ 1.6336, 43.8021 ], [ 1.6448, 43.8003 ], [ 1.6501, 43.7945 ], [ 1.6421, 43.7874 ], [ 1.6408, 43.7789 ], [ 1.6517, 43.7755 ], [ 1.6558, 43.7683 ], [ 1.6499, 43.7519 ], [ 1.6607, 43.7418 ], [ 1.673, 43.7357 ], [ 1.681, 43.7366 ], [ 1.6897, 43.7283 ], [ 1.6989, 43.7264 ], [ 1.7065, 43.7162 ], [ 1.7017, 43.7092 ], [ 1.6935, 43.7124 ], [ 1.6943, 43.7096 ], [ 1.6846, 43.7077 ], [ 1.6818, 43.7008 ], [ 1.661, 43.7056 ], [ 1.6658, 43.7021 ], [ 1.6636, 43.6941 ], [ 1.7207, 43.6883 ], [ 1.7203, 43.6745 ], [ 1.7289, 43.6685 ], [ 1.7306, 43.6575 ], [ 1.6999, 43.6494 ], [ 1.6922, 43.6418 ], [ 1.6911, 43.6246 ], [ 1.7045, 43.618 ], [ 1.7077, 43.6228 ], [ 1.7209, 43.6178 ], [ 1.7273, 43.61 ], [ 1.7453, 43.6027 ], [ 1.7665, 43.6028 ], [ 1.7731, 43.5992 ], [ 1.7721, 43.5928 ], [ 1.779, 43.5869 ], [ 1.7906, 43.5832 ], [ 1.7982, 43.5845 ], [ 1.8096, 43.578 ], [ 1.8129, 43.5826 ], [ 1.8401, 43.5777 ], [ 1.8495, 43.5675 ], [ 1.8507, 43.5493 ], [ 1.8804, 43.5403 ], [ 1.8714, 43.5343 ], [ 1.8796, 43.5303 ], [ 1.8831, 43.5183 ], [ 1.9172, 43.5015 ], [ 1.9206, 43.5051 ], [ 1.9525, 43.4904 ], [ 1.9561, 43.4941 ], [ 1.9683, 43.4906 ], [ 1.99, 43.4775 ], [ 1.9955, 43.4828 ], [ 2.0087, 43.48 ], [ 2.0161, 43.4876 ], [ 2.0155, 43.5095 ], [ 2.0296, 43.5059 ], [ 2.0316, 43.4995 ], [ 2.038, 43.4994 ], [ 2.0407, 43.513 ], [ 2.0474, 43.5032 ], [ 2.0479, 43.4958 ], [ 2.0426, 43.4919 ], [ 2.0483, 43.4857 ], [ 2.0389, 43.4767 ], [ 2.022, 43.4745 ], [ 2.0181, 43.4704 ], [ 2.0202, 43.4573 ], [ 2.0135, 43.4504 ], [ 2.0146, 43.4464 ], [ 2.0224, 43.4471 ], [ 2.0389, 43.4233 ], [ 2.0312, 43.4194 ], [ 2.0207, 43.4232 ], [ 2.0144, 43.4147 ], [ 1.9977, 43.4131 ], [ 1.9883, 43.4076 ], [ 1.9721, 43.4209 ], [ 1.9659, 43.4152 ], [ 1.9582, 43.4256 ], [ 1.9541, 43.4265 ], [ 1.9479, 43.4195 ], [ 1.9342, 43.4253 ], [ 1.9183, 43.4203 ], [ 1.9214, 43.4136 ], [ 1.9167, 43.4072 ], [ 1.9102, 43.4059 ], [ 1.9146, 43.4007 ], [ 1.905, 43.3934 ], [ 1.8956, 43.3966 ], [ 1.9048, 43.4074 ], [ 1.8976, 43.412 ], [ 1.8961, 43.4185 ], [ 1.8732, 43.4288 ], [ 1.8718, 43.4381 ], [ 1.8564, 43.4433 ], [ 1.843, 43.4325 ], [ 1.8482, 43.4256 ], [ 1.8421, 43.4151 ], [ 1.8261, 43.4181 ], [ 1.8173, 43.4107 ], [ 1.8168, 43.4036 ], [ 1.8261, 43.3948 ], [ 1.8194, 43.3918 ], [ 1.812, 43.3954 ], [ 1.803, 43.3926 ], [ 1.8025, 43.387 ], [ 1.8111, 43.3818 ], [ 1.8015, 43.3762 ], [ 1.8074, 43.3725 ], [ 1.8032, 43.3684 ], [ 1.8066, 43.3651 ], [ 1.8042, 43.3579 ], [ 1.8166, 43.3494 ], [ 1.8135, 43.3415 ], [ 1.797, 43.3406 ], [ 1.7825, 43.3461 ], [ 1.7721, 43.3411 ], [ 1.7723, 43.337 ], [ 1.7516, 43.3496 ], [ 1.7335, 43.3351 ], [ 1.7238, 43.3409 ], [ 1.7297, 43.3362 ], [ 1.7238, 43.3297 ], [ 1.7272, 43.3244 ], [ 1.7341, 43.3231 ], [ 1.7358, 43.3142 ], [ 1.7265, 43.3136 ], [ 1.704, 43.3028 ], [ 1.7163, 43.2954 ], [ 1.7088, 43.2917 ], [ 1.6965, 43.2755 ], [ 1.6884, 43.2736 ], [ 1.6748, 43.2812 ], [ 1.6697, 43.2785 ], [ 1.65, 43.261 ], [ 1.6566, 43.246 ], [ 1.6497, 43.2403 ], [ 1.6351, 43.2371 ], [ 1.6373, 43.2555 ], [ 1.6069, 43.2598 ], [ 1.6021, 43.266 ], [ 1.5825, 43.2688 ], [ 1.5788, 43.2751 ], [ 1.5742, 43.273 ], [ 1.572, 43.2762 ], [ 1.5675, 43.2698 ], [ 1.5733, 43.2619 ], [ 1.565, 43.2533 ], [ 1.5462, 43.2774 ], [ 1.5418, 43.2751 ], [ 1.5408, 43.2782 ], [ 1.5187, 43.2692 ], [ 1.5176, 43.2894 ], [ 1.5123, 43.2933 ], [ 1.5066, 43.2862 ], [ 1.4972, 43.2918 ], [ 1.4931, 43.2816 ], [ 1.4965, 43.2756 ], [ 1.489, 43.2702 ], [ 1.4926, 43.2628 ], [ 1.4894, 43.2584 ], [ 1.492, 43.2541 ], [ 1.5043, 43.2503 ], [ 1.4934, 43.2379 ], [ 1.5043, 43.2328 ], [ 1.503, 43.2251 ], [ 1.5077, 43.2215 ], [ 1.4986, 43.2215 ], [ 1.4874, 43.2274 ], [ 1.4779, 43.2232 ], [ 1.4676, 43.2088 ], [ 1.4343, 43.2166 ], [ 1.4161, 43.226 ], [ 1.4204, 43.232 ], [ 1.417, 43.2368 ], [ 1.4247, 43.2414 ], [ 1.429, 43.2542 ], [ 1.4019, 43.2776 ], [ 1.3763, 43.2885 ], [ 1.3777, 43.2962 ], [ 1.3654, 43.3018 ], [ 1.3639, 43.3077 ], [ 1.373, 43.3101 ], [ 1.3497, 43.316 ], [ 1.3323, 43.3156 ], [ 1.324, 43.3094 ], [ 1.318, 43.2959 ], [ 1.3051, 43.2982 ], [ 1.3025, 43.2863 ], [ 1.2925, 43.2884 ], [ 1.3019, 43.2709 ], [ 1.2939, 43.2678 ], [ 1.294, 43.2637 ], [ 1.3307, 43.2626 ], [ 1.3321, 43.2572 ], [ 1.3184, 43.2512 ], [ 1.3359, 43.2499 ], [ 1.3403, 43.2441 ], [ 1.348, 43.2429 ], [ 1.3668, 43.2418 ], [ 1.3738, 43.2447 ], [ 1.3834, 43.2287 ], [ 1.3685, 43.2092 ], [ 1.3597, 43.213 ], [ 1.3455, 43.2122 ], [ 1.3278, 43.2046 ], [ 1.3296, 43.197 ], [ 1.3205, 43.1899 ], [ 1.3057, 43.1949 ], [ 1.2963, 43.1893 ], [ 1.2741, 43.1962 ], [ 1.2628, 43.1864 ], [ 1.251, 43.1834 ], [ 1.2437, 43.1896 ], [ 1.2287, 43.1868 ], [ 1.2277, 43.174 ], [ 1.214, 43.1624 ], [ 1.219, 43.1526 ], [ 1.2624, 43.1461 ], [ 1.2739, 43.1484 ], [ 1.2756, 43.1421 ], [ 1.3027, 43.1226 ], [ 1.2892, 43.1229 ], [ 1.2809, 43.1106 ], [ 1.2602, 43.1092 ], [ 1.2619, 43.0917 ], [ 1.2236, 43.0859 ], [ 1.2113, 43.1037 ], [ 1.2133, 43.1098 ], [ 1.2082, 43.1191 ], [ 1.175, 43.141 ], [ 1.166, 43.1303 ], [ 1.1454, 43.1378 ], [ 1.1451, 43.1439 ], [ 1.1268, 43.1558 ], [ 1.1134, 43.1493 ], [ 1.1128, 43.1446 ], [ 1.0898, 43.1418 ], [ 1.088, 43.1338 ], [ 1.0713, 43.139 ], [ 1.06, 43.1385 ], [ 1.0535, 43.1455 ], [ 1.0469, 43.1367 ], [ 1.0523, 43.1338 ], [ 1.0506, 43.1193 ], [ 1.0388, 43.1006 ], [ 1.0259, 43.1011 ], [ 1.0088, 43.1136 ], [ 1.0021, 43.1136 ], [ 1.0042, 43.1045 ], [ 0.9979, 43.1012 ], [ 0.9996, 43.0988 ], [ 0.9923, 43.098 ], [ 0.9909, 43.0921 ], [ 1.0065, 43.0821 ], [ 0.9959, 43.0723 ], [ 0.979, 43.0726 ], [ 0.9856, 43.0654 ], [ 0.9841, 43.0509 ], [ 0.9943, 43.0459 ], [ 0.993, 43.0396 ], [ 0.9843, 43.0445 ], [ 0.9869, 43.0254 ], [ 1.0064, 43.0204 ], [ 1.0135, 43.0096 ], [ 1.0224, 43.0102 ], [ 1.0032, 43.0051 ], [ 0.9951, 42.9908 ], [ 0.9762, 42.9731 ], [ 0.9521, 42.9664 ], [ 0.928, 42.9667 ], [ 0.9056, 42.9575 ], [ 0.8749, 42.9578 ], [ 0.8854, 42.937 ], [ 0.8836, 42.9313 ], [ 0.8577, 42.9235 ], [ 0.8446, 42.926 ], [ 0.8269, 42.9163 ], [ 0.844, 42.8898 ], [ 0.8351, 42.8724 ], [ 0.8397, 42.8664 ], [ 0.8482, 42.8653 ], [ 0.8484, 42.8571 ], [ 0.8599, 42.8382 ], [ 0.8583, 42.8257 ], [ 0.8331, 42.8284 ], [ 0.8021, 42.8404 ], [ 0.7764, 42.8365 ], [ 0.7361, 42.8488 ], [ 0.7351, 42.8543 ], [ 0.7284, 42.8569 ], [ 0.7084, 42.8614 ], [ 0.691, 42.855 ], [ 0.6779, 42.8551 ], [ 0.6786, 42.8479 ], [ 0.6587, 42.8367 ], [ 0.6619, 42.8287 ], [ 0.6699, 42.8244 ], [ 0.6647, 42.8143 ], [ 0.6697, 42.8021 ], [ 0.66, 42.7984 ], [ 0.6454, 42.7835 ], [ 0.6509, 42.7781 ], [ 0.6668, 42.7754 ], [ 0.642, 42.7547 ], [ 0.6629, 42.7501 ], [ 0.6707, 42.7307 ], [ 0.68, 42.7235 ], [ 0.6738, 42.718 ], [ 0.6823, 42.709 ], [ 0.6738, 42.6998 ], [ 0.6765, 42.691 ], [ 0.6684, 42.6895 ], [ 0.617, 42.6962 ], [ 0.5973, 42.7058 ], [ 0.5892, 42.695 ], [ 0.5296, 42.7027 ], [ 0.5185, 42.6919 ], [ 0.4929, 42.6931 ], [ 0.4778, 42.7 ], [ 0.4846, 42.7103 ], [ 0.449, 42.7338 ], [ 0.4582, 42.7348 ], [ 0.4631, 42.7434 ], [ 0.4634, 42.7596 ], [ 0.4547, 42.772 ], [ 0.4631, 42.7901 ], [ 0.4636, 42.8045 ], [ 0.456, 42.8104 ], [ 0.4558, 42.8169 ], [ 0.4675, 42.8468 ], [ 0.4602, 42.8518 ], [ 0.4727, 42.8592 ], [ 0.4722, 42.8704 ], [ 0.4774, 42.8782 ], [ 0.4965, 42.8763 ], [ 0.5025, 42.8684 ], [ 0.5255, 42.8675 ], [ 0.5342, 42.8613 ], [ 0.5498, 42.8647 ], [ 0.554, 42.8601 ], [ 0.5623, 42.8608 ], [ 0.5759, 42.8708 ], [ 0.586, 42.9007 ], [ 0.5983, 42.9136 ], [ 0.5995, 42.9272 ], [ 0.6061, 42.9344 ], [ 0.6266, 42.9418 ], [ 0.6355, 42.9515 ], [ 0.642, 42.9529 ], [ 0.6461, 42.9609 ], [ 0.6358, 42.9689 ], [ 0.6188, 42.9724 ], [ 0.6122, 42.9886 ], [ 0.6238, 42.9904 ], [ 0.6274, 43.0001 ], [ 0.6157, 43.0111 ], [ 0.6165, 43.0206 ], [ 0.6066, 43.0346 ], [ 0.5932, 43.0354 ], [ 0.5918, 43.0224 ], [ 0.5857, 43.0234 ], [ 0.5839, 43.0191 ], [ 0.5745, 43.0222 ], [ 0.5656, 43.0203 ], [ 0.5402, 43.0013 ], [ 0.531, 43.0033 ], [ 0.5321, 43.0077 ], [ 0.5282, 43.0047 ], [ 0.527, 43.0089 ], [ 0.536, 43.0186 ], [ 0.5379, 43.0416 ], [ 0.5472, 43.0448 ], [ 0.5626, 43.0358 ], [ 0.5667, 43.0374 ], [ 0.5602, 43.0471 ], [ 0.5612, 43.0603 ], [ 0.5529, 43.0654 ], [ 0.5639, 43.0743 ], [ 0.5537, 43.0742 ], [ 0.5542, 43.0794 ], [ 0.5317, 43.0829 ], [ 0.5324, 43.0933 ], [ 0.5008, 43.0957 ], [ 0.4983, 43.1029 ], [ 0.5026, 43.1068 ], [ 0.4912, 43.1087 ], [ 0.489, 43.1152 ], [ 0.4532, 43.1112 ], [ 0.4643, 43.1181 ], [ 0.442, 43.1313 ], [ 0.4708, 43.1579 ], [ 0.4878, 43.1652 ], [ 0.5219, 43.1921 ], [ 0.526, 43.1983 ], [ 0.5191, 43.1945 ], [ 0.5059, 43.1982 ], [ 0.5174, 43.2124 ], [ 0.5356, 43.2077 ], [ 0.5449, 43.2133 ], [ 0.5519, 43.2092 ], [ 0.5738, 43.2203 ], [ 0.5728, 43.2331 ], [ 0.5534, 43.2377 ], [ 0.5668, 43.2523 ], [ 0.5784, 43.2537 ], [ 0.5768, 43.2591 ], [ 0.5967, 43.2738 ], [ 0.6139, 43.2771 ], [ 0.6157, 43.2888 ], [ 0.6363, 43.296 ], [ 0.6356, 43.3012 ], [ 0.6068, 43.3109 ], [ 0.6117, 43.3157 ], [ 0.6463, 43.3119 ], [ 0.653, 43.3148 ], [ 0.6798, 43.3347 ], [ 0.7138, 43.3774 ], [ 0.7337, 43.371 ], [ 0.7483, 43.3836 ], [ 0.7537, 43.3894 ], [ 0.7449, 43.3954 ], [ 0.7514, 43.4031 ], [ 0.7591, 43.4046 ], [ 0.7482, 43.4202 ], [ 0.7582, 43.4145 ], [ 0.7704, 43.4168 ], [ 0.8073, 43.3997 ], [ 0.8205, 43.417 ], [ 0.8444, 43.4099 ], [ 0.8499, 43.4138 ], [ 0.8658, 43.4157 ], [ 0.8729, 43.4107 ], [ 0.8881, 43.4119 ], [ 0.8949, 43.4053 ], [ 0.9173, 43.4063 ], [ 0.918, 43.4021 ], [ 0.9281, 43.4001 ], [ 0.9332, 43.3875 ], [ 0.9419, 43.3857 ], [ 0.9443, 43.3809 ], [ 0.9469, 43.3852 ], [ 0.957, 43.385 ], [ 0.9592, 43.3887 ], [ 0.9643, 43.3865 ], [ 0.9693, 43.3772 ], [ 0.9671, 43.3693 ], [ 0.9781, 43.3626 ], [ 0.9937, 43.3665 ], [ 0.996, 43.3763 ], [ 1.0055, 43.3797 ], [ 0.9984, 43.3819 ], [ 1.0023, 43.391 ], [ 0.9933, 43.4095 ], [ 1.0045, 43.4143 ], [ 1.0228, 43.4117 ], [ 1.0263, 43.4196 ], [ 1.0299, 43.4183 ], [ 1.019, 43.4308 ], [ 1.0221, 43.4378 ], [ 1.032, 43.4417 ], [ 1.0374, 43.4572 ], [ 1.0454, 43.459 ], [ 1.0175, 43.4736 ], [ 1.0236, 43.4803 ], [ 1.0368, 43.4838 ], [ 1.0364, 43.4867 ], [ 1.0519, 43.487 ], [ 1.0538, 43.4899 ], [ 1.0462, 43.4966 ], [ 1.0564, 43.4935 ], [ 1.0542, 43.4984 ], [ 1.0592, 43.5054 ], [ 1.0734, 43.5059 ], [ 1.0504, 43.5158 ], [ 1.0554, 43.5206 ], [ 1.0521, 43.5242 ], [ 1.0578, 43.527 ], [ 1.07, 43.523 ], [ 1.0764, 43.5269 ], [ 1.067, 43.5359 ], [ 1.053, 43.541 ], [ 1.0665, 43.5399 ], [ 1.0715, 43.5462 ], [ 1.0877, 43.5469 ], [ 1.0993, 43.5336 ], [ 1.1187, 43.5458 ], [ 1.1122, 43.5567 ], [ 1.1251, 43.5544 ], [ 1.1564, 43.5568 ], [ 1.1633, 43.5739 ], [ 1.1993, 43.5692 ], [ 1.202, 43.5751 ], [ 1.2014, 43.5963 ], [ 1.1805, 43.6146 ], [ 1.1727, 43.6075 ], [ 1.1586, 43.6052 ], [ 1.1429, 43.6213 ], [ 1.1475, 43.6342 ], [ 1.1401, 43.6419 ], [ 1.1306, 43.6427 ], [ 1.1258, 43.6386 ], [ 1.1185, 43.641 ], [ 1.1112, 43.6374 ], [ 1.0954, 43.6417 ], [ 1.0877, 43.645 ], [ 1.1004, 43.6613 ], [ 1.095, 43.665 ], [ 1.0748, 43.6617 ], [ 1.0637, 43.6715 ], [ 1.0487, 43.6753 ], [ 1.0518, 43.6853 ], [ 1.0601, 43.6873 ], [ 1.0574, 43.6917 ], [ 1.0642, 43.7028 ], [ 1.0379, 43.7136 ], [ 1.0282, 43.7101 ], [ 1.0204, 43.7189 ], [ 1.0227, 43.723 ], [ 0.9894, 43.7393 ], [ 0.9859, 43.7438 ], [ 0.9928, 43.7459 ], [ 0.9858, 43.7478 ], [ 0.9754, 43.7611 ], [ 0.9712, 43.7615 ], [ 0.9693, 43.7574 ], [ 0.9661, 43.7596 ], [ 0.9699, 43.7622 ], [ 0.9562, 43.7736 ], [ 0.954, 43.7874 ] ] ] } }
]
}
