{
"type": "FeatureCollection",
"name": "dep39",
"crs": { "type": "name", "properties": { "name": "urn:ogc:def:crs:OGC:1.3:CRS84" } },
"xy_coordinate_resolution": 0.0001,
"features": [
{ "type": "Feature", "properties": { "code": "39", "nom": "Jura" }, "geometry": { "type": "MultiPolygon", "coordinates": [ [ [ [ 5.4478, 46.8467 ], [ 5.4408, 46.8462 ], [ 5.442, 46.8511 ], [ 5.4478, 46.8467 ] ] ], [ [ [ 5.4561, 46.8508 ], [ 5.4519, 46.8527 ], [ 5.4523, 46.8536 ], [ 5.458, 46.854 ], [ 5.4561, 46.8508 ] ] ], [ [ [ 5.505, 47.2832 ], [ 5.5223, 47.3058 ], [ 5.523, 47.3003 ], [ 5.5302, 47.2961 ], [ 5.5311, 47.2848 ], [ 5.5391, 47.2858 ], [ 5.5436, 47.2799 ], [ 5.5589, 47.2782 ], [ 5.556, 47.2687 ], [ 5.5666, 47.2712 ], [ 5.5721, 47.2684 ], [ 5.5692, 47.2631 ], [ 5.5777, 47.2525 ], [ 5.6024, 47.2615 ], [ 5.6244, 47.2529 ], [ 5.6542, 47.2608 ], [ 5.6534, 47.265 ], [ 5.66, 47.2643 ], [ 5.6705, 47.2698 ], [ 5.6696, 47.2746 ], [ 5.6818, 47.2748 ], [ 5.6887, 47.2703 ], [ 5.692, 47.2723 ], [ 5.7197, 47.2404 ], [ 5.714, 47.236 ], [ 5.7213, 47.2313 ], [ 5.7204, 47.2199 ], [ 5.7382, 47.2083 ], [ 5.7377, 47.2013 ], [ 5.754, 47.2062 ], [ 5.7607, 47.2022 ], [ 5.7572, 47.1967 ], [ 5.7616, 47.1933 ], [ 5.7807, 47.193 ], [ 5.7783, 47.1908 ], [ 5.7864, 47.1881 ], [ 5.7851, 47.1706 ], [ 5.7933, 47.1747 ], [ 5.8115, 47.169 ], [ 5.8091, 47.1604 ], [ 5.8163, 47.1522 ], [ 5.8137, 47.15 ], [ 5.8281, 47.1412 ], [ 5.8161, 47.1343 ], [ 5.8033, 47.1119 ], [ 5.7928, 47.1065 ], [ 5.7873, 47.0956 ], [ 5.7794, 47.0979 ], [ 5.771, 47.0944 ], [ 5.7686, 47.0894 ], [ 5.7847, 47.0549 ], [ 5.7634, 47.0448 ], [ 5.7459, 47.0572 ], [ 5.7368, 47.055 ], [ 5.737, 47.0498 ], [ 5.7533, 47.0392 ], [ 5.7486, 47.0312 ], [ 5.7409, 47.0311 ], [ 5.7481, 47.0182 ], [ 5.7612, 47.0155 ], [ 5.7632, 47.0114 ], [ 5.7704, 47.0182 ], [ 5.7877, 47.0206 ], [ 5.7992, 47.0307 ], [ 5.7971, 47.0423 ], [ 5.8101, 47.0468 ], [ 5.8158, 47.0458 ], [ 5.8179, 47.0406 ], [ 5.8137, 47.0174 ], [ 5.8287, 47.0121 ], [ 5.8395, 47.0153 ], [ 5.8387, 47.0089 ], [ 5.8475, 47.009 ], [ 5.8469, 47.0031 ], [ 5.8557, 47.0088 ], [ 5.8765, 47.0059 ], [ 5.8818, 47.005 ], [ 5.8866, 46.997 ], [ 5.8971, 46.9958 ], [ 5.8987, 46.9988 ], [ 5.9111, 46.9995 ], [ 5.9161, 47.0131 ], [ 5.9214, 47.0142 ], [ 5.913, 46.9894 ], [ 5.9216, 46.9853 ], [ 5.9203, 46.9805 ], [ 5.9236, 46.9786 ], [ 5.9267, 46.9836 ], [ 5.94, 46.9822 ], [ 5.9495, 46.99 ], [ 5.944, 46.9799 ], [ 5.9686, 46.9804 ], [ 5.9688, 46.9761 ], [ 5.9757, 46.9759 ], [ 5.9729, 46.9693 ], [ 5.9798, 46.9635 ], [ 5.9565, 46.9485 ], [ 5.9972, 46.9335 ], [ 5.9814, 46.9186 ], [ 5.9813, 46.9079 ], [ 6.0001, 46.8962 ], [ 6.0084, 46.8955 ], [ 6.0122, 46.8903 ], [ 6.0058, 46.873 ], [ 6.0156, 46.8723 ], [ 6.0174, 46.8681 ], [ 6.0243, 46.8723 ], [ 6.0221, 46.8753 ], [ 6.0327, 46.8709 ], [ 6.0227, 46.8526 ], [ 6.0478, 46.8484 ], [ 6.0471, 46.8456 ], [ 6.065, 46.8602 ], [ 6.087, 46.85 ], [ 6.0867, 46.8432 ], [ 6.1056, 46.8453 ], [ 6.1133, 46.8362 ], [ 6.1518, 46.8207 ], [ 6.1488, 46.816 ], [ 6.1544, 46.8151 ], [ 6.1645, 46.8025 ], [ 6.1741, 46.8011 ], [ 6.1773, 46.7949 ], [ 6.1807, 46.7962 ], [ 6.2072, 46.765 ], [ 6.1837, 46.755 ], [ 6.1775, 46.74 ], [ 6.1399, 46.7253 ], [ 6.113, 46.7077 ], [ 6.0698, 46.6895 ], [ 6.1055, 46.6505 ], [ 6.0969, 46.6462 ], [ 6.0988, 46.6427 ], [ 6.0592, 46.6261 ], [ 6.0582, 46.6189 ], [ 6.0646, 46.6131 ], [ 6.0537, 46.6135 ], [ 6.0486, 46.6077 ], [ 6.1263, 46.5563 ], [ 6.1314, 46.5537 ], [ 6.1381, 46.5577 ], [ 6.1565, 46.5455 ], [ 6.1486, 46.5393 ], [ 6.1535, 46.5368 ], [ 6.1435, 46.5277 ], [ 6.1379, 46.5309 ], [ 6.1167, 46.5133 ], [ 6.0968, 46.4812 ], [ 6.0727, 46.4657 ], [ 6.0745, 46.4537 ], [ 6.0863, 46.4437 ], [ 6.064, 46.4162 ], [ 6.0572, 46.4163 ], [ 6.0361, 46.3916 ], [ 6.0146, 46.3761 ], [ 5.9835, 46.363 ], [ 5.9414, 46.3087 ], [ 5.9259, 46.3138 ], [ 5.918, 46.3092 ], [ 5.9165, 46.2937 ], [ 5.9092, 46.2839 ], [ 5.8946, 46.2866 ], [ 5.8757, 46.2676 ], [ 5.8692, 46.265 ], [ 5.8643, 46.2712 ], [ 5.8531, 46.2615 ], [ 5.7656, 46.2683 ], [ 5.7439, 46.2666 ], [ 5.7252, 46.2607 ], [ 5.7197, 46.2643 ], [ 5.7145, 46.2809 ], [ 5.7193, 46.2935 ], [ 5.7147, 46.3088 ], [ 5.6846, 46.3109 ], [ 5.6837, 46.3169 ], [ 5.6684, 46.3244 ], [ 5.6444, 46.3248 ], [ 5.6498, 46.3342 ], [ 5.6493, 46.341 ], [ 5.6431, 46.3448 ], [ 5.6305, 46.3302 ], [ 5.6132, 46.3272 ], [ 5.6065, 46.3099 ], [ 5.5935, 46.2944 ], [ 5.5652, 46.2934 ], [ 5.5594, 46.2835 ], [ 5.5391, 46.2688 ], [ 5.5091, 46.2646 ], [ 5.5026, 46.2711 ], [ 5.4738, 46.2643 ], [ 5.4692, 46.2711 ], [ 5.4568, 46.2745 ], [ 5.4589, 46.2907 ], [ 5.466, 46.2918 ], [ 5.4753, 46.3154 ], [ 5.4689, 46.317 ], [ 5.4669, 46.3233 ], [ 5.4594, 46.3232 ], [ 5.4571, 46.3171 ], [ 5.4443, 46.3187 ], [ 5.4378, 46.3157 ], [ 5.4237, 46.3477 ], [ 5.4168, 46.3453 ], [ 5.4102, 46.3091 ], [ 5.4047, 46.3103 ], [ 5.4014, 46.3396 ], [ 5.3806, 46.3458 ], [ 5.3735, 46.3522 ], [ 5.377, 46.3641 ], [ 5.3628, 46.3699 ], [ 5.3779, 46.3822 ], [ 5.3634, 46.389 ], [ 5.3627, 46.3943 ], [ 5.3599, 46.3912 ], [ 5.3521, 46.3934 ], [ 5.3535, 46.3974 ], [ 5.3414, 46.4018 ], [ 5.3342, 46.3974 ], [ 5.3148, 46.4095 ], [ 5.2988, 46.4127 ], [ 5.3024, 46.417 ], [ 5.3124, 46.416 ], [ 5.3077, 46.4168 ], [ 5.309, 46.4245 ], [ 5.3245, 46.4285 ], [ 5.3106, 46.4468 ], [ 5.312, 46.4523 ], [ 5.3231, 46.4565 ], [ 5.3234, 46.4625 ], [ 5.3474, 46.4607 ], [ 5.3591, 46.4642 ], [ 5.3733, 46.4601 ], [ 5.384, 46.4712 ], [ 5.3981, 46.4666 ], [ 5.4178, 46.476 ], [ 5.4196, 46.5023 ], [ 5.4099, 46.4999 ], [ 5.4023, 46.5056 ], [ 5.3935, 46.5066 ], [ 5.3849, 46.5156 ], [ 5.3583, 46.5197 ], [ 5.3625, 46.552 ], [ 5.3562, 46.5618 ], [ 5.3679, 46.5669 ], [ 5.3622, 46.577 ], [ 5.3677, 46.5799 ], [ 5.4057, 46.5817 ], [ 5.4052, 46.5882 ], [ 5.4142, 46.6004 ], [ 5.4084, 46.6021 ], [ 5.404, 46.6103 ], [ 5.396, 46.6111 ], [ 5.4171, 46.6155 ], [ 5.4372, 46.6293 ], [ 5.4411, 46.6375 ], [ 5.4131, 46.6543 ], [ 5.4271, 46.6602 ], [ 5.4186, 46.6678 ], [ 5.4221, 46.673 ], [ 5.3954, 46.685 ], [ 5.4084, 46.6984 ], [ 5.4063, 46.704 ], [ 5.3943, 46.7084 ], [ 5.3972, 46.7171 ], [ 5.3902, 46.7229 ], [ 5.3936, 46.7286 ], [ 5.3611, 46.731 ], [ 5.3668, 46.7524 ], [ 5.3733, 46.751 ], [ 5.3902, 46.7706 ], [ 5.3855, 46.7752 ], [ 5.3717, 46.7766 ], [ 5.3693, 46.7865 ], [ 5.3695, 46.7831 ], [ 5.3648, 46.7831 ], [ 5.3541, 46.7925 ], [ 5.34, 46.7909 ], [ 5.3328, 46.7956 ], [ 5.3336, 46.8051 ], [ 5.3274, 46.8151 ], [ 5.3381, 46.8227 ], [ 5.342, 46.8196 ], [ 5.3392, 46.8261 ], [ 5.3516, 46.8136 ], [ 5.3681, 46.8253 ], [ 5.3893, 46.8267 ], [ 5.3908, 46.8304 ], [ 5.4084, 46.8331 ], [ 5.4123, 46.828 ], [ 5.429, 46.8259 ], [ 5.4442, 46.829 ], [ 5.4479, 46.8255 ], [ 5.4576, 46.8303 ], [ 5.4596, 46.8286 ], [ 5.4628, 46.8274 ], [ 5.4568, 46.831 ], [ 5.4651, 46.8408 ], [ 5.4571, 46.8453 ], [ 5.4588, 46.8555 ], [ 5.4361, 46.8615 ], [ 5.4395, 46.8556 ], [ 5.45, 46.8563 ], [ 5.4445, 46.8516 ], [ 5.4438, 46.855 ], [ 5.4331, 46.8548 ], [ 5.4308, 46.8599 ], [ 5.4187, 46.8607 ], [ 5.4018, 46.8683 ], [ 5.405, 46.8793 ], [ 5.3998, 46.8813 ], [ 5.4038, 46.8895 ], [ 5.3995, 46.8926 ], [ 5.3908, 46.8944 ], [ 5.3621, 46.8828 ], [ 5.3516, 46.8933 ], [ 5.3355, 46.8847 ], [ 5.3288, 46.8876 ], [ 5.329, 46.8957 ], [ 5.3125, 46.91 ], [ 5.3079, 46.9384 ], [ 5.2988, 46.9365 ], [ 5.2923, 46.9407 ], [ 5.2834, 46.94 ], [ 5.2697, 46.9278 ], [ 5.262, 46.9274 ], [ 5.2641, 46.9374 ], [ 5.2521, 46.944 ], [ 5.2536, 46.9476 ], [ 5.2611, 46.9466 ], [ 5.2646, 46.9587 ], [ 5.2534, 46.9787 ], [ 5.2747, 46.9915 ], [ 5.2743, 46.9984 ], [ 5.3008, 47.002 ], [ 5.3045, 47.0121 ], [ 5.3183, 47.0128 ], [ 5.3146, 47.0168 ], [ 5.2753, 47.0269 ], [ 5.2839, 47.0479 ], [ 5.3058, 47.063 ], [ 5.3114, 47.0581 ], [ 5.3266, 47.0752 ], [ 5.3595, 47.0808 ], [ 5.37, 47.0774 ], [ 5.386, 47.082 ], [ 5.3989, 47.0957 ], [ 5.3982, 47.1055 ], [ 5.4107, 47.1141 ], [ 5.4085, 47.1267 ], [ 5.4385, 47.1415 ], [ 5.4378, 47.1528 ], [ 5.4511, 47.1623 ], [ 5.4593, 47.1826 ], [ 5.4555, 47.1927 ], [ 5.4457, 47.1996 ], [ 5.48, 47.2174 ], [ 5.474, 47.2311 ], [ 5.4863, 47.2434 ], [ 5.4801, 47.2563 ], [ 5.4882, 47.2681 ], [ 5.4883, 47.2893 ], [ 5.505, 47.2832 ] ] ] ] } }
]
}
