{
"type": "FeatureCollection",
"name": "dep41",
"crs": { "type": "name", "properties": { "name": "urn:ogc:def:crs:OGC:1.3:CRS84" } },
"xy_coordinate_resolution": 0.0001,
"features": [
{ "type": "Feature", "properties": { "code": "41", "nom": "Loir-et-Cher" }, "geometry": { "type": "Polygon", "coordinates": [ [ [ 0.8412, 48.1031 ], [ 0.8759, 48.1094 ], [ 0.8816, 48.1081 ], [ 0.8795, 48.1038 ], [ 0.9102, 48.1032 ], [ 0.9299, 48.1121 ], [ 0.944, 48.1124 ], [ 0.9466, 48.0976 ], [ 0.9551, 48.0992 ], [ 0.9571, 48.1042 ], [ 0.9955, 48.1273 ], [ 1.014, 48.1327 ], [ 1.0406, 48.1319 ], [ 1.0481, 48.1238 ], [ 1.046, 48.1176 ], [ 1.0035, 48.1054 ], [ 0.9909, 48.0969 ], [ 0.9922, 48.0918 ], [ 1.0086, 48.0831 ], [ 1.026, 48.0884 ], [ 1.0392, 48.0852 ], [ 1.0637, 48.0865 ], [ 1.0691, 48.0851 ], [ 1.0705, 48.0756 ], [ 1.1122, 48.0807 ], [ 1.1149, 48.0766 ], [ 1.1063, 48.0601 ], [ 1.1169, 48.0509 ], [ 1.1227, 48.036 ], [ 1.1439, 48.0287 ], [ 1.1666, 48.0274 ], [ 1.1672, 48.02 ], [ 1.159, 48.0177 ], [ 1.1696, 48.0112 ], [ 1.1698, 48.0065 ], [ 1.1871, 48.0024 ], [ 1.1913, 47.9841 ], [ 1.2026, 47.9774 ], [ 1.1915, 47.972 ], [ 1.1969, 47.9679 ], [ 1.2468, 47.9796 ], [ 1.258, 47.9739 ], [ 1.265, 47.9618 ], [ 1.2996, 47.9682 ], [ 1.3086, 47.9539 ], [ 1.3437, 47.9575 ], [ 1.3459, 47.9651 ], [ 1.37, 47.9537 ], [ 1.3775, 47.9719 ], [ 1.3869, 47.9813 ], [ 1.4069, 47.9701 ], [ 1.4372, 47.9765 ], [ 1.4401, 47.9836 ], [ 1.4336, 47.9992 ], [ 1.4374, 48.0069 ], [ 1.4326, 48.0085 ], [ 1.4397, 48.0119 ], [ 1.4811, 47.9974 ], [ 1.4988, 47.9853 ], [ 1.5031, 47.988 ], [ 1.5278, 47.9814 ], [ 1.5404, 47.9895 ], [ 1.5465, 47.9857 ], [ 1.5523, 47.9919 ], [ 1.5576, 47.9863 ], [ 1.5648, 47.9898 ], [ 1.5667, 47.9743 ], [ 1.5606, 47.968 ], [ 1.5478, 47.9655 ], [ 1.5465, 47.956 ], [ 1.555, 47.9532 ], [ 1.526, 47.9451 ], [ 1.5224, 47.9321 ], [ 1.5517, 47.9216 ], [ 1.5814, 47.9019 ], [ 1.5751, 47.8984 ], [ 1.5831, 47.8933 ], [ 1.5791, 47.889 ], [ 1.586, 47.8855 ], [ 1.5838, 47.8824 ], [ 1.5905, 47.8789 ], [ 1.5836, 47.8685 ], [ 1.5485, 47.8412 ], [ 1.5351, 47.8404 ], [ 1.5343, 47.8275 ], [ 1.5257, 47.8202 ], [ 1.5416, 47.817 ], [ 1.5609, 47.8052 ], [ 1.562, 47.7987 ], [ 1.5705, 47.7966 ], [ 1.5615, 47.7907 ], [ 1.5712, 47.787 ], [ 1.5479, 47.7698 ], [ 1.6005, 47.7412 ], [ 1.5829, 47.7264 ], [ 1.6147, 47.7374 ], [ 1.6218, 47.7438 ], [ 1.6266, 47.761 ], [ 1.6723, 47.7396 ], [ 1.6973, 47.7384 ], [ 1.7135, 47.7334 ], [ 1.7129, 47.7221 ], [ 1.7281, 47.6996 ], [ 1.7194, 47.6959 ], [ 1.731, 47.6842 ], [ 1.7399, 47.6615 ], [ 1.7489, 47.6558 ], [ 1.782, 47.6523 ], [ 1.7788, 47.6428 ], [ 1.7893, 47.637 ], [ 1.803, 47.639 ], [ 1.8034, 47.6476 ], [ 1.8101, 47.6533 ], [ 1.8214, 47.6522 ], [ 1.8452, 47.6571 ], [ 1.8406, 47.6698 ], [ 1.845, 47.6742 ], [ 1.8437, 47.6863 ], [ 1.8586, 47.6922 ], [ 1.8657, 47.6878 ], [ 1.8607, 47.6785 ], [ 1.8661, 47.6746 ], [ 1.8904, 47.6791 ], [ 1.902, 47.6718 ], [ 1.9045, 47.675 ], [ 1.9355, 47.6797 ], [ 1.9425, 47.6743 ], [ 1.939, 47.6726 ], [ 1.944, 47.6667 ], [ 1.9415, 47.6603 ], [ 1.9568, 47.6619 ], [ 1.9641, 47.6573 ], [ 1.9699, 47.6635 ], [ 1.9863, 47.6661 ], [ 1.99, 47.6621 ], [ 1.9962, 47.664 ], [ 1.998, 47.6694 ], [ 2.0023, 47.6685 ], [ 1.9977, 47.6748 ], [ 2.0094, 47.6788 ], [ 2.0254, 47.6751 ], [ 2.0411, 47.6779 ], [ 2.0665, 47.6743 ], [ 2.0745, 47.6822 ], [ 2.1077, 47.6765 ], [ 2.1062, 47.6712 ], [ 2.111, 47.6697 ], [ 2.1159, 47.6753 ], [ 2.1282, 47.6788 ], [ 2.1398, 47.6774 ], [ 2.1485, 47.6704 ], [ 2.1703, 47.6705 ], [ 2.2039, 47.6781 ], [ 2.2053, 47.6611 ], [ 2.2132, 47.6618 ], [ 2.22, 47.6679 ], [ 2.2411, 47.6409 ], [ 2.2385, 47.6203 ], [ 2.2286, 47.6205 ], [ 2.197, 47.607 ], [ 2.1513, 47.6005 ], [ 2.1419, 47.5901 ], [ 2.1196, 47.5829 ], [ 2.1277, 47.5701 ], [ 2.1238, 47.56 ], [ 2.1285, 47.5513 ], [ 2.1956, 47.5486 ], [ 2.1978, 47.5459 ], [ 2.2153, 47.5221 ], [ 2.1961, 47.4879 ], [ 2.228, 47.497 ], [ 2.2478, 47.4917 ], [ 2.237, 47.4713 ], [ 2.2452, 47.4582 ], [ 2.2349, 47.4517 ], [ 2.2416, 47.4507 ], [ 2.2479, 47.4414 ], [ 2.2437, 47.4148 ], [ 2.2304, 47.4075 ], [ 2.2052, 47.4053 ], [ 2.1889, 47.4378 ], [ 2.138, 47.406 ], [ 2.115, 47.4213 ], [ 2.117, 47.4101 ], [ 2.1031, 47.3926 ], [ 2.0971, 47.3668 ], [ 2.1139, 47.37 ], [ 2.1277, 47.345 ], [ 2.1194, 47.3334 ], [ 2.1292, 47.3329 ], [ 2.1316, 47.321 ], [ 2.1454, 47.3154 ], [ 2.1494, 47.3188 ], [ 2.1581, 47.2986 ], [ 2.1385, 47.2929 ], [ 2.1351, 47.282 ], [ 2.1117, 47.2794 ], [ 2.105, 47.2861 ], [ 2.0773, 47.2858 ], [ 2.0245, 47.2651 ], [ 2.0078, 47.2686 ], [ 1.9985, 47.264 ], [ 1.9426, 47.291 ], [ 1.9232, 47.2747 ], [ 1.9246, 47.2647 ], [ 1.8948, 47.2547 ], [ 1.8922, 47.2488 ], [ 1.9095, 47.2438 ], [ 1.9166, 47.236 ], [ 1.9038, 47.2152 ], [ 1.8941, 47.2147 ], [ 1.873, 47.2053 ], [ 1.8528, 47.2221 ], [ 1.8497, 47.2181 ], [ 1.828, 47.2223 ], [ 1.7958, 47.2378 ], [ 1.791, 47.2315 ], [ 1.7761, 47.2314 ], [ 1.7487, 47.2479 ], [ 1.716, 47.2768 ], [ 1.7048, 47.2706 ], [ 1.7045, 47.265 ], [ 1.6714, 47.2607 ], [ 1.668, 47.257 ], [ 1.6446, 47.2644 ], [ 1.6523, 47.2728 ], [ 1.6275, 47.2755 ], [ 1.6187, 47.2721 ], [ 1.6128, 47.2773 ], [ 1.5924, 47.2767 ], [ 1.5929, 47.2577 ], [ 1.5595, 47.2614 ], [ 1.524, 47.2552 ], [ 1.531, 47.2488 ], [ 1.5255, 47.2419 ], [ 1.5348, 47.2253 ], [ 1.5312, 47.2185 ], [ 1.5245, 47.226 ], [ 1.5031, 47.2351 ], [ 1.4936, 47.232 ], [ 1.4951, 47.2354 ], [ 1.4816, 47.2392 ], [ 1.4581, 47.2399 ], [ 1.4212, 47.2292 ], [ 1.4014, 47.2125 ], [ 1.3714, 47.1997 ], [ 1.3509, 47.1936 ], [ 1.3385, 47.1955 ], [ 1.3267, 47.1862 ], [ 1.2946, 47.2374 ], [ 1.2801, 47.248 ], [ 1.2764, 47.2568 ], [ 1.2662, 47.2557 ], [ 1.2602, 47.2645 ], [ 1.2433, 47.2739 ], [ 1.2423, 47.2872 ], [ 1.222, 47.2941 ], [ 1.1945, 47.283 ], [ 1.1763, 47.288 ], [ 1.1623, 47.2723 ], [ 1.1274, 47.2979 ], [ 1.1224, 47.2931 ], [ 1.1081, 47.2984 ], [ 1.0949, 47.3285 ], [ 1.1063, 47.3311 ], [ 1.1133, 47.3479 ], [ 1.123, 47.3536 ], [ 1.1164, 47.3632 ], [ 1.1044, 47.3702 ], [ 1.1132, 47.3799 ], [ 1.1216, 47.3824 ], [ 1.119, 47.387 ], [ 1.1235, 47.392 ], [ 1.114, 47.3958 ], [ 1.1111, 47.4094 ], [ 1.0851, 47.43 ], [ 1.1051, 47.4318 ], [ 1.1138, 47.428 ], [ 1.1334, 47.4489 ], [ 1.1259, 47.4514 ], [ 1.1129, 47.4659 ], [ 1.0871, 47.4618 ], [ 1.0854, 47.4643 ], [ 1.0946, 47.4695 ], [ 1.0788, 47.4942 ], [ 1.0657, 47.5052 ], [ 1.0739, 47.5121 ], [ 1.0671, 47.5154 ], [ 1.0699, 47.5228 ], [ 1.0562, 47.5236 ], [ 1.056, 47.5276 ], [ 1.0453, 47.5315 ], [ 1.0466, 47.5395 ], [ 1.0747, 47.5584 ], [ 1.0769, 47.5714 ], [ 1.0635, 47.5662 ], [ 1.0593, 47.5778 ], [ 1.0328, 47.6081 ], [ 1.024, 47.6088 ], [ 1.0123, 47.6039 ], [ 1.0037, 47.5844 ], [ 0.997, 47.584 ], [ 0.9867, 47.5907 ], [ 0.9839, 47.6052 ], [ 0.9918, 47.62 ], [ 0.971, 47.6219 ], [ 0.9653, 47.6296 ], [ 0.954, 47.6248 ], [ 0.9197, 47.6327 ], [ 0.9156, 47.6252 ], [ 0.9052, 47.6204 ], [ 0.9063, 47.616 ], [ 0.8922, 47.6115 ], [ 0.8994, 47.609 ], [ 0.8976, 47.6042 ], [ 0.8619, 47.5988 ], [ 0.8503, 47.6245 ], [ 0.8591, 47.626 ], [ 0.8632, 47.6321 ], [ 0.8437, 47.6455 ], [ 0.8534, 47.662 ], [ 0.86, 47.6653 ], [ 0.8598, 47.6808 ], [ 0.867, 47.6906 ], [ 0.8279, 47.6768 ], [ 0.8118, 47.6822 ], [ 0.8004, 47.6793 ], [ 0.7704, 47.6839 ], [ 0.7597, 47.6908 ], [ 0.7387, 47.6961 ], [ 0.7197, 47.6907 ], [ 0.7122, 47.6818 ], [ 0.6942, 47.6869 ], [ 0.6748, 47.699 ], [ 0.6543, 47.6842 ], [ 0.6483, 47.684 ], [ 0.6439, 47.6881 ], [ 0.6541, 47.6988 ], [ 0.6438, 47.7 ], [ 0.6391, 47.7097 ], [ 0.6267, 47.7075 ], [ 0.6042, 47.6856 ], [ 0.5956, 47.6883 ], [ 0.593, 47.7036 ], [ 0.5803, 47.7124 ], [ 0.5941, 47.7231 ], [ 0.609, 47.7253 ], [ 0.6243, 47.7505 ], [ 0.6454, 47.7528 ], [ 0.677, 47.7695 ], [ 0.6914, 47.7638 ], [ 0.7025, 47.7668 ], [ 0.7, 47.7745 ], [ 0.6893, 47.78 ], [ 0.6912, 47.7834 ], [ 0.6984, 47.7893 ], [ 0.7121, 47.7871 ], [ 0.7145, 47.7938 ], [ 0.7195, 47.7928 ], [ 0.7402, 47.8116 ], [ 0.7459, 47.8276 ], [ 0.7589, 47.8335 ], [ 0.7684, 47.8311 ], [ 0.7749, 47.8438 ], [ 0.7739, 47.8503 ], [ 0.7592, 47.8592 ], [ 0.7647, 47.8666 ], [ 0.7571, 47.8858 ], [ 0.7612, 47.8998 ], [ 0.7709, 47.9025 ], [ 0.7757, 47.9087 ], [ 0.79, 47.9122 ], [ 0.7992, 47.8969 ], [ 0.8121, 47.8885 ], [ 0.8177, 47.893 ], [ 0.8152, 47.9039 ], [ 0.8075, 47.9079 ], [ 0.8161, 47.9129 ], [ 0.8084, 47.9166 ], [ 0.8118, 47.9288 ], [ 0.8163, 47.9343 ], [ 0.8477, 47.9416 ], [ 0.8495, 47.9472 ], [ 0.8454, 47.9476 ], [ 0.8377, 47.9687 ], [ 0.8281, 47.9723 ], [ 0.8187, 47.9893 ], [ 0.8324, 47.9966 ], [ 0.8419, 48.0302 ], [ 0.835, 48.0344 ], [ 0.8267, 48.0297 ], [ 0.8084, 48.0317 ], [ 0.806, 48.0383 ], [ 0.7976, 48.0372 ], [ 0.7941, 48.0486 ], [ 0.7978, 48.0658 ], [ 0.794, 48.0697 ], [ 0.843, 48.0726 ], [ 0.8482, 48.0946 ], [ 0.8387, 48.0942 ], [ 0.8379, 48.0888 ], [ 0.8143, 48.0961 ], [ 0.8144, 48.0988 ], [ 0.8327, 48.0984 ], [ 0.8412, 48.1031 ] ] ] } }
]
}
