{
"type": "FeatureCollection",
"name": "dep43",
"crs": { "type": "name", "properties": { "name": "urn:ogc:def:crs:OGC:1.3:CRS84" } },
"xy_coordinate_resolution": 0.0001,
"features": [
{ "type": "Feature", "properties": { "code": "43", "nom": "Haute-Loire" }, "geometry": { "type": "Polygon", "coordinates": [ [ [ 3.8974, 45.3571 ], [ 3.9003, 45.3433 ], [ 3.9083, 45.3333 ], [ 3.9225, 45.3488 ], [ 3.9138, 45.3513 ], [ 3.9146, 45.354 ], [ 3.9229, 45.355 ], [ 3.9247, 45.3598 ], [ 3.9353, 45.359 ], [ 3.9369, 45.3723 ], [ 3.9485, 45.3765 ], [ 3.9594, 45.368 ], [ 3.9668, 45.3742 ], [ 3.9769, 45.3759 ], [ 3.9859, 45.3719 ], [ 3.9857, 45.365 ], [ 3.9935, 45.361 ], [ 3.9913, 45.3559 ], [ 4.0025, 45.356 ], [ 4.0195, 45.3275 ], [ 4.0217, 45.3394 ], [ 4.026, 45.3405 ], [ 4.0217, 45.3505 ], [ 4.0316, 45.3481 ], [ 4.0459, 45.3557 ], [ 4.0573, 45.3502 ], [ 4.0638, 45.3371 ], [ 4.0708, 45.3361 ], [ 4.0759, 45.3387 ], [ 4.0752, 45.352 ], [ 4.0805, 45.3517 ], [ 4.0765, 45.3545 ], [ 4.0804, 45.3578 ], [ 4.0979, 45.3594 ], [ 4.1092, 45.3556 ], [ 4.1096, 45.3639 ], [ 4.1194, 45.3695 ], [ 4.1538, 45.3648 ], [ 4.1581, 45.3728 ], [ 4.1456, 45.3843 ], [ 4.1779, 45.3926 ], [ 4.2021, 45.3815 ], [ 4.2047, 45.386 ], [ 4.2162, 45.3843 ], [ 4.2266, 45.3897 ], [ 4.2346, 45.3885 ], [ 4.2534, 45.3792 ], [ 4.2519, 45.3735 ], [ 4.2663, 45.3718 ], [ 4.2713, 45.3746 ], [ 4.2715, 45.3584 ], [ 4.2814, 45.3608 ], [ 4.2887, 45.3564 ], [ 4.2862, 45.3612 ], [ 4.2969, 45.3594 ], [ 4.2932, 45.3663 ], [ 4.2978, 45.368 ], [ 4.306, 45.3611 ], [ 4.3088, 45.3708 ], [ 4.3353, 45.368 ], [ 4.3592, 45.3504 ], [ 4.3656, 45.3386 ], [ 4.3316, 45.3185 ], [ 4.3513, 45.3033 ], [ 4.3712, 45.3011 ], [ 4.3613, 45.2923 ], [ 4.3582, 45.2813 ], [ 4.3497, 45.2803 ], [ 4.3494, 45.2742 ], [ 4.3603, 45.2715 ], [ 4.365, 45.2627 ], [ 4.3777, 45.2635 ], [ 4.3871, 45.2551 ], [ 4.3904, 45.2574 ], [ 4.3874, 45.2623 ], [ 4.3986, 45.265 ], [ 4.4009, 45.2695 ], [ 4.4186, 45.2754 ], [ 4.4345, 45.275 ], [ 4.4474, 45.2576 ], [ 4.4687, 45.2473 ], [ 4.4716, 45.24 ], [ 4.4831, 45.2364 ], [ 4.4907, 45.2236 ], [ 4.4878, 45.2163 ], [ 4.4766, 45.2119 ], [ 4.4806, 45.1955 ], [ 4.4725, 45.1794 ], [ 4.4593, 45.175 ], [ 4.4578, 45.1679 ], [ 4.4471, 45.1609 ], [ 4.4433, 45.1408 ], [ 4.4481, 45.1287 ], [ 4.4577, 45.1228 ], [ 4.4564, 45.1191 ], [ 4.444, 45.1184 ], [ 4.4379, 45.122 ], [ 4.4352, 45.1175 ], [ 4.4412, 45.1114 ], [ 4.436, 45.1087 ], [ 4.4263, 45.1179 ], [ 4.4317, 45.1283 ], [ 4.423, 45.1373 ], [ 4.4142, 45.1416 ], [ 4.3967, 45.1391 ], [ 4.3739, 45.144 ], [ 4.3765, 45.1361 ], [ 4.3695, 45.1285 ], [ 4.3775, 45.1226 ], [ 4.3899, 45.1228 ], [ 4.3909, 45.1194 ], [ 4.4002, 45.1184 ], [ 4.3996, 45.1048 ], [ 4.388, 45.1054 ], [ 4.3846, 45.1011 ], [ 4.3722, 45.1063 ], [ 4.3703, 45.1022 ], [ 4.3592, 45.0992 ], [ 4.3669, 45.089 ], [ 4.3571, 45.0869 ], [ 4.3598, 45.0802 ], [ 4.3537, 45.0761 ], [ 4.347, 45.0768 ], [ 4.346, 45.0688 ], [ 4.3596, 45.0557 ], [ 4.3777, 45.0548 ], [ 4.3817, 45.0416 ], [ 4.3791, 45.0362 ], [ 4.3562, 45.0336 ], [ 4.3521, 45.028 ], [ 4.3486, 45.0304 ], [ 4.3413, 45.0259 ], [ 4.3103, 45.0315 ], [ 4.3113, 45.0246 ], [ 4.3015, 45.0261 ], [ 4.3045, 45.0186 ], [ 4.2975, 45.0191 ], [ 4.2898, 44.9973 ], [ 4.2932, 44.9918 ], [ 4.3079, 44.9855 ], [ 4.3139, 44.9735 ], [ 4.2531, 44.9589 ], [ 4.236, 44.9704 ], [ 4.2273, 44.9658 ], [ 4.2217, 44.9613 ], [ 4.2232, 44.9487 ], [ 4.2166, 44.9336 ], [ 4.2024, 44.9267 ], [ 4.1912, 44.9119 ], [ 4.1822, 44.908 ], [ 4.1795, 44.8865 ], [ 4.1649, 44.8817 ], [ 4.1569, 44.8734 ], [ 4.1327, 44.8736 ], [ 4.1166, 44.8789 ], [ 4.1037, 44.8772 ], [ 4.0926, 44.8703 ], [ 4.0737, 44.8705 ], [ 4.0713, 44.8667 ], [ 4.0563, 44.8729 ], [ 4.0462, 44.8703 ], [ 4.0396, 44.8732 ], [ 4.0304, 44.8692 ], [ 4.0239, 44.8592 ], [ 4.0251, 44.8502 ], [ 4.0201, 44.8459 ], [ 4.0292, 44.8376 ], [ 4.0265, 44.8311 ], [ 4.0145, 44.8292 ], [ 4.0134, 44.8368 ], [ 4.0053, 44.838 ], [ 4.0069, 44.83 ], [ 4.0004, 44.8193 ], [ 3.9953, 44.8215 ], [ 3.9907, 44.8339 ], [ 3.9825, 44.8326 ], [ 3.9802, 44.8256 ], [ 3.9885, 44.8118 ], [ 3.9703, 44.8179 ], [ 3.9632, 44.8297 ], [ 3.9449, 44.8246 ], [ 3.937, 44.7954 ], [ 3.9262, 44.7912 ], [ 3.9225, 44.7774 ], [ 3.9108, 44.7787 ], [ 3.9254, 44.7701 ], [ 3.9002, 44.7642 ], [ 3.8988, 44.7527 ], [ 3.8927, 44.7511 ], [ 3.8756, 44.7572 ], [ 3.8625, 44.7439 ], [ 3.8354, 44.748 ], [ 3.8298, 44.7548 ], [ 3.8425, 44.7716 ], [ 3.8315, 44.7767 ], [ 3.8093, 44.7652 ], [ 3.7985, 44.7861 ], [ 3.778, 44.7987 ], [ 3.7713, 44.7972 ], [ 3.7714, 44.8032 ], [ 3.7612, 44.8019 ], [ 3.7617, 44.8137 ], [ 3.7499, 44.8229 ], [ 3.7516, 44.8284 ], [ 3.7466, 44.8295 ], [ 3.7426, 44.8389 ], [ 3.735, 44.8398 ], [ 3.7346, 44.833 ], [ 3.7229, 44.831 ], [ 3.7001, 44.8367 ], [ 3.6954, 44.831 ], [ 3.6632, 44.8298 ], [ 3.6574, 44.8361 ], [ 3.6718, 44.8434 ], [ 3.6724, 44.8568 ], [ 3.6668, 44.8576 ], [ 3.6536, 44.8759 ], [ 3.6302, 44.8809 ], [ 3.6147, 44.8742 ], [ 3.6083, 44.8793 ], [ 3.5937, 44.8766 ], [ 3.5987, 44.8597 ], [ 3.5904, 44.8466 ], [ 3.5943, 44.8411 ], [ 3.5866, 44.8381 ], [ 3.5889, 44.8264 ], [ 3.5788, 44.8254 ], [ 3.5706, 44.8359 ], [ 3.5602, 44.8328 ], [ 3.5615, 44.8249 ], [ 3.5431, 44.8284 ], [ 3.5057, 44.8239 ], [ 3.4891, 44.807 ], [ 3.4819, 44.8081 ], [ 3.4647, 44.8279 ], [ 3.456, 44.8292 ], [ 3.4589, 44.8399 ], [ 3.4418, 44.8542 ], [ 3.4357, 44.8802 ], [ 3.4205, 44.8951 ], [ 3.4193, 44.9084 ], [ 3.4104, 44.9178 ], [ 3.4158, 44.9274 ], [ 3.4152, 44.9416 ], [ 3.4044, 44.957 ], [ 3.3972, 44.9585 ], [ 3.3891, 44.9514 ], [ 3.3714, 44.9603 ], [ 3.3762, 44.9646 ], [ 3.3703, 44.97 ], [ 3.3726, 44.9754 ], [ 3.3623, 44.9713 ], [ 3.348, 44.9739 ], [ 3.3453, 44.9858 ], [ 3.3645, 44.9902 ], [ 3.3701, 45.0052 ], [ 3.3497, 45.0017 ], [ 3.3472, 45.0142 ], [ 3.3296, 45.0079 ], [ 3.325, 45.0098 ], [ 3.3372, 45.0253 ], [ 3.327, 45.0306 ], [ 3.3109, 45.0204 ], [ 3.2972, 45.0361 ], [ 3.3048, 45.0452 ], [ 3.2986, 45.0516 ], [ 3.2998, 45.0608 ], [ 3.3065, 45.0628 ], [ 3.302, 45.0637 ], [ 3.3086, 45.0682 ], [ 3.3149, 45.0851 ], [ 3.2977, 45.0912 ], [ 3.2898, 45.0867 ], [ 3.2823, 45.1032 ], [ 3.3046, 45.1066 ], [ 3.3054, 45.1011 ], [ 3.3258, 45.0951 ], [ 3.3614, 45.1042 ], [ 3.3505, 45.1043 ], [ 3.352, 45.1116 ], [ 3.3479, 45.1129 ], [ 3.331, 45.1095 ], [ 3.328, 45.1146 ], [ 3.2995, 45.1252 ], [ 3.288, 45.1204 ], [ 3.2738, 45.1453 ], [ 3.2804, 45.1471 ], [ 3.2816, 45.1516 ], [ 3.2671, 45.1545 ], [ 3.27, 45.1569 ], [ 3.2606, 45.1709 ], [ 3.2615, 45.1843 ], [ 3.271, 45.1898 ], [ 3.2733, 45.2084 ], [ 3.2658, 45.2136 ], [ 3.2554, 45.21 ], [ 3.2536, 45.2158 ], [ 3.2432, 45.2155 ], [ 3.2354, 45.2201 ], [ 3.2344, 45.2377 ], [ 3.221, 45.2446 ], [ 3.2277, 45.2551 ], [ 3.2245, 45.2627 ], [ 3.2291, 45.2649 ], [ 3.2269, 45.2719 ], [ 3.2201, 45.2719 ], [ 3.2232, 45.2768 ], [ 3.2024, 45.2824 ], [ 3.1835, 45.2794 ], [ 3.1884, 45.2774 ], [ 3.1649, 45.2688 ], [ 3.1698, 45.2799 ], [ 3.1674, 45.2861 ], [ 3.1611, 45.2876 ], [ 3.161, 45.2953 ], [ 3.1474, 45.2878 ], [ 3.1369, 45.2897 ], [ 3.118, 45.2842 ], [ 3.1113, 45.2842 ], [ 3.0994, 45.2923 ], [ 3.0831, 45.2894 ], [ 3.0846, 45.299 ], [ 3.1049, 45.3002 ], [ 3.1138, 45.3091 ], [ 3.1118, 45.3137 ], [ 3.0905, 45.3225 ], [ 3.0937, 45.3274 ], [ 3.1134, 45.3271 ], [ 3.1162, 45.3338 ], [ 3.1095, 45.3451 ], [ 3.1128, 45.3516 ], [ 3.11, 45.3514 ], [ 3.1035, 45.3544 ], [ 3.1308, 45.3514 ], [ 3.1397, 45.3552 ], [ 3.1466, 45.3502 ], [ 3.1804, 45.3515 ], [ 3.1746, 45.3553 ], [ 3.1814, 45.3647 ], [ 3.1945, 45.3626 ], [ 3.1923, 45.3668 ], [ 3.2019, 45.3711 ], [ 3.2087, 45.3712 ], [ 3.2115, 45.3672 ], [ 3.2186, 45.3695 ], [ 3.2217, 45.3818 ], [ 3.2379, 45.3936 ], [ 3.2541, 45.3887 ], [ 3.29, 45.4007 ], [ 3.2982, 45.4203 ], [ 3.311, 45.4184 ], [ 3.3156, 45.4115 ], [ 3.3201, 45.4132 ], [ 3.3276, 45.3968 ], [ 3.3341, 45.3983 ], [ 3.334, 45.4077 ], [ 3.3431, 45.417 ], [ 3.3408, 45.4214 ], [ 3.3498, 45.4196 ], [ 3.3559, 45.4227 ], [ 3.3783, 45.4008 ], [ 3.3902, 45.4036 ], [ 3.4023, 45.3999 ], [ 3.4061, 45.4034 ], [ 3.4186, 45.4006 ], [ 3.4197, 45.3974 ], [ 3.4303, 45.4021 ], [ 3.4636, 45.4019 ], [ 3.461, 45.4065 ], [ 3.4767, 45.4151 ], [ 3.4798, 45.4211 ], [ 3.4995, 45.4275 ], [ 3.5065, 45.4113 ], [ 3.5209, 45.4024 ], [ 3.5244, 45.4063 ], [ 3.5299, 45.3982 ], [ 3.5306, 45.4015 ], [ 3.5541, 45.3972 ], [ 3.5562, 45.3916 ], [ 3.5706, 45.4021 ], [ 3.5881, 45.3752 ], [ 3.5869, 45.3613 ], [ 3.6186, 45.3377 ], [ 3.6279, 45.339 ], [ 3.6449, 45.351 ], [ 3.6448, 45.3593 ], [ 3.6637, 45.3617 ], [ 3.6702, 45.3838 ], [ 3.6739, 45.3803 ], [ 3.6801, 45.3842 ], [ 3.6834, 45.378 ], [ 3.6907, 45.38 ], [ 3.6905, 45.3733 ], [ 3.7074, 45.3739 ], [ 3.7068, 45.3695 ], [ 3.6971, 45.3655 ], [ 3.6999, 45.3595 ], [ 3.7301, 45.3614 ], [ 3.7408, 45.3528 ], [ 3.7559, 45.3539 ], [ 3.7574, 45.3574 ], [ 3.7758, 45.3487 ], [ 3.7795, 45.3548 ], [ 3.79, 45.3539 ], [ 3.7906, 45.3641 ], [ 3.7854, 45.3702 ], [ 3.7914, 45.3848 ], [ 3.7952, 45.3838 ], [ 3.8049, 45.3921 ], [ 3.821, 45.3847 ], [ 3.8224, 45.3799 ], [ 3.8359, 45.383 ], [ 3.8376, 45.3658 ], [ 3.8508, 45.3683 ], [ 3.854, 45.36 ], [ 3.8735, 45.3551 ], [ 3.8921, 45.3541 ], [ 3.8974, 45.3571 ] ] ] } }
]
}
