{
"type": "FeatureCollection",
"name": "dep48",
"crs": { "type": "name", "properties": { "name": "urn:ogc:def:crs:OGC:1.3:CRS84" } },
"xy_coordinate_resolution": 0.0001,
"features": [
{ "type": "Feature", "properties": { "code": "48", "nom": "Lozère" }, "geometry": { "type": "Polygon", "coordinates": [ [ [ 3.3613, 44.9714 ], [ 3.3726, 44.9754 ], [ 3.3703, 44.97 ], [ 3.3762, 44.9646 ], [ 3.3714, 44.9603 ], [ 3.3891, 44.9514 ], [ 3.3972, 44.9585 ], [ 3.4044, 44.957 ], [ 3.4152, 44.9416 ], [ 3.4158, 44.9274 ], [ 3.4104, 44.9178 ], [ 3.4193, 44.9084 ], [ 3.4205, 44.8951 ], [ 3.4357, 44.8802 ], [ 3.4418, 44.8542 ], [ 3.4589, 44.8399 ], [ 3.456, 44.8292 ], [ 3.4647, 44.8279 ], [ 3.4782, 44.8097 ], [ 3.4891, 44.807 ], [ 3.5057, 44.8239 ], [ 3.5431, 44.8284 ], [ 3.5615, 44.8249 ], [ 3.5602, 44.8328 ], [ 3.5706, 44.8359 ], [ 3.5788, 44.8254 ], [ 3.5889, 44.8264 ], [ 3.5866, 44.8381 ], [ 3.5943, 44.8411 ], [ 3.5904, 44.8466 ], [ 3.5987, 44.8597 ], [ 3.5937, 44.8766 ], [ 3.6083, 44.8793 ], [ 3.6147, 44.8742 ], [ 3.6302, 44.8809 ], [ 3.6536, 44.8759 ], [ 3.6668, 44.8576 ], [ 3.6724, 44.8568 ], [ 3.6718, 44.8434 ], [ 3.6574, 44.8361 ], [ 3.6632, 44.8298 ], [ 3.6954, 44.831 ], [ 3.7001, 44.8367 ], [ 3.7229, 44.831 ], [ 3.7346, 44.833 ], [ 3.735, 44.8398 ], [ 3.7426, 44.8389 ], [ 3.7466, 44.8295 ], [ 3.7516, 44.8284 ], [ 3.7499, 44.8229 ], [ 3.7617, 44.8137 ], [ 3.7612, 44.8019 ], [ 3.7714, 44.8032 ], [ 3.7713, 44.7972 ], [ 3.778, 44.7987 ], [ 3.7985, 44.7861 ], [ 3.8093, 44.7652 ], [ 3.8177, 44.7719 ], [ 3.8336, 44.7765 ], [ 3.8432, 44.7702 ], [ 3.8298, 44.7548 ], [ 3.8354, 44.748 ], [ 3.8593, 44.7454 ], [ 3.8775, 44.7375 ], [ 3.8782, 44.7323 ], [ 3.8669, 44.7284 ], [ 3.8615, 44.712 ], [ 3.8726, 44.7072 ], [ 3.8672, 44.7023 ], [ 3.8697, 44.6971 ], [ 3.8843, 44.6976 ], [ 3.8842, 44.6926 ], [ 3.8695, 44.6783 ], [ 3.8788, 44.6739 ], [ 3.8829, 44.6577 ], [ 3.8897, 44.6569 ], [ 3.8971, 44.6455 ], [ 3.894, 44.6137 ], [ 3.9071, 44.6106 ], [ 3.9052, 44.5927 ], [ 3.9183, 44.5885 ], [ 3.9156, 44.5829 ], [ 3.9243, 44.5714 ], [ 3.9295, 44.5687 ], [ 3.9367, 44.5738 ], [ 3.9451, 44.5738 ], [ 3.9547, 44.5669 ], [ 3.9697, 44.5289 ], [ 3.9792, 44.5225 ], [ 3.978, 44.5164 ], [ 3.9881, 44.5042 ], [ 3.9859, 44.4782 ], [ 3.9982, 44.4598 ], [ 3.984, 44.4455 ], [ 3.9753, 44.4429 ], [ 3.973, 44.4267 ], [ 3.9611, 44.414 ], [ 3.9571, 44.4112 ], [ 3.9487, 44.4126 ], [ 3.9511, 44.4014 ], [ 3.9444, 44.3996 ], [ 3.9264, 44.4058 ], [ 3.9165, 44.4046 ], [ 3.9079, 44.4026 ], [ 3.8998, 44.391 ], [ 3.8887, 44.393 ], [ 3.8859, 44.3883 ], [ 3.8978, 44.3776 ], [ 3.9073, 44.3754 ], [ 3.9346, 44.3359 ], [ 3.9456, 44.336 ], [ 3.9522, 44.3315 ], [ 3.9427, 44.316 ], [ 3.9229, 44.3052 ], [ 3.9394, 44.287 ], [ 3.9337, 44.2757 ], [ 3.9457, 44.2667 ], [ 3.9557, 44.2721 ], [ 3.9601, 44.2708 ], [ 3.9689, 44.2664 ], [ 3.9748, 44.2558 ], [ 3.9663, 44.2479 ], [ 3.9627, 44.2504 ], [ 3.9551, 44.2468 ], [ 3.9547, 44.2496 ], [ 3.9462, 44.2424 ], [ 3.9448, 44.2325 ], [ 3.9516, 44.2183 ], [ 3.9366, 44.1949 ], [ 3.9599, 44.1912 ], [ 3.9572, 44.1843 ], [ 3.9646, 44.1778 ], [ 3.9614, 44.1752 ], [ 3.9659, 44.1707 ], [ 3.9719, 44.1739 ], [ 3.9766, 44.1711 ], [ 3.9717, 44.1636 ], [ 3.9323, 44.1815 ], [ 3.9233, 44.1823 ], [ 3.9273, 44.1613 ], [ 3.9131, 44.16 ], [ 3.9095, 44.1471 ], [ 3.9008, 44.1498 ], [ 3.8896, 44.1449 ], [ 3.8756, 44.1323 ], [ 3.8755, 44.1265 ], [ 3.8614, 44.1326 ], [ 3.8565, 44.13 ], [ 3.8474, 44.1359 ], [ 3.8382, 44.1344 ], [ 3.8321, 44.1373 ], [ 3.8224, 44.1362 ], [ 3.8126, 44.1288 ], [ 3.797, 44.1274 ], [ 3.7827, 44.1341 ], [ 3.7736, 44.1435 ], [ 3.7653, 44.1412 ], [ 3.7604, 44.1512 ], [ 3.737, 44.1559 ], [ 3.7256, 44.1642 ], [ 3.7063, 44.1647 ], [ 3.6941, 44.1704 ], [ 3.684, 44.1825 ], [ 3.6698, 44.1864 ], [ 3.6715, 44.1796 ], [ 3.6603, 44.1738 ], [ 3.6496, 44.1809 ], [ 3.6371, 44.1763 ], [ 3.6275, 44.1545 ], [ 3.6532, 44.146 ], [ 3.636, 44.1406 ], [ 3.6328, 44.1212 ], [ 3.6032, 44.1158 ], [ 3.598, 44.1191 ], [ 3.5638, 44.1232 ], [ 3.546, 44.1143 ], [ 3.5434, 44.1093 ], [ 3.5407, 44.1189 ], [ 3.5323, 44.122 ], [ 3.4397, 44.129 ], [ 3.4327, 44.1353 ], [ 3.4308, 44.148 ], [ 3.4226, 44.1528 ], [ 3.4114, 44.1534 ], [ 3.4051, 44.1619 ], [ 3.3965, 44.1612 ], [ 3.3956, 44.1686 ], [ 3.3737, 44.1708 ], [ 3.3748, 44.1793 ], [ 3.3574, 44.1932 ], [ 3.3628, 44.2015 ], [ 3.3457, 44.2006 ], [ 3.3349, 44.2041 ], [ 3.318, 44.2002 ], [ 3.2939, 44.207 ], [ 3.2878, 44.1996 ], [ 3.2671, 44.2014 ], [ 3.2377, 44.19 ], [ 3.2041, 44.1897 ], [ 3.2247, 44.2119 ], [ 3.2234, 44.22 ], [ 3.2305, 44.2303 ], [ 3.1923, 44.2408 ], [ 3.1893, 44.2475 ], [ 3.1616, 44.2445 ], [ 3.1547, 44.2718 ], [ 3.1465, 44.2767 ], [ 3.1384, 44.2641 ], [ 3.1306, 44.2608 ], [ 3.1202, 44.2618 ], [ 3.1251, 44.2726 ], [ 3.1235, 44.2846 ], [ 3.1542, 44.3084 ], [ 3.1515, 44.3154 ], [ 3.1462, 44.3139 ], [ 3.1451, 44.3182 ], [ 3.1543, 44.331 ], [ 3.1337, 44.3303 ], [ 3.1273, 44.347 ], [ 3.132, 44.3572 ], [ 3.1193, 44.3641 ], [ 3.1244, 44.3802 ], [ 3.1178, 44.3843 ], [ 3.1217, 44.3887 ], [ 3.1404, 44.3922 ], [ 3.1372, 44.4109 ], [ 3.1267, 44.414 ], [ 3.1303, 44.4221 ], [ 3.1417, 44.4263 ], [ 3.1435, 44.4353 ], [ 3.1349, 44.4413 ], [ 3.1368, 44.4562 ], [ 3.1246, 44.4613 ], [ 3.1158, 44.4756 ], [ 3.0996, 44.4804 ], [ 3.0688, 44.5013 ], [ 3.0766, 44.5185 ], [ 3.0747, 44.5331 ], [ 3.0839, 44.5604 ], [ 3.0759, 44.573 ], [ 3.0604, 44.5796 ], [ 3.0501, 44.5905 ], [ 3.0322, 44.5977 ], [ 3.0116, 44.6225 ], [ 2.9817, 44.6447 ], [ 2.9849, 44.6504 ], [ 2.9818, 44.652 ], [ 2.998, 44.6729 ], [ 3.0012, 44.6891 ], [ 3.0087, 44.6942 ], [ 3.0165, 44.7144 ], [ 3.0231, 44.7135 ], [ 3.0263, 44.7169 ], [ 3.0391, 44.715 ], [ 3.0344, 44.7292 ], [ 3.0264, 44.7289 ], [ 3.0311, 44.7494 ], [ 3.0392, 44.7589 ], [ 3.049, 44.7627 ], [ 3.0426, 44.7722 ], [ 3.0517, 44.7852 ], [ 3.0466, 44.8017 ], [ 3.0622, 44.819 ], [ 3.077, 44.8242 ], [ 3.0727, 44.8374 ], [ 3.0992, 44.8329 ], [ 3.0988, 44.8489 ], [ 3.0932, 44.8542 ], [ 3.1077, 44.8665 ], [ 3.1029, 44.8705 ], [ 3.1068, 44.8797 ], [ 3.104, 44.8866 ], [ 3.1118, 44.8882 ], [ 3.1151, 44.894 ], [ 3.124, 44.8899 ], [ 3.1214, 44.8949 ], [ 3.1284, 44.9036 ], [ 3.1411, 44.9033 ], [ 3.1601, 44.8852 ], [ 3.1647, 44.8738 ], [ 3.1735, 44.873 ], [ 3.1886, 44.8614 ], [ 3.1992, 44.8746 ], [ 3.2157, 44.8744 ], [ 3.2289, 44.8862 ], [ 3.2363, 44.8879 ], [ 3.2275, 44.8961 ], [ 3.2264, 44.91 ], [ 3.2497, 44.9162 ], [ 3.2442, 44.927 ], [ 3.2481, 44.9298 ], [ 3.2417, 44.9337 ], [ 3.2506, 44.9346 ], [ 3.2484, 44.9395 ], [ 3.2666, 44.9423 ], [ 3.2615, 44.9321 ], [ 3.286, 44.9264 ], [ 3.2991, 44.9391 ], [ 3.3068, 44.9411 ], [ 3.3133, 44.9385 ], [ 3.3153, 44.9442 ], [ 3.3379, 44.9559 ], [ 3.3545, 44.9548 ], [ 3.3613, 44.9714 ] ] ] } }
]
}
