{
"type": "FeatureCollection",
"name": "dep47",
"crs": { "type": "name", "properties": { "name": "urn:ogc:def:crs:OGC:1.3:CRS84" } },
"xy_coordinate_resolution": 0.0001,
"features": [
{ "type": "Feature", "properties": { "code": "47", "nom": "Lot-et-Garonne" }, "geometry": { "type": "Polygon", "coordinates": [ [ [ 0.2973, 44.7623 ], [ 0.3201, 44.7509 ], [ 0.3269, 44.7402 ], [ 0.3391, 44.7339 ], [ 0.348, 44.7196 ], [ 0.3482, 44.7105 ], [ 0.3405, 44.7031 ], [ 0.3551, 44.6966 ], [ 0.3597, 44.6903 ], [ 0.3489, 44.6702 ], [ 0.3537, 44.6544 ], [ 0.3656, 44.6622 ], [ 0.3754, 44.6528 ], [ 0.3854, 44.657 ], [ 0.4152, 44.6459 ], [ 0.4457, 44.6524 ], [ 0.4705, 44.6696 ], [ 0.4906, 44.6668 ], [ 0.5155, 44.6786 ], [ 0.5282, 44.6785 ], [ 0.5361, 44.674 ], [ 0.5402, 44.6651 ], [ 0.5462, 44.6647 ], [ 0.5673, 44.6716 ], [ 0.5747, 44.6912 ], [ 0.585, 44.699 ], [ 0.62, 44.6913 ], [ 0.6236, 44.6928 ], [ 0.622, 44.701 ], [ 0.6309, 44.7061 ], [ 0.6477, 44.7031 ], [ 0.6545, 44.6967 ], [ 0.6574, 44.6778 ], [ 0.6701, 44.6795 ], [ 0.6837, 44.6752 ], [ 0.7038, 44.6783 ], [ 0.73, 44.6761 ], [ 0.7467, 44.6824 ], [ 0.7631, 44.6786 ], [ 0.7625, 44.6886 ], [ 0.7798, 44.6834 ], [ 0.7876, 44.6854 ], [ 0.7869, 44.6936 ], [ 0.7977, 44.7018 ], [ 0.8161, 44.6953 ], [ 0.8179, 44.6985 ], [ 0.827, 44.6919 ], [ 0.8315, 44.6843 ], [ 0.8268, 44.6734 ], [ 0.8524, 44.669 ], [ 0.8423, 44.6662 ], [ 0.844, 44.6544 ], [ 0.8351, 44.6533 ], [ 0.8374, 44.6408 ], [ 0.8338, 44.6385 ], [ 0.838, 44.6353 ], [ 0.817, 44.627 ], [ 0.8293, 44.6129 ], [ 0.8374, 44.6161 ], [ 0.8393, 44.6137 ], [ 0.8387, 44.606 ], [ 0.8319, 44.6038 ], [ 0.8339, 44.5999 ], [ 0.8697, 44.5977 ], [ 0.8772, 44.6158 ], [ 0.901, 44.6175 ], [ 0.9387, 44.6397 ], [ 0.9496, 44.6411 ], [ 0.968, 44.6347 ], [ 0.9795, 44.6439 ], [ 1.0136, 44.6144 ], [ 1.0454, 44.6058 ], [ 1.056, 44.5977 ], [ 1.073, 44.5963 ], [ 1.078, 44.5838 ], [ 1.0697, 44.5661 ], [ 1.0452, 44.5624 ], [ 1.013, 44.5363 ], [ 1.0089, 44.5471 ], [ 0.995, 44.5497 ], [ 0.9815, 44.5444 ], [ 0.9893, 44.5386 ], [ 0.9879, 44.533 ], [ 0.9998, 44.5269 ], [ 1.007, 44.513 ], [ 1.0162, 44.5059 ], [ 1.0165, 44.499 ], [ 1.0116, 44.4956 ], [ 1.017, 44.489 ], [ 1.0125, 44.4896 ], [ 1.009, 44.48 ], [ 1.024, 44.4731 ], [ 1.021, 44.4454 ], [ 1.0324, 44.4413 ], [ 1.0282, 44.434 ], [ 1.0453, 44.4343 ], [ 1.0492, 44.4293 ], [ 1.0539, 44.4319 ], [ 1.0575, 44.4277 ], [ 1.0613, 44.4019 ], [ 1.0514, 44.3921 ], [ 1.0603, 44.3911 ], [ 1.0645, 44.3805 ], [ 1.0597, 44.3765 ], [ 1.0607, 44.3656 ], [ 1.0493, 44.3624 ], [ 1.0193, 44.3633 ], [ 0.9967, 44.3691 ], [ 0.9773, 44.3562 ], [ 0.9752, 44.3615 ], [ 0.9592, 44.3588 ], [ 0.9515, 44.3616 ], [ 0.9514, 44.3578 ], [ 0.9418, 44.3532 ], [ 0.9458, 44.3478 ], [ 0.9424, 44.3446 ], [ 0.9371, 44.3694 ], [ 0.9198, 44.3844 ], [ 0.8964, 44.3818 ], [ 0.8872, 44.3646 ], [ 0.8961, 44.3462 ], [ 0.8885, 44.3387 ], [ 0.8892, 44.3322 ], [ 0.8825, 44.3318 ], [ 0.8833, 44.3284 ], [ 0.8733, 44.3236 ], [ 0.8692, 44.3099 ], [ 0.8847, 44.3076 ], [ 0.8941, 44.2969 ], [ 0.9164, 44.3022 ], [ 0.9258, 44.2865 ], [ 0.9404, 44.2821 ], [ 0.9451, 44.2776 ], [ 0.9425, 44.2747 ], [ 0.9508, 44.2751 ], [ 0.9403, 44.2633 ], [ 0.9278, 44.2674 ], [ 0.9326, 44.2483 ], [ 0.9248, 44.247 ], [ 0.9191, 44.2383 ], [ 0.9289, 44.235 ], [ 0.9292, 44.2302 ], [ 0.9052, 44.1973 ], [ 0.906, 44.1901 ], [ 0.8617, 44.1934 ], [ 0.853, 44.1839 ], [ 0.8536, 44.1748 ], [ 0.865, 44.1735 ], [ 0.871, 44.1679 ], [ 0.883, 44.1755 ], [ 0.8892, 44.172 ], [ 0.8848, 44.1608 ], [ 0.894, 44.1379 ], [ 0.8827, 44.1421 ], [ 0.878, 44.1366 ], [ 0.883, 44.1333 ], [ 0.8809, 44.13 ], [ 0.867, 44.1264 ], [ 0.8189, 44.1439 ], [ 0.7886, 44.1444 ], [ 0.7976, 44.1304 ], [ 0.793, 44.1187 ], [ 0.7989, 44.1106 ], [ 0.7757, 44.1158 ], [ 0.7568, 44.1074 ], [ 0.7474, 44.0962 ], [ 0.7483, 44.0868 ], [ 0.7384, 44.0754 ], [ 0.7419, 44.0652 ], [ 0.7387, 44.061 ], [ 0.7079, 44.0583 ], [ 0.6953, 44.0444 ], [ 0.6857, 44.0462 ], [ 0.6771, 44.027 ], [ 0.6604, 44.0254 ], [ 0.6523, 44.0331 ], [ 0.6541, 44.0424 ], [ 0.6317, 44.0495 ], [ 0.6279, 44.0606 ], [ 0.5938, 44.0793 ], [ 0.5857, 44.0752 ], [ 0.5759, 44.0759 ], [ 0.5784, 44.0732 ], [ 0.5669, 44.0603 ], [ 0.5555, 44.0547 ], [ 0.5423, 44.0562 ], [ 0.5384, 44.0529 ], [ 0.5306, 44.0576 ], [ 0.5211, 44.0572 ], [ 0.5121, 44.0633 ], [ 0.5059, 44.0519 ], [ 0.5023, 44.0575 ], [ 0.4852, 44.0579 ], [ 0.4841, 44.0527 ], [ 0.4595, 44.0552 ], [ 0.445, 44.0394 ], [ 0.4425, 44.0288 ], [ 0.425, 44.0261 ], [ 0.4172, 44.0295 ], [ 0.4112, 44.0207 ], [ 0.3969, 44.0223 ], [ 0.3815, 44.0064 ], [ 0.3714, 44.0082 ], [ 0.3581, 44.017 ], [ 0.3543, 44.0126 ], [ 0.3271, 44.0073 ], [ 0.3165, 44.0101 ], [ 0.3177, 43.9946 ], [ 0.3091, 43.9955 ], [ 0.3029, 43.991 ], [ 0.2735, 43.9988 ], [ 0.27, 44.0036 ], [ 0.2572, 44.0078 ], [ 0.2534, 44.0025 ], [ 0.2334, 44.0089 ], [ 0.2297, 44.0111 ], [ 0.234, 44.0216 ], [ 0.2247, 44.0192 ], [ 0.214, 44.023 ], [ 0.2114, 44.0196 ], [ 0.2059, 44.021 ], [ 0.2028, 44.0127 ], [ 0.1979, 44.0161 ], [ 0.1896, 44.0146 ], [ 0.1803, 44.0005 ], [ 0.1668, 43.9968 ], [ 0.1659, 43.9809 ], [ 0.1575, 43.9728 ], [ 0.1386, 43.9748 ], [ 0.1417, 43.9942 ], [ 0.1268, 44.0019 ], [ 0.1264, 43.9965 ], [ 0.12, 43.9954 ], [ 0.1168, 43.988 ], [ 0.1051, 43.9846 ], [ 0.0887, 43.9856 ], [ 0.0781, 43.9811 ], [ 0.0627, 44.0008 ], [ 0.0599, 44.0247 ], [ 0.0723, 44.0253 ], [ 0.0759, 44.03 ], [ 0.082, 44.0404 ], [ 0.0791, 44.045 ], [ 0.0873, 44.0521 ], [ 0.083, 44.0636 ], [ 0.0943, 44.0656 ], [ 0.0986, 44.0788 ], [ 0.1048, 44.0783 ], [ 0.101, 44.0873 ], [ 0.1236, 44.1055 ], [ 0.1359, 44.1086 ], [ 0.1307, 44.1217 ], [ 0.1351, 44.1242 ], [ 0.0346, 44.1307 ], [ 0.0287, 44.1372 ], [ -0.0035, 44.1499 ], [ -0.0599, 44.1508 ], [ -0.0867, 44.1562 ], [ -0.1087, 44.1546 ], [ -0.1138, 44.1513 ], [ -0.1291, 44.1524 ], [ -0.1295, 44.2041 ], [ -0.1407, 44.2264 ], [ -0.1271, 44.2332 ], [ -0.1232, 44.2406 ], [ -0.1081, 44.231 ], [ -0.0985, 44.2339 ], [ -0.0967, 44.2382 ], [ -0.0882, 44.2363 ], [ -0.0744, 44.2524 ], [ -0.0666, 44.2468 ], [ -0.0534, 44.2658 ], [ -0.033, 44.2717 ], [ -0.0434, 44.2936 ], [ -0.0348, 44.2967 ], [ -0.0595, 44.3214 ], [ -0.0666, 44.3224 ], [ -0.0857, 44.3376 ], [ -0.0788, 44.3537 ], [ -0.0696, 44.3529 ], [ -0.0584, 44.3613 ], [ -0.0288, 44.3602 ], [ -0.0122, 44.372 ], [ 0.0012, 44.3723 ], [ 0.0061, 44.3672 ], [ 0.0147, 44.3666 ], [ 0.023, 44.3757 ], [ 0.007, 44.3818 ], [ 0.0182, 44.3899 ], [ 0.0043, 44.3977 ], [ 0.0059, 44.4006 ], [ -0.0087, 44.4123 ], [ -0.0052, 44.4179 ], [ -0.0139, 44.4187 ], [ -0.0059, 44.424 ], [ -0.0088, 44.4338 ], [ -0.0047, 44.4419 ], [ 0.0075, 44.4471 ], [ 0.0049, 44.4568 ], [ -0.0132, 44.4606 ], [ -0.0182, 44.4917 ], [ -0.0151, 44.5066 ], [ -0.0061, 44.5175 ], [ 0.0096, 44.5219 ], [ 0.0181, 44.5298 ], [ -0.001, 44.5518 ], [ 0.021, 44.5415 ], [ 0.025, 44.5481 ], [ 0.0377, 44.5541 ], [ 0.0715, 44.5495 ], [ 0.0862, 44.5763 ], [ 0.0822, 44.584 ], [ 0.1115, 44.5902 ], [ 0.1355, 44.6079 ], [ 0.1509, 44.6086 ], [ 0.155, 44.6152 ], [ 0.145, 44.6263 ], [ 0.1393, 44.6271 ], [ 0.1381, 44.639 ], [ 0.1412, 44.6413 ], [ 0.1498, 44.6328 ], [ 0.1652, 44.6329 ], [ 0.1685, 44.647 ], [ 0.1822, 44.6593 ], [ 0.1773, 44.6673 ], [ 0.1622, 44.6705 ], [ 0.1369, 44.6663 ], [ 0.13, 44.6729 ], [ 0.1337, 44.6824 ], [ 0.1143, 44.6811 ], [ 0.1041, 44.6856 ], [ 0.1057, 44.6958 ], [ 0.1003, 44.701 ], [ 0.1063, 44.7015 ], [ 0.105, 44.7075 ], [ 0.118, 44.7131 ], [ 0.1334, 44.7046 ], [ 0.1324, 44.7089 ], [ 0.1395, 44.7141 ], [ 0.1347, 44.7217 ], [ 0.1394, 44.7213 ], [ 0.1399, 44.7364 ], [ 0.1508, 44.7301 ], [ 0.1644, 44.7358 ], [ 0.1751, 44.7337 ], [ 0.1842, 44.7487 ], [ 0.1917, 44.7488 ], [ 0.2015, 44.7231 ], [ 0.2191, 44.7246 ], [ 0.21, 44.7405 ], [ 0.2265, 44.7644 ], [ 0.2403, 44.7632 ], [ 0.2449, 44.7526 ], [ 0.2516, 44.7502 ], [ 0.2808, 44.7533 ], [ 0.2951, 44.7574 ], [ 0.2973, 44.7623 ] ] ] } }
]
}
