{
"type": "FeatureCollection",
"name": "dep46",
"crs": { "type": "name", "properties": { "name": "urn:ogc:def:crs:OGC:1.3:CRS84" } },
"xy_coordinate_resolution": 0.0001,
"features": [
{ "type": "Feature", "properties": { "code": "46", "nom": "Lot" }, "geometry": { "type": "Polygon", "coordinates": [ [ [ 1.4483, 45.0193 ], [ 1.462, 45.0137 ], [ 1.4769, 45.0185 ], [ 1.4773, 45.027 ], [ 1.4825, 45.0302 ], [ 1.4879, 45.0325 ], [ 1.4918, 45.0299 ], [ 1.5066, 45.0399 ], [ 1.5206, 45.04 ], [ 1.5375, 45.0467 ], [ 1.5451, 45.0289 ], [ 1.5544, 45.0293 ], [ 1.5763, 45.0407 ], [ 1.5935, 45.0348 ], [ 1.6054, 45.0353 ], [ 1.6077, 45.0318 ], [ 1.6233, 45.0305 ], [ 1.63, 45.0336 ], [ 1.6355, 45.0293 ], [ 1.6462, 45.0285 ], [ 1.6485, 45.0238 ], [ 1.6519, 45.0253 ], [ 1.6529, 45.0181 ], [ 1.665, 45.0121 ], [ 1.6638, 45.0088 ], [ 1.6844, 45.0027 ], [ 1.6872, 44.9964 ], [ 1.7027, 44.9878 ], [ 1.711, 44.9673 ], [ 1.7249, 44.9681 ], [ 1.733, 44.9648 ], [ 1.7339, 44.9594 ], [ 1.7407, 44.9606 ], [ 1.7508, 44.9557 ], [ 1.7513, 44.9473 ], [ 1.7559, 44.9463 ], [ 1.7493, 44.9376 ], [ 1.7673, 44.9337 ], [ 1.7749, 44.9237 ], [ 1.7863, 44.9309 ], [ 1.7857, 44.9369 ], [ 1.7983, 44.9303 ], [ 1.8013, 44.9221 ], [ 1.8092, 44.9283 ], [ 1.8239, 44.9277 ], [ 1.8312, 44.9455 ], [ 1.8369, 44.9453 ], [ 1.8364, 44.9375 ], [ 1.8428, 44.9371 ], [ 1.8449, 44.9431 ], [ 1.8632, 44.9478 ], [ 1.8686, 44.9541 ], [ 1.8874, 44.9566 ], [ 1.8873, 44.9627 ], [ 1.899, 44.9677 ], [ 1.8992, 44.9724 ], [ 1.9087, 44.9784 ], [ 1.9219, 44.9761 ], [ 1.9288, 44.9787 ], [ 1.9391, 44.9732 ], [ 1.9403, 44.9529 ], [ 1.9492, 44.9525 ], [ 1.9564, 44.9597 ], [ 1.9915, 44.9759 ], [ 2.0454, 44.9837 ], [ 2.0526, 44.9765 ], [ 2.0629, 44.9765 ], [ 2.0807, 44.9533 ], [ 2.0778, 44.9339 ], [ 2.1046, 44.9198 ], [ 2.1021, 44.9164 ], [ 2.1073, 44.9103 ], [ 2.0983, 44.9047 ], [ 2.0859, 44.9038 ], [ 2.0843, 44.8857 ], [ 2.1172, 44.8483 ], [ 2.1281, 44.8453 ], [ 2.1275, 44.8379 ], [ 2.1353, 44.827 ], [ 2.1677, 44.811 ], [ 2.1648, 44.8038 ], [ 2.1718, 44.7898 ], [ 2.1697, 44.7775 ], [ 2.1656, 44.7715 ], [ 2.1541, 44.772 ], [ 2.1485, 44.7666 ], [ 2.1557, 44.7425 ], [ 2.1506, 44.7407 ], [ 2.149, 44.7221 ], [ 2.1312, 44.7089 ], [ 2.13, 44.6987 ], [ 2.1383, 44.6936 ], [ 2.153, 44.7 ], [ 2.1595, 44.6974 ], [ 2.1792, 44.6745 ], [ 2.1719, 44.6663 ], [ 2.1618, 44.6634 ], [ 2.174, 44.6537 ], [ 2.1687, 44.6386 ], [ 2.1938, 44.628 ], [ 2.1932, 44.625 ], [ 2.2063, 44.6178 ], [ 2.211, 44.6049 ], [ 2.2077, 44.6019 ], [ 2.1979, 44.6037 ], [ 2.194, 44.6 ], [ 2.2018, 44.596 ], [ 2.1944, 44.5906 ], [ 2.1944, 44.5854 ], [ 2.1864, 44.5871 ], [ 2.187, 44.5909 ], [ 2.1806, 44.5878 ], [ 2.1785, 44.5943 ], [ 2.1681, 44.5908 ], [ 2.1538, 44.5719 ], [ 2.1485, 44.5706 ], [ 2.1325, 44.5695 ], [ 2.1249, 44.5794 ], [ 2.116, 44.5729 ], [ 2.1053, 44.5712 ], [ 2.0813, 44.587 ], [ 2.0679, 44.5669 ], [ 2.0607, 44.5654 ], [ 2.0594, 44.5712 ], [ 2.0677, 44.5757 ], [ 2.0638, 44.582 ], [ 2.0574, 44.5829 ], [ 2.035, 44.5711 ], [ 2.0355, 44.5634 ], [ 2.0289, 44.5582 ], [ 2.0017, 44.5565 ], [ 1.9866, 44.55 ], [ 1.9604, 44.52 ], [ 1.9366, 44.5152 ], [ 1.9296, 44.5055 ], [ 1.913, 44.5052 ], [ 1.9116, 44.4998 ], [ 1.9211, 44.4915 ], [ 1.9165, 44.4863 ], [ 1.9081, 44.4882 ], [ 1.905, 44.5014 ], [ 1.8903, 44.5059 ], [ 1.8842, 44.4984 ], [ 1.8844, 44.4847 ], [ 1.8616, 44.4873 ], [ 1.8421, 44.482 ], [ 1.8396, 44.4759 ], [ 1.8532, 44.463 ], [ 1.8462, 44.4473 ], [ 1.8511, 44.4437 ], [ 1.8499, 44.4357 ], [ 1.8732, 44.4241 ], [ 1.8719, 44.4109 ], [ 1.8758, 44.4073 ], [ 1.8672, 44.3976 ], [ 1.8912, 44.3799 ], [ 1.8931, 44.371 ], [ 1.9087, 44.3642 ], [ 1.912, 44.3569 ], [ 1.9089, 44.3501 ], [ 1.8956, 44.3499 ], [ 1.8919, 44.353 ], [ 1.8821, 44.3401 ], [ 1.8527, 44.3317 ], [ 1.8472, 44.3378 ], [ 1.8333, 44.3356 ], [ 1.8265, 44.3236 ], [ 1.8107, 44.3285 ], [ 1.806, 44.3366 ], [ 1.7944, 44.3348 ], [ 1.7904, 44.3258 ], [ 1.7834, 44.3279 ], [ 1.7889, 44.3226 ], [ 1.7837, 44.3155 ], [ 1.7804, 44.3138 ], [ 1.7761, 44.3176 ], [ 1.7745, 44.3119 ], [ 1.7554, 44.3258 ], [ 1.7508, 44.3238 ], [ 1.7374, 44.327 ], [ 1.7366, 44.3181 ], [ 1.7105, 44.3115 ], [ 1.6995, 44.3138 ], [ 1.6765, 44.298 ], [ 1.6706, 44.2978 ], [ 1.6692, 44.29 ], [ 1.6634, 44.2935 ], [ 1.6595, 44.2833 ], [ 1.6524, 44.2962 ], [ 1.6339, 44.2988 ], [ 1.632, 44.2939 ], [ 1.6522, 44.2851 ], [ 1.6425, 44.2711 ], [ 1.634, 44.2686 ], [ 1.6143, 44.2805 ], [ 1.6166, 44.2977 ], [ 1.6007, 44.2957 ], [ 1.595, 44.3034 ], [ 1.5872, 44.2988 ], [ 1.5707, 44.3015 ], [ 1.5697, 44.2961 ], [ 1.5784, 44.2839 ], [ 1.5608, 44.2795 ], [ 1.5632, 44.2747 ], [ 1.5771, 44.2702 ], [ 1.5873, 44.249 ], [ 1.5752, 44.2419 ], [ 1.5747, 44.2339 ], [ 1.5701, 44.2363 ], [ 1.5553, 44.2338 ], [ 1.5414, 44.2274 ], [ 1.5269, 44.2372 ], [ 1.5182, 44.2495 ], [ 1.5169, 44.2541 ], [ 1.5263, 44.2602 ], [ 1.5148, 44.2658 ], [ 1.5093, 44.2738 ], [ 1.4971, 44.2708 ], [ 1.4845, 44.2725 ], [ 1.4868, 44.2777 ], [ 1.4719, 44.2868 ], [ 1.4645, 44.269 ], [ 1.4532, 44.2674 ], [ 1.4536, 44.2541 ], [ 1.4407, 44.2528 ], [ 1.439, 44.2475 ], [ 1.4287, 44.2423 ], [ 1.4173, 44.2408 ], [ 1.3813, 44.2255 ], [ 1.3576, 44.2033 ], [ 1.3423, 44.2182 ], [ 1.3438, 44.2243 ], [ 1.3358, 44.2286 ], [ 1.3295, 44.2306 ], [ 1.3297, 44.2256 ], [ 1.3259, 44.2254 ], [ 1.3179, 44.233 ], [ 1.3138, 44.227 ], [ 1.3069, 44.227 ], [ 1.2824, 44.2364 ], [ 1.2863, 44.2413 ], [ 1.2844, 44.2525 ], [ 1.305, 44.262 ], [ 1.304, 44.2693 ], [ 1.2942, 44.2699 ], [ 1.2934, 44.2727 ], [ 1.3018, 44.2803 ], [ 1.3031, 44.2943 ], [ 1.2831, 44.2907 ], [ 1.271, 44.2811 ], [ 1.2547, 44.2845 ], [ 1.247, 44.2661 ], [ 1.2421, 44.2667 ], [ 1.2446, 44.2685 ], [ 1.2387, 44.276 ], [ 1.2206, 44.2804 ], [ 1.2141, 44.2682 ], [ 1.2046, 44.2821 ], [ 1.1971, 44.2802 ], [ 1.1798, 44.2891 ], [ 1.179, 44.3105 ], [ 1.1678, 44.3029 ], [ 1.163, 44.3099 ], [ 1.1514, 44.3074 ], [ 1.136, 44.3172 ], [ 1.1224, 44.3157 ], [ 1.1104, 44.3231 ], [ 1.1079, 44.3274 ], [ 1.1155, 44.3383 ], [ 1.0948, 44.3498 ], [ 1.0868, 44.3489 ], [ 1.0812, 44.3544 ], [ 1.0917, 44.3604 ], [ 1.0937, 44.3666 ], [ 1.0886, 44.3711 ], [ 1.1046, 44.3645 ], [ 1.1074, 44.3701 ], [ 1.133, 44.3713 ], [ 1.1318, 44.3887 ], [ 1.137, 44.3924 ], [ 1.1035, 44.3923 ], [ 1.0848, 44.3817 ], [ 1.0641, 44.3785 ], [ 1.0603, 44.3911 ], [ 1.0514, 44.3921 ], [ 1.0613, 44.4019 ], [ 1.0575, 44.4277 ], [ 1.0539, 44.4319 ], [ 1.0492, 44.4293 ], [ 1.0453, 44.4343 ], [ 1.0282, 44.434 ], [ 1.0324, 44.4413 ], [ 1.021, 44.4454 ], [ 1.024, 44.4731 ], [ 1.009, 44.48 ], [ 1.0125, 44.4896 ], [ 1.017, 44.489 ], [ 1.0116, 44.4956 ], [ 1.0165, 44.499 ], [ 1.0162, 44.5059 ], [ 1.007, 44.513 ], [ 0.9998, 44.5269 ], [ 0.9879, 44.533 ], [ 0.9893, 44.5386 ], [ 0.9815, 44.5444 ], [ 0.995, 44.5497 ], [ 1.0089, 44.5471 ], [ 1.013, 44.5363 ], [ 1.0452, 44.5624 ], [ 1.0697, 44.5661 ], [ 1.0744, 44.5773 ], [ 1.0877, 44.5708 ], [ 1.1032, 44.5717 ], [ 1.0989, 44.5799 ], [ 1.1035, 44.581 ], [ 1.1025, 44.5864 ], [ 1.0946, 44.5923 ], [ 1.1533, 44.6377 ], [ 1.1465, 44.6528 ], [ 1.15, 44.6552 ], [ 1.1467, 44.6708 ], [ 1.1607, 44.6726 ], [ 1.1785, 44.6826 ], [ 1.1974, 44.6838 ], [ 1.198, 44.6806 ], [ 1.2245, 44.6843 ], [ 1.2301, 44.6914 ], [ 1.2419, 44.6929 ], [ 1.2434, 44.7037 ], [ 1.2487, 44.7081 ], [ 1.2634, 44.7106 ], [ 1.2708, 44.7227 ], [ 1.2794, 44.7158 ], [ 1.2878, 44.7148 ], [ 1.2894, 44.7206 ], [ 1.2986, 44.7259 ], [ 1.3003, 44.7337 ], [ 1.2955, 44.736 ], [ 1.3002, 44.7443 ], [ 1.3161, 44.7404 ], [ 1.3228, 44.765 ], [ 1.3136, 44.7651 ], [ 1.2985, 44.7742 ], [ 1.2962, 44.7778 ], [ 1.3047, 44.7845 ], [ 1.3046, 44.7891 ], [ 1.2933, 44.7898 ], [ 1.2983, 44.7962 ], [ 1.3255, 44.806 ], [ 1.3389, 44.8055 ], [ 1.3641, 44.8116 ], [ 1.3599, 44.8343 ], [ 1.3659, 44.8458 ], [ 1.3711, 44.8474 ], [ 1.3771, 44.8418 ], [ 1.3873, 44.851 ], [ 1.4025, 44.8501 ], [ 1.4113, 44.8723 ], [ 1.4311, 44.8713 ], [ 1.4419, 44.8776 ], [ 1.4399, 44.8889 ], [ 1.4231, 44.8954 ], [ 1.418, 44.9006 ], [ 1.4214, 44.9063 ], [ 1.4122, 44.9098 ], [ 1.4253, 44.92 ], [ 1.4424, 44.9166 ], [ 1.4331, 44.9372 ], [ 1.4347, 44.9445 ], [ 1.4279, 44.9466 ], [ 1.4166, 44.9606 ], [ 1.4216, 44.9686 ], [ 1.4126, 44.9724 ], [ 1.4176, 44.983 ], [ 1.4118, 44.9866 ], [ 1.4144, 44.9949 ], [ 1.4093, 45.006 ], [ 1.4444, 45.0141 ], [ 1.4413, 45.0153 ], [ 1.4483, 45.0193 ] ] ] } }
]
}
