{
"type": "FeatureCollection",
"name": "dep49",
"crs": { "type": "name", "properties": { "name": "urn:ogc:def:crs:OGC:1.3:CRS84" } },
"xy_coordinate_resolution": 0.0001,
"features": [
{ "type": "Feature", "properties": { "code": "49", "nom": "Maine-et-Loire" }, "geometry": { "type": "MultiPolygon", "coordinates": [ [ [ [ -0.7408, 47.7423 ], [ -0.7402, 47.7397 ], [ -0.7428, 47.7417 ], [ -0.7408, 47.7423 ] ] ], [ [ [ -1.2496, 47.7642 ], [ -1.2362, 47.7981 ], [ -1.2426, 47.8078 ], [ -1.2383, 47.81 ], [ -1.2136, 47.8029 ], [ -1.2114, 47.797 ], [ -1.1969, 47.7952 ], [ -1.1932, 47.7858 ], [ -1.1713, 47.7829 ], [ -1.171, 47.7792 ], [ -1.1438, 47.7742 ], [ -1.137, 47.7752 ], [ -1.1396, 47.7821 ], [ -1.125, 47.7843 ], [ -1.0934, 47.7819 ], [ -1.0808, 47.7747 ], [ -1.0336, 47.7705 ], [ -1.0222, 47.7779 ], [ -1.0233, 47.7726 ], [ -1.0135, 47.7668 ], [ -1.0063, 47.7681 ], [ -0.98, 47.7615 ], [ -0.9754, 47.7658 ], [ -0.9517, 47.7667 ], [ -0.9554, 47.7791 ], [ -0.9673, 47.7794 ], [ -0.9712, 47.7828 ], [ -0.9611, 47.7955 ], [ -0.952, 47.7965 ], [ -0.9349, 47.7856 ], [ -0.93, 47.7882 ], [ -0.9316, 47.7935 ], [ -0.9192, 47.7835 ], [ -0.8952, 47.7744 ], [ -0.8932, 47.7635 ], [ -0.8813, 47.7635 ], [ -0.8393, 47.7523 ], [ -0.8399, 47.7683 ], [ -0.8161, 47.7712 ], [ -0.8112, 47.7643 ], [ -0.8016, 47.7655 ], [ -0.7904, 47.7606 ], [ -0.7834, 47.7502 ], [ -0.7593, 47.7538 ], [ -0.7557, 47.7443 ], [ -0.7474, 47.7391 ], [ -0.7458, 47.7424 ], [ -0.7417, 47.7381 ], [ -0.7275, 47.7432 ], [ -0.7157, 47.7408 ], [ -0.7103, 47.7446 ], [ -0.6844, 47.7386 ], [ -0.6686, 47.7412 ], [ -0.6623, 47.7356 ], [ -0.6521, 47.7341 ], [ -0.6282, 47.7381 ], [ -0.6108, 47.7357 ], [ -0.5848, 47.7584 ], [ -0.5747, 47.753 ], [ -0.5632, 47.7576 ], [ -0.5329, 47.7507 ], [ -0.5194, 47.7642 ], [ -0.5228, 47.7823 ], [ -0.519, 47.7873 ], [ -0.492, 47.7785 ], [ -0.4848, 47.78 ], [ -0.4645, 47.7686 ], [ -0.4536, 47.7567 ], [ -0.4283, 47.7676 ], [ -0.41, 47.7652 ], [ -0.416, 47.7801 ], [ -0.3866, 47.7698 ], [ -0.3817, 47.7606 ], [ -0.3752, 47.7605 ], [ -0.3807, 47.7503 ], [ -0.3726, 47.7439 ], [ -0.3749, 47.739 ], [ -0.3636, 47.7368 ], [ -0.3569, 47.7305 ], [ -0.3658, 47.7161 ], [ -0.3625, 47.7152 ], [ -0.3481, 47.7148 ], [ -0.3334, 47.7217 ], [ -0.3057, 47.7167 ], [ -0.2858, 47.7195 ], [ -0.2768, 47.7137 ], [ -0.2681, 47.7147 ], [ -0.2576, 47.7073 ], [ -0.2346, 47.7033 ], [ -0.2304, 47.7094 ], [ -0.2024, 47.7252 ], [ -0.1938, 47.724 ], [ -0.1846, 47.7148 ], [ -0.1745, 47.7164 ], [ -0.1734, 47.7134 ], [ -0.1837, 47.7118 ], [ -0.1816, 47.706 ], [ -0.2053, 47.6927 ], [ -0.2155, 47.6959 ], [ -0.2198, 47.6876 ], [ -0.1951, 47.6614 ], [ -0.1965, 47.6489 ], [ -0.1814, 47.6453 ], [ -0.1587, 47.647 ], [ -0.1478, 47.636 ], [ -0.1345, 47.6325 ], [ -0.1255, 47.6374 ], [ -0.1177, 47.6334 ], [ -0.1113, 47.6354 ], [ -0.1142, 47.6481 ], [ -0.1056, 47.6532 ], [ -0.1018, 47.6619 ], [ -0.0946, 47.6623 ], [ -0.0897, 47.6504 ], [ -0.0721, 47.6599 ], [ -0.0704, 47.6552 ], [ -0.0547, 47.6484 ], [ -0.0246, 47.6467 ], [ -0.02, 47.6371 ], [ -0.0045, 47.6477 ], [ 0.0092, 47.6364 ], [ 0.006, 47.6305 ], [ 0.0125, 47.6293 ], [ 0.0086, 47.6261 ], [ 0.0137, 47.622 ], [ 0.0358, 47.6187 ], [ 0.0437, 47.6102 ], [ 0.0603, 47.6043 ], [ 0.07, 47.6082 ], [ 0.0958, 47.6033 ], [ 0.1157, 47.6057 ], [ 0.1186, 47.5969 ], [ 0.1233, 47.5944 ], [ 0.1323, 47.5966 ], [ 0.1457, 47.5813 ], [ 0.1516, 47.5815 ], [ 0.1619, 47.5941 ], [ 0.1733, 47.5931 ], [ 0.1831, 47.5968 ], [ 0.1858, 47.6165 ], [ 0.2018, 47.6141 ], [ 0.2062, 47.6034 ], [ 0.2113, 47.6123 ], [ 0.2241, 47.6123 ], [ 0.2324, 47.6058 ], [ 0.2339, 47.5899 ], [ 0.2295, 47.5846 ], [ 0.2343, 47.5779 ], [ 0.2151, 47.573 ], [ 0.2041, 47.5481 ], [ 0.1933, 47.5391 ], [ 0.2056, 47.5347 ], [ 0.2066, 47.5264 ], [ 0.2156, 47.524 ], [ 0.2175, 47.5292 ], [ 0.2261, 47.5266 ], [ 0.2203, 47.5198 ], [ 0.2201, 47.502 ], [ 0.1998, 47.4834 ], [ 0.1905, 47.4613 ], [ 0.1809, 47.4534 ], [ 0.1853, 47.4247 ], [ 0.1809, 47.4162 ], [ 0.1539, 47.3987 ], [ 0.1695, 47.3956 ], [ 0.1675, 47.3856 ], [ 0.1834, 47.3812 ], [ 0.1536, 47.3636 ], [ 0.1404, 47.3618 ], [ 0.1473, 47.3454 ], [ 0.138, 47.3362 ], [ 0.1175, 47.3323 ], [ 0.113, 47.3179 ], [ 0.099, 47.3081 ], [ 0.0991, 47.3031 ], [ 0.094, 47.3028 ], [ 0.0786, 47.2839 ], [ 0.09, 47.2816 ], [ 0.0748, 47.2621 ], [ 0.0748, 47.248 ], [ 0.0679, 47.2473 ], [ 0.0739, 47.2369 ], [ 0.0725, 47.2199 ], [ 0.0793, 47.2168 ], [ 0.0682, 47.2158 ], [ 0.053, 47.1968 ], [ 0.0666, 47.1898 ], [ 0.0635, 47.1762 ], [ 0.0538, 47.1637 ], [ 0.0492, 47.1689 ], [ 0.0366, 47.1604 ], [ 0.019, 47.1758 ], [ -0.0044, 47.1622 ], [ -0.041, 47.1135 ], [ -0.0394, 47.1079 ], [ -0.0266, 47.1059 ], [ -0.0356, 47.0863 ], [ -0.0409, 47.0873 ], [ -0.0415, 47.0936 ], [ -0.0672, 47.0934 ], [ -0.0674, 47.0994 ], [ -0.0859, 47.101 ], [ -0.1014, 47.0855 ], [ -0.1021, 47.0648 ], [ -0.123, 47.0557 ], [ -0.1372, 47.0566 ], [ -0.1366, 47.0638 ], [ -0.1473, 47.0697 ], [ -0.1575, 47.07 ], [ -0.166, 47.0646 ], [ -0.179, 47.0702 ], [ -0.1405, 47.0971 ], [ -0.1413, 47.1037 ], [ -0.1521, 47.1009 ], [ -0.1795, 47.108 ], [ -0.1852, 47.1084 ], [ -0.1871, 47.1011 ], [ -0.2063, 47.0932 ], [ -0.2407, 47.1057 ], [ -0.2627, 47.0991 ], [ -0.2629, 47.1055 ], [ -0.2815, 47.0995 ], [ -0.2827, 47.1033 ], [ -0.3047, 47.0976 ], [ -0.3142, 47.0913 ], [ -0.3415, 47.0873 ], [ -0.3409, 47.092 ], [ -0.3501, 47.0916 ], [ -0.3535, 47.0953 ], [ -0.3861, 47.0874 ], [ -0.3869, 47.0923 ], [ -0.3959, 47.0916 ], [ -0.4008, 47.0708 ], [ -0.4069, 47.067 ], [ -0.4258, 47.0727 ], [ -0.4408, 47.0678 ], [ -0.458, 47.0688 ], [ -0.4804, 47.0536 ], [ -0.4855, 47.0652 ], [ -0.4775, 47.0719 ], [ -0.4643, 47.0744 ], [ -0.4596, 47.0824 ], [ -0.4944, 47.0831 ], [ -0.5573, 47.0644 ], [ -0.5557, 47.0426 ], [ -0.5443, 47.0375 ], [ -0.5425, 47.0323 ], [ -0.5457, 47.0292 ], [ -0.5623, 47.0307 ], [ -0.5655, 47.0194 ], [ -0.584, 47.0121 ], [ -0.5971, 47.0007 ], [ -0.594, 46.9988 ], [ -0.6188, 46.9924 ], [ -0.633, 46.9975 ], [ -0.647, 46.9923 ], [ -0.6479, 46.9965 ], [ -0.6621, 46.9978 ], [ -0.6706, 47.0029 ], [ -0.6762, 47.0019 ], [ -0.6802, 46.9877 ], [ -0.6985, 46.9946 ], [ -0.7159, 46.9839 ], [ -0.7279, 46.995 ], [ -0.7434, 47.0007 ], [ -0.7429, 46.9919 ], [ -0.762, 46.9921 ], [ -0.7687, 46.9962 ], [ -0.7693, 47.0029 ], [ -0.7817, 47.002 ], [ -0.7876, 47.0051 ], [ -0.7962, 46.996 ], [ -0.8095, 46.9927 ], [ -0.8051, 46.9897 ], [ -0.8084, 46.9876 ], [ -0.8115, 46.9943 ], [ -0.828, 46.9919 ], [ -0.8362, 46.9858 ], [ -0.8443, 46.9893 ], [ -0.848, 46.9822 ], [ -0.8568, 46.9788 ], [ -0.8492, 46.9738 ], [ -0.8608, 46.9687 ], [ -0.8632, 46.9724 ], [ -0.892, 46.9758 ], [ -0.8973, 46.9897 ], [ -0.9041, 46.9948 ], [ -0.9151, 46.9923 ], [ -0.9205, 46.9978 ], [ -0.9148, 47.0011 ], [ -0.9207, 47.0034 ], [ -0.9251, 46.9998 ], [ -0.9326, 47.002 ], [ -0.9292, 47.0081 ], [ -0.9455, 46.9991 ], [ -0.9513, 47.0028 ], [ -0.9548, 46.996 ], [ -0.9609, 46.9953 ], [ -0.9686, 47.0078 ], [ -0.9751, 47.0087 ], [ -0.9763, 47.0182 ], [ -0.9816, 47.0181 ], [ -0.9819, 47.0105 ], [ -1.0023, 47.0213 ], [ -1.0149, 47.0047 ], [ -1.0429, 47.0044 ], [ -1.0476, 47.0072 ], [ -1.0547, 47.0044 ], [ -1.0667, 47.013 ], [ -1.0741, 47.0083 ], [ -1.0922, 47.0158 ], [ -1.1113, 47.016 ], [ -1.118, 47.0205 ], [ -1.143, 47.0248 ], [ -1.1486, 47.0296 ], [ -1.117, 47.0401 ], [ -1.1215, 47.0558 ], [ -1.1155, 47.0627 ], [ -1.155, 47.0724 ], [ -1.1694, 47.0932 ], [ -1.2285, 47.1004 ], [ -1.2443, 47.0943 ], [ -1.2496, 47.0984 ], [ -1.2298, 47.1099 ], [ -1.2246, 47.1189 ], [ -1.2324, 47.1233 ], [ -1.2315, 47.1314 ], [ -1.2389, 47.137 ], [ -1.2347, 47.1402 ], [ -1.2288, 47.1385 ], [ -1.2285, 47.1419 ], [ -1.2232, 47.1405 ], [ -1.2189, 47.1455 ], [ -1.2146, 47.1431 ], [ -1.2047, 47.1449 ], [ -1.2056, 47.1501 ], [ -1.1985, 47.1489 ], [ -1.198, 47.1538 ], [ -1.1831, 47.1592 ], [ -1.1815, 47.1653 ], [ -1.1766, 47.1628 ], [ -1.1673, 47.1769 ], [ -1.1616, 47.1776 ], [ -1.1619, 47.1875 ], [ -1.1703, 47.1866 ], [ -1.1785, 47.1934 ], [ -1.1736, 47.1987 ], [ -1.1805, 47.2073 ], [ -1.1745, 47.2144 ], [ -1.1885, 47.22 ], [ -1.181, 47.2408 ], [ -1.198, 47.2529 ], [ -1.2074, 47.2532 ], [ -1.2128, 47.2457 ], [ -1.2284, 47.2397 ], [ -1.2422, 47.2432 ], [ -1.2442, 47.2475 ], [ -1.2539, 47.2477 ], [ -1.2544, 47.2531 ], [ -1.2682, 47.2598 ], [ -1.2778, 47.2709 ], [ -1.2751, 47.2907 ], [ -1.2942, 47.3004 ], [ -1.2957, 47.306 ], [ -1.3182, 47.3013 ], [ -1.3216, 47.3058 ], [ -1.3373, 47.3003 ], [ -1.3542, 47.3041 ], [ -1.3358, 47.319 ], [ -1.3194, 47.3216 ], [ -1.3104, 47.3321 ], [ -1.2969, 47.3386 ], [ -1.2563, 47.3413 ], [ -1.2286, 47.3499 ], [ -1.1877, 47.3524 ], [ -1.1797, 47.3609 ], [ -1.1665, 47.3663 ], [ -1.1439, 47.3691 ], [ -1.1082, 47.3658 ], [ -1.076, 47.3708 ], [ -1.045, 47.3655 ], [ -1.0152, 47.3651 ], [ -0.9912, 47.3729 ], [ -0.9749, 47.3714 ], [ -0.9458, 47.387 ], [ -0.9509, 47.3893 ], [ -0.9504, 47.4069 ], [ -0.9611, 47.4181 ], [ -0.9607, 47.4228 ], [ -0.9483, 47.4227 ], [ -0.9467, 47.4276 ], [ -0.953, 47.4354 ], [ -0.9526, 47.4515 ], [ -0.9681, 47.4699 ], [ -0.9591, 47.4812 ], [ -0.9655, 47.4918 ], [ -1.0064, 47.4882 ], [ -1.0239, 47.5002 ], [ -1.0445, 47.5055 ], [ -1.0386, 47.5473 ], [ -1.0504, 47.5472 ], [ -1.0605, 47.556 ], [ -1.0524, 47.5579 ], [ -1.0556, 47.5653 ], [ -1.0418, 47.5623 ], [ -1.041, 47.5699 ], [ -1.0191, 47.5767 ], [ -1.0068, 47.5887 ], [ -1.0104, 47.5932 ], [ -1.0368, 47.6025 ], [ -1.0585, 47.6014 ], [ -1.078, 47.6066 ], [ -1.0919, 47.6115 ], [ -1.0928, 47.617 ], [ -1.1006, 47.6207 ], [ -1.1382, 47.6195 ], [ -1.139, 47.624 ], [ -1.1574, 47.6352 ], [ -1.1607, 47.6616 ], [ -1.174, 47.6597 ], [ -1.1704, 47.6631 ], [ -1.1808, 47.6648 ], [ -1.1815, 47.6746 ], [ -1.1733, 47.6818 ], [ -1.1785, 47.6889 ], [ -1.1749, 47.6946 ], [ -1.1895, 47.6992 ], [ -1.1816, 47.7035 ], [ -1.1962, 47.7099 ], [ -1.1951, 47.7216 ], [ -1.2154, 47.7188 ], [ -1.2374, 47.7235 ], [ -1.2485, 47.7321 ], [ -1.2554, 47.7314 ], [ -1.2557, 47.7426 ], [ -1.2417, 47.7429 ], [ -1.243, 47.7478 ], [ -1.2347, 47.7549 ], [ -1.2496, 47.7642 ] ] ] ] } }
]
}
