{
"type": "FeatureCollection",
"name": "dep42",
"crs": { "type": "name", "properties": { "name": "urn:ogc:def:crs:OGC:1.3:CRS84" } },
"xy_coordinate_resolution": 0.0001,
"features": [
{ "type": "Feature", "properties": { "code": "42", "nom": "Loire" }, "geometry": { "type": "Polygon", "coordinates": [ [ [ 3.8995, 46.2759 ], [ 3.9073, 46.2667 ], [ 3.9055, 46.2521 ], [ 3.9097, 46.2478 ], [ 3.9049, 46.2379 ], [ 3.8976, 46.2396 ], [ 3.8981, 46.2252 ], [ 3.8901, 46.2145 ], [ 3.9184, 46.2029 ], [ 3.9335, 46.2064 ], [ 3.9726, 46.2027 ], [ 3.971, 46.1891 ], [ 3.9781, 46.186 ], [ 3.9797, 46.1782 ], [ 3.9901, 46.1691 ], [ 3.9935, 46.1729 ], [ 4.0305, 46.1698 ], [ 4.0589, 46.1881 ], [ 4.0685, 46.1864 ], [ 4.1038, 46.1984 ], [ 4.1334, 46.1773 ], [ 4.1643, 46.173 ], [ 4.187, 46.1746 ], [ 4.1852, 46.1894 ], [ 4.2079, 46.1948 ], [ 4.2247, 46.178 ], [ 4.2369, 46.1817 ], [ 4.2424, 46.1888 ], [ 4.2549, 46.188 ], [ 4.2635, 46.1754 ], [ 4.2487, 46.1671 ], [ 4.2499, 46.1582 ], [ 4.2812, 46.1559 ], [ 4.2923, 46.1725 ], [ 4.307, 46.1746 ], [ 4.3153, 46.1706 ], [ 4.3271, 46.1848 ], [ 4.3366, 46.181 ], [ 4.3457, 46.1878 ], [ 4.3587, 46.1819 ], [ 4.3663, 46.1859 ], [ 4.3708, 46.1843 ], [ 4.3739, 46.1868 ], [ 4.3696, 46.1934 ], [ 4.3621, 46.1956 ], [ 4.3628, 46.2 ], [ 4.3735, 46.2046 ], [ 4.3751, 46.2111 ], [ 4.3894, 46.2133 ], [ 4.3881, 46.2198 ], [ 4.4072, 46.2206 ], [ 4.4218, 46.2086 ], [ 4.4226, 46.2026 ], [ 4.3962, 46.1956 ], [ 4.3953, 46.1922 ], [ 4.4041, 46.1833 ], [ 4.4213, 46.1789 ], [ 4.4386, 46.1679 ], [ 4.4319, 46.156 ], [ 4.4221, 46.1505 ], [ 4.4174, 46.1359 ], [ 4.3803, 46.15 ], [ 4.3703, 46.1474 ], [ 4.3616, 46.1385 ], [ 4.3264, 46.1326 ], [ 4.3216, 46.1292 ], [ 4.3198, 46.1168 ], [ 4.307, 46.1063 ], [ 4.3111, 46.0803 ], [ 4.3014, 46.0784 ], [ 4.304, 46.0698 ], [ 4.3001, 46.0652 ], [ 4.2857, 46.0535 ], [ 4.2673, 46.0516 ], [ 4.2578, 46.0544 ], [ 4.2503, 46.05 ], [ 4.2764, 46.023 ], [ 4.2877, 46.0173 ], [ 4.3059, 46.0216 ], [ 4.3125, 46.0056 ], [ 4.3001, 45.9889 ], [ 4.2927, 45.9908 ], [ 4.289, 45.9984 ], [ 4.2851, 45.9939 ], [ 4.2753, 45.9947 ], [ 4.2713, 45.988 ], [ 4.2654, 45.9967 ], [ 4.2699, 45.9997 ], [ 4.2629, 46.0019 ], [ 4.2581, 45.9948 ], [ 4.244, 45.9959 ], [ 4.2511, 45.9846 ], [ 4.2752, 45.9798 ], [ 4.2981, 45.9657 ], [ 4.3012, 45.9575 ], [ 4.2949, 45.9529 ], [ 4.3007, 45.9471 ], [ 4.3145, 45.94 ], [ 4.3194, 45.9435 ], [ 4.3362, 45.9317 ], [ 4.346, 45.9299 ], [ 4.3348, 45.9165 ], [ 4.3448, 45.9154 ], [ 4.3232, 45.9039 ], [ 4.3381, 45.8889 ], [ 4.3422, 45.8772 ], [ 4.3632, 45.8644 ], [ 4.3686, 45.8679 ], [ 4.377, 45.863 ], [ 4.3916, 45.865 ], [ 4.3962, 45.8601 ], [ 4.3915, 45.8502 ], [ 4.3825, 45.8456 ], [ 4.3906, 45.8375 ], [ 4.382, 45.8322 ], [ 4.3837, 45.8271 ], [ 4.3773, 45.8248 ], [ 4.3848, 45.8195 ], [ 4.3778, 45.8176 ], [ 4.3889, 45.8064 ], [ 4.3878, 45.803 ], [ 4.3816, 45.8072 ], [ 4.3737, 45.8051 ], [ 4.3797, 45.784 ], [ 4.3603, 45.7776 ], [ 4.3584, 45.7833 ], [ 4.3591, 45.7764 ], [ 4.3481, 45.7695 ], [ 4.3548, 45.7577 ], [ 4.3607, 45.7565 ], [ 4.36, 45.751 ], [ 4.371, 45.749 ], [ 4.3913, 45.7549 ], [ 4.4029, 45.7439 ], [ 4.3918, 45.7391 ], [ 4.3849, 45.7214 ], [ 4.3738, 45.7125 ], [ 4.3729, 45.7026 ], [ 4.3655, 45.6985 ], [ 4.3735, 45.6908 ], [ 4.3643, 45.6845 ], [ 4.3701, 45.672 ], [ 4.3659, 45.6712 ], [ 4.3925, 45.6625 ], [ 4.3993, 45.6565 ], [ 4.3938, 45.6504 ], [ 4.4102, 45.6325 ], [ 4.4415, 45.6231 ], [ 4.4488, 45.6168 ], [ 4.4494, 45.6058 ], [ 4.4733, 45.5968 ], [ 4.4757, 45.5939 ], [ 4.4685, 45.5905 ], [ 4.4691, 45.585 ], [ 4.4806, 45.5884 ], [ 4.4896, 45.5842 ], [ 4.5048, 45.5863 ], [ 4.5048, 45.5765 ], [ 4.5139, 45.577 ], [ 4.52, 45.5729 ], [ 4.5673, 45.5836 ], [ 4.5884, 45.5706 ], [ 4.6023, 45.5704 ], [ 4.6149, 45.5755 ], [ 4.6277, 45.5662 ], [ 4.6367, 45.5458 ], [ 4.6447, 45.5405 ], [ 4.6594, 45.5434 ], [ 4.6462, 45.5551 ], [ 4.6497, 45.5649 ], [ 4.6646, 45.5642 ], [ 4.6655, 45.5693 ], [ 4.6723, 45.5703 ], [ 4.6803, 45.5678 ], [ 4.6875, 45.5582 ], [ 4.683, 45.5509 ], [ 4.6756, 45.5518 ], [ 4.6613, 45.5359 ], [ 4.6508, 45.5309 ], [ 4.6513, 45.4917 ], [ 4.6553, 45.4861 ], [ 4.6708, 45.4835 ], [ 4.6662, 45.4781 ], [ 4.671, 45.4734 ], [ 4.6764, 45.482 ], [ 4.6984, 45.4772 ], [ 4.7218, 45.4944 ], [ 4.7396, 45.487 ], [ 4.7443, 45.4791 ], [ 4.7436, 45.4737 ], [ 4.7385, 45.4728 ], [ 4.7569, 45.4557 ], [ 4.7603, 45.4336 ], [ 4.7421, 45.4146 ], [ 4.7581, 45.3912 ], [ 4.756, 45.3657 ], [ 4.7258, 45.3618 ], [ 4.7219, 45.3543 ], [ 4.7034, 45.35 ], [ 4.698, 45.345 ], [ 4.6801, 45.3463 ], [ 4.6624, 45.3404 ], [ 4.6385, 45.3262 ], [ 4.6406, 45.317 ], [ 4.6241, 45.3109 ], [ 4.6159, 45.312 ], [ 4.6146, 45.3004 ], [ 4.623, 45.2963 ], [ 4.6228, 45.2914 ], [ 4.5986, 45.2895 ], [ 4.5907, 45.2734 ], [ 4.5917, 45.2696 ], [ 4.5998, 45.2687 ], [ 4.606, 45.2628 ], [ 4.6068, 45.2546 ], [ 4.5848, 45.2441 ], [ 4.5604, 45.2478 ], [ 4.5383, 45.2426 ], [ 4.5405, 45.2347 ], [ 4.5314, 45.2342 ], [ 4.5292, 45.2398 ], [ 4.5094, 45.2448 ], [ 4.5116, 45.2329 ], [ 4.4915, 45.2317 ], [ 4.4716, 45.24 ], [ 4.4687, 45.2473 ], [ 4.4474, 45.2576 ], [ 4.4345, 45.275 ], [ 4.4186, 45.2754 ], [ 4.4009, 45.2695 ], [ 4.3986, 45.265 ], [ 4.3874, 45.2623 ], [ 4.3904, 45.2574 ], [ 4.3871, 45.2551 ], [ 4.3777, 45.2635 ], [ 4.365, 45.2627 ], [ 4.3603, 45.2715 ], [ 4.3502, 45.2736 ], [ 4.3493, 45.2784 ], [ 4.3582, 45.2813 ], [ 4.3613, 45.2923 ], [ 4.3712, 45.3011 ], [ 4.3513, 45.3033 ], [ 4.3316, 45.3185 ], [ 4.3653, 45.3377 ], [ 4.3484, 45.3605 ], [ 4.3334, 45.3686 ], [ 4.3088, 45.3708 ], [ 4.306, 45.3611 ], [ 4.2978, 45.368 ], [ 4.2932, 45.3663 ], [ 4.2969, 45.3594 ], [ 4.2862, 45.3612 ], [ 4.2887, 45.3564 ], [ 4.2814, 45.3608 ], [ 4.2715, 45.3584 ], [ 4.2713, 45.3746 ], [ 4.2663, 45.3718 ], [ 4.2519, 45.3735 ], [ 4.25, 45.3821 ], [ 4.2266, 45.3897 ], [ 4.2162, 45.3843 ], [ 4.2047, 45.386 ], [ 4.2021, 45.3815 ], [ 4.1779, 45.3926 ], [ 4.1456, 45.3843 ], [ 4.1581, 45.3728 ], [ 4.1538, 45.3648 ], [ 4.1194, 45.3695 ], [ 4.1096, 45.3639 ], [ 4.1092, 45.3556 ], [ 4.0979, 45.3594 ], [ 4.0804, 45.3578 ], [ 4.0765, 45.3545 ], [ 4.0805, 45.3517 ], [ 4.0752, 45.352 ], [ 4.0759, 45.3387 ], [ 4.0708, 45.3361 ], [ 4.0638, 45.3371 ], [ 4.0573, 45.3502 ], [ 4.0459, 45.3557 ], [ 4.0316, 45.3481 ], [ 4.0217, 45.3505 ], [ 4.026, 45.3405 ], [ 4.0217, 45.3394 ], [ 4.0195, 45.3275 ], [ 4.0025, 45.356 ], [ 3.9913, 45.3559 ], [ 3.9935, 45.361 ], [ 3.9857, 45.365 ], [ 3.9824, 45.3743 ], [ 3.9668, 45.3742 ], [ 3.9594, 45.368 ], [ 3.9485, 45.3765 ], [ 3.9369, 45.3723 ], [ 3.9353, 45.359 ], [ 3.9247, 45.3598 ], [ 3.9229, 45.355 ], [ 3.9146, 45.354 ], [ 3.9138, 45.3513 ], [ 3.9225, 45.3488 ], [ 3.9193, 45.3418 ], [ 3.905, 45.3341 ], [ 3.8908, 45.3702 ], [ 3.8907, 45.3802 ], [ 3.8954, 45.3834 ], [ 3.8892, 45.3945 ], [ 3.8985, 45.4098 ], [ 3.9096, 45.4119 ], [ 3.9083, 45.4177 ], [ 3.9139, 45.4222 ], [ 3.9181, 45.4209 ], [ 3.9196, 45.4246 ], [ 3.9626, 45.4352 ], [ 3.9602, 45.4432 ], [ 3.9741, 45.4493 ], [ 3.9688, 45.452 ], [ 3.9734, 45.4599 ], [ 3.9667, 45.4721 ], [ 3.9695, 45.4771 ], [ 3.983, 45.4821 ], [ 3.9847, 45.4952 ], [ 3.9658, 45.5004 ], [ 3.9615, 45.5061 ], [ 3.9457, 45.5452 ], [ 3.9544, 45.556 ], [ 3.9443, 45.563 ], [ 3.935, 45.5784 ], [ 3.9067, 45.5978 ], [ 3.8817, 45.6035 ], [ 3.8609, 45.6155 ], [ 3.8588, 45.6247 ], [ 3.8395, 45.6262 ], [ 3.8235, 45.6324 ], [ 3.8179, 45.6465 ], [ 3.777, 45.6908 ], [ 3.7759, 45.7004 ], [ 3.7828, 45.7067 ], [ 3.7767, 45.7199 ], [ 3.7809, 45.7244 ], [ 3.7682, 45.7283 ], [ 3.7586, 45.7463 ], [ 3.7514, 45.7471 ], [ 3.7459, 45.7422 ], [ 3.7323, 45.751 ], [ 3.7276, 45.7559 ], [ 3.7389, 45.7668 ], [ 3.7318, 45.7745 ], [ 3.7108, 45.7832 ], [ 3.7008, 45.7814 ], [ 3.6886, 45.7911 ], [ 3.7116, 45.7996 ], [ 3.7218, 45.8136 ], [ 3.7173, 45.8193 ], [ 3.7284, 45.8315 ], [ 3.7188, 45.8483 ], [ 3.7284, 45.8554 ], [ 3.7285, 45.8625 ], [ 3.7249, 45.8596 ], [ 3.7201, 45.8611 ], [ 3.7164, 45.8713 ], [ 3.7351, 45.8707 ], [ 3.7452, 45.8782 ], [ 3.7452, 45.8843 ], [ 3.7544, 45.886 ], [ 3.7396, 45.9092 ], [ 3.7302, 45.9122 ], [ 3.7234, 45.9219 ], [ 3.694, 45.9307 ], [ 3.6946, 45.9504 ], [ 3.7058, 45.9566 ], [ 3.7025, 45.9701 ], [ 3.7096, 45.9741 ], [ 3.7363, 45.9666 ], [ 3.7472, 45.967 ], [ 3.754, 45.9717 ], [ 3.756, 45.9828 ], [ 3.7648, 45.9761 ], [ 3.7871, 45.973 ], [ 3.7988, 45.9839 ], [ 3.8238, 45.9873 ], [ 3.8226, 45.9926 ], [ 3.8297, 45.9992 ], [ 3.8154, 46.0195 ], [ 3.8137, 46.0397 ], [ 3.8055, 46.0523 ], [ 3.8201, 46.0806 ], [ 3.8148, 46.0845 ], [ 3.8215, 46.0898 ], [ 3.8058, 46.1078 ], [ 3.7935, 46.1122 ], [ 3.8017, 46.1309 ], [ 3.7898, 46.1549 ], [ 3.8088, 46.1646 ], [ 3.789, 46.1857 ], [ 3.7882, 46.2021 ], [ 3.7966, 46.207 ], [ 3.7854, 46.2207 ], [ 3.772, 46.2287 ], [ 3.7682, 46.2388 ], [ 3.7822, 46.244 ], [ 3.8059, 46.2409 ], [ 3.8038, 46.2581 ], [ 3.8348, 46.2592 ], [ 3.8592, 46.2644 ], [ 3.8676, 46.2625 ], [ 3.8777, 46.2758 ], [ 3.8995, 46.2759 ] ] ] } }
]
}
