{
"type": "FeatureCollection",
"name": "dep40",
"crs": { "type": "name", "properties": { "name": "urn:ogc:def:crs:OGC:1.3:CRS84" } },
"xy_coordinate_resolution": 0.0001,
"features": [
{ "type": "Feature", "properties": { "code": "40", "nom": "Landes" }, "geometry": { "type": "Polygon", "coordinates": [ [ [ -0.2428, 43.585 ], [ -0.2541, 43.5827 ], [ -0.2534, 43.5883 ], [ -0.2592, 43.5889 ], [ -0.273, 43.5841 ], [ -0.283, 43.5857 ], [ -0.2909, 43.5681 ], [ -0.3012, 43.5713 ], [ -0.3037, 43.5603 ], [ -0.3275, 43.5558 ], [ -0.336, 43.5509 ], [ -0.3567, 43.563 ], [ -0.3658, 43.5619 ], [ -0.3755, 43.5683 ], [ -0.3944, 43.5693 ], [ -0.4007, 43.5632 ], [ -0.406, 43.5682 ], [ -0.4241, 43.5572 ], [ -0.428, 43.5599 ], [ -0.4334, 43.5547 ], [ -0.4497, 43.5499 ], [ -0.4634, 43.5666 ], [ -0.4557, 43.5693 ], [ -0.459, 43.5622 ], [ -0.4479, 43.5666 ], [ -0.4473, 43.5732 ], [ -0.441, 43.5787 ], [ -0.4326, 43.578 ], [ -0.4316, 43.5837 ], [ -0.4369, 43.5908 ], [ -0.4492, 43.5963 ], [ -0.4611, 43.5869 ], [ -0.4679, 43.5897 ], [ -0.5045, 43.5726 ], [ -0.5112, 43.5627 ], [ -0.526, 43.5593 ], [ -0.5313, 43.5526 ], [ -0.5528, 43.5432 ], [ -0.5572, 43.5428 ], [ -0.5671, 43.5582 ], [ -0.5723, 43.5522 ], [ -0.5961, 43.5418 ], [ -0.5963, 43.5382 ], [ -0.6144, 43.5377 ], [ -0.6157, 43.5444 ], [ -0.6338, 43.5541 ], [ -0.6578, 43.5561 ], [ -0.6583, 43.5606 ], [ -0.6413, 43.5707 ], [ -0.6411, 43.5748 ], [ -0.6708, 43.5667 ], [ -0.6768, 43.5602 ], [ -0.688, 43.5568 ], [ -0.7005, 43.5616 ], [ -0.7075, 43.56 ], [ -0.7093, 43.5413 ], [ -0.7174, 43.5406 ], [ -0.7285, 43.5452 ], [ -0.7341, 43.5557 ], [ -0.7683, 43.5795 ], [ -0.7824, 43.5767 ], [ -0.7818, 43.5642 ], [ -0.7942, 43.564 ], [ -0.804, 43.5563 ], [ -0.8183, 43.5614 ], [ -0.8427, 43.5536 ], [ -0.8457, 43.5422 ], [ -0.9054, 43.5505 ], [ -0.9225, 43.5427 ], [ -0.9215, 43.5353 ], [ -0.9266, 43.532 ], [ -0.9404, 43.5385 ], [ -0.9509, 43.5321 ], [ -0.9786, 43.5399 ], [ -0.9856, 43.5371 ], [ -0.9885, 43.5414 ], [ -1.0011, 43.5382 ], [ -0.9891, 43.5305 ], [ -0.9924, 43.504 ], [ -1.02, 43.5063 ], [ -1.0237, 43.5017 ], [ -1.0314, 43.51 ], [ -1.0442, 43.5088 ], [ -1.0464, 43.5143 ], [ -1.0517, 43.5089 ], [ -1.0581, 43.5126 ], [ -1.069, 43.5085 ], [ -1.0725, 43.5186 ], [ -1.0815, 43.5222 ], [ -1.0877, 43.5112 ], [ -1.1093, 43.5141 ], [ -1.118, 43.5015 ], [ -1.138, 43.4996 ], [ -1.1387, 43.4903 ], [ -1.1444, 43.4876 ], [ -1.1532, 43.497 ], [ -1.1641, 43.4909 ], [ -1.1687, 43.4922 ], [ -1.1719, 43.5048 ], [ -1.1649, 43.5084 ], [ -1.1523, 43.5073 ], [ -1.1473, 43.5111 ], [ -1.1333, 43.5097 ], [ -1.1308, 43.5187 ], [ -1.1535, 43.5287 ], [ -1.1595, 43.5387 ], [ -1.1708, 43.5456 ], [ -1.1956, 43.5461 ], [ -1.2173, 43.5307 ], [ -1.2912, 43.4982 ], [ -1.3245, 43.5051 ], [ -1.3679, 43.4949 ], [ -1.4177, 43.4969 ], [ -1.4311, 43.5146 ], [ -1.4375, 43.5131 ], [ -1.4599, 43.519 ], [ -1.465, 43.5166 ], [ -1.4611, 43.5317 ], [ -1.4718, 43.5339 ], [ -1.4766, 43.5393 ], [ -1.5014, 43.5269 ], [ -1.5249, 43.5297 ], [ -1.4919, 43.5723 ], [ -1.4468, 43.6456 ], [ -1.4394, 43.6974 ], [ -1.42, 43.7726 ], [ -1.3946, 43.8516 ], [ -1.3889, 43.8584 ], [ -1.3132, 44.1413 ], [ -1.2774, 44.3197 ], [ -1.2539, 44.4676 ], [ -1.1065, 44.5028 ], [ -1.0852, 44.5322 ], [ -1.0266, 44.5071 ], [ -0.9911, 44.5119 ], [ -0.9877, 44.5083 ], [ -0.9807, 44.4829 ], [ -1.0076, 44.4366 ], [ -1.0292, 44.4227 ], [ -0.9696, 44.4294 ], [ -0.9192, 44.4433 ], [ -0.912, 44.4369 ], [ -0.8434, 44.4182 ], [ -0.8102, 44.4201 ], [ -0.798, 44.4276 ], [ -0.7803, 44.4281 ], [ -0.7768, 44.4374 ], [ -0.7806, 44.4401 ], [ -0.7297, 44.4482 ], [ -0.6924, 44.4407 ], [ -0.6819, 44.4441 ], [ -0.6787, 44.45 ], [ -0.6828, 44.4507 ], [ -0.676, 44.4573 ], [ -0.6441, 44.4505 ], [ -0.6278, 44.4427 ], [ -0.6255, 44.4124 ], [ -0.6278, 44.4057 ], [ -0.6422, 44.4003 ], [ -0.571, 44.3825 ], [ -0.5609, 44.375 ], [ -0.5281, 44.3647 ], [ -0.5176, 44.3391 ], [ -0.4789, 44.3249 ], [ -0.4318, 44.3226 ], [ -0.4315, 44.3009 ], [ -0.4203, 44.2995 ], [ -0.4047, 44.2874 ], [ -0.3834, 44.2863 ], [ -0.3966, 44.2366 ], [ -0.3896, 44.2095 ], [ -0.3113, 44.2033 ], [ -0.2721, 44.1938 ], [ -0.2235, 44.2059 ], [ -0.226, 44.2648 ], [ -0.2044, 44.2642 ], [ -0.1938, 44.2718 ], [ -0.1748, 44.2575 ], [ -0.166, 44.2414 ], [ -0.1407, 44.2264 ], [ -0.1295, 44.2041 ], [ -0.1291, 44.1524 ], [ -0.1138, 44.1513 ], [ -0.1087, 44.1546 ], [ -0.0867, 44.1562 ], [ -0.0599, 44.1508 ], [ -0.0035, 44.1499 ], [ 0.0287, 44.1372 ], [ 0.0346, 44.1307 ], [ 0.1351, 44.1242 ], [ 0.1307, 44.1217 ], [ 0.1359, 44.1086 ], [ 0.1236, 44.1055 ], [ 0.101, 44.0873 ], [ 0.1048, 44.0783 ], [ 0.0986, 44.0788 ], [ 0.0943, 44.0656 ], [ 0.083, 44.0636 ], [ 0.0873, 44.0521 ], [ 0.0791, 44.045 ], [ 0.082, 44.0404 ], [ 0.0759, 44.03 ], [ 0.0723, 44.0253 ], [ 0.0599, 44.0247 ], [ 0.0627, 44.0008 ], [ 0.076, 43.9831 ], [ 0.0671, 43.9736 ], [ 0.0663, 43.9647 ], [ 0.061, 43.9652 ], [ 0.055, 43.957 ], [ 0.0624, 43.9413 ], [ 0.0706, 43.9352 ], [ 0.0767, 43.9165 ], [ 0.059, 43.8968 ], [ 0.0406, 43.9038 ], [ 0.0308, 43.9006 ], [ 0.0177, 43.9117 ], [ -0.0239, 43.9298 ], [ 0.0055, 43.9435 ], [ 0.0067, 43.9537 ], [ -0.0362, 43.9837 ], [ -0.044, 43.9628 ], [ -0.0594, 43.9609 ], [ -0.0702, 43.9449 ], [ -0.0811, 43.9426 ], [ -0.0934, 43.9485 ], [ -0.0993, 43.9362 ], [ -0.0939, 43.933 ], [ -0.0952, 43.9295 ], [ -0.1082, 43.9291 ], [ -0.1077, 43.9326 ], [ -0.1247, 43.9444 ], [ -0.1358, 43.9361 ], [ -0.1535, 43.9398 ], [ -0.1539, 43.9323 ], [ -0.1607, 43.9312 ], [ -0.1598, 43.9277 ], [ -0.1656, 43.9276 ], [ -0.1791, 43.9379 ], [ -0.1811, 43.9304 ], [ -0.192, 43.9262 ], [ -0.2001, 43.9148 ], [ -0.2177, 43.9068 ], [ -0.2246, 43.9138 ], [ -0.2334, 43.8991 ], [ -0.2393, 43.8983 ], [ -0.2339, 43.8911 ], [ -0.2256, 43.8902 ], [ -0.2223, 43.8942 ], [ -0.2113, 43.8853 ], [ -0.2012, 43.8855 ], [ -0.1905, 43.8807 ], [ -0.1856, 43.863 ], [ -0.1894, 43.8627 ], [ -0.1964, 43.8716 ], [ -0.1957, 43.8653 ], [ -0.2089, 43.8577 ], [ -0.1881, 43.8326 ], [ -0.1981, 43.8294 ], [ -0.1918, 43.8101 ], [ -0.2008, 43.8067 ], [ -0.216, 43.8125 ], [ -0.2271, 43.8083 ], [ -0.2243, 43.8012 ], [ -0.2178, 43.7982 ], [ -0.2223, 43.7893 ], [ -0.2128, 43.7788 ], [ -0.2173, 43.7715 ], [ -0.2067, 43.7592 ], [ -0.2075, 43.7561 ], [ -0.2181, 43.7542 ], [ -0.2189, 43.7503 ], [ -0.1973, 43.7477 ], [ -0.1941, 43.737 ], [ -0.2108, 43.7243 ], [ -0.2506, 43.7078 ], [ -0.2391, 43.6939 ], [ -0.2568, 43.6832 ], [ -0.258, 43.6737 ], [ -0.2397, 43.6712 ], [ -0.2447, 43.6645 ], [ -0.2421, 43.6551 ], [ -0.2634, 43.6528 ], [ -0.2638, 43.6359 ], [ -0.2819, 43.6411 ], [ -0.2776, 43.6159 ], [ -0.2472, 43.616 ], [ -0.2546, 43.5971 ], [ -0.2482, 43.5967 ], [ -0.2428, 43.585 ] ] ] } }
]
}
