{
"type": "FeatureCollection",
"name": "dep44",
"crs": { "type": "name", "properties": { "name": "urn:ogc:def:crs:OGC:1.3:CRS84" } },
"xy_coordinate_resolution": 0.0001,
"features": [
{ "type": "Feature", "properties": { "code": "44", "nom": "Loire-Atlantique" }, "geometry": { "type": "MultiPolygon", "coordinates": [ [ [ [ -2.6178, 47.4115 ], [ -2.6234, 47.4109 ], [ -2.6201, 47.4136 ], [ -2.6178, 47.4115 ] ] ], [ [ [ -2.4585, 47.4481 ], [ -2.4534, 47.4621 ], [ -2.4377, 47.466 ], [ -2.4296, 47.4758 ], [ -2.423, 47.4771 ], [ -2.4172, 47.4611 ], [ -2.3999, 47.456 ], [ -2.3683, 47.4642 ], [ -2.3525, 47.4547 ], [ -2.3495, 47.4577 ], [ -2.317, 47.4613 ], [ -2.3119, 47.4652 ], [ -2.3131, 47.4859 ], [ -2.3012, 47.4964 ], [ -2.2964, 47.516 ], [ -2.287, 47.5153 ], [ -2.2808, 47.5096 ], [ -2.2614, 47.5136 ], [ -2.2549, 47.5115 ], [ -2.2557, 47.5064 ], [ -2.2656, 47.5018 ], [ -2.2443, 47.4936 ], [ -2.2156, 47.5084 ], [ -2.1845, 47.5123 ], [ -2.1838, 47.5018 ], [ -2.1916, 47.5008 ], [ -2.1922, 47.4966 ], [ -2.1813, 47.4908 ], [ -2.1646, 47.4891 ], [ -2.1542, 47.4964 ], [ -2.156, 47.522 ], [ -2.1325, 47.5265 ], [ -2.132, 47.5312 ], [ -2.1178, 47.528 ], [ -2.0986, 47.534 ], [ -2.0968, 47.5403 ], [ -2.1046, 47.5472 ], [ -2.0967, 47.5705 ], [ -2.1005, 47.5773 ], [ -2.1047, 47.5752 ], [ -2.0995, 47.5808 ], [ -2.1038, 47.5909 ], [ -2.1019, 47.5961 ], [ -2.086, 47.604 ], [ -2.085, 47.6212 ], [ -2.097, 47.6314 ], [ -2.0812, 47.6502 ], [ -2.0515, 47.6496 ], [ -2.0499, 47.6617 ], [ -2.0391, 47.6695 ], [ -2.0129, 47.666 ], [ -1.9744, 47.6939 ], [ -1.9689, 47.6896 ], [ -1.9693, 47.6738 ], [ -1.9612, 47.6709 ], [ -1.9538, 47.6723 ], [ -1.9363, 47.6867 ], [ -1.8987, 47.6955 ], [ -1.8783, 47.6953 ], [ -1.8583, 47.7083 ], [ -1.84, 47.7055 ], [ -1.8275, 47.7106 ], [ -1.8209, 47.7048 ], [ -1.7716, 47.6983 ], [ -1.7514, 47.7075 ], [ -1.7221, 47.6984 ], [ -1.7113, 47.7004 ], [ -1.7106, 47.7084 ], [ -1.6895, 47.7134 ], [ -1.6575, 47.7094 ], [ -1.6485, 47.7209 ], [ -1.6382, 47.7223 ], [ -1.6365, 47.7424 ], [ -1.6231, 47.7636 ], [ -1.6049, 47.7625 ], [ -1.5944, 47.767 ], [ -1.5983, 47.7702 ], [ -1.5864, 47.7799 ], [ -1.5756, 47.7779 ], [ -1.5533, 47.7851 ], [ -1.5497, 47.7828 ], [ -1.529, 47.7848 ], [ -1.5203, 47.7936 ], [ -1.5033, 47.8014 ], [ -1.4909, 47.7984 ], [ -1.4731, 47.802 ], [ -1.4667, 47.8092 ], [ -1.4824, 47.8309 ], [ -1.4782, 47.8359 ], [ -1.4718, 47.833 ], [ -1.4626, 47.8359 ], [ -1.4543, 47.831 ], [ -1.4233, 47.8325 ], [ -1.4057, 47.8245 ], [ -1.3985, 47.8291 ], [ -1.3891, 47.8279 ], [ -1.3767, 47.8149 ], [ -1.3781, 47.8099 ], [ -1.3615, 47.8034 ], [ -1.3651, 47.7991 ], [ -1.2459, 47.7767 ], [ -1.2496, 47.7642 ], [ -1.2347, 47.7549 ], [ -1.243, 47.7478 ], [ -1.2417, 47.7429 ], [ -1.2557, 47.7426 ], [ -1.2554, 47.7314 ], [ -1.2485, 47.7321 ], [ -1.2374, 47.7235 ], [ -1.2154, 47.7188 ], [ -1.1951, 47.7216 ], [ -1.1962, 47.7099 ], [ -1.1816, 47.7035 ], [ -1.1895, 47.6992 ], [ -1.1749, 47.6946 ], [ -1.1785, 47.6889 ], [ -1.1733, 47.6818 ], [ -1.1815, 47.6746 ], [ -1.1808, 47.6648 ], [ -1.1704, 47.6631 ], [ -1.174, 47.6597 ], [ -1.1607, 47.6616 ], [ -1.1574, 47.6352 ], [ -1.139, 47.624 ], [ -1.1382, 47.6195 ], [ -1.1006, 47.6207 ], [ -1.0928, 47.617 ], [ -1.0919, 47.6115 ], [ -1.078, 47.6066 ], [ -1.0585, 47.6014 ], [ -1.0368, 47.6025 ], [ -1.0104, 47.5932 ], [ -1.0068, 47.5887 ], [ -1.0191, 47.5767 ], [ -1.041, 47.5699 ], [ -1.0418, 47.5623 ], [ -1.0556, 47.5653 ], [ -1.0524, 47.5579 ], [ -1.0605, 47.556 ], [ -1.0504, 47.5472 ], [ -1.0386, 47.5473 ], [ -1.0445, 47.5055 ], [ -1.0239, 47.5002 ], [ -1.0064, 47.4882 ], [ -0.9655, 47.4918 ], [ -0.9591, 47.4812 ], [ -0.9681, 47.4699 ], [ -0.9526, 47.4515 ], [ -0.953, 47.4354 ], [ -0.9467, 47.4276 ], [ -0.9483, 47.4227 ], [ -0.9607, 47.4228 ], [ -0.9611, 47.4181 ], [ -0.9504, 47.4069 ], [ -0.9509, 47.3893 ], [ -0.9458, 47.387 ], [ -0.9749, 47.3714 ], [ -0.9912, 47.3729 ], [ -1.0152, 47.3651 ], [ -1.045, 47.3655 ], [ -1.076, 47.3708 ], [ -1.1082, 47.3658 ], [ -1.1439, 47.3691 ], [ -1.1665, 47.3663 ], [ -1.1797, 47.3609 ], [ -1.1877, 47.3524 ], [ -1.2286, 47.3499 ], [ -1.2563, 47.3413 ], [ -1.2969, 47.3386 ], [ -1.3104, 47.3321 ], [ -1.3194, 47.3216 ], [ -1.3358, 47.319 ], [ -1.3542, 47.3041 ], [ -1.3373, 47.3003 ], [ -1.3216, 47.3058 ], [ -1.3182, 47.3013 ], [ -1.2957, 47.306 ], [ -1.2942, 47.3004 ], [ -1.2751, 47.2907 ], [ -1.2778, 47.2709 ], [ -1.2682, 47.2598 ], [ -1.2544, 47.2531 ], [ -1.2539, 47.2477 ], [ -1.2442, 47.2475 ], [ -1.2422, 47.2432 ], [ -1.2284, 47.2397 ], [ -1.2128, 47.2457 ], [ -1.2074, 47.2532 ], [ -1.198, 47.2529 ], [ -1.181, 47.2408 ], [ -1.1885, 47.22 ], [ -1.1745, 47.2144 ], [ -1.1805, 47.2073 ], [ -1.1736, 47.1987 ], [ -1.1785, 47.1934 ], [ -1.1703, 47.1866 ], [ -1.1619, 47.1875 ], [ -1.1616, 47.1776 ], [ -1.1673, 47.1769 ], [ -1.1766, 47.1628 ], [ -1.1815, 47.1653 ], [ -1.1831, 47.1592 ], [ -1.198, 47.1538 ], [ -1.1985, 47.1489 ], [ -1.2056, 47.1501 ], [ -1.2047, 47.1449 ], [ -1.2146, 47.1431 ], [ -1.2189, 47.1455 ], [ -1.2232, 47.1405 ], [ -1.2285, 47.1419 ], [ -1.2288, 47.1385 ], [ -1.2347, 47.1402 ], [ -1.2389, 47.137 ], [ -1.2315, 47.1314 ], [ -1.2324, 47.1233 ], [ -1.2246, 47.1189 ], [ -1.2298, 47.1099 ], [ -1.2496, 47.0984 ], [ -1.2443, 47.0943 ], [ -1.2285, 47.1004 ], [ -1.1694, 47.0932 ], [ -1.155, 47.0724 ], [ -1.1155, 47.0627 ], [ -1.1215, 47.0558 ], [ -1.117, 47.0401 ], [ -1.1469, 47.0295 ], [ -1.2007, 47.04 ], [ -1.2019, 47.0459 ], [ -1.2194, 47.0538 ], [ -1.2309, 47.065 ], [ -1.2475, 47.0672 ], [ -1.2707, 47.0847 ], [ -1.2803, 47.0757 ], [ -1.2877, 47.0763 ], [ -1.2914, 47.0683 ], [ -1.2858, 47.0639 ], [ -1.2876, 47.057 ], [ -1.2978, 47.0514 ], [ -1.2975, 47.0451 ], [ -1.3049, 47.0406 ], [ -1.2965, 47.0432 ], [ -1.2989, 47.0347 ], [ -1.3203, 47.0345 ], [ -1.3359, 47.0445 ], [ -1.3457, 47.0457 ], [ -1.3415, 47.0404 ], [ -1.347, 47.0378 ], [ -1.3661, 47.0417 ], [ -1.3681, 47.0347 ], [ -1.3786, 47.0309 ], [ -1.3669, 47.0195 ], [ -1.363, 47.0052 ], [ -1.378, 46.9917 ], [ -1.3591, 46.9811 ], [ -1.3582, 46.9712 ], [ -1.3692, 46.9638 ], [ -1.365, 46.9569 ], [ -1.3921, 46.9469 ], [ -1.4131, 46.9454 ], [ -1.4583, 46.9258 ], [ -1.4717, 46.9332 ], [ -1.4574, 46.9554 ], [ -1.4612, 46.9623 ], [ -1.4719, 46.9678 ], [ -1.477, 46.981 ], [ -1.4739, 46.9879 ], [ -1.4636, 46.9889 ], [ -1.4602, 46.993 ], [ -1.4692, 47.002 ], [ -1.4759, 47.0257 ], [ -1.4726, 47.0311 ], [ -1.4928, 47.0421 ], [ -1.505, 47.0389 ], [ -1.5174, 47.0264 ], [ -1.5262, 47.0227 ], [ -1.5385, 47.0234 ], [ -1.5403, 47.0174 ], [ -1.5496, 47.0189 ], [ -1.5557, 47.0145 ], [ -1.5427, 47.0033 ], [ -1.5553, 46.9786 ], [ -1.5428, 46.9653 ], [ -1.5444, 46.9574 ], [ -1.5345, 46.9505 ], [ -1.534, 46.9454 ], [ -1.5254, 46.946 ], [ -1.5188, 46.9346 ], [ -1.5291, 46.9227 ], [ -1.5458, 46.9256 ], [ -1.5296, 46.9119 ], [ -1.5293, 46.9065 ], [ -1.5032, 46.894 ], [ -1.5008, 46.8839 ], [ -1.527, 46.8728 ], [ -1.5463, 46.8747 ], [ -1.5488, 46.8602 ], [ -1.5762, 46.864 ], [ -1.6045, 46.8755 ], [ -1.6093, 46.8714 ], [ -1.6319, 46.8784 ], [ -1.6675, 46.8759 ], [ -1.6884, 46.8907 ], [ -1.7229, 46.884 ], [ -1.736, 46.8945 ], [ -1.7388, 46.9054 ], [ -1.7351, 46.9099 ], [ -1.7457, 46.9166 ], [ -1.7419, 46.9213 ], [ -1.7484, 46.9295 ], [ -1.7783, 46.925 ], [ -1.7863, 46.9296 ], [ -1.7987, 46.9273 ], [ -1.8006, 46.9307 ], [ -1.832, 46.9323 ], [ -1.8264, 46.938 ], [ -1.8284, 46.953 ], [ -1.8735, 46.9531 ], [ -1.8987, 46.9615 ], [ -1.9063, 46.9709 ], [ -1.911, 46.9694 ], [ -1.9174, 46.9751 ], [ -1.9123, 46.9791 ], [ -1.9186, 46.9802 ], [ -1.9167, 46.9922 ], [ -1.9432, 46.9947 ], [ -1.9689, 47.0277 ], [ -1.9836, 47.0295 ], [ -2.0047, 47.0615 ], [ -2.0326, 47.0735 ], [ -2.0521, 47.0938 ], [ -2.1072, 47.1067 ], [ -2.1034, 47.1144 ], [ -2.1111, 47.1099 ], [ -2.1369, 47.1105 ], [ -2.1574, 47.113 ], [ -2.1794, 47.1221 ], [ -2.2186, 47.1249 ], [ -2.2268, 47.1309 ], [ -2.2447, 47.1303 ], [ -2.2478, 47.134 ], [ -2.2289, 47.1449 ], [ -2.2231, 47.1539 ], [ -2.2, 47.1588 ], [ -2.1782, 47.1562 ], [ -2.1671, 47.1662 ], [ -2.1584, 47.2091 ], [ -2.181, 47.2326 ], [ -2.1808, 47.236 ], [ -2.1705, 47.2398 ], [ -2.17, 47.2685 ], [ -2.1874, 47.2806 ], [ -2.1997, 47.2698 ], [ -2.208, 47.2708 ], [ -2.2237, 47.2654 ], [ -2.2222, 47.2586 ], [ -2.228, 47.2562 ], [ -2.2528, 47.2534 ], [ -2.2674, 47.2384 ], [ -2.2892, 47.2375 ], [ -2.2982, 47.2331 ], [ -2.3066, 47.2407 ], [ -2.3354, 47.2522 ], [ -2.3541, 47.2711 ], [ -2.3752, 47.2788 ], [ -2.3984, 47.2814 ], [ -2.4204, 47.2765 ], [ -2.4254, 47.271 ], [ -2.4166, 47.2587 ], [ -2.4316, 47.2583 ], [ -2.4534, 47.2637 ], [ -2.4611, 47.27 ], [ -2.4939, 47.2754 ], [ -2.4991, 47.2807 ], [ -2.5464, 47.2906 ], [ -2.545, 47.298 ], [ -2.5395, 47.2996 ], [ -2.5119, 47.2996 ], [ -2.5145, 47.3037 ], [ -2.505, 47.3137 ], [ -2.5029, 47.3287 ], [ -2.5084, 47.3444 ], [ -2.5212, 47.3588 ], [ -2.5589, 47.3746 ], [ -2.547, 47.3822 ], [ -2.5336, 47.3836 ], [ -2.4994, 47.4045 ], [ -2.4912, 47.4048 ], [ -2.4883, 47.4112 ], [ -2.4779, 47.4125 ], [ -2.4682, 47.4209 ], [ -2.4625, 47.411 ], [ -2.4567, 47.4145 ], [ -2.4487, 47.4117 ], [ -2.4335, 47.4131 ], [ -2.4316, 47.4158 ], [ -2.4405, 47.4212 ], [ -2.453, 47.4259 ], [ -2.4587, 47.4236 ], [ -2.4524, 47.4337 ], [ -2.4455, 47.4356 ], [ -2.4585, 47.4481 ] ] ] ] } }
]
}
