{
"type": "FeatureCollection",
"name": "dep45",
"crs": { "type": "name", "properties": { "name": "urn:ogc:def:crs:OGC:1.3:CRS84" } },
"xy_coordinate_resolution": 0.0001,
"features": [
{ "type": "Feature", "properties": { "code": "45", "nom": "Loiret" }, "geometry": { "type": "Polygon", "coordinates": [ [ [ 2.868, 48.1564 ], [ 2.9533, 48.165 ], [ 2.9636, 48.153 ], [ 2.9816, 48.1498 ], [ 2.9799, 48.1539 ], [ 2.9909, 48.1525 ], [ 2.9984, 48.1398 ], [ 3.0096, 48.1458 ], [ 3.0294, 48.1333 ], [ 3.0159, 48.1157 ], [ 3.0353, 48.116 ], [ 3.0383, 48.0988 ], [ 3.0504, 48.0914 ], [ 3.0505, 48.0723 ], [ 3.0609, 48.0642 ], [ 3.0954, 48.054 ], [ 3.0896, 48.0491 ], [ 3.0946, 48.0404 ], [ 3.1243, 48.0311 ], [ 3.1195, 48.0259 ], [ 3.1164, 48.0281 ], [ 3.0995, 48.0207 ], [ 3.1041, 48.0136 ], [ 3.1154, 48.013 ], [ 3.1242, 48.0069 ], [ 3.1211, 47.9959 ], [ 3.1267, 47.9913 ], [ 3.1217, 47.9868 ], [ 3.1286, 47.9834 ], [ 3.1284, 47.971 ], [ 3.1093, 47.9621 ], [ 3.1053, 47.9469 ], [ 3.0984, 47.9488 ], [ 3.0839, 47.9426 ], [ 3.0785, 47.9314 ], [ 3.0646, 47.9305 ], [ 3.0617, 47.9261 ], [ 3.0508, 47.9242 ], [ 3.0505, 47.9106 ], [ 3.0378, 47.9067 ], [ 3.0359, 47.9116 ], [ 3.0239, 47.9052 ], [ 3.018, 47.9076 ], [ 3.0096, 47.9054 ], [ 3.017, 47.8989 ], [ 3.0072, 47.8953 ], [ 3.0124, 47.8741 ], [ 2.9983, 47.8673 ], [ 3.0233, 47.861 ], [ 3.0318, 47.8504 ], [ 3.0297, 47.8351 ], [ 3.0125, 47.8344 ], [ 3.0139, 47.8225 ], [ 3.0221, 47.8178 ], [ 3.0155, 47.8135 ], [ 3.0243, 47.8131 ], [ 3.0281, 47.802 ], [ 3.0253, 47.7877 ], [ 2.9882, 47.786 ], [ 2.9788, 47.7803 ], [ 2.9547, 47.7756 ], [ 2.9497, 47.7659 ], [ 2.9375, 47.7664 ], [ 2.9308, 47.7623 ], [ 2.9094, 47.7693 ], [ 2.899, 47.7638 ], [ 2.8702, 47.7649 ], [ 2.852, 47.7579 ], [ 2.859, 47.7495 ], [ 2.8502, 47.7326 ], [ 2.8533, 47.729 ], [ 2.8487, 47.7258 ], [ 2.8526, 47.7213 ], [ 2.849, 47.7168 ], [ 2.8606, 47.7099 ], [ 2.8789, 47.7203 ], [ 2.8846, 47.7139 ], [ 2.8792, 47.7038 ], [ 2.9037, 47.6969 ], [ 2.9077, 47.6909 ], [ 2.9139, 47.691 ], [ 2.9267, 47.6818 ], [ 2.9181, 47.6698 ], [ 2.9266, 47.659 ], [ 2.9416, 47.6575 ], [ 2.9542, 47.6457 ], [ 2.9363, 47.6367 ], [ 2.9323, 47.627 ], [ 2.9452, 47.6084 ], [ 2.9363, 47.5993 ], [ 2.942, 47.5988 ], [ 2.9506, 47.5888 ], [ 2.955, 47.5904 ], [ 2.9623, 47.5859 ], [ 2.9623, 47.5768 ], [ 2.9747, 47.5736 ], [ 2.9765, 47.5694 ], [ 2.9634, 47.5639 ], [ 2.9587, 47.5574 ], [ 2.9143, 47.566 ], [ 2.9049, 47.5562 ], [ 2.8739, 47.5528 ], [ 2.8732, 47.5451 ], [ 2.8627, 47.5463 ], [ 2.8602, 47.554 ], [ 2.8566, 47.5524 ], [ 2.8452, 47.5449 ], [ 2.8475, 47.5397 ], [ 2.8746, 47.5204 ], [ 2.8392, 47.5112 ], [ 2.8254, 47.4972 ], [ 2.8078, 47.4944 ], [ 2.8035, 47.4978 ], [ 2.7932, 47.4977 ], [ 2.7964, 47.5055 ], [ 2.7846, 47.5101 ], [ 2.7853, 47.5159 ], [ 2.7671, 47.5251 ], [ 2.746, 47.5248 ], [ 2.7326, 47.538 ], [ 2.7271, 47.5362 ], [ 2.7292, 47.5307 ], [ 2.7223, 47.5213 ], [ 2.7296, 47.5203 ], [ 2.7238, 47.5161 ], [ 2.7277, 47.5068 ], [ 2.72, 47.5048 ], [ 2.7274, 47.4989 ], [ 2.7249, 47.494 ], [ 2.719, 47.4951 ], [ 2.7154, 47.488 ], [ 2.7034, 47.489 ], [ 2.6844, 47.483 ], [ 2.6576, 47.4873 ], [ 2.6541, 47.5122 ], [ 2.6468, 47.5162 ], [ 2.6364, 47.5156 ], [ 2.6303, 47.522 ], [ 2.6153, 47.5239 ], [ 2.612, 47.5276 ], [ 2.6167, 47.5409 ], [ 2.5939, 47.5583 ], [ 2.5739, 47.5594 ], [ 2.5632, 47.5721 ], [ 2.5473, 47.5752 ], [ 2.4914, 47.5683 ], [ 2.4526, 47.5968 ], [ 2.4502, 47.6057 ], [ 2.4394, 47.6095 ], [ 2.4007, 47.5994 ], [ 2.396, 47.5925 ], [ 2.3811, 47.5918 ], [ 2.3726, 47.5855 ], [ 2.3599, 47.5899 ], [ 2.3424, 47.6053 ], [ 2.325, 47.6076 ], [ 2.2912, 47.6238 ], [ 2.2896, 47.6291 ], [ 2.2392, 47.621 ], [ 2.2411, 47.6409 ], [ 2.22, 47.6679 ], [ 2.2132, 47.6618 ], [ 2.2053, 47.6611 ], [ 2.2039, 47.6781 ], [ 2.1703, 47.6705 ], [ 2.1485, 47.6704 ], [ 2.1398, 47.6774 ], [ 2.1282, 47.6788 ], [ 2.1159, 47.6753 ], [ 2.111, 47.6697 ], [ 2.1062, 47.6712 ], [ 2.1077, 47.6765 ], [ 2.0745, 47.6822 ], [ 2.0665, 47.6743 ], [ 2.0411, 47.6779 ], [ 2.0254, 47.6751 ], [ 2.0094, 47.6788 ], [ 1.9977, 47.6748 ], [ 2.0023, 47.6685 ], [ 1.998, 47.6694 ], [ 1.9962, 47.664 ], [ 1.99, 47.6621 ], [ 1.9863, 47.6661 ], [ 1.9699, 47.6635 ], [ 1.9641, 47.6573 ], [ 1.9568, 47.6619 ], [ 1.9415, 47.6603 ], [ 1.944, 47.6667 ], [ 1.939, 47.6726 ], [ 1.9425, 47.6743 ], [ 1.9355, 47.6797 ], [ 1.9045, 47.675 ], [ 1.902, 47.6718 ], [ 1.8904, 47.6791 ], [ 1.8661, 47.6746 ], [ 1.8607, 47.6785 ], [ 1.8657, 47.6878 ], [ 1.8586, 47.6922 ], [ 1.8437, 47.6863 ], [ 1.845, 47.6742 ], [ 1.8406, 47.6698 ], [ 1.8452, 47.6571 ], [ 1.8214, 47.6522 ], [ 1.8101, 47.6533 ], [ 1.8034, 47.6476 ], [ 1.803, 47.639 ], [ 1.7893, 47.637 ], [ 1.7788, 47.6428 ], [ 1.782, 47.6523 ], [ 1.7489, 47.6558 ], [ 1.7399, 47.6615 ], [ 1.731, 47.6842 ], [ 1.7194, 47.6959 ], [ 1.7281, 47.6996 ], [ 1.7129, 47.7221 ], [ 1.7135, 47.7334 ], [ 1.6973, 47.7384 ], [ 1.6723, 47.7396 ], [ 1.6266, 47.761 ], [ 1.6218, 47.7438 ], [ 1.6147, 47.7374 ], [ 1.5829, 47.7264 ], [ 1.6005, 47.7412 ], [ 1.5479, 47.7698 ], [ 1.5712, 47.787 ], [ 1.5615, 47.7907 ], [ 1.5705, 47.7966 ], [ 1.562, 47.7987 ], [ 1.5609, 47.8052 ], [ 1.5416, 47.817 ], [ 1.5257, 47.8202 ], [ 1.5343, 47.8275 ], [ 1.5351, 47.8404 ], [ 1.5485, 47.8412 ], [ 1.5836, 47.8685 ], [ 1.5905, 47.8789 ], [ 1.5838, 47.8824 ], [ 1.586, 47.8855 ], [ 1.5791, 47.889 ], [ 1.5831, 47.8933 ], [ 1.5751, 47.8984 ], [ 1.5814, 47.9019 ], [ 1.5517, 47.9216 ], [ 1.5224, 47.9321 ], [ 1.526, 47.9451 ], [ 1.555, 47.9532 ], [ 1.5465, 47.956 ], [ 1.5478, 47.9655 ], [ 1.5606, 47.968 ], [ 1.5665, 47.9812 ], [ 1.5648, 47.9898 ], [ 1.5576, 47.9863 ], [ 1.5523, 47.9919 ], [ 1.5465, 47.9857 ], [ 1.5404, 47.9895 ], [ 1.5278, 47.9814 ], [ 1.5201, 47.9823 ], [ 1.5187, 47.99 ], [ 1.5255, 47.9928 ], [ 1.5171, 47.997 ], [ 1.5267, 48.0073 ], [ 1.5179, 48.0118 ], [ 1.5126, 48.0281 ], [ 1.5225, 48.0346 ], [ 1.5471, 48.0296 ], [ 1.5508, 48.0352 ], [ 1.539, 48.0386 ], [ 1.5453, 48.0446 ], [ 1.5941, 48.0307 ], [ 1.5972, 48.0432 ], [ 1.6194, 48.0431 ], [ 1.6241, 48.07 ], [ 1.6472, 48.0695 ], [ 1.6557, 48.0762 ], [ 1.6648, 48.0747 ], [ 1.6705, 48.0624 ], [ 1.6754, 48.0672 ], [ 1.679, 48.0658 ], [ 1.6889, 48.078 ], [ 1.709, 48.067 ], [ 1.7193, 48.0662 ], [ 1.7257, 48.0705 ], [ 1.731, 48.0672 ], [ 1.7417, 48.0682 ], [ 1.745, 48.0639 ], [ 1.7493, 48.0678 ], [ 1.755, 48.0648 ], [ 1.7618, 48.0716 ], [ 1.7715, 48.07 ], [ 1.7801, 48.0774 ], [ 1.7841, 48.0726 ], [ 1.7884, 48.0775 ], [ 1.798, 48.0769 ], [ 1.8015, 48.0894 ], [ 1.8298, 48.079 ], [ 1.8303, 48.0816 ], [ 1.8381, 48.0808 ], [ 1.8376, 48.0871 ], [ 1.8446, 48.089 ], [ 1.8491, 48.0847 ], [ 1.8657, 48.0839 ], [ 1.8649, 48.0952 ], [ 1.8705, 48.0946 ], [ 1.8735, 48.099 ], [ 1.8844, 48.0977 ], [ 1.9019, 48.1311 ], [ 1.9126, 48.1291 ], [ 1.9204, 48.1464 ], [ 1.9053, 48.1463 ], [ 1.9033, 48.1528 ], [ 1.9143, 48.1675 ], [ 1.9251, 48.1745 ], [ 1.9409, 48.1677 ], [ 1.945, 48.1747 ], [ 1.971, 48.1711 ], [ 1.971, 48.1831 ], [ 1.9515, 48.1896 ], [ 1.9511, 48.1951 ], [ 1.9573, 48.2036 ], [ 1.9666, 48.2022 ], [ 1.9624, 48.1945 ], [ 1.9708, 48.19 ], [ 1.9796, 48.2039 ], [ 1.9626, 48.2226 ], [ 1.9666, 48.2351 ], [ 1.9623, 48.2469 ], [ 1.9655, 48.2555 ], [ 1.9843, 48.264 ], [ 1.9941, 48.2866 ], [ 2.0116, 48.2848 ], [ 2.025, 48.2892 ], [ 2.0374, 48.2882 ], [ 2.0413, 48.2844 ], [ 2.0527, 48.2955 ], [ 2.0853, 48.294 ], [ 2.1062, 48.3076 ], [ 2.1137, 48.3073 ], [ 2.1106, 48.297 ], [ 2.1637, 48.2984 ], [ 2.161, 48.3045 ], [ 2.1557, 48.3045 ], [ 2.1523, 48.3159 ], [ 2.169, 48.3127 ], [ 2.1717, 48.3159 ], [ 2.1807, 48.3117 ], [ 2.1821, 48.3243 ], [ 2.1879, 48.3324 ], [ 2.2029, 48.3389 ], [ 2.2022, 48.3446 ], [ 2.2071, 48.3449 ], [ 2.2158, 48.3342 ], [ 2.2239, 48.3364 ], [ 2.2276, 48.3296 ], [ 2.2343, 48.3279 ], [ 2.2377, 48.3321 ], [ 2.2462, 48.3313 ], [ 2.2381, 48.3164 ], [ 2.2493, 48.3163 ], [ 2.2452, 48.2984 ], [ 2.2536, 48.3002 ], [ 2.2669, 48.3147 ], [ 2.2957, 48.3081 ], [ 2.3172, 48.3316 ], [ 2.3264, 48.3297 ], [ 2.3276, 48.333 ], [ 2.3282, 48.3264 ], [ 2.3348, 48.3274 ], [ 2.342, 48.3168 ], [ 2.3535, 48.3144 ], [ 2.3582, 48.3085 ], [ 2.3975, 48.3146 ], [ 2.4027, 48.3207 ], [ 2.4233, 48.2948 ], [ 2.4177, 48.2788 ], [ 2.4235, 48.2604 ], [ 2.4401, 48.2532 ], [ 2.4464, 48.2552 ], [ 2.4502, 48.25 ], [ 2.4691, 48.2553 ], [ 2.4789, 48.2495 ], [ 2.4763, 48.2444 ], [ 2.4841, 48.239 ], [ 2.5062, 48.2385 ], [ 2.5069, 48.226 ], [ 2.5183, 48.2276 ], [ 2.5133, 48.2244 ], [ 2.5141, 48.2144 ], [ 2.5231, 48.1949 ], [ 2.513, 48.193 ], [ 2.5181, 48.1899 ], [ 2.5073, 48.1797 ], [ 2.5155, 48.1748 ], [ 2.5123, 48.1707 ], [ 2.5165, 48.1662 ], [ 2.5063, 48.1564 ], [ 2.4832, 48.1645 ], [ 2.4739, 48.1541 ], [ 2.4747, 48.1488 ], [ 2.4675, 48.1482 ], [ 2.4601, 48.1368 ], [ 2.4443, 48.1315 ], [ 2.4428, 48.1254 ], [ 2.4544, 48.1224 ], [ 2.4649, 48.1291 ], [ 2.476, 48.1296 ], [ 2.5219, 48.1251 ], [ 2.5196, 48.1271 ], [ 2.5375, 48.1403 ], [ 2.5583, 48.1416 ], [ 2.5706, 48.1408 ], [ 2.5748, 48.1313 ], [ 2.6027, 48.1315 ], [ 2.6397, 48.1389 ], [ 2.6648, 48.1205 ], [ 2.6774, 48.1259 ], [ 2.7053, 48.123 ], [ 2.7205, 48.1369 ], [ 2.7552, 48.1457 ], [ 2.7536, 48.1532 ], [ 2.7364, 48.1663 ], [ 2.7552, 48.1601 ], [ 2.7672, 48.1649 ], [ 2.7717, 48.1617 ], [ 2.7792, 48.1675 ], [ 2.7921, 48.1646 ], [ 2.7953, 48.1691 ], [ 2.8017, 48.1643 ], [ 2.8103, 48.1661 ], [ 2.8114, 48.1638 ], [ 2.7979, 48.1512 ], [ 2.8012, 48.1315 ], [ 2.8209, 48.1297 ], [ 2.8242, 48.1339 ], [ 2.8362, 48.1341 ], [ 2.8499, 48.1411 ], [ 2.868, 48.1564 ] ] ] } }
]
}
