{
"type": "FeatureCollection",
"name": "dep56",
"crs": { "type": "name", "properties": { "name": "urn:ogc:def:crs:OGC:1.3:CRS84" } },
"xy_coordinate_resolution": 0.0001,
"features": [
{ "type": "Feature", "properties": { "code": "56", "nom": "Morbihan" }, "geometry": { "type": "MultiPolygon", "coordinates": [ [ [ [ -3.0132, 47.4107 ], [ -3.0177, 47.4112 ], [ -3.0157, 47.4125 ], [ -3.0132, 47.4107 ] ] ], [ [ [ -3.4218, 47.62 ], [ -3.439, 47.6285 ], [ -3.4466, 47.6231 ], [ -3.4626, 47.6202 ], [ -3.4737, 47.627 ], [ -3.4867, 47.6288 ], [ -3.4835, 47.6327 ], [ -3.4925, 47.6324 ], [ -3.5063, 47.6397 ], [ -3.5136, 47.6501 ], [ -3.4849, 47.6527 ], [ -3.4473, 47.643 ], [ -3.4299, 47.643 ], [ -3.4151, 47.6323 ], [ -3.4218, 47.62 ] ] ], [ [ [ -2.9956, 47.3941 ], [ -2.9993, 47.3947 ], [ -2.9957, 47.3954 ], [ -2.9956, 47.3941 ] ] ], [ [ [ -3.1953, 47.2918 ], [ -3.1971, 47.2931 ], [ -3.1948, 47.2935 ], [ -3.1953, 47.2918 ] ] ], [ [ [ -2.9685, 47.3575 ], [ -2.971, 47.3559 ], [ -2.9727, 47.3576 ], [ -2.9685, 47.3575 ] ] ], [ [ [ -2.8917, 47.3467 ], [ -2.8758, 47.3425 ], [ -2.8634, 47.349 ], [ -2.861, 47.3408 ], [ -2.8824, 47.3303 ], [ -2.8906, 47.3377 ], [ -2.8874, 47.3409 ], [ -2.8917, 47.3467 ] ] ], [ [ [ -3.2354, 47.3238 ], [ -3.2366, 47.3275 ], [ -3.2486, 47.3307 ], [ -3.2574, 47.345 ], [ -3.2549, 47.3484 ], [ -3.2636, 47.3523 ], [ -3.2592, 47.358 ], [ -3.2623, 47.3716 ], [ -3.247, 47.3711 ], [ -3.2532, 47.3753 ], [ -3.2472, 47.3875 ], [ -3.235, 47.3794 ], [ -3.2199, 47.3796 ], [ -3.2195, 47.3705 ], [ -3.2163, 47.3736 ], [ -3.2006, 47.3723 ], [ -3.1897, 47.3641 ], [ -3.1717, 47.3614 ], [ -3.1573, 47.3646 ], [ -3.1535, 47.3475 ], [ -3.1453, 47.3432 ], [ -3.1463, 47.3348 ], [ -3.1386, 47.329 ], [ -3.124, 47.3288 ], [ -3.1241, 47.3252 ], [ -3.1125, 47.3243 ], [ -3.111, 47.319 ], [ -3.1009, 47.3156 ], [ -3.0667, 47.3165 ], [ -3.0559, 47.3082 ], [ -3.0647, 47.3071 ], [ -3.0759, 47.2861 ], [ -3.0962, 47.2788 ], [ -3.0946, 47.2831 ], [ -3.1208, 47.2904 ], [ -3.1397, 47.286 ], [ -3.1391, 47.2896 ], [ -3.1581, 47.2924 ], [ -3.1676, 47.3016 ], [ -3.1927, 47.2939 ], [ -3.2029, 47.2994 ], [ -3.2057, 47.2939 ], [ -3.2184, 47.2924 ], [ -3.2247, 47.2963 ], [ -3.2233, 47.2996 ], [ -3.2359, 47.3015 ], [ -3.2384, 47.3081 ], [ -3.2483, 47.3135 ], [ -3.2496, 47.3167 ], [ -3.2354, 47.3238 ] ] ], [ [ [ -2.9482, 47.3733 ], [ -2.9587, 47.3836 ], [ -2.974, 47.3853 ], [ -2.9862, 47.3942 ], [ -2.9937, 47.3934 ], [ -2.9904, 47.4024 ], [ -2.9677, 47.3928 ], [ -2.9517, 47.3909 ], [ -2.9394, 47.3947 ], [ -2.9534, 47.3851 ], [ -2.9482, 47.3733 ] ] ], [ [ [ -3.2501, 47.3869 ], [ -3.2531, 47.3893 ], [ -3.2491, 47.3893 ], [ -3.2501, 47.3869 ] ] ], [ [ [ -2.5947, 47.5262 ], [ -2.5919, 47.5253 ], [ -2.5936, 47.5249 ], [ -2.5947, 47.5262 ] ] ], [ [ [ -3.1388, 47.7128 ], [ -3.1365, 47.7138 ], [ -3.1367, 47.7121 ], [ -3.1388, 47.7128 ] ] ], [ [ [ -2.8596, 47.5599 ], [ -2.8618, 47.5697 ], [ -2.8513, 47.5985 ], [ -2.8552, 47.6004 ], [ -2.8487, 47.5983 ], [ -2.8389, 47.6072 ], [ -2.8407, 47.5935 ], [ -2.8239, 47.5886 ], [ -2.8468, 47.5897 ], [ -2.8557, 47.5729 ], [ -2.8489, 47.5662 ], [ -2.8579, 47.5663 ], [ -2.8596, 47.5599 ] ] ], [ [ [ -2.8096, 47.5783 ], [ -2.8136, 47.5839 ], [ -2.8048, 47.5868 ], [ -2.8129, 47.5907 ], [ -2.7956, 47.5986 ], [ -2.7933, 47.6058 ], [ -2.7866, 47.5948 ], [ -2.7986, 47.5896 ], [ -2.8096, 47.5783 ] ] ], [ [ [ -2.7274, 47.5726 ], [ -2.7382, 47.5807 ], [ -2.7387, 47.5838 ], [ -2.7267, 47.5796 ], [ -2.7274, 47.5726 ] ] ], [ [ [ -2.786, 47.5685 ], [ -2.7954, 47.571 ], [ -2.7908, 47.5799 ], [ -2.786, 47.5755 ], [ -2.786, 47.5685 ] ] ], [ [ [ -2.7533, 47.6022 ], [ -2.7599, 47.6065 ], [ -2.7703, 47.6061 ], [ -2.771, 47.6103 ], [ -2.7547, 47.6068 ], [ -2.7533, 47.6022 ] ] ], [ [ [ -2.7771, 47.5864 ], [ -2.7862, 47.5895 ], [ -2.7753, 47.5955 ], [ -2.7748, 47.5927 ], [ -2.7771, 47.5864 ] ] ], [ [ [ -2.909, 47.5667 ], [ -2.912, 47.5757 ], [ -2.9104, 47.5776 ], [ -2.9063, 47.5688 ], [ -2.909, 47.5667 ] ] ], [ [ [ -2.8957, 47.573 ], [ -2.9015, 47.5723 ], [ -2.8961, 47.5764 ], [ -2.8957, 47.573 ] ] ], [ [ [ -2.7227, 47.5927 ], [ -2.7294, 47.5926 ], [ -2.7276, 47.5954 ], [ -2.7227, 47.5927 ] ] ], [ [ [ -2.8856, 47.5688 ], [ -2.8904, 47.5669 ], [ -2.8889, 47.5716 ], [ -2.8856, 47.5688 ] ] ], [ [ [ -2.7872, 47.5633 ], [ -2.7923, 47.5623 ], [ -2.7953, 47.5647 ], [ -2.7872, 47.5633 ] ] ], [ [ [ -2.7748, 47.6149 ], [ -2.7786, 47.6137 ], [ -2.7842, 47.6155 ], [ -2.7748, 47.6149 ] ] ], [ [ [ -2.8456, 47.6108 ], [ -2.8519, 47.6108 ], [ -2.8508, 47.6133 ], [ -2.8456, 47.6108 ] ] ], [ [ [ -2.8442, 47.5553 ], [ -2.8449, 47.56 ], [ -2.8426, 47.5604 ], [ -2.8442, 47.5553 ] ] ], [ [ [ -2.9258, 47.5789 ], [ -2.93, 47.5789 ], [ -2.9308, 47.5814 ], [ -2.9258, 47.5789 ] ] ], [ [ [ -2.8085, 47.5965 ], [ -2.8115, 47.5959 ], [ -2.8124, 47.5987 ], [ -2.8085, 47.5965 ] ] ], [ [ [ -2.8051, 47.5608 ], [ -2.8076, 47.5641 ], [ -2.8065, 47.5656 ], [ -2.8034, 47.5633 ], [ -2.8051, 47.5608 ] ] ], [ [ [ -2.8288, 47.5584 ], [ -2.8327, 47.5586 ], [ -2.8312, 47.5603 ], [ -2.8288, 47.5584 ] ] ], [ [ [ -2.8467, 47.5613 ], [ -2.8508, 47.5611 ], [ -2.8504, 47.5629 ], [ -2.8467, 47.5613 ] ] ], [ [ [ -2.9287, 47.586 ], [ -2.9333, 47.5847 ], [ -2.933, 47.5855 ], [ -2.9287, 47.586 ] ] ], [ [ [ -2.8005, 47.6076 ], [ -2.8056, 47.6086 ], [ -2.8009, 47.6094 ], [ -2.8005, 47.6076 ] ] ], [ [ [ -2.7463, 47.5762 ], [ -2.7499, 47.5762 ], [ -2.7482, 47.5773 ], [ -2.7463, 47.5762 ] ] ], [ [ [ -2.8838, 47.5653 ], [ -2.8874, 47.563 ], [ -2.8861, 47.5655 ], [ -2.8838, 47.5653 ] ] ], [ [ [ -2.7631, 47.5904 ], [ -2.7648, 47.5919 ], [ -2.7623, 47.5922 ], [ -2.7631, 47.5904 ] ] ], [ [ [ -2.9122, 47.5786 ], [ -2.9146, 47.5781 ], [ -2.9146, 47.5799 ], [ -2.9122, 47.5786 ] ] ], [ [ [ -2.8666, 47.5781 ], [ -2.8696, 47.5776 ], [ -2.8679, 47.5789 ], [ -2.8666, 47.5781 ] ] ], [ [ [ -2.7237, 47.5985 ], [ -2.7259, 47.5996 ], [ -2.7235, 47.6004 ], [ -2.7237, 47.5985 ] ] ], [ [ [ -3.1636, 47.7188 ], [ -3.1562, 47.7201 ], [ -3.1587, 47.7067 ], [ -3.1636, 47.7188 ] ] ], [ [ [ -3.1694, 47.6873 ], [ -3.1729, 47.6877 ], [ -3.1702, 47.6888 ], [ -3.1694, 47.6873 ] ] ], [ [ [ -3.1766, 47.6874 ], [ -3.1798, 47.6871 ], [ -3.1776, 47.6897 ], [ -3.1766, 47.6874 ] ] ], [ [ [ -3.1852, 47.6861 ], [ -3.1869, 47.6879 ], [ -3.1839, 47.6871 ], [ -3.1852, 47.6861 ] ] ], [ [ [ -3.5648, 48.1857 ], [ -3.5555, 48.1799 ], [ -3.5361, 48.1779 ], [ -3.5022, 48.1805 ], [ -3.4788, 48.1862 ], [ -3.47, 48.1777 ], [ -3.4632, 48.181 ], [ -3.4529, 48.1774 ], [ -3.4442, 48.1846 ], [ -3.4381, 48.1841 ], [ -3.4211, 48.1745 ], [ -3.4384, 48.1626 ], [ -3.4365, 48.1555 ], [ -3.4176, 48.1456 ], [ -3.4082, 48.1488 ], [ -3.4023, 48.1569 ], [ -3.3936, 48.1516 ], [ -3.3755, 48.1606 ], [ -3.3756, 48.1638 ], [ -3.3497, 48.1648 ], [ -3.3439, 48.171 ], [ -3.3377, 48.1708 ], [ -3.3236, 48.1607 ], [ -3.3254, 48.1502 ], [ -3.3205, 48.1488 ], [ -3.3161, 48.1555 ], [ -3.3074, 48.1561 ], [ -3.2968, 48.154 ], [ -3.2973, 48.1514 ], [ -3.2909, 48.153 ], [ -3.2929, 48.1504 ], [ -3.2829, 48.1416 ], [ -3.2751, 48.1436 ], [ -3.2722, 48.14 ], [ -3.2679, 48.1453 ], [ -3.2595, 48.1433 ], [ -3.2566, 48.1481 ], [ -3.2411, 48.1516 ], [ -3.2134, 48.1427 ], [ -3.2144, 48.1544 ], [ -3.2078, 48.154 ], [ -3.2053, 48.1602 ], [ -3.1916, 48.1648 ], [ -3.1754, 48.1589 ], [ -3.1581, 48.1679 ], [ -3.1553, 48.1585 ], [ -3.1395, 48.1637 ], [ -3.1302, 48.1769 ], [ -3.1371, 48.1837 ], [ -3.13, 48.2003 ], [ -3.1203, 48.2004 ], [ -3.1091, 48.2081 ], [ -3.0905, 48.2024 ], [ -3.078, 48.2109 ], [ -3.0694, 48.205 ], [ -3.0565, 48.2069 ], [ -3.0477, 48.2026 ], [ -3.0373, 48.204 ], [ -3.0285, 48.1958 ], [ -3.0149, 48.198 ], [ -3.0204, 48.1924 ], [ -3.0126, 48.1853 ], [ -3.0118, 48.1721 ], [ -2.9956, 48.1707 ], [ -2.9998, 48.1607 ], [ -2.9821, 48.1604 ], [ -2.9613, 48.1699 ], [ -2.9397, 48.1716 ], [ -2.9027, 48.1628 ], [ -2.8914, 48.1647 ], [ -2.8822, 48.1528 ], [ -2.8529, 48.1416 ], [ -2.8075, 48.1462 ], [ -2.8061, 48.1407 ], [ -2.7893, 48.1309 ], [ -2.7888, 48.1243 ], [ -2.782, 48.1209 ], [ -2.7836, 48.111 ], [ -2.7766, 48.1045 ], [ -2.7791, 48.099 ], [ -2.7736, 48.0959 ], [ -2.7777, 48.0904 ], [ -2.7731, 48.0864 ], [ -2.76, 48.0984 ], [ -2.755, 48.1154 ], [ -2.7446, 48.1131 ], [ -2.7244, 48.1174 ], [ -2.7248, 48.1142 ], [ -2.704, 48.1124 ], [ -2.7024, 48.1188 ], [ -2.6762, 48.1318 ], [ -2.661, 48.1306 ], [ -2.6523, 48.1188 ], [ -2.6572, 48.1153 ], [ -2.6516, 48.1123 ], [ -2.6523, 48.1071 ], [ -2.6568, 48.1069 ], [ -2.6503, 48.0979 ], [ -2.6567, 48.0926 ], [ -2.6562, 48.0843 ], [ -2.6623, 48.0819 ], [ -2.6649, 48.0693 ], [ -2.673, 48.0627 ], [ -2.6656, 48.0564 ], [ -2.6704, 48.0484 ], [ -2.6655, 48.0443 ], [ -2.6591, 48.0448 ], [ -2.6612, 48.0378 ], [ -2.6556, 48.0326 ], [ -2.6451, 48.0421 ], [ -2.6454, 48.0355 ], [ -2.636, 48.0378 ], [ -2.6282, 48.0338 ], [ -2.5906, 48.0557 ], [ -2.5773, 48.0709 ], [ -2.565, 48.0673 ], [ -2.5612, 48.0741 ], [ -2.5477, 48.0772 ], [ -2.5523, 48.0815 ], [ -2.5484, 48.0942 ], [ -2.5541, 48.0981 ], [ -2.5326, 48.1088 ], [ -2.514, 48.1324 ], [ -2.5165, 48.142 ], [ -2.5317, 48.1503 ], [ -2.5322, 48.1578 ], [ -2.5091, 48.1601 ], [ -2.4878, 48.1553 ], [ -2.4841, 48.1569 ], [ -2.4891, 48.1599 ], [ -2.4878, 48.1664 ], [ -2.4792, 48.1674 ], [ -2.4718, 48.16 ], [ -2.4533, 48.1637 ], [ -2.4492, 48.173 ], [ -2.4184, 48.1728 ], [ -2.4064, 48.1678 ], [ -2.399, 48.1538 ], [ -2.3744, 48.1402 ], [ -2.3754, 48.127 ], [ -2.3575, 48.1113 ], [ -2.3492, 48.1265 ], [ -2.3377, 48.1254 ], [ -2.3365, 48.1193 ], [ -2.3211, 48.1233 ], [ -2.3212, 48.133 ], [ -2.3157, 48.1355 ], [ -2.2842, 48.1329 ], [ -2.2551, 48.1095 ], [ -2.2558, 48.0968 ], [ -2.2481, 48.0853 ], [ -2.2579, 48.073 ], [ -2.2561, 48.0629 ], [ -2.2343, 48.0632 ], [ -2.236, 48.0759 ], [ -2.2196, 48.0809 ], [ -2.1809, 48.0832 ], [ -2.1685, 48.0762 ], [ -2.1704, 48.0634 ], [ -2.1882, 48.0568 ], [ -2.1888, 48.0524 ], [ -2.2419, 48.0528 ], [ -2.2613, 48.0416 ], [ -2.2796, 48.0264 ], [ -2.2829, 48.0179 ], [ -2.2755, 48.0099 ], [ -2.2895, 48.0009 ], [ -2.2875, 47.9915 ], [ -2.2391, 47.9997 ], [ -2.2261, 47.9945 ], [ -2.1911, 47.9908 ], [ -2.1866, 47.9826 ], [ -2.1778, 47.9796 ], [ -2.1444, 47.984 ], [ -2.1253, 47.9647 ], [ -2.1108, 47.9598 ], [ -2.11, 47.9529 ], [ -2.1001, 47.9483 ], [ -2.0977, 47.9332 ], [ -2.0788, 47.9191 ], [ -2.0857, 47.9137 ], [ -2.082, 47.9089 ], [ -2.0865, 47.9036 ], [ -2.1061, 47.9021 ], [ -2.101, 47.896 ], [ -2.112, 47.8949 ], [ -2.116, 47.8901 ], [ -2.1143, 47.8774 ], [ -2.0956, 47.8617 ], [ -2.1045, 47.8595 ], [ -2.1094, 47.8488 ], [ -2.1018, 47.8441 ], [ -2.0912, 47.8434 ], [ -2.0686, 47.852 ], [ -2.0547, 47.8688 ], [ -2.0516, 47.8406 ], [ -2.036, 47.8335 ], [ -2.047, 47.8185 ], [ -2.0705, 47.8114 ], [ -2.0741, 47.789 ], [ -2.0799, 47.7893 ], [ -2.0949, 47.7787 ], [ -2.1101, 47.7786 ], [ -2.1104, 47.7713 ], [ -2.1282, 47.7687 ], [ -2.126, 47.761 ], [ -2.0847, 47.7627 ], [ -2.0843, 47.7499 ], [ -2.0623, 47.7513 ], [ -2.0581, 47.742 ], [ -2.0587, 47.7383 ], [ -2.1088, 47.7367 ], [ -2.107, 47.7319 ], [ -2.1315, 47.7222 ], [ -2.1186, 47.7094 ], [ -2.1251, 47.6907 ], [ -2.1227, 47.6827 ], [ -2.1038, 47.6762 ], [ -2.1029, 47.667 ], [ -2.1138, 47.6477 ], [ -2.1021, 47.6441 ], [ -2.0964, 47.6474 ], [ -2.094, 47.6396 ], [ -2.1046, 47.6384 ], [ -2.1032, 47.6349 ], [ -2.0885, 47.626 ], [ -2.0841, 47.6179 ], [ -2.086, 47.604 ], [ -2.1019, 47.5961 ], [ -2.1038, 47.5909 ], [ -2.0995, 47.5808 ], [ -2.1047, 47.5752 ], [ -2.1005, 47.5773 ], [ -2.0967, 47.5705 ], [ -2.1046, 47.5472 ], [ -2.0968, 47.5403 ], [ -2.0986, 47.534 ], [ -2.1178, 47.528 ], [ -2.132, 47.5312 ], [ -2.1325, 47.5265 ], [ -2.156, 47.522 ], [ -2.1542, 47.4964 ], [ -2.1646, 47.4891 ], [ -2.1813, 47.4908 ], [ -2.1922, 47.4966 ], [ -2.1916, 47.5008 ], [ -2.1838, 47.5018 ], [ -2.1845, 47.5123 ], [ -2.2156, 47.5084 ], [ -2.2443, 47.4936 ], [ -2.2656, 47.5018 ], [ -2.2557, 47.5064 ], [ -2.2549, 47.5115 ], [ -2.2614, 47.5136 ], [ -2.2808, 47.5096 ], [ -2.287, 47.5153 ], [ -2.2964, 47.516 ], [ -2.3012, 47.4964 ], [ -2.3131, 47.4859 ], [ -2.3119, 47.4652 ], [ -2.317, 47.4613 ], [ -2.3495, 47.4577 ], [ -2.3525, 47.4547 ], [ -2.3683, 47.4642 ], [ -2.3999, 47.456 ], [ -2.4172, 47.4611 ], [ -2.423, 47.4771 ], [ -2.4296, 47.4758 ], [ -2.4377, 47.466 ], [ -2.4534, 47.4621 ], [ -2.4585, 47.4481 ], [ -2.4681, 47.4496 ], [ -2.4805, 47.4413 ], [ -2.4929, 47.4479 ], [ -2.5006, 47.4582 ], [ -2.4884, 47.4711 ], [ -2.501, 47.4927 ], [ -2.4937, 47.4967 ], [ -2.4812, 47.4953 ], [ -2.4674, 47.4826 ], [ -2.4473, 47.4946 ], [ -2.4225, 47.4926 ], [ -2.4205, 47.4953 ], [ -2.4412, 47.4962 ], [ -2.4662, 47.5117 ], [ -2.4967, 47.5175 ], [ -2.5028, 47.5146 ], [ -2.5052, 47.5231 ], [ -2.5209, 47.5269 ], [ -2.5354, 47.5238 ], [ -2.5342, 47.5281 ], [ -2.5528, 47.5126 ], [ -2.5949, 47.5177 ], [ -2.6058, 47.5152 ], [ -2.6082, 47.5085 ], [ -2.6319, 47.5046 ], [ -2.6238, 47.5139 ], [ -2.6171, 47.5146 ], [ -2.617, 47.5101 ], [ -2.6118, 47.5092 ], [ -2.6116, 47.515 ], [ -2.6064, 47.517 ], [ -2.6126, 47.5225 ], [ -2.6088, 47.5272 ], [ -2.6031, 47.5277 ], [ -2.6025, 47.5235 ], [ -2.5759, 47.522 ], [ -2.5738, 47.5241 ], [ -2.5867, 47.526 ], [ -2.5879, 47.5296 ], [ -2.5807, 47.5339 ], [ -2.5738, 47.531 ], [ -2.5668, 47.5329 ], [ -2.5664, 47.5353 ], [ -2.5697, 47.5331 ], [ -2.5818, 47.5361 ], [ -2.5754, 47.5455 ], [ -2.5639, 47.5472 ], [ -2.5591, 47.5518 ], [ -2.5691, 47.556 ], [ -2.5776, 47.5501 ], [ -2.5809, 47.5541 ], [ -2.5745, 47.559 ], [ -2.5869, 47.5635 ], [ -2.5829, 47.5433 ], [ -2.5892, 47.5396 ], [ -2.5957, 47.5429 ], [ -2.5912, 47.5373 ], [ -2.6043, 47.531 ], [ -2.6057, 47.5373 ], [ -2.6108, 47.537 ], [ -2.6176, 47.5444 ], [ -2.6146, 47.5477 ], [ -2.619, 47.5517 ], [ -2.609, 47.5655 ], [ -2.6106, 47.5676 ], [ -2.6161, 47.5607 ], [ -2.6197, 47.5615 ], [ -2.6235, 47.5509 ], [ -2.6191, 47.5477 ], [ -2.6293, 47.5495 ], [ -2.6164, 47.5372 ], [ -2.6254, 47.5355 ], [ -2.6212, 47.5327 ], [ -2.626, 47.5307 ], [ -2.6331, 47.5363 ], [ -2.646, 47.5367 ], [ -2.6452, 47.5396 ], [ -2.6504, 47.5378 ], [ -2.6537, 47.5434 ], [ -2.6587, 47.5434 ], [ -2.6586, 47.5498 ], [ -2.6703, 47.543 ], [ -2.6638, 47.5395 ], [ -2.6707, 47.5375 ], [ -2.6672, 47.5333 ], [ -2.6556, 47.5365 ], [ -2.6509, 47.5338 ], [ -2.6558, 47.5317 ], [ -2.6523, 47.5289 ], [ -2.6372, 47.5305 ], [ -2.6301, 47.5257 ], [ -2.6211, 47.5254 ], [ -2.6292, 47.5168 ], [ -2.6279, 47.5242 ], [ -2.6357, 47.5231 ], [ -2.6399, 47.516 ], [ -2.6643, 47.5186 ], [ -2.6655, 47.5087 ], [ -2.6812, 47.4968 ], [ -2.6749, 47.4919 ], [ -2.6961, 47.5008 ], [ -2.7246, 47.5064 ], [ -2.7475, 47.4987 ], [ -2.7792, 47.4959 ], [ -2.7937, 47.4842 ], [ -2.807, 47.4888 ], [ -2.8153, 47.4867 ], [ -2.8503, 47.4988 ], [ -2.8476, 47.5121 ], [ -2.855, 47.518 ], [ -2.8474, 47.5194 ], [ -2.8577, 47.5187 ], [ -2.8716, 47.5322 ], [ -2.8867, 47.5378 ], [ -2.9036, 47.5344 ], [ -2.9053, 47.5384 ], [ -2.8926, 47.5444 ], [ -2.9128, 47.5422 ], [ -2.9196, 47.5477 ], [ -2.9087, 47.5495 ], [ -2.9145, 47.5574 ], [ -2.9108, 47.5569 ], [ -2.9078, 47.5631 ], [ -2.9027, 47.5597 ], [ -2.8973, 47.5633 ], [ -2.8945, 47.555 ], [ -2.891, 47.5617 ], [ -2.8847, 47.5575 ], [ -2.8785, 47.5638 ], [ -2.8777, 47.5546 ], [ -2.8693, 47.5569 ], [ -2.8742, 47.5474 ], [ -2.8632, 47.5526 ], [ -2.8584, 47.5507 ], [ -2.8624, 47.5417 ], [ -2.8533, 47.537 ], [ -2.8454, 47.5395 ], [ -2.8535, 47.5418 ], [ -2.8507, 47.5466 ], [ -2.8389, 47.5437 ], [ -2.8272, 47.5501 ], [ -2.8305, 47.5456 ], [ -2.8272, 47.5365 ], [ -2.8237, 47.5364 ], [ -2.8263, 47.5435 ], [ -2.818, 47.543 ], [ -2.8243, 47.5565 ], [ -2.8136, 47.553 ], [ -2.8067, 47.556 ], [ -2.8077, 47.5435 ], [ -2.8, 47.5374 ], [ -2.7997, 47.5474 ], [ -2.7877, 47.5525 ], [ -2.7826, 47.5456 ], [ -2.7774, 47.5482 ], [ -2.7792, 47.5391 ], [ -2.7647, 47.539 ], [ -2.767, 47.5434 ], [ -2.7637, 47.539 ], [ -2.7676, 47.5357 ], [ -2.7513, 47.5381 ], [ -2.7432, 47.5436 ], [ -2.7346, 47.5409 ], [ -2.7286, 47.5481 ], [ -2.7347, 47.5528 ], [ -2.7258, 47.5661 ], [ -2.7177, 47.5681 ], [ -2.7138, 47.5794 ], [ -2.7185, 47.5837 ], [ -2.7185, 47.5875 ], [ -2.7119, 47.5884 ], [ -2.7159, 47.5829 ], [ -2.7084, 47.5806 ], [ -2.7108, 47.576 ], [ -2.7046, 47.5792 ], [ -2.7039, 47.589 ], [ -2.6987, 47.5899 ], [ -2.6956, 47.5839 ], [ -2.695, 47.5909 ], [ -2.6893, 47.5909 ], [ -2.6907, 47.6051 ], [ -2.6837, 47.6054 ], [ -2.6886, 47.623 ], [ -2.6954, 47.6245 ], [ -2.6867, 47.6315 ], [ -2.6963, 47.6289 ], [ -2.7026, 47.6321 ], [ -2.6899, 47.6373 ], [ -2.6999, 47.6368 ], [ -2.7125, 47.6484 ], [ -2.7068, 47.6351 ], [ -2.716, 47.6314 ], [ -2.7028, 47.6227 ], [ -2.711, 47.622 ], [ -2.7132, 47.626 ], [ -2.7173, 47.6198 ], [ -2.7013, 47.6185 ], [ -2.6956, 47.6098 ], [ -2.7021, 47.6068 ], [ -2.7087, 47.6171 ], [ -2.7173, 47.6143 ], [ -2.7097, 47.6103 ], [ -2.7125, 47.6016 ], [ -2.7028, 47.6025 ], [ -2.7128, 47.5959 ], [ -2.7111, 47.5933 ], [ -2.7212, 47.59 ], [ -2.7211, 47.6031 ], [ -2.7302, 47.6019 ], [ -2.7309, 47.6054 ], [ -2.7375, 47.6052 ], [ -2.732, 47.5986 ], [ -2.7584, 47.6146 ], [ -2.7782, 47.6187 ], [ -2.7752, 47.6252 ], [ -2.7336, 47.6128 ], [ -2.7435, 47.6222 ], [ -2.742, 47.6274 ], [ -2.7507, 47.6219 ], [ -2.7573, 47.6299 ], [ -2.7549, 47.6378 ], [ -2.7618, 47.6395 ], [ -2.7645, 47.6313 ], [ -2.7804, 47.632 ], [ -2.7782, 47.6278 ], [ -2.7893, 47.6373 ], [ -2.7847, 47.6417 ], [ -2.7893, 47.6403 ], [ -2.7941, 47.645 ], [ -2.7925, 47.6345 ], [ -2.7799, 47.6265 ], [ -2.7833, 47.6209 ], [ -2.8016, 47.618 ], [ -2.8119, 47.6223 ], [ -2.8343, 47.6126 ], [ -2.8328, 47.6203 ], [ -2.8401, 47.6167 ], [ -2.8628, 47.6221 ], [ -2.8673, 47.6172 ], [ -2.8587, 47.6181 ], [ -2.8564, 47.6135 ], [ -2.8684, 47.6071 ], [ -2.8587, 47.6014 ], [ -2.8645, 47.5967 ], [ -2.8898, 47.6026 ], [ -2.891, 47.5854 ], [ -2.8853, 47.5788 ], [ -2.8905, 47.5742 ], [ -2.8898, 47.5804 ], [ -2.8958, 47.5846 ], [ -2.905, 47.5819 ], [ -2.9092, 47.5843 ], [ -2.9042, 47.5871 ], [ -2.9081, 47.5916 ], [ -2.9147, 47.5911 ], [ -2.9178, 47.5823 ], [ -2.9255, 47.5859 ], [ -2.927, 47.5913 ], [ -2.9204, 47.589 ], [ -2.9173, 47.5998 ], [ -2.9182, 47.6027 ], [ -2.9271, 47.5919 ], [ -2.931, 47.6058 ], [ -2.9368, 47.5857 ], [ -2.9511, 47.6098 ], [ -2.9467, 47.6129 ], [ -2.9494, 47.6214 ], [ -2.9364, 47.626 ], [ -2.9429, 47.6292 ], [ -2.9588, 47.6274 ], [ -2.9618, 47.6347 ], [ -2.9582, 47.6386 ], [ -2.9686, 47.6394 ], [ -2.9641, 47.6457 ], [ -2.9783, 47.6591 ], [ -2.981, 47.6558 ], [ -2.976, 47.6459 ], [ -2.9708, 47.6447 ], [ -2.9716, 47.6355 ], [ -2.9612, 47.6314 ], [ -2.9536, 47.6122 ], [ -2.9607, 47.6146 ], [ -2.9661, 47.6113 ], [ -2.9631, 47.6076 ], [ -2.9723, 47.6077 ], [ -2.9597, 47.6009 ], [ -2.9618, 47.5977 ], [ -2.9543, 47.5972 ], [ -2.9702, 47.5883 ], [ -2.9628, 47.5878 ], [ -2.96, 47.5811 ], [ -2.9479, 47.5793 ], [ -2.9367, 47.5614 ], [ -2.9266, 47.5569 ], [ -2.9391, 47.5541 ], [ -2.9518, 47.5561 ], [ -2.9577, 47.5643 ], [ -2.9629, 47.5533 ], [ -2.9761, 47.559 ], [ -2.9774, 47.563 ], [ -2.9693, 47.5594 ], [ -2.9752, 47.5688 ], [ -2.9702, 47.568 ], [ -2.9722, 47.5719 ], [ -2.9766, 47.5775 ], [ -2.9918, 47.5804 ], [ -2.9944, 47.5907 ], [ -2.998, 47.5846 ], [ -2.989, 47.567 ], [ -2.9946, 47.5717 ], [ -2.9971, 47.5663 ], [ -3.0045, 47.566 ], [ -3.0246, 47.592 ], [ -3.0283, 47.5891 ], [ -3.0192, 47.5672 ], [ -3.025, 47.5683 ], [ -3.0347, 47.5819 ], [ -3.0447, 47.5874 ], [ -3.0427, 47.5789 ], [ -3.052, 47.5779 ], [ -3.0544, 47.5693 ], [ -3.0659, 47.5724 ], [ -3.0954, 47.5637 ], [ -3.1065, 47.5752 ], [ -3.0972, 47.5781 ], [ -3.0921, 47.574 ], [ -3.0923, 47.579 ], [ -3.1047, 47.5808 ], [ -3.1036, 47.5844 ], [ -3.127, 47.5984 ], [ -3.1309, 47.5955 ], [ -3.1264, 47.5929 ], [ -3.1305, 47.5887 ], [ -3.1295, 47.575 ], [ -3.1156, 47.5755 ], [ -3.1271, 47.5639 ], [ -3.1332, 47.547 ], [ -3.1297, 47.5219 ], [ -3.1264, 47.5129 ], [ -3.1179, 47.51 ], [ -3.1175, 47.4964 ], [ -3.0945, 47.4829 ], [ -3.0895, 47.4727 ], [ -3.081, 47.4704 ], [ -3.0936, 47.4734 ], [ -3.1079, 47.4719 ], [ -3.1178, 47.4788 ], [ -3.133, 47.475 ], [ -3.1393, 47.4824 ], [ -3.1456, 47.4835 ], [ -3.1431, 47.4921 ], [ -3.1518, 47.5039 ], [ -3.1525, 47.5199 ], [ -3.1596, 47.5256 ], [ -3.1595, 47.5293 ], [ -3.1531, 47.5274 ], [ -3.1446, 47.5313 ], [ -3.1344, 47.5459 ], [ -3.1397, 47.5796 ], [ -3.1584, 47.607 ], [ -3.1977, 47.6239 ], [ -3.2107, 47.6418 ], [ -3.204, 47.6516 ], [ -3.2092, 47.6698 ], [ -3.2016, 47.6707 ], [ -3.1968, 47.6788 ], [ -3.1881, 47.6779 ], [ -3.1917, 47.6814 ], [ -3.1857, 47.685 ], [ -3.1831, 47.6814 ], [ -3.1746, 47.6833 ], [ -3.1623, 47.6801 ], [ -3.1636, 47.6859 ], [ -3.1587, 47.6898 ], [ -3.1553, 47.6864 ], [ -3.1486, 47.6959 ], [ -3.1357, 47.6978 ], [ -3.1323, 47.7015 ], [ -3.1455, 47.6979 ], [ -3.1544, 47.6996 ], [ -3.1591, 47.6973 ], [ -3.1552, 47.6937 ], [ -3.1688, 47.6969 ], [ -3.1656, 47.7004 ], [ -3.1541, 47.7004 ], [ -3.1528, 47.7048 ], [ -3.1484, 47.7036 ], [ -3.1491, 47.7164 ], [ -3.1419, 47.7156 ], [ -3.144, 47.7066 ], [ -3.1355, 47.7074 ], [ -3.1315, 47.7039 ], [ -3.1279, 47.7097 ], [ -3.1318, 47.7144 ], [ -3.1202, 47.7209 ], [ -3.1253, 47.7258 ], [ -3.1093, 47.7235 ], [ -3.1087, 47.721 ], [ -3.1031, 47.7182 ], [ -3.1095, 47.728 ], [ -3.1279, 47.7282 ], [ -3.1318, 47.723 ], [ -3.1526, 47.7189 ], [ -3.1514, 47.7265 ], [ -3.1494, 47.7216 ], [ -3.1438, 47.732 ], [ -3.1393, 47.7332 ], [ -3.1383, 47.7281 ], [ -3.1346, 47.7314 ], [ -3.1365, 47.7353 ], [ -3.1478, 47.7305 ], [ -3.1509, 47.7334 ], [ -3.1348, 47.7473 ], [ -3.1483, 47.7428 ], [ -3.1471, 47.7523 ], [ -3.1602, 47.7374 ], [ -3.1548, 47.7334 ], [ -3.1601, 47.729 ], [ -3.1714, 47.7314 ], [ -3.1721, 47.738 ], [ -3.1864, 47.7384 ], [ -3.186, 47.7464 ], [ -3.1936, 47.7484 ], [ -3.2008, 47.7449 ], [ -3.1917, 47.7459 ], [ -3.1923, 47.7321 ], [ -3.1786, 47.7365 ], [ -3.174, 47.7275 ], [ -3.1697, 47.7281 ], [ -3.1757, 47.7183 ], [ -3.1693, 47.7153 ], [ -3.172, 47.7112 ], [ -3.1657, 47.7046 ], [ -3.1751, 47.699 ], [ -3.1744, 47.7064 ], [ -3.1842, 47.7025 ], [ -3.1946, 47.7035 ], [ -3.1992, 47.6971 ], [ -3.1889, 47.6917 ], [ -3.1973, 47.6875 ], [ -3.2105, 47.6913 ], [ -3.2107, 47.6984 ], [ -3.2163, 47.6958 ], [ -3.2148, 47.6907 ], [ -3.2066, 47.6882 ], [ -3.2117, 47.6849 ], [ -3.1994, 47.6837 ], [ -3.2024, 47.6772 ], [ -3.209, 47.6763 ], [ -3.2063, 47.6716 ], [ -3.2154, 47.6721 ], [ -3.2186, 47.6653 ], [ -3.2119, 47.6619 ], [ -3.2146, 47.6449 ], [ -3.2709, 47.6789 ], [ -3.3005, 47.6894 ], [ -3.3445, 47.6953 ], [ -3.3576, 47.6862 ], [ -3.3602, 47.6891 ], [ -3.3525, 47.7004 ], [ -3.3433, 47.6962 ], [ -3.325, 47.7021 ], [ -3.2858, 47.6862 ], [ -3.2776, 47.6903 ], [ -3.2922, 47.7031 ], [ -3.3033, 47.7022 ], [ -3.3105, 47.7057 ], [ -3.3075, 47.7007 ], [ -3.3162, 47.7028 ], [ -3.3109, 47.7094 ], [ -3.322, 47.7048 ], [ -3.3267, 47.7096 ], [ -3.3442, 47.7084 ], [ -3.3522, 47.7029 ], [ -3.3654, 47.7103 ], [ -3.3532, 47.7083 ], [ -3.3506, 47.716 ], [ -3.3468, 47.7136 ], [ -3.3427, 47.7159 ], [ -3.3519, 47.7242 ], [ -3.344, 47.7266 ], [ -3.3491, 47.7293 ], [ -3.3478, 47.7346 ], [ -3.3324, 47.7294 ], [ -3.3297, 47.7322 ], [ -3.3345, 47.7354 ], [ -3.3226, 47.735 ], [ -3.3149, 47.7457 ], [ -3.3057, 47.7481 ], [ -3.2965, 47.7712 ], [ -3.2868, 47.7681 ], [ -3.282, 47.7779 ], [ -3.2932, 47.7848 ], [ -3.2907, 47.7913 ], [ -3.2777, 47.7944 ], [ -3.2902, 47.7931 ], [ -3.2957, 47.7865 ], [ -3.2868, 47.7728 ], [ -3.3, 47.7747 ], [ -3.3038, 47.7649 ], [ -3.3181, 47.7561 ], [ -3.3247, 47.759 ], [ -3.3262, 47.7661 ], [ -3.3229, 47.7483 ], [ -3.3442, 47.7416 ], [ -3.3535, 47.7607 ], [ -3.363, 47.7619 ], [ -3.36, 47.771 ], [ -3.3678, 47.7732 ], [ -3.3765, 47.7855 ], [ -3.3787, 47.7972 ], [ -3.3864, 47.7991 ], [ -3.3854, 47.8046 ], [ -3.3918, 47.8049 ], [ -3.3924, 47.807 ], [ -3.3897, 47.8083 ], [ -3.3862, 47.8169 ], [ -3.3885, 47.8283 ], [ -3.3922, 47.8213 ], [ -3.3882, 47.8126 ], [ -3.3994, 47.8091 ], [ -3.3925, 47.8037 ], [ -3.3875, 47.8026 ], [ -3.3886, 47.7971 ], [ -3.38, 47.7916 ], [ -3.3855, 47.7839 ], [ -3.374, 47.7808 ], [ -3.3657, 47.7614 ], [ -3.3524, 47.7535 ], [ -3.3513, 47.7435 ], [ -3.3605, 47.7452 ], [ -3.3517, 47.7421 ], [ -3.3558, 47.7324 ], [ -3.3657, 47.7285 ], [ -3.3685, 47.7318 ], [ -3.3672, 47.7159 ], [ -3.3874, 47.7016 ], [ -3.4152, 47.7003 ], [ -3.4278, 47.7046 ], [ -3.4361, 47.6987 ], [ -3.445, 47.6995 ], [ -3.4459, 47.6958 ], [ -3.4607, 47.6983 ], [ -3.459, 47.7032 ], [ -3.4768, 47.7105 ], [ -3.4751, 47.7142 ], [ -3.4845, 47.7166 ], [ -3.4863, 47.7222 ], [ -3.5005, 47.7309 ], [ -3.5067, 47.7477 ], [ -3.5286, 47.7654 ], [ -3.5249, 47.769 ], [ -3.5299, 47.7739 ], [ -3.5299, 47.7825 ], [ -3.5255, 47.7847 ], [ -3.5288, 47.7896 ], [ -3.5179, 47.8031 ], [ -3.5236, 47.8052 ], [ -3.5239, 47.8111 ], [ -3.535, 47.8147 ], [ -3.5328, 47.8195 ], [ -3.5408, 47.8293 ], [ -3.5383, 47.836 ], [ -3.5195, 47.849 ], [ -3.5218, 47.8399 ], [ -3.5162, 47.8393 ], [ -3.5117, 47.832 ], [ -3.4874, 47.8237 ], [ -3.4752, 47.8355 ], [ -3.4577, 47.8366 ], [ -3.4491, 47.8462 ], [ -3.4483, 47.8632 ], [ -3.4397, 47.8629 ], [ -3.4248, 47.8691 ], [ -3.412, 47.868 ], [ -3.4079, 47.8627 ], [ -3.399, 47.8636 ], [ -3.404, 47.8662 ], [ -3.4054, 47.9022 ], [ -3.4192, 47.9056 ], [ -3.4061, 47.9059 ], [ -3.4088, 47.9159 ], [ -3.3933, 47.9179 ], [ -3.387, 47.9252 ], [ -3.4017, 47.9431 ], [ -3.3926, 47.9519 ], [ -3.3931, 47.9584 ], [ -3.4027, 47.9603 ], [ -3.4034, 47.967 ], [ -3.4082, 47.9669 ], [ -3.4149, 47.975 ], [ -3.4212, 47.9675 ], [ -3.4447, 47.9587 ], [ -3.456, 47.9567 ], [ -3.4614, 47.9595 ], [ -3.4623, 47.9489 ], [ -3.4676, 47.9457 ], [ -3.4814, 47.9519 ], [ -3.4915, 47.9749 ], [ -3.5197, 47.9761 ], [ -3.5311, 47.9887 ], [ -3.5463, 47.9865 ], [ -3.5587, 47.9942 ], [ -3.5608, 47.9912 ], [ -3.577, 47.9906 ], [ -3.5841, 47.9846 ], [ -3.597, 47.9904 ], [ -3.6077, 47.9893 ], [ -3.62, 47.9819 ], [ -3.6312, 47.9865 ], [ -3.6334, 47.9838 ], [ -3.6402, 47.9852 ], [ -3.6483, 48.0065 ], [ -3.6625, 48.0193 ], [ -3.6641, 48.0367 ], [ -3.6711, 48.0373 ], [ -3.67, 48.0428 ], [ -3.6757, 48.0475 ], [ -3.6735, 48.0581 ], [ -3.6869, 48.0587 ], [ -3.7087, 48.0668 ], [ -3.7082, 48.0694 ], [ -3.6988, 48.0687 ], [ -3.7043, 48.0866 ], [ -3.695, 48.0935 ], [ -3.7032, 48.0978 ], [ -3.7332, 48.0965 ], [ -3.7291, 48.1044 ], [ -3.7344, 48.1126 ], [ -3.7182, 48.1199 ], [ -3.7239, 48.1245 ], [ -3.7219, 48.1293 ], [ -3.7085, 48.1358 ], [ -3.7155, 48.1422 ], [ -3.6977, 48.1454 ], [ -3.6933, 48.1518 ], [ -3.6719, 48.1516 ], [ -3.6519, 48.1566 ], [ -3.6261, 48.1695 ], [ -3.5648, 48.1857 ] ] ] ] } }
]
}
