{
"type": "FeatureCollection",
"name": "dep51",
"crs": { "type": "name", "properties": { "name": "urn:ogc:def:crs:OGC:1.3:CRS84" } },
"xy_coordinate_resolution": 0.0001,
"features": [
{ "type": "Feature", "properties": { "code": "51", "nom": "Marne" }, "geometry": { "type": "Polygon", "coordinates": [ [ [ 4.048, 49.4056 ], [ 4.0769, 49.4016 ], [ 4.1432, 49.4042 ], [ 4.1568, 49.401 ], [ 4.1914, 49.401 ], [ 4.189, 49.3987 ], [ 4.2013, 49.3838 ], [ 4.2137, 49.3879 ], [ 4.2369, 49.3813 ], [ 4.2483, 49.3823 ], [ 4.2478, 49.3778 ], [ 4.2593, 49.3702 ], [ 4.2584, 49.3635 ], [ 4.2771, 49.3515 ], [ 4.2836, 49.3545 ], [ 4.2864, 49.3505 ], [ 4.2941, 49.3527 ], [ 4.288, 49.3492 ], [ 4.3083, 49.3266 ], [ 4.3375, 49.326 ], [ 4.3462, 49.3223 ], [ 4.3438, 49.314 ], [ 4.3756, 49.3238 ], [ 4.3741, 49.3202 ], [ 4.3962, 49.2922 ], [ 4.4035, 49.2935 ], [ 4.4089, 49.2865 ], [ 4.4167, 49.2878 ], [ 4.4226, 49.2806 ], [ 4.4395, 49.2801 ], [ 4.4472, 49.2725 ], [ 4.4838, 49.2808 ], [ 4.516, 49.2802 ], [ 4.5412, 49.2862 ], [ 4.5571, 49.2953 ], [ 4.568, 49.2965 ], [ 4.5727, 49.2937 ], [ 4.5759, 49.2967 ], [ 4.5837, 49.2909 ], [ 4.5979, 49.2915 ], [ 4.6, 49.2886 ], [ 4.5899, 49.281 ], [ 4.5939, 49.2798 ], [ 4.5921, 49.2735 ], [ 4.608, 49.2693 ], [ 4.6197, 49.247 ], [ 4.6186, 49.2386 ], [ 4.6343, 49.2318 ], [ 4.6705, 49.2412 ], [ 4.6889, 49.2575 ], [ 4.7038, 49.2554 ], [ 4.7038, 49.2509 ], [ 4.727, 49.2535 ], [ 4.7442, 49.2415 ], [ 4.7731, 49.2451 ], [ 4.7907, 49.2411 ], [ 4.8154, 49.2499 ], [ 4.8171, 49.2415 ], [ 4.8299, 49.2431 ], [ 4.8258, 49.2367 ], [ 4.8308, 49.2334 ], [ 4.8368, 49.2355 ], [ 4.8665, 49.2266 ], [ 4.8674, 49.2361 ], [ 4.8616, 49.2367 ], [ 4.8618, 49.2399 ], [ 4.8831, 49.2565 ], [ 4.8774, 49.2627 ], [ 4.8928, 49.2581 ], [ 4.924, 49.2665 ], [ 4.9169, 49.2604 ], [ 4.9343, 49.2596 ], [ 4.9216, 49.2521 ], [ 4.9459, 49.2438 ], [ 4.951, 49.2369 ], [ 4.9708, 49.2361 ], [ 4.978, 49.2189 ], [ 4.9934, 49.2098 ], [ 4.9785, 49.1999 ], [ 4.9602, 49.1969 ], [ 4.9398, 49.1851 ], [ 4.9519, 49.1744 ], [ 4.9714, 49.1368 ], [ 4.9966, 49.1066 ], [ 4.9964, 49.0882 ], [ 5.0057, 49.0599 ], [ 5.0005, 49.055 ], [ 5.0035, 49.0533 ], [ 4.9654, 49.0214 ], [ 5.0102, 49.0351 ], [ 5.0365, 49.0238 ], [ 5.0388, 49.0107 ], [ 5.0314, 49.0061 ], [ 5.0346, 48.9935 ], [ 5.018, 48.9959 ], [ 5.0047, 48.993 ], [ 5.0023, 48.987 ], [ 4.9938, 48.9842 ], [ 5.0046, 48.9836 ], [ 5.0077, 48.9788 ], [ 5.0162, 48.9815 ], [ 5.0172, 48.9776 ], [ 5.0283, 48.9796 ], [ 5.0395, 48.9739 ], [ 5.0309, 48.9542 ], [ 5.0141, 48.9456 ], [ 5.0141, 48.9374 ], [ 5.0003, 48.9383 ], [ 4.9593, 48.9259 ], [ 4.9507, 48.9309 ], [ 4.9362, 48.9221 ], [ 4.9335, 48.9126 ], [ 4.9188, 48.9056 ], [ 4.9124, 48.8982 ], [ 4.9247, 48.8914 ], [ 4.9117, 48.8687 ], [ 4.9253, 48.864 ], [ 4.9214, 48.8606 ], [ 4.9304, 48.856 ], [ 4.928, 48.85 ], [ 4.9374, 48.8481 ], [ 4.937, 48.8425 ], [ 4.9146, 48.8351 ], [ 4.8889, 48.8169 ], [ 4.8968, 48.8088 ], [ 4.8886, 48.8006 ], [ 4.8952, 48.7961 ], [ 4.9207, 48.7906 ], [ 4.9331, 48.7914 ], [ 4.9378, 48.7865 ], [ 4.9351, 48.7832 ], [ 4.9502, 48.7688 ], [ 4.9723, 48.7576 ], [ 4.9814, 48.7456 ], [ 4.9901, 48.7418 ], [ 5.0092, 48.7414 ], [ 5.0046, 48.7197 ], [ 5.0114, 48.7179 ], [ 5.016, 48.7095 ], [ 5.0118, 48.7067 ], [ 5.0018, 48.7113 ], [ 4.9973, 48.7096 ], [ 5.0064, 48.6991 ], [ 4.9991, 48.6932 ], [ 4.9909, 48.6932 ], [ 4.9884, 48.6844 ], [ 4.9763, 48.6893 ], [ 4.9549, 48.6846 ], [ 4.9515, 48.6887 ], [ 4.9387, 48.6748 ], [ 4.9113, 48.6887 ], [ 4.8949, 48.6781 ], [ 4.8778, 48.6751 ], [ 4.8678, 48.6672 ], [ 4.8499, 48.6677 ], [ 4.8492, 48.6717 ], [ 4.821, 48.6749 ], [ 4.8171, 48.6804 ], [ 4.7983, 48.6775 ], [ 4.7955, 48.6694 ], [ 4.7817, 48.6702 ], [ 4.7719, 48.6519 ], [ 4.8076, 48.6543 ], [ 4.842, 48.6497 ], [ 4.8391, 48.6458 ], [ 4.8536, 48.6348 ], [ 4.8483, 48.6279 ], [ 4.8512, 48.6155 ], [ 4.858, 48.6143 ], [ 4.857, 48.612 ], [ 4.8469, 48.6145 ], [ 4.8396, 48.6113 ], [ 4.8297, 48.6125 ], [ 4.7968, 48.5953 ], [ 4.7848, 48.5995 ], [ 4.7754, 48.5928 ], [ 4.7643, 48.5948 ], [ 4.776, 48.566 ], [ 4.7881, 48.5701 ], [ 4.7963, 48.568 ], [ 4.7828, 48.5542 ], [ 4.7992, 48.5298 ], [ 4.7913, 48.5285 ], [ 4.7809, 48.5331 ], [ 4.718, 48.542 ], [ 4.7073, 48.5371 ], [ 4.6813, 48.535 ], [ 4.6749, 48.5376 ], [ 4.6702, 48.5319 ], [ 4.6665, 48.5378 ], [ 4.651, 48.537 ], [ 4.6463, 48.5423 ], [ 4.6377, 48.5419 ], [ 4.6349, 48.5515 ], [ 4.6423, 48.5522 ], [ 4.6306, 48.5547 ], [ 4.5958, 48.5523 ], [ 4.5906, 48.5478 ], [ 4.5683, 48.5482 ], [ 4.5488, 48.5366 ], [ 4.5454, 48.5252 ], [ 4.5256, 48.5281 ], [ 4.5285, 48.5404 ], [ 4.5212, 48.5399 ], [ 4.522, 48.545 ], [ 4.511, 48.5478 ], [ 4.4939, 48.5387 ], [ 4.4703, 48.5472 ], [ 4.4397, 48.5498 ], [ 4.4092, 48.5588 ], [ 4.3496, 48.5977 ], [ 4.3306, 48.602 ], [ 4.3149, 48.6162 ], [ 4.3344, 48.6325 ], [ 4.3173, 48.6517 ], [ 4.3284, 48.6563 ], [ 4.3228, 48.6638 ], [ 4.3342, 48.6752 ], [ 4.3229, 48.6837 ], [ 4.3282, 48.6932 ], [ 4.3256, 48.7003 ], [ 4.3118, 48.7112 ], [ 4.3078, 48.7089 ], [ 4.2994, 48.7146 ], [ 4.2641, 48.706 ], [ 4.2524, 48.7087 ], [ 4.2431, 48.7167 ], [ 4.233, 48.7023 ], [ 4.1653, 48.7076 ], [ 4.149, 48.7006 ], [ 4.1311, 48.6861 ], [ 4.0798, 48.7011 ], [ 4.065, 48.687 ], [ 4.0628, 48.6821 ], [ 4.069, 48.6792 ], [ 4.0582, 48.6663 ], [ 4.0535, 48.6685 ], [ 4.047, 48.662 ], [ 4.03, 48.6591 ], [ 4.0017, 48.6639 ], [ 3.9847, 48.6534 ], [ 3.9787, 48.6264 ], [ 3.9701, 48.6269 ], [ 3.9684, 48.6317 ], [ 3.9586, 48.6229 ], [ 3.9492, 48.6034 ], [ 3.9208, 48.6064 ], [ 3.9084, 48.6018 ], [ 3.9059, 48.5873 ], [ 3.8972, 48.5797 ], [ 3.9014, 48.5797 ], [ 3.9, 48.5748 ], [ 3.8717, 48.5812 ], [ 3.8633, 48.5783 ], [ 3.8539, 48.5802 ], [ 3.8551, 48.5728 ], [ 3.8636, 48.5721 ], [ 3.865, 48.5682 ], [ 3.8586, 48.5582 ], [ 3.86, 48.5435 ], [ 3.8659, 48.5435 ], [ 3.8656, 48.5379 ], [ 3.8514, 48.5234 ], [ 3.8259, 48.5152 ], [ 3.8026, 48.5235 ], [ 3.798, 48.5291 ], [ 3.7661, 48.5281 ], [ 3.7589, 48.5325 ], [ 3.7416, 48.534 ], [ 3.7384, 48.5383 ], [ 3.7042, 48.5335 ], [ 3.688, 48.54 ], [ 3.6616, 48.5347 ], [ 3.6506, 48.5392 ], [ 3.6436, 48.5363 ], [ 3.644, 48.5407 ], [ 3.6398, 48.5382 ], [ 3.6336, 48.5418 ], [ 3.6287, 48.5623 ], [ 3.6334, 48.5686 ], [ 3.6263, 48.5777 ], [ 3.6212, 48.5802 ], [ 3.6042, 48.5724 ], [ 3.6025, 48.5798 ], [ 3.5927, 48.5876 ], [ 3.5826, 48.5855 ], [ 3.5799, 48.6049 ], [ 3.5626, 48.6026 ], [ 3.5632, 48.6132 ], [ 3.5548, 48.622 ], [ 3.538, 48.6316 ], [ 3.5191, 48.6335 ], [ 3.5174, 48.6372 ], [ 3.5332, 48.6465 ], [ 3.5175, 48.6434 ], [ 3.4929, 48.6476 ], [ 3.4766, 48.6373 ], [ 3.4511, 48.6347 ], [ 3.4604, 48.653 ], [ 3.4406, 48.6636 ], [ 3.4462, 48.6669 ], [ 3.4427, 48.6725 ], [ 3.4476, 48.6773 ], [ 3.4627, 48.6854 ], [ 3.4717, 48.6857 ], [ 3.4726, 48.6979 ], [ 3.4778, 48.6979 ], [ 3.4643, 48.7074 ], [ 3.4697, 48.7379 ], [ 3.4441, 48.7366 ], [ 3.4363, 48.7437 ], [ 3.4366, 48.7532 ], [ 3.4285, 48.7584 ], [ 3.4234, 48.7539 ], [ 3.4091, 48.7523 ], [ 3.3991, 48.755 ], [ 3.3958, 48.7592 ], [ 3.4089, 48.7839 ], [ 3.4241, 48.7841 ], [ 3.4295, 48.7794 ], [ 3.4382, 48.7851 ], [ 3.4419, 48.7824 ], [ 3.444, 48.7914 ], [ 3.4421, 48.8036 ], [ 3.423, 48.8008 ], [ 3.4042, 48.8093 ], [ 3.4166, 48.8178 ], [ 3.4482, 48.8111 ], [ 3.4704, 48.8209 ], [ 3.4809, 48.8122 ], [ 3.4872, 48.8152 ], [ 3.485, 48.825 ], [ 3.4913, 48.8347 ], [ 3.4818, 48.8659 ], [ 3.5019, 48.8719 ], [ 3.5083, 48.8904 ], [ 3.5286, 48.9121 ], [ 3.56, 48.917 ], [ 3.5642, 48.9113 ], [ 3.5707, 48.9149 ], [ 3.5764, 48.9233 ], [ 3.5744, 48.939 ], [ 3.5927, 48.9446 ], [ 3.6025, 48.9439 ], [ 3.6016, 48.9535 ], [ 3.5916, 48.9604 ], [ 3.6009, 48.9663 ], [ 3.6212, 48.966 ], [ 3.6266, 48.9798 ], [ 3.6233, 48.9827 ], [ 3.6399, 49.0041 ], [ 3.6603, 49.0043 ], [ 3.6777, 49.014 ], [ 3.679, 49.0183 ], [ 3.6635, 49.0373 ], [ 3.6501, 49.0428 ], [ 3.6426, 49.037 ], [ 3.6313, 49.0397 ], [ 3.6157, 49.0336 ], [ 3.5876, 49.0338 ], [ 3.5852, 49.0389 ], [ 3.5877, 49.0594 ], [ 3.5999, 49.062 ], [ 3.6091, 49.0731 ], [ 3.6238, 49.0709 ], [ 3.6385, 49.0774 ], [ 3.6118, 49.1181 ], [ 3.6031, 49.1147 ], [ 3.6, 49.1207 ], [ 3.6117, 49.1287 ], [ 3.6096, 49.135 ], [ 3.6206, 49.1392 ], [ 3.6222, 49.1511 ], [ 3.6534, 49.1487 ], [ 3.6873, 49.1542 ], [ 3.698, 49.1498 ], [ 3.7027, 49.1414 ], [ 3.7396, 49.1569 ], [ 3.7488, 49.1571 ], [ 3.7512, 49.1777 ], [ 3.7301, 49.1783 ], [ 3.7254, 49.1735 ], [ 3.7112, 49.1782 ], [ 3.7044, 49.1814 ], [ 3.7069, 49.1859 ], [ 3.6973, 49.1884 ], [ 3.6969, 49.1945 ], [ 3.7049, 49.1986 ], [ 3.6986, 49.2055 ], [ 3.6816, 49.1975 ], [ 3.6761, 49.2009 ], [ 3.6818, 49.2053 ], [ 3.6625, 49.209 ], [ 3.6528, 49.2154 ], [ 3.6563, 49.2184 ], [ 3.6515, 49.2216 ], [ 3.6636, 49.2219 ], [ 3.67, 49.2329 ], [ 3.6781, 49.2353 ], [ 3.6686, 49.2409 ], [ 3.6607, 49.2601 ], [ 3.6539, 49.2542 ], [ 3.6615, 49.27 ], [ 3.6516, 49.2784 ], [ 3.659, 49.2868 ], [ 3.6383, 49.3014 ], [ 3.6435, 49.303 ], [ 3.6439, 49.3127 ], [ 3.6652, 49.3198 ], [ 3.6692, 49.3248 ], [ 3.6891, 49.3269 ], [ 3.7013, 49.3325 ], [ 3.7422, 49.3365 ], [ 3.7411, 49.3476 ], [ 3.7578, 49.3476 ], [ 3.7775, 49.3558 ], [ 3.7797, 49.3519 ], [ 3.8022, 49.3589 ], [ 3.8241, 49.3574 ], [ 3.8241, 49.354 ], [ 3.8528, 49.345 ], [ 3.8587, 49.3541 ], [ 3.8479, 49.3646 ], [ 3.8561, 49.3642 ], [ 3.8526, 49.3657 ], [ 3.8598, 49.3727 ], [ 3.8563, 49.3812 ], [ 3.8599, 49.3861 ], [ 3.8396, 49.391 ], [ 3.8367, 49.3967 ], [ 3.8224, 49.4024 ], [ 3.8463, 49.4006 ], [ 3.8453, 49.4031 ], [ 3.8552, 49.4012 ], [ 3.8696, 49.4067 ], [ 3.8812, 49.4053 ], [ 3.8933, 49.3991 ], [ 3.8957, 49.3928 ], [ 3.9103, 49.3948 ], [ 3.9147, 49.4035 ], [ 3.9252, 49.4076 ], [ 3.9426, 49.3889 ], [ 3.9613, 49.3773 ], [ 3.9949, 49.3779 ], [ 3.9963, 49.3717 ], [ 4.0069, 49.3696 ], [ 4.0127, 49.3583 ], [ 4.0355, 49.3599 ], [ 4.0399, 49.3974 ], [ 4.048, 49.4056 ] ] ] } }
]
}
