{
"type": "FeatureCollection",
"name": "dep58",
"crs": { "type": "name", "properties": { "name": "urn:ogc:def:crs:OGC:1.3:CRS84" } },
"xy_coordinate_resolution": 0.0001,
"features": [
{ "type": "Feature", "properties": { "code": "58", "nom": "Nièvre" }, "geometry": { "type": "Polygon", "coordinates": [ [ [ 2.8885, 47.5094 ], [ 2.8489, 47.5375 ], [ 2.8452, 47.5449 ], [ 2.8602, 47.554 ], [ 2.8627, 47.5463 ], [ 2.8732, 47.5451 ], [ 2.8739, 47.5528 ], [ 2.9049, 47.5562 ], [ 2.9143, 47.566 ], [ 2.9587, 47.5574 ], [ 2.9634, 47.5639 ], [ 2.9778, 47.5696 ], [ 2.9902, 47.5689 ], [ 3.0219, 47.5563 ], [ 3.0346, 47.564 ], [ 3.0607, 47.5695 ], [ 3.0806, 47.5855 ], [ 3.1016, 47.5881 ], [ 3.124, 47.5762 ], [ 3.1162, 47.5692 ], [ 3.123, 47.5394 ], [ 3.1347, 47.5426 ], [ 3.1503, 47.5281 ], [ 3.1617, 47.5247 ], [ 3.1652, 47.5175 ], [ 3.1819, 47.5183 ], [ 3.1856, 47.5254 ], [ 3.1912, 47.5204 ], [ 3.2035, 47.5235 ], [ 3.2115, 47.5121 ], [ 3.225, 47.5048 ], [ 3.2363, 47.4882 ], [ 3.2491, 47.4875 ], [ 3.257, 47.4919 ], [ 3.2755, 47.4908 ], [ 3.2852, 47.5039 ], [ 3.2965, 47.4917 ], [ 3.307, 47.4947 ], [ 3.3269, 47.4831 ], [ 3.3403, 47.4811 ], [ 3.3377, 47.4704 ], [ 3.3465, 47.4697 ], [ 3.3453, 47.4786 ], [ 3.3554, 47.4787 ], [ 3.3702, 47.4884 ], [ 3.3801, 47.4865 ], [ 3.3908, 47.4975 ], [ 3.3904, 47.5091 ], [ 3.4276, 47.5064 ], [ 3.4426, 47.5079 ], [ 3.4462, 47.5117 ], [ 3.4501, 47.5 ], [ 3.4556, 47.5026 ], [ 3.4791, 47.4938 ], [ 3.4883, 47.4938 ], [ 3.495, 47.521 ], [ 3.4915, 47.5363 ], [ 3.4948, 47.5502 ], [ 3.4901, 47.5553 ], [ 3.492, 47.56 ], [ 3.499, 47.5608 ], [ 3.511, 47.5507 ], [ 3.5135, 47.5277 ], [ 3.54, 47.5157 ], [ 3.5524, 47.5024 ], [ 3.5806, 47.4979 ], [ 3.5752, 47.4863 ], [ 3.5801, 47.4786 ], [ 3.5793, 47.4657 ], [ 3.5833, 47.4615 ], [ 3.5882, 47.4623 ], [ 3.5873, 47.4562 ], [ 3.5953, 47.457 ], [ 3.6003, 47.4654 ], [ 3.6156, 47.4667 ], [ 3.6157, 47.4575 ], [ 3.6213, 47.4556 ], [ 3.6342, 47.4561 ], [ 3.6387, 47.4521 ], [ 3.667, 47.4459 ], [ 3.674, 47.4502 ], [ 3.6794, 47.4472 ], [ 3.674, 47.4335 ], [ 3.6839, 47.4339 ], [ 3.7022, 47.4267 ], [ 3.7188, 47.4058 ], [ 3.7167, 47.4032 ], [ 3.7263, 47.3983 ], [ 3.7406, 47.3965 ], [ 3.7601, 47.4021 ], [ 3.7688, 47.4008 ], [ 3.7746, 47.4062 ], [ 3.7842, 47.4053 ], [ 3.781, 47.3962 ], [ 3.7856, 47.3903 ], [ 3.8022, 47.3894 ], [ 3.8166, 47.3786 ], [ 3.8283, 47.3823 ], [ 3.8314, 47.3927 ], [ 3.8199, 47.4022 ], [ 3.8305, 47.4082 ], [ 3.8357, 47.4065 ], [ 3.8344, 47.4013 ], [ 3.8375, 47.4031 ], [ 3.8479, 47.4124 ], [ 3.8524, 47.4353 ], [ 3.867, 47.4346 ], [ 3.8765, 47.4284 ], [ 3.8799, 47.4298 ], [ 3.8813, 47.4232 ], [ 3.8923, 47.4192 ], [ 3.894, 47.4143 ], [ 3.8768, 47.3973 ], [ 3.8663, 47.3981 ], [ 3.8594, 47.3927 ], [ 3.8699, 47.3801 ], [ 3.8721, 47.3658 ], [ 3.8868, 47.3646 ], [ 3.9088, 47.3821 ], [ 3.9442, 47.3802 ], [ 3.9494, 47.3943 ], [ 3.9727, 47.3758 ], [ 3.9617, 47.3665 ], [ 3.9677, 47.363 ], [ 3.9663, 47.3479 ], [ 3.9733, 47.3314 ], [ 4.0021, 47.3106 ], [ 4.0081, 47.3149 ], [ 4.0214, 47.3112 ], [ 4.028, 47.3142 ], [ 4.0283, 47.3249 ], [ 4.0423, 47.3295 ], [ 4.0441, 47.3399 ], [ 4.0602, 47.3412 ], [ 4.0693, 47.3375 ], [ 4.0818, 47.3417 ], [ 4.0946, 47.3369 ], [ 4.1061, 47.3393 ], [ 4.1063, 47.3352 ], [ 4.1127, 47.3342 ], [ 4.13, 47.354 ], [ 4.1421, 47.3558 ], [ 4.1361, 47.3503 ], [ 4.1374, 47.3449 ], [ 4.1249, 47.3359 ], [ 4.1289, 47.3175 ], [ 4.1141, 47.308 ], [ 4.1238, 47.3032 ], [ 4.1339, 47.3063 ], [ 4.1146, 47.2926 ], [ 4.1164, 47.2764 ], [ 4.1252, 47.2736 ], [ 4.1203, 47.2687 ], [ 4.1262, 47.2589 ], [ 4.1256, 47.2475 ], [ 4.136, 47.2376 ], [ 4.1793, 47.2546 ], [ 4.1924, 47.2342 ], [ 4.2215, 47.2197 ], [ 4.2202, 47.214 ], [ 4.227, 47.2107 ], [ 4.232, 47.1988 ], [ 4.2102, 47.18 ], [ 4.2098, 47.1554 ], [ 4.2028, 47.155 ], [ 4.1968, 47.1483 ], [ 4.1851, 47.1526 ], [ 4.1737, 47.1474 ], [ 4.1374, 47.1427 ], [ 4.1151, 47.1462 ], [ 4.1104, 47.1429 ], [ 4.1193, 47.1362 ], [ 4.1146, 47.1349 ], [ 4.1166, 47.1316 ], [ 4.1068, 47.13 ], [ 4.116, 47.1233 ], [ 4.114, 47.1191 ], [ 4.1099, 47.1182 ], [ 4.0949, 47.1276 ], [ 4.0899, 47.1162 ], [ 4.06, 47.1212 ], [ 4.0482, 47.11 ], [ 4.0538, 47.095 ], [ 4.0389, 47.0858 ], [ 4.0385, 47.0805 ], [ 4.0495, 47.076 ], [ 4.0734, 47.0553 ], [ 4.0559, 47.0366 ], [ 4.0617, 47.0234 ], [ 4.0568, 47.0137 ], [ 4.0438, 47.0092 ], [ 4.0323, 46.9988 ], [ 3.9952, 46.9853 ], [ 3.995, 46.9752 ], [ 4.0096, 46.971 ], [ 4.0316, 46.9848 ], [ 4.0394, 46.9851 ], [ 4.0413, 46.9737 ], [ 4.0557, 46.9567 ], [ 4.0396, 46.9481 ], [ 4.0399, 46.9411 ], [ 4.0484, 46.9321 ], [ 4.042, 46.9329 ], [ 4.0365, 46.9278 ], [ 4.0393, 46.9094 ], [ 4.0454, 46.8999 ], [ 4.057, 46.9011 ], [ 4.0701, 46.8961 ], [ 4.0994, 46.8669 ], [ 4.1009, 46.8591 ], [ 4.0562, 46.8433 ], [ 4.0424, 46.8341 ], [ 4.0583, 46.8212 ], [ 4.0627, 46.7894 ], [ 4.0553, 46.7762 ], [ 4.0334, 46.7876 ], [ 4.019, 46.776 ], [ 3.994, 46.7789 ], [ 3.9734, 46.7672 ], [ 3.9677, 46.7691 ], [ 3.9534, 46.7542 ], [ 3.928, 46.7505 ], [ 3.9334, 46.7417 ], [ 3.9235, 46.7385 ], [ 3.9128, 46.742 ], [ 3.9127, 46.7342 ], [ 3.8988, 46.7348 ], [ 3.8873, 46.7272 ], [ 3.8764, 46.7323 ], [ 3.8742, 46.7267 ], [ 3.8445, 46.7226 ], [ 3.8452, 46.7172 ], [ 3.8407, 46.7178 ], [ 3.839, 46.7102 ], [ 3.8327, 46.7097 ], [ 3.8291, 46.7045 ], [ 3.8082, 46.7057 ], [ 3.7973, 46.7015 ], [ 3.7886, 46.7212 ], [ 3.7769, 46.7298 ], [ 3.7815, 46.7299 ], [ 3.7837, 46.7361 ], [ 3.7389, 46.7523 ], [ 3.7014, 46.7466 ], [ 3.6776, 46.7387 ], [ 3.6589, 46.7377 ], [ 3.6486, 46.7426 ], [ 3.6395, 46.7394 ], [ 3.6234, 46.7538 ], [ 3.602, 46.7512 ], [ 3.5978, 46.762 ], [ 3.5927, 46.7631 ], [ 3.5757, 46.7495 ], [ 3.5847, 46.7445 ], [ 3.598, 46.724 ], [ 3.5773, 46.7148 ], [ 3.5759, 46.7229 ], [ 3.5742, 46.7163 ], [ 3.5688, 46.7155 ], [ 3.5481, 46.7223 ], [ 3.5482, 46.7062 ], [ 3.5612, 46.6886 ], [ 3.5465, 46.6783 ], [ 3.5321, 46.6888 ], [ 3.5144, 46.6836 ], [ 3.5112, 46.6756 ], [ 3.4863, 46.6608 ], [ 3.4873, 46.6548 ], [ 3.4818, 46.6507 ], [ 3.477, 46.6535 ], [ 3.4573, 46.6518 ], [ 3.4421, 46.662 ], [ 3.4473, 46.6636 ], [ 3.4453, 46.6708 ], [ 3.4546, 46.6753 ], [ 3.4552, 46.6825 ], [ 3.453, 46.6901 ], [ 3.433, 46.6933 ], [ 3.4284, 46.7008 ], [ 3.4337, 46.7122 ], [ 3.4218, 46.7137 ], [ 3.4172, 46.7103 ], [ 3.3886, 46.7149 ], [ 3.3786, 46.7124 ], [ 3.3771, 46.7018 ], [ 3.3658, 46.6896 ], [ 3.3467, 46.6844 ], [ 3.314, 46.6887 ], [ 3.3025, 46.7039 ], [ 3.3009, 46.7163 ], [ 3.2863, 46.7139 ], [ 3.2698, 46.7167 ], [ 3.26, 46.7077 ], [ 3.2285, 46.6963 ], [ 3.2219, 46.6852 ], [ 3.2044, 46.6788 ], [ 3.1657, 46.6917 ], [ 3.1298, 46.7272 ], [ 3.0843, 46.7374 ], [ 3.0668, 46.7455 ], [ 3.0491, 46.7581 ], [ 3.0372, 46.7734 ], [ 3.032, 46.7974 ], [ 3.0413, 46.813 ], [ 3.0589, 46.8263 ], [ 3.0546, 46.8388 ], [ 3.0695, 46.8531 ], [ 3.067, 46.8818 ], [ 3.061, 46.8982 ], [ 3.05, 46.9077 ], [ 3.0793, 46.9551 ], [ 3.0626, 46.9792 ], [ 3.0752, 47.0293 ], [ 3.0638, 47.0461 ], [ 3.0296, 47.0584 ], [ 3.0193, 47.0682 ], [ 3.0314, 47.0925 ], [ 3.0281, 47.1291 ], [ 3.0166, 47.1409 ], [ 3.0206, 47.1532 ], [ 3.0097, 47.1791 ], [ 2.9789, 47.2296 ], [ 2.9831, 47.2608 ], [ 2.9739, 47.2698 ], [ 2.9392, 47.2866 ], [ 2.9123, 47.3089 ], [ 2.8862, 47.3158 ], [ 2.8766, 47.3219 ], [ 2.8704, 47.3432 ], [ 2.9185, 47.4055 ], [ 2.9199, 47.4212 ], [ 2.9314, 47.4326 ], [ 2.932, 47.4395 ], [ 2.9141, 47.4709 ], [ 2.8985, 47.4816 ], [ 2.8885, 47.5094 ] ] ] } }
]
}
