{
"type": "FeatureCollection",
"name": "dep50",
"crs": { "type": "name", "properties": { "name": "urn:ogc:def:crs:OGC:1.3:CRS84" } },
"xy_coordinate_resolution": 0.0001,
"features": [
{ "type": "Feature", "properties": { "code": "50", "nom": "Manche" }, "geometry": { "type": "MultiPolygon", "coordinates": [ [ [ [ -1.2405, 49.5855 ], [ -1.2489, 49.5883 ], [ -1.2474, 49.5914 ], [ -1.2391, 49.5889 ], [ -1.2405, 49.5855 ] ] ], [ [ [ -1.8418, 48.8756 ], [ -1.8426, 48.8785 ], [ -1.841, 48.8779 ], [ -1.8418, 48.8756 ] ] ], [ [ [ -1.5096, 48.636 ], [ -1.5132, 48.6358 ], [ -1.5111, 48.637 ], [ -1.5096, 48.636 ] ] ], [ [ [ -1.8214, 48.8682 ], [ -1.8326, 48.869 ], [ -1.8387, 48.8778 ], [ -1.8224, 48.872 ], [ -1.8214, 48.8682 ] ] ], [ [ [ -1.766, 48.8718 ], [ -1.7678, 48.8745 ], [ -1.7661, 48.8751 ], [ -1.766, 48.8718 ] ] ], [ [ [ -1.1196, 49.3556 ], [ -1.1133, 49.3267 ], [ -1.1407, 49.306 ], [ -1.1347, 49.2868 ], [ -1.1206, 49.2791 ], [ -1.1239, 49.2743 ], [ -1.1337, 49.2786 ], [ -1.1359, 49.2703 ], [ -1.127, 49.2673 ], [ -1.1265, 49.2717 ], [ -1.1242, 49.2658 ], [ -1.1117, 49.2626 ], [ -1.1041, 49.2524 ], [ -1.0964, 49.2543 ], [ -1.095, 49.2456 ], [ -1.0882, 49.2462 ], [ -1.0782, 49.2339 ], [ -1.0619, 49.2287 ], [ -1.0609, 49.2252 ], [ -1.0503, 49.228 ], [ -1.0484, 49.2204 ], [ -1.0374, 49.2223 ], [ -1.0227, 49.2034 ], [ -1.008, 49.2042 ], [ -1.0073, 49.2011 ], [ -0.9964, 49.2006 ], [ -0.9735, 49.1914 ], [ -0.9544, 49.2002 ], [ -0.9521, 49.2069 ], [ -0.9418, 49.212 ], [ -0.9467, 49.2152 ], [ -0.9408, 49.2182 ], [ -0.9331, 49.2159 ], [ -0.9326, 49.2257 ], [ -0.926, 49.232 ], [ -0.9208, 49.2306 ], [ -0.9245, 49.2294 ], [ -0.9214, 49.2211 ], [ -0.9009, 49.203 ], [ -0.8894, 49.2044 ], [ -0.8873, 49.2015 ], [ -0.9159, 49.1895 ], [ -0.9061, 49.1838 ], [ -0.9161, 49.1844 ], [ -0.9142, 49.1787 ], [ -0.9214, 49.1782 ], [ -0.9259, 49.164 ], [ -0.937, 49.1614 ], [ -0.9499, 49.1677 ], [ -0.9588, 49.1614 ], [ -0.9313, 49.1579 ], [ -0.9409, 49.1525 ], [ -0.933, 49.1461 ], [ -0.9079, 49.1391 ], [ -0.9057, 49.1329 ], [ -0.8866, 49.1294 ], [ -0.8914, 49.1217 ], [ -0.9079, 49.1137 ], [ -0.9134, 49.1149 ], [ -0.9247, 49.1024 ], [ -0.8913, 49.1194 ], [ -0.8857, 49.1151 ], [ -0.8785, 49.1171 ], [ -0.8765, 49.0958 ], [ -0.8806, 49.0907 ], [ -0.8705, 49.0803 ], [ -0.8691, 49.0679 ], [ -0.8767, 49.0552 ], [ -0.8918, 49.0455 ], [ -0.8845, 49.0387 ], [ -0.8697, 49.0392 ], [ -0.8685, 49.034 ], [ -0.8624, 49.0347 ], [ -0.8609, 49.0308 ], [ -0.8626, 49.0264 ], [ -0.8867, 49.0221 ], [ -0.898, 49.0098 ], [ -0.9051, 49.0114 ], [ -0.911, 48.9935 ], [ -0.9424, 48.968 ], [ -0.9595, 48.9648 ], [ -0.9658, 48.9592 ], [ -0.9888, 48.9519 ], [ -0.9931, 48.9415 ], [ -1.0053, 48.9354 ], [ -1.0115, 48.941 ], [ -1.0265, 48.9364 ], [ -1.0321, 48.9381 ], [ -1.0659, 48.9203 ], [ -1.0497, 48.9242 ], [ -1.0398, 48.922 ], [ -1.0198, 48.9274 ], [ -1.0134, 48.9152 ], [ -1.0285, 48.9012 ], [ -1.0492, 48.894 ], [ -1.0592, 48.8773 ], [ -1.0704, 48.8702 ], [ -1.0778, 48.8678 ], [ -1.0905, 48.879 ], [ -1.0985, 48.8761 ], [ -1.0993, 48.8683 ], [ -1.1217, 48.8553 ], [ -1.1212, 48.8482 ], [ -1.1315, 48.8495 ], [ -1.1417, 48.8376 ], [ -1.1497, 48.8346 ], [ -1.1571, 48.8364 ], [ -1.1595, 48.8261 ], [ -1.1282, 48.8169 ], [ -1.1158, 48.8184 ], [ -1.1023, 48.8143 ], [ -1.0912, 48.7931 ], [ -1.0975, 48.7938 ], [ -1.1012, 48.7897 ], [ -1.0825, 48.7778 ], [ -1.0587, 48.7733 ], [ -1.0451, 48.7832 ], [ -1.0127, 48.7718 ], [ -1.0065, 48.7774 ], [ -0.9914, 48.7781 ], [ -0.971, 48.7728 ], [ -0.967, 48.7861 ], [ -0.9613, 48.7845 ], [ -0.9511, 48.7892 ], [ -0.9363, 48.7752 ], [ -0.9192, 48.7698 ], [ -0.917, 48.7725 ], [ -0.9095, 48.7679 ], [ -0.8939, 48.7674 ], [ -0.8826, 48.7562 ], [ -0.8708, 48.7558 ], [ -0.8539, 48.7639 ], [ -0.8325, 48.7652 ], [ -0.8213, 48.7712 ], [ -0.8213, 48.7664 ], [ -0.8341, 48.7613 ], [ -0.8379, 48.7536 ], [ -0.8521, 48.7458 ], [ -0.8509, 48.7322 ], [ -0.8349, 48.7273 ], [ -0.8285, 48.7336 ], [ -0.8177, 48.7311 ], [ -0.8077, 48.7254 ], [ -0.8045, 48.7139 ], [ -0.7903, 48.7041 ], [ -0.7787, 48.7022 ], [ -0.764, 48.6924 ], [ -0.7432, 48.6901 ], [ -0.7347, 48.6855 ], [ -0.7363, 48.6795 ], [ -0.7433, 48.6809 ], [ -0.7455, 48.6763 ], [ -0.7549, 48.6746 ], [ -0.76, 48.6643 ], [ -0.7734, 48.6575 ], [ -0.7621, 48.631 ], [ -0.7422, 48.6273 ], [ -0.7387, 48.6226 ], [ -0.7535, 48.6208 ], [ -0.7517, 48.6013 ], [ -0.7696, 48.5899 ], [ -0.7762, 48.5737 ], [ -0.7742, 48.5627 ], [ -0.7902, 48.5517 ], [ -0.8059, 48.5508 ], [ -0.8271, 48.5305 ], [ -0.847, 48.5216 ], [ -0.8604, 48.5015 ], [ -0.8697, 48.4982 ], [ -0.8814, 48.4993 ], [ -0.8942, 48.4946 ], [ -0.8989, 48.4976 ], [ -0.9092, 48.4967 ], [ -0.9227, 48.5033 ], [ -0.9233, 48.5135 ], [ -0.9554, 48.5173 ], [ -0.9626, 48.5132 ], [ -0.9621, 48.5042 ], [ -0.9714, 48.5007 ], [ -0.9722, 48.4946 ], [ -1.004, 48.4892 ], [ -1.0175, 48.4923 ], [ -1.0232, 48.4988 ], [ -1.0604, 48.5149 ], [ -1.0617, 48.5106 ], [ -1.0728, 48.508 ], [ -1.1037, 48.513 ], [ -1.1163, 48.5215 ], [ -1.1338, 48.5221 ], [ -1.1471, 48.5175 ], [ -1.1699, 48.5311 ], [ -1.1929, 48.5289 ], [ -1.2069, 48.5422 ], [ -1.2064, 48.5388 ], [ -1.2175, 48.5369 ], [ -1.2387, 48.5378 ], [ -1.249, 48.5437 ], [ -1.2723, 48.5339 ], [ -1.2696, 48.5241 ], [ -1.2798, 48.5086 ], [ -1.2876, 48.5095 ], [ -1.3007, 48.499 ], [ -1.3173, 48.4959 ], [ -1.3218, 48.4998 ], [ -1.3275, 48.4981 ], [ -1.3289, 48.4863 ], [ -1.3394, 48.4909 ], [ -1.3494, 48.4817 ], [ -1.3447, 48.4731 ], [ -1.3539, 48.4678 ], [ -1.365, 48.4664 ], [ -1.3799, 48.4561 ], [ -1.3976, 48.462 ], [ -1.4229, 48.4607 ], [ -1.4403, 48.4711 ], [ -1.4351, 48.4774 ], [ -1.4503, 48.4876 ], [ -1.4732, 48.4854 ], [ -1.4819, 48.4868 ], [ -1.4838, 48.491 ], [ -1.49, 48.4894 ], [ -1.4952, 48.5069 ], [ -1.5178, 48.5298 ], [ -1.5159, 48.5379 ], [ -1.5345, 48.5503 ], [ -1.5263, 48.5566 ], [ -1.5267, 48.5657 ], [ -1.5189, 48.5666 ], [ -1.5277, 48.5791 ], [ -1.543, 48.5804 ], [ -1.5372, 48.5988 ], [ -1.5471, 48.6015 ], [ -1.5445, 48.6062 ], [ -1.5661, 48.6143 ], [ -1.5711, 48.6264 ], [ -1.5435, 48.6312 ], [ -1.5281, 48.6295 ], [ -1.5186, 48.6272 ], [ -1.5127, 48.6131 ], [ -1.5109, 48.6188 ], [ -1.4786, 48.6182 ], [ -1.4543, 48.6257 ], [ -1.4487, 48.6235 ], [ -1.4255, 48.6379 ], [ -1.4289, 48.6411 ], [ -1.4249, 48.6436 ], [ -1.4209, 48.6393 ], [ -1.391, 48.6447 ], [ -1.3839, 48.6404 ], [ -1.374, 48.6424 ], [ -1.365, 48.6349 ], [ -1.3517, 48.6312 ], [ -1.3638, 48.6467 ], [ -1.3733, 48.6469 ], [ -1.3799, 48.6515 ], [ -1.3932, 48.6505 ], [ -1.3996, 48.6555 ], [ -1.3984, 48.6641 ], [ -1.3742, 48.6883 ], [ -1.3788, 48.6902 ], [ -1.3768, 48.6863 ], [ -1.4012, 48.674 ], [ -1.4324, 48.6664 ], [ -1.4395, 48.6555 ], [ -1.4458, 48.6548 ], [ -1.4493, 48.67 ], [ -1.4858, 48.6864 ], [ -1.497, 48.6837 ], [ -1.5049, 48.6874 ], [ -1.5293, 48.7301 ], [ -1.5527, 48.7324 ], [ -1.571, 48.7442 ], [ -1.5747, 48.7534 ], [ -1.5678, 48.8026 ], [ -1.5744, 48.8217 ], [ -1.594, 48.8347 ], [ -1.6144, 48.8342 ], [ -1.5848, 48.8489 ], [ -1.5764, 48.8662 ], [ -1.5643, 48.9216 ], [ -1.5532, 48.9342 ], [ -1.5606, 48.9133 ], [ -1.5545, 48.8939 ], [ -1.5499, 48.8964 ], [ -1.5486, 48.9251 ], [ -1.5434, 48.931 ], [ -1.5495, 48.9402 ], [ -1.561, 48.9391 ], [ -1.5625, 48.9453 ], [ -1.5594, 49.0021 ], [ -1.5522, 48.986 ], [ -1.5483, 48.9902 ], [ -1.5572, 49.0108 ], [ -1.5568, 49.0266 ], [ -1.5345, 49.0341 ], [ -1.5088, 49.0191 ], [ -1.5055, 49.0204 ], [ -1.5085, 49.0266 ], [ -1.5426, 49.0413 ], [ -1.5471, 49.0373 ], [ -1.5601, 49.0367 ], [ -1.5695, 49.0317 ], [ -1.577, 49.02 ], [ -1.5762, 49.0004 ], [ -1.5859, 49.0078 ], [ -1.5989, 49.0374 ], [ -1.6021, 49.051 ], [ -1.5965, 49.0674 ], [ -1.6019, 49.0698 ], [ -1.5973, 49.0729 ], [ -1.6089, 49.0828 ], [ -1.6099, 49.0739 ], [ -1.6088, 49.1056 ], [ -1.5947, 49.1319 ], [ -1.5811, 49.1317 ], [ -1.5863, 49.1395 ], [ -1.5926, 49.136 ], [ -1.5958, 49.1428 ], [ -1.6053, 49.2056 ], [ -1.6136, 49.2188 ], [ -1.5989, 49.2172 ], [ -1.5796, 49.2226 ], [ -1.5686, 49.2216 ], [ -1.5864, 49.2339 ], [ -1.6089, 49.2321 ], [ -1.6147, 49.2379 ], [ -1.6258, 49.2233 ], [ -1.6255, 49.2101 ], [ -1.6474, 49.2299 ], [ -1.6613, 49.2597 ], [ -1.6784, 49.2821 ], [ -1.6768, 49.2851 ], [ -1.6747, 49.2801 ], [ -1.6646, 49.2821 ], [ -1.6599, 49.2788 ], [ -1.6574, 49.2818 ], [ -1.6652, 49.2868 ], [ -1.6705, 49.2844 ], [ -1.6853, 49.2885 ], [ -1.7112, 49.3251 ], [ -1.6978, 49.3245 ], [ -1.6746, 49.332 ], [ -1.6924, 49.3298 ], [ -1.6996, 49.3342 ], [ -1.7077, 49.3284 ], [ -1.7172, 49.3292 ], [ -1.7194, 49.325 ], [ -1.7647, 49.3636 ], [ -1.7871, 49.3746 ], [ -1.7752, 49.3748 ], [ -1.7569, 49.3682 ], [ -1.7586, 49.3734 ], [ -1.7699, 49.3752 ], [ -1.7716, 49.38 ], [ -1.7873, 49.3759 ], [ -1.7895, 49.3692 ], [ -1.7962, 49.3725 ], [ -1.8092, 49.3721 ], [ -1.8237, 49.4015 ], [ -1.8268, 49.4529 ], [ -1.8397, 49.4716 ], [ -1.8477, 49.4737 ], [ -1.8482, 49.5037 ], [ -1.8519, 49.51 ], [ -1.8756, 49.515 ], [ -1.8866, 49.5263 ], [ -1.8853, 49.5414 ], [ -1.8579, 49.5514 ], [ -1.839, 49.5764 ], [ -1.8458, 49.6215 ], [ -1.8603, 49.6502 ], [ -1.8724, 49.6573 ], [ -1.8873, 49.6594 ], [ -1.8988, 49.6662 ], [ -1.9178, 49.6658 ], [ -1.9291, 49.672 ], [ -1.9397, 49.6709 ], [ -1.9413, 49.6749 ], [ -1.9469, 49.6745 ], [ -1.9359, 49.6899 ], [ -1.9469, 49.7044 ], [ -1.9435, 49.7141 ], [ -1.9481, 49.7172 ], [ -1.9422, 49.7261 ], [ -1.9261, 49.7271 ], [ -1.9062, 49.7221 ], [ -1.8952, 49.7157 ], [ -1.8965, 49.7116 ], [ -1.8829, 49.7057 ], [ -1.8518, 49.7184 ], [ -1.8505, 49.7135 ], [ -1.8392, 49.7113 ], [ -1.8229, 49.6903 ], [ -1.7903, 49.6871 ], [ -1.7606, 49.6783 ], [ -1.7178, 49.6798 ], [ -1.7009, 49.6699 ], [ -1.6875, 49.6739 ], [ -1.6777, 49.6699 ], [ -1.6831, 49.665 ], [ -1.6724, 49.6576 ], [ -1.6519, 49.6565 ], [ -1.6328, 49.6606 ], [ -1.6155, 49.6582 ], [ -1.6294, 49.6597 ], [ -1.6312, 49.6537 ], [ -1.6235, 49.6445 ], [ -1.6166, 49.6489 ], [ -1.6152, 49.6435 ], [ -1.6134, 49.6488 ], [ -1.6027, 49.6465 ], [ -1.6058, 49.6585 ], [ -1.5999, 49.6607 ], [ -1.5867, 49.651 ], [ -1.5685, 49.6569 ], [ -1.5418, 49.654 ], [ -1.5091, 49.6608 ], [ -1.4925, 49.6704 ], [ -1.4869, 49.6685 ], [ -1.4849, 49.6778 ], [ -1.4726, 49.6864 ], [ -1.4783, 49.6899 ], [ -1.4733, 49.697 ], [ -1.4551, 49.6912 ], [ -1.4366, 49.7017 ], [ -1.371, 49.7073 ], [ -1.3432, 49.7009 ], [ -1.3326, 49.7027 ], [ -1.2897, 49.6923 ], [ -1.2662, 49.6954 ], [ -1.2721, 49.6794 ], [ -1.2592, 49.6734 ], [ -1.262, 49.6682 ], [ -1.2569, 49.6711 ], [ -1.2521, 49.6618 ], [ -1.2391, 49.6536 ], [ -1.2432, 49.6482 ], [ -1.228, 49.623 ], [ -1.2287, 49.6061 ], [ -1.2543, 49.6127 ], [ -1.2664, 49.5925 ], [ -1.2612, 49.5867 ], [ -1.2723, 49.5765 ], [ -1.2721, 49.5707 ], [ -1.2762, 49.5731 ], [ -1.2697, 49.5838 ], [ -1.2852, 49.5872 ], [ -1.2962, 49.5832 ], [ -1.3067, 49.5665 ], [ -1.3064, 49.5389 ], [ -1.2527, 49.4806 ], [ -1.1711, 49.4125 ], [ -1.1617, 49.3918 ], [ -1.1663, 49.3832 ], [ -1.1793, 49.3775 ], [ -1.1775, 49.3649 ], [ -1.164, 49.3667 ], [ -1.1388, 49.3584 ], [ -1.136, 49.354 ], [ -1.1196, 49.3556 ] ] ] ] } }
]
}
