{
"type": "FeatureCollection",
"name": "dep53",
"crs": { "type": "name", "properties": { "name": "urn:ogc:def:crs:OGC:1.3:CRS84" } },
"xy_coordinate_resolution": 0.0001,
"features": [
{ "type": "Feature", "properties": { "code": "53", "nom": "Mayenne" }, "geometry": { "type": "Polygon", "coordinates": [ [ [ -1.0702, 48.5085 ], [ -1.0617, 48.5106 ], [ -1.0604, 48.5149 ], [ -1.0232, 48.4988 ], [ -1.0175, 48.4923 ], [ -1.004, 48.4892 ], [ -0.9722, 48.4946 ], [ -0.9714, 48.5007 ], [ -0.9621, 48.5042 ], [ -0.9626, 48.5132 ], [ -0.9554, 48.5173 ], [ -0.9233, 48.5135 ], [ -0.9227, 48.5033 ], [ -0.9092, 48.4967 ], [ -0.8989, 48.4976 ], [ -0.8942, 48.4946 ], [ -0.8604, 48.5015 ], [ -0.8464, 48.4995 ], [ -0.8325, 48.4794 ], [ -0.8148, 48.4721 ], [ -0.8186, 48.469 ], [ -0.8127, 48.4549 ], [ -0.7992, 48.4589 ], [ -0.7966, 48.4662 ], [ -0.7779, 48.4654 ], [ -0.7798, 48.4461 ], [ -0.7602, 48.4362 ], [ -0.7354, 48.4457 ], [ -0.7151, 48.4489 ], [ -0.7149, 48.4544 ], [ -0.7359, 48.4611 ], [ -0.7311, 48.4728 ], [ -0.715, 48.4692 ], [ -0.705, 48.4756 ], [ -0.6999, 48.4733 ], [ -0.7021, 48.4672 ], [ -0.6918, 48.4681 ], [ -0.6817, 48.471 ], [ -0.6853, 48.4772 ], [ -0.6776, 48.4788 ], [ -0.6746, 48.4849 ], [ -0.6686, 48.4835 ], [ -0.6688, 48.4865 ], [ -0.6624, 48.4839 ], [ -0.6625, 48.4763 ], [ -0.6557, 48.4741 ], [ -0.6597, 48.4691 ], [ -0.6511, 48.444 ], [ -0.6156, 48.4589 ], [ -0.5953, 48.4726 ], [ -0.5733, 48.4688 ], [ -0.5648, 48.4772 ], [ -0.5596, 48.4721 ], [ -0.5517, 48.4731 ], [ -0.5374, 48.4905 ], [ -0.5164, 48.4981 ], [ -0.5169, 48.504 ], [ -0.5097, 48.509 ], [ -0.4933, 48.5018 ], [ -0.4846, 48.5042 ], [ -0.4782, 48.5016 ], [ -0.4689, 48.5083 ], [ -0.4701, 48.5119 ], [ -0.4472, 48.5154 ], [ -0.4386, 48.5117 ], [ -0.4342, 48.5138 ], [ -0.4238, 48.5068 ], [ -0.4091, 48.5056 ], [ -0.3951, 48.5103 ], [ -0.3913, 48.5087 ], [ -0.3933, 48.5011 ], [ -0.3716, 48.4958 ], [ -0.3667, 48.4936 ], [ -0.3682, 48.4879 ], [ -0.3532, 48.4838 ], [ -0.3494, 48.4889 ], [ -0.3558, 48.4957 ], [ -0.3485, 48.5013 ], [ -0.3359, 48.5019 ], [ -0.3359, 48.5093 ], [ -0.3202, 48.5229 ], [ -0.2935, 48.515 ], [ -0.2881, 48.5193 ], [ -0.2854, 48.5068 ], [ -0.2715, 48.5075 ], [ -0.2682, 48.5169 ], [ -0.2745, 48.5178 ], [ -0.2612, 48.5269 ], [ -0.2509, 48.5267 ], [ -0.2413, 48.5367 ], [ -0.2464, 48.5426 ], [ -0.2627, 48.5486 ], [ -0.2464, 48.5584 ], [ -0.2487, 48.5635 ], [ -0.2426, 48.568 ], [ -0.2173, 48.5581 ], [ -0.2081, 48.5641 ], [ -0.1794, 48.5408 ], [ -0.1737, 48.5415 ], [ -0.1446, 48.5278 ], [ -0.1454, 48.5206 ], [ -0.1631, 48.5177 ], [ -0.1725, 48.5105 ], [ -0.1721, 48.5021 ], [ -0.168, 48.5037 ], [ -0.156, 48.4958 ], [ -0.1491, 48.4802 ], [ -0.1535, 48.477 ], [ -0.1473, 48.473 ], [ -0.1506, 48.4651 ], [ -0.1469, 48.4564 ], [ -0.1059, 48.4473 ], [ -0.073, 48.4505 ], [ -0.0705, 48.458 ], [ -0.0513, 48.4529 ], [ -0.0504, 48.4435 ], [ -0.0573, 48.431 ], [ -0.053, 48.425 ], [ -0.0577, 48.4205 ], [ -0.0525, 48.4133 ], [ -0.0578, 48.4087 ], [ -0.0545, 48.382 ], [ -0.0625, 48.3757 ], [ -0.0709, 48.379 ], [ -0.0778, 48.369 ], [ -0.0905, 48.3752 ], [ -0.1122, 48.3742 ], [ -0.1192, 48.3672 ], [ -0.1367, 48.3643 ], [ -0.1319, 48.3431 ], [ -0.1222, 48.3383 ], [ -0.1478, 48.3441 ], [ -0.1571, 48.3409 ], [ -0.1579, 48.3215 ], [ -0.1546, 48.314 ], [ -0.142, 48.3092 ], [ -0.1379, 48.2932 ], [ -0.1498, 48.2853 ], [ -0.1557, 48.2653 ], [ -0.1608, 48.2622 ], [ -0.1673, 48.2635 ], [ -0.161, 48.2388 ], [ -0.1448, 48.224 ], [ -0.1531, 48.2147 ], [ -0.1468, 48.205 ], [ -0.1645, 48.1998 ], [ -0.19, 48.1812 ], [ -0.2299, 48.1694 ], [ -0.2526, 48.1575 ], [ -0.2457, 48.1516 ], [ -0.2377, 48.153 ], [ -0.2374, 48.1474 ], [ -0.2487, 48.1448 ], [ -0.2538, 48.1365 ], [ -0.2391, 48.1359 ], [ -0.2468, 48.1276 ], [ -0.223, 48.1227 ], [ -0.2236, 48.1174 ], [ -0.2164, 48.1137 ], [ -0.2193, 48.1045 ], [ -0.2368, 48.0979 ], [ -0.2374, 48.0829 ], [ -0.2223, 48.0778 ], [ -0.2309, 48.059 ], [ -0.2715, 48.0652 ], [ -0.2843, 48.06 ], [ -0.2799, 48.0553 ], [ -0.304, 48.0512 ], [ -0.3172, 48.0451 ], [ -0.3304, 48.0504 ], [ -0.3417, 48.0431 ], [ -0.3337, 48.028 ], [ -0.3415, 48.0118 ], [ -0.3085, 48.0057 ], [ -0.3134, 47.9941 ], [ -0.3049, 47.99 ], [ -0.3038, 47.9795 ], [ -0.2987, 47.9796 ], [ -0.3017, 47.9655 ], [ -0.2766, 47.9575 ], [ -0.2906, 47.951 ], [ -0.2953, 47.944 ], [ -0.3199, 47.9354 ], [ -0.3313, 47.9381 ], [ -0.3388, 47.9306 ], [ -0.3553, 47.9341 ], [ -0.3614, 47.9298 ], [ -0.3774, 47.9328 ], [ -0.397, 47.9259 ], [ -0.3968, 47.9164 ], [ -0.4052, 47.915 ], [ -0.4047, 47.9209 ], [ -0.4129, 47.9158 ], [ -0.4037, 47.9023 ], [ -0.4102, 47.8947 ], [ -0.3944, 47.8937 ], [ -0.3733, 47.8846 ], [ -0.3692, 47.8703 ], [ -0.3804, 47.8677 ], [ -0.3714, 47.8587 ], [ -0.3781, 47.8549 ], [ -0.3896, 47.8603 ], [ -0.3975, 47.8567 ], [ -0.4124, 47.8575 ], [ -0.411, 47.8466 ], [ -0.4283, 47.8504 ], [ -0.43, 47.8416 ], [ -0.4479, 47.8322 ], [ -0.4287, 47.8062 ], [ -0.4168, 47.8025 ], [ -0.3882, 47.8053 ], [ -0.3754, 47.7672 ], [ -0.3817, 47.7606 ], [ -0.3866, 47.7698 ], [ -0.416, 47.7801 ], [ -0.41, 47.7652 ], [ -0.4283, 47.7676 ], [ -0.4536, 47.7567 ], [ -0.4645, 47.7686 ], [ -0.4848, 47.78 ], [ -0.492, 47.7785 ], [ -0.519, 47.7873 ], [ -0.5228, 47.7823 ], [ -0.5194, 47.7642 ], [ -0.5329, 47.7507 ], [ -0.5632, 47.7576 ], [ -0.5747, 47.753 ], [ -0.5848, 47.7584 ], [ -0.6108, 47.7357 ], [ -0.6282, 47.7381 ], [ -0.6521, 47.7341 ], [ -0.6623, 47.7356 ], [ -0.6686, 47.7412 ], [ -0.6844, 47.7386 ], [ -0.7103, 47.7446 ], [ -0.7157, 47.7408 ], [ -0.7275, 47.7432 ], [ -0.7417, 47.7381 ], [ -0.7434, 47.742 ], [ -0.7474, 47.7391 ], [ -0.7557, 47.7443 ], [ -0.7593, 47.7538 ], [ -0.7834, 47.7502 ], [ -0.7904, 47.7606 ], [ -0.8016, 47.7655 ], [ -0.8112, 47.7643 ], [ -0.8161, 47.7712 ], [ -0.8399, 47.7683 ], [ -0.8393, 47.7523 ], [ -0.8813, 47.7635 ], [ -0.8932, 47.7635 ], [ -0.8952, 47.7744 ], [ -0.9192, 47.7835 ], [ -0.9316, 47.7935 ], [ -0.93, 47.7882 ], [ -0.9349, 47.7856 ], [ -0.952, 47.7965 ], [ -0.9611, 47.7955 ], [ -0.9712, 47.7828 ], [ -0.9673, 47.7794 ], [ -0.9554, 47.7791 ], [ -0.9517, 47.7667 ], [ -0.9754, 47.7658 ], [ -0.98, 47.7615 ], [ -1.0063, 47.7681 ], [ -1.0135, 47.7668 ], [ -1.0233, 47.7726 ], [ -1.0222, 47.7779 ], [ -1.0299, 47.7706 ], [ -1.0415, 47.7709 ], [ -1.0808, 47.7747 ], [ -1.0934, 47.7819 ], [ -1.125, 47.7843 ], [ -1.1396, 47.7821 ], [ -1.137, 47.7752 ], [ -1.1438, 47.7742 ], [ -1.171, 47.7792 ], [ -1.1778, 47.7846 ], [ -1.1932, 47.7858 ], [ -1.1969, 47.7952 ], [ -1.2061, 47.7952 ], [ -1.2136, 47.8029 ], [ -1.2371, 47.8083 ], [ -1.2358, 47.818 ], [ -1.2231, 47.819 ], [ -1.216, 47.8312 ], [ -1.214, 47.8445 ], [ -1.2231, 47.8524 ], [ -1.2158, 47.8575 ], [ -1.2036, 47.8576 ], [ -1.189, 47.867 ], [ -1.197, 47.8778 ], [ -1.1966, 47.8893 ], [ -1.1819, 47.8922 ], [ -1.1762, 47.8974 ], [ -1.1771, 47.9075 ], [ -1.163, 47.9277 ], [ -1.1672, 47.9357 ], [ -1.1595, 47.9392 ], [ -1.1617, 47.952 ], [ -1.1553, 47.9655 ], [ -1.1254, 47.9717 ], [ -1.1248, 47.9868 ], [ -1.1035, 47.989 ], [ -1.0718, 47.9818 ], [ -1.0636, 47.9853 ], [ -1.0503, 47.9845 ], [ -1.0213, 47.9949 ], [ -1.0158, 48.0036 ], [ -1.035, 48.0336 ], [ -1.0264, 48.0456 ], [ -1.0338, 48.0521 ], [ -1.0216, 48.068 ], [ -1.0406, 48.0782 ], [ -1.0498, 48.0904 ], [ -1.0603, 48.1501 ], [ -1.0644, 48.1604 ], [ -1.0739, 48.1593 ], [ -1.0726, 48.1661 ], [ -1.0782, 48.1687 ], [ -1.0748, 48.1719 ], [ -1.0804, 48.1754 ], [ -1.0736, 48.1997 ], [ -1.0873, 48.2093 ], [ -1.0806, 48.2195 ], [ -1.0915, 48.2326 ], [ -1.0896, 48.2391 ], [ -1.102, 48.2625 ], [ -1.0936, 48.2729 ], [ -1.0906, 48.2892 ], [ -1.0592, 48.3121 ], [ -1.045, 48.3282 ], [ -1.06, 48.3492 ], [ -1.0554, 48.3638 ], [ -1.0648, 48.3672 ], [ -1.0539, 48.384 ], [ -1.0687, 48.4055 ], [ -1.0803, 48.414 ], [ -1.0775, 48.4215 ], [ -1.0836, 48.4337 ], [ -1.0796, 48.4436 ], [ -1.0652, 48.4514 ], [ -1.064, 48.4669 ], [ -1.0714, 48.4693 ], [ -1.073, 48.4818 ], [ -1.0788, 48.4816 ], [ -1.07, 48.4855 ], [ -1.0785, 48.4901 ], [ -1.0767, 48.5023 ], [ -1.067, 48.5045 ], [ -1.0702, 48.5085 ] ], [ [ -0.7408, 47.7423 ], [ -0.7428, 47.7417 ], [ -0.7402, 47.7397 ], [ -0.7408, 47.7423 ] ] ] } }
]
}
