{
"type": "FeatureCollection",
"name": "dep54",
"crs": { "type": "name", "properties": { "name": "urn:ogc:def:crs:OGC:1.3:CRS84" } },
"xy_coordinate_resolution": 0.0001,
"features": [
{ "type": "Feature", "properties": { "code": "54", "nom": "Meurthe-et-Moselle" }, "geometry": { "type": "MultiPolygon", "coordinates": [ [ [ [ 5.4525, 49.4123 ], [ 5.4614, 49.4138 ], [ 5.4715, 49.4199 ], [ 5.4709, 49.4128 ], [ 5.4515, 49.4068 ], [ 5.4525, 49.4123 ] ] ], [ [ [ 5.426, 49.4861 ], [ 5.4348, 49.4905 ], [ 5.4343, 49.4971 ], [ 5.442, 49.5036 ], [ 5.471, 49.4869 ], [ 5.4602, 49.488 ], [ 5.4555, 49.4809 ], [ 5.4407, 49.487 ], [ 5.426, 49.4861 ] ] ], [ [ [ 5.4709, 49.4972 ], [ 5.4838, 49.5071 ], [ 5.5019, 49.5068 ], [ 5.5412, 49.5153 ], [ 5.5453, 49.5233 ], [ 5.5561, 49.5292 ], [ 5.5934, 49.5219 ], [ 5.6023, 49.5156 ], [ 5.6036, 49.5087 ], [ 5.611, 49.5059 ], [ 5.6214, 49.5196 ], [ 5.6159, 49.5271 ], [ 5.6203, 49.5332 ], [ 5.6436, 49.5469 ], [ 5.643, 49.55 ], [ 5.6605, 49.5536 ], [ 5.6692, 49.5485 ], [ 5.69, 49.5464 ], [ 5.7021, 49.5393 ], [ 5.7188, 49.5395 ], [ 5.7333, 49.5455 ], [ 5.7386, 49.5387 ], [ 5.7573, 49.5431 ], [ 5.7583, 49.5612 ], [ 5.7714, 49.5633 ], [ 5.792, 49.5517 ], [ 5.8157, 49.5483 ], [ 5.8175, 49.5456 ], [ 5.8082, 49.5426 ], [ 5.8172, 49.537 ], [ 5.837, 49.5425 ], [ 5.8459, 49.53 ], [ 5.8357, 49.5273 ], [ 5.8346, 49.5234 ], [ 5.8486, 49.5144 ], [ 5.8506, 49.5083 ], [ 5.8691, 49.4988 ], [ 5.8934, 49.4969 ], [ 5.8979, 49.4808 ], [ 5.9065, 49.4859 ], [ 5.9128, 49.4818 ], [ 5.9296, 49.4853 ], [ 5.929, 49.4823 ], [ 5.9401, 49.4776 ], [ 5.9317, 49.4716 ], [ 5.9394, 49.4663 ], [ 5.9427, 49.4514 ], [ 5.9309, 49.4463 ], [ 5.9423, 49.4304 ], [ 5.9287, 49.4271 ], [ 5.9119, 49.4077 ], [ 5.9271, 49.4045 ], [ 5.9331, 49.3961 ], [ 5.9359, 49.3787 ], [ 5.9249, 49.373 ], [ 5.9352, 49.3692 ], [ 5.9401, 49.3604 ], [ 5.9561, 49.3616 ], [ 5.963, 49.3465 ], [ 5.9784, 49.3449 ], [ 5.9445, 49.3416 ], [ 5.9414, 49.3354 ], [ 5.9493, 49.3338 ], [ 5.9498, 49.3283 ], [ 5.9637, 49.3191 ], [ 5.9693, 49.3198 ], [ 5.9852, 49.3052 ], [ 5.9971, 49.3142 ], [ 6.0037, 49.3119 ], [ 6.0064, 49.3017 ], [ 6.0001, 49.2776 ], [ 6.0098, 49.2725 ], [ 6.0063, 49.2687 ], [ 6.0105, 49.2664 ], [ 6.0052, 49.2571 ], [ 6.0114, 49.2607 ], [ 6.032, 49.2512 ], [ 6.0251, 49.2426 ], [ 6.0301, 49.2314 ], [ 6.0193, 49.2265 ], [ 6.023, 49.2237 ], [ 6.0096, 49.2218 ], [ 5.9956, 49.2072 ], [ 5.9876, 49.2096 ], [ 5.984, 49.2073 ], [ 5.9883, 49.2015 ], [ 5.9809, 49.2015 ], [ 5.9823, 49.1955 ], [ 5.9786, 49.195 ], [ 5.9814, 49.1868 ], [ 6.0066, 49.1836 ], [ 6.0074, 49.1771 ], [ 6.0132, 49.1778 ], [ 6.0166, 49.172 ], [ 6.0328, 49.1655 ], [ 6.0224, 49.1641 ], [ 6.0099, 49.1529 ], [ 5.9891, 49.1549 ], [ 5.9967, 49.1488 ], [ 5.9814, 49.1444 ], [ 5.9858, 49.136 ], [ 5.9973, 49.1347 ], [ 5.9935, 49.1282 ], [ 5.9871, 49.1283 ], [ 6.0045, 49.112 ], [ 5.9974, 49.1078 ], [ 5.9316, 49.1091 ], [ 5.9248, 49.0919 ], [ 5.9406, 49.0863 ], [ 5.9433, 49.0793 ], [ 5.9339, 49.0753 ], [ 5.9355, 49.0696 ], [ 5.9508, 49.0648 ], [ 5.9582, 49.047 ], [ 5.9674, 49.0471 ], [ 5.9711, 49.041 ], [ 5.9873, 49.0436 ], [ 6.0054, 49.0344 ], [ 6.0147, 49.0371 ], [ 6.0224, 49.0218 ], [ 6.0451, 49.0135 ], [ 6.0424, 49.0038 ], [ 6.0467, 48.9948 ], [ 6.0414, 48.9924 ], [ 6.0449, 48.9831 ], [ 6.0295, 48.9905 ], [ 6.0317, 48.9843 ], [ 6.0458, 48.9767 ], [ 6.0738, 48.9808 ], [ 6.0694, 48.9721 ], [ 6.0813, 48.9631 ], [ 6.1048, 48.9697 ], [ 6.1164, 48.9682 ], [ 6.1134, 48.9634 ], [ 6.126, 48.9567 ], [ 6.1232, 48.9494 ], [ 6.1294, 48.9494 ], [ 6.1298, 48.9462 ], [ 6.1249, 48.9391 ], [ 6.1322, 48.9347 ], [ 6.1496, 48.9332 ], [ 6.1499, 48.9393 ], [ 6.1573, 48.9437 ], [ 6.1715, 48.9442 ], [ 6.169, 48.9385 ], [ 6.1766, 48.9348 ], [ 6.2224, 48.9391 ], [ 6.2241, 48.9272 ], [ 6.2351, 48.9295 ], [ 6.2417, 48.9236 ], [ 6.2552, 48.9312 ], [ 6.2712, 48.9333 ], [ 6.275, 48.9284 ], [ 6.2878, 48.9277 ], [ 6.2884, 48.9163 ], [ 6.3112, 48.9211 ], [ 6.3096, 48.9119 ], [ 6.3268, 48.9073 ], [ 6.3284, 48.9001 ], [ 6.3269, 48.8966 ], [ 6.3091, 48.8922 ], [ 6.298, 48.8811 ], [ 6.31, 48.878 ], [ 6.3117, 48.8638 ], [ 6.3076, 48.8623 ], [ 6.298, 48.8669 ], [ 6.2994, 48.8517 ], [ 6.2897, 48.8509 ], [ 6.2842, 48.8464 ], [ 6.3009, 48.8405 ], [ 6.3064, 48.8333 ], [ 6.3207, 48.8378 ], [ 6.3389, 48.8341 ], [ 6.338, 48.8268 ], [ 6.3279, 48.8252 ], [ 6.317, 48.8307 ], [ 6.3121, 48.8256 ], [ 6.3038, 48.8272 ], [ 6.3011, 48.8242 ], [ 6.307, 48.8212 ], [ 6.333, 48.8227 ], [ 6.3325, 48.8146 ], [ 6.338, 48.8119 ], [ 6.3545, 48.8128 ], [ 6.3545, 48.8085 ], [ 6.3456, 48.804 ], [ 6.3556, 48.7947 ], [ 6.3579, 48.7791 ], [ 6.3706, 48.7846 ], [ 6.3904, 48.7799 ], [ 6.396, 48.7747 ], [ 6.4319, 48.7883 ], [ 6.4443, 48.7786 ], [ 6.4521, 48.78 ], [ 6.4536, 48.7663 ], [ 6.4598, 48.7657 ], [ 6.4654, 48.7698 ], [ 6.4723, 48.7653 ], [ 6.4858, 48.7669 ], [ 6.5119, 48.7545 ], [ 6.505, 48.7525 ], [ 6.5051, 48.7473 ], [ 6.5144, 48.7537 ], [ 6.5347, 48.7489 ], [ 6.5402, 48.7539 ], [ 6.5622, 48.7563 ], [ 6.5743, 48.7394 ], [ 6.5948, 48.7292 ], [ 6.599, 48.7157 ], [ 6.6273, 48.7126 ], [ 6.6386, 48.7011 ], [ 6.6588, 48.708 ], [ 6.6646, 48.7035 ], [ 6.6764, 48.6889 ], [ 6.6698, 48.6866 ], [ 6.6669, 48.668 ], [ 6.6773, 48.6732 ], [ 6.6858, 48.6842 ], [ 6.6944, 48.6796 ], [ 6.6923, 48.6728 ], [ 6.6996, 48.6714 ], [ 6.704, 48.6747 ], [ 6.7156, 48.6675 ], [ 6.7211, 48.67 ], [ 6.7261, 48.6644 ], [ 6.7338, 48.6631 ], [ 6.7404, 48.6687 ], [ 6.7502, 48.6664 ], [ 6.7599, 48.6698 ], [ 6.7573, 48.6638 ], [ 6.764, 48.6521 ], [ 6.778, 48.6538 ], [ 6.7741, 48.6479 ], [ 6.7825, 48.6427 ], [ 6.8105, 48.6474 ], [ 6.8366, 48.6431 ], [ 6.844, 48.6261 ], [ 6.854, 48.6214 ], [ 6.893, 48.6251 ], [ 6.9102, 48.6203 ], [ 6.9182, 48.6248 ], [ 6.9197, 48.6338 ], [ 6.93, 48.6356 ], [ 6.945, 48.6188 ], [ 6.9397, 48.6151 ], [ 6.9509, 48.6109 ], [ 6.9608, 48.6083 ], [ 6.9858, 48.613 ], [ 6.9997, 48.608 ], [ 7.0098, 48.6117 ], [ 7.0172, 48.6078 ], [ 7.0167, 48.604 ], [ 6.993, 48.5965 ], [ 6.9933, 48.5934 ], [ 7.0095, 48.5883 ], [ 7.0192, 48.58 ], [ 7.0342, 48.5804 ], [ 7.0357, 48.5742 ], [ 7.0429, 48.5717 ], [ 7.0441, 48.5621 ], [ 7.0533, 48.5581 ], [ 7.0539, 48.5519 ], [ 7.0839, 48.5453 ], [ 7.0836, 48.5413 ], [ 7.0563, 48.539 ], [ 7.0794, 48.5364 ], [ 7.0645, 48.5234 ], [ 7.0709, 48.5223 ], [ 7.0807, 48.5125 ], [ 7.0833, 48.5159 ], [ 7.0967, 48.5152 ], [ 7.1022, 48.5187 ], [ 7.1102, 48.5139 ], [ 7.1232, 48.5136 ], [ 7.094, 48.5129 ], [ 7.0652, 48.4991 ], [ 7.0236, 48.4909 ], [ 7.0064, 48.481 ], [ 6.9798, 48.4785 ], [ 6.8915, 48.4178 ], [ 6.8779, 48.4169 ], [ 6.8784, 48.4199 ], [ 6.871, 48.4201 ], [ 6.8646, 48.4367 ], [ 6.855, 48.4329 ], [ 6.8494, 48.424 ], [ 6.8283, 48.4166 ], [ 6.8138, 48.3963 ], [ 6.794, 48.4034 ], [ 6.7824, 48.3918 ], [ 6.789, 48.4025 ], [ 6.767, 48.3991 ], [ 6.761, 48.4062 ], [ 6.7648, 48.4119 ], [ 6.7393, 48.4118 ], [ 6.7363, 48.4169 ], [ 6.7221, 48.4162 ], [ 6.7141, 48.4229 ], [ 6.6995, 48.4131 ], [ 6.6694, 48.4261 ], [ 6.6451, 48.4274 ], [ 6.6483, 48.4339 ], [ 6.636, 48.4489 ], [ 6.6388, 48.4639 ], [ 6.6354, 48.4705 ], [ 6.6237, 48.4731 ], [ 6.585, 48.4605 ], [ 6.5742, 48.4427 ], [ 6.5672, 48.4409 ], [ 6.5675, 48.4332 ], [ 6.5739, 48.4332 ], [ 6.5839, 48.4172 ], [ 6.5754, 48.4143 ], [ 6.5671, 48.4208 ], [ 6.5337, 48.4314 ], [ 6.5008, 48.4142 ], [ 6.4914, 48.4173 ], [ 6.471, 48.4092 ], [ 6.4573, 48.4175 ], [ 6.4355, 48.4128 ], [ 6.4224, 48.4073 ], [ 6.4117, 48.3924 ], [ 6.4041, 48.3906 ], [ 6.4, 48.3962 ], [ 6.3888, 48.3909 ], [ 6.3843, 48.3947 ], [ 6.3929, 48.4088 ], [ 6.3834, 48.4066 ], [ 6.3812, 48.415 ], [ 6.354, 48.4039 ], [ 6.3313, 48.4048 ], [ 6.3077, 48.4117 ], [ 6.298, 48.4345 ], [ 6.2916, 48.4281 ], [ 6.2828, 48.43 ], [ 6.2807, 48.4234 ], [ 6.2703, 48.4261 ], [ 6.2604, 48.4064 ], [ 6.2444, 48.4053 ], [ 6.2333, 48.3971 ], [ 6.2321, 48.4002 ], [ 6.2175, 48.4016 ], [ 6.191, 48.3954 ], [ 6.1784, 48.3976 ], [ 6.1847, 48.4083 ], [ 6.182, 48.412 ], [ 6.1736, 48.4055 ], [ 6.1501, 48.4095 ], [ 6.1471, 48.4042 ], [ 6.1513, 48.3965 ], [ 6.1473, 48.3946 ], [ 6.1535, 48.3873 ], [ 6.1523, 48.381 ], [ 6.1361, 48.3651 ], [ 6.1316, 48.3629 ], [ 6.1251, 48.3673 ], [ 6.117, 48.3538 ], [ 6.103, 48.3547 ], [ 6.0978, 48.3617 ], [ 6.0929, 48.3612 ], [ 6.0989, 48.369 ], [ 6.0904, 48.3826 ], [ 6.0861, 48.3828 ], [ 6.0691, 48.3753 ], [ 6.0776, 48.3748 ], [ 6.08, 48.3672 ], [ 6.0715, 48.3598 ], [ 6.0599, 48.3605 ], [ 6.051, 48.3661 ], [ 6.043, 48.3604 ], [ 6.0392, 48.3631 ], [ 6.0246, 48.3569 ], [ 6.0205, 48.3614 ], [ 6.0036, 48.3629 ], [ 6.0055, 48.3582 ], [ 6.0015, 48.3605 ], [ 5.9804, 48.349 ], [ 5.9718, 48.3528 ], [ 5.9592, 48.3504 ], [ 5.9535, 48.3579 ], [ 5.9565, 48.3673 ], [ 5.9492, 48.369 ], [ 5.9538, 48.3738 ], [ 5.9446, 48.3758 ], [ 5.9549, 48.3873 ], [ 5.9507, 48.3954 ], [ 5.9338, 48.4034 ], [ 5.9349, 48.3958 ], [ 5.9277, 48.3937 ], [ 5.9187, 48.4052 ], [ 5.9049, 48.4004 ], [ 5.9119, 48.4057 ], [ 5.9075, 48.4192 ], [ 5.9153, 48.4278 ], [ 5.9249, 48.4218 ], [ 5.9313, 48.434 ], [ 5.9236, 48.4363 ], [ 5.898, 48.4359 ], [ 5.9091, 48.4292 ], [ 5.8952, 48.4053 ], [ 5.8786, 48.405 ], [ 5.8736, 48.4012 ], [ 5.8707, 48.406 ], [ 5.8554, 48.4094 ], [ 5.885, 48.4393 ], [ 5.899, 48.4467 ], [ 5.8869, 48.4539 ], [ 5.8924, 48.4644 ], [ 5.8856, 48.4692 ], [ 5.9036, 48.4802 ], [ 5.8988, 48.4854 ], [ 5.9058, 48.4946 ], [ 5.8882, 48.494 ], [ 5.8703, 48.4996 ], [ 5.8624, 48.5066 ], [ 5.8483, 48.5044 ], [ 5.8461, 48.5068 ], [ 5.8264, 48.4967 ], [ 5.8108, 48.4983 ], [ 5.787, 48.4829 ], [ 5.7651, 48.4965 ], [ 5.7618, 48.512 ], [ 5.7665, 48.5356 ], [ 5.7744, 48.5358 ], [ 5.7763, 48.5411 ], [ 5.7464, 48.552 ], [ 5.7297, 48.5532 ], [ 5.7137, 48.5665 ], [ 5.7192, 48.5917 ], [ 5.7449, 48.5976 ], [ 5.7523, 48.6065 ], [ 5.7633, 48.6095 ], [ 5.7899, 48.6072 ], [ 5.8032, 48.625 ], [ 5.7928, 48.6289 ], [ 5.7721, 48.6203 ], [ 5.7584, 48.6213 ], [ 5.7609, 48.6316 ], [ 5.743, 48.6527 ], [ 5.7474, 48.6771 ], [ 5.7646, 48.7011 ], [ 5.7529, 48.7081 ], [ 5.7553, 48.7144 ], [ 5.742, 48.715 ], [ 5.7462, 48.7167 ], [ 5.7434, 48.7191 ], [ 5.719, 48.7329 ], [ 5.7257, 48.7374 ], [ 5.714, 48.7445 ], [ 5.7258, 48.7527 ], [ 5.7324, 48.7487 ], [ 5.7389, 48.7547 ], [ 5.7419, 48.7528 ], [ 5.7454, 48.7592 ], [ 5.7343, 48.7614 ], [ 5.7365, 48.7703 ], [ 5.7677, 48.7901 ], [ 5.7765, 48.7901 ], [ 5.778, 48.7991 ], [ 5.7624, 48.7939 ], [ 5.7572, 48.7998 ], [ 5.7688, 48.8044 ], [ 5.7757, 48.8151 ], [ 5.773, 48.822 ], [ 5.78, 48.8243 ], [ 5.7822, 48.8323 ], [ 5.7735, 48.8514 ], [ 5.7774, 48.8548 ], [ 5.7685, 48.8608 ], [ 5.7644, 48.8725 ], [ 5.7866, 48.8782 ], [ 5.7911, 48.8866 ], [ 5.7666, 48.8969 ], [ 5.7577, 48.913 ], [ 5.7476, 48.9173 ], [ 5.7549, 48.9231 ], [ 5.7788, 48.9251 ], [ 5.784, 48.9289 ], [ 5.7767, 48.9316 ], [ 5.7798, 48.9343 ], [ 5.787, 48.9327 ], [ 5.7953, 48.9449 ], [ 5.804, 48.9471 ], [ 5.8171, 48.9425 ], [ 5.8338, 48.9443 ], [ 5.8345, 48.9507 ], [ 5.8473, 48.9518 ], [ 5.8503, 48.9574 ], [ 5.8324, 48.9696 ], [ 5.8345, 48.9757 ], [ 5.82, 48.9768 ], [ 5.8009, 48.9859 ], [ 5.8167, 49.0017 ], [ 5.8281, 49.0062 ], [ 5.8148, 49.0083 ], [ 5.8305, 49.0325 ], [ 5.8503, 49.0379 ], [ 5.8542, 49.0424 ], [ 5.8364, 49.0548 ], [ 5.8361, 49.0661 ], [ 5.8072, 49.0609 ], [ 5.8051, 49.0645 ], [ 5.8128, 49.0831 ], [ 5.827, 49.0899 ], [ 5.8181, 49.0946 ], [ 5.8162, 49.1027 ], [ 5.822, 49.1084 ], [ 5.7838, 49.1126 ], [ 5.7774, 49.1116 ], [ 5.7726, 49.1053 ], [ 5.7566, 49.1122 ], [ 5.7469, 49.1246 ], [ 5.755, 49.1279 ], [ 5.7534, 49.1337 ], [ 5.7718, 49.1398 ], [ 5.756, 49.1424 ], [ 5.7601, 49.1528 ], [ 5.7445, 49.1573 ], [ 5.7658, 49.1975 ], [ 5.7596, 49.2016 ], [ 5.7251, 49.1957 ], [ 5.7269, 49.2023 ], [ 5.719, 49.216 ], [ 5.7406, 49.2301 ], [ 5.7209, 49.2477 ], [ 5.7304, 49.2569 ], [ 5.723, 49.2643 ], [ 5.7246, 49.2687 ], [ 5.7477, 49.2746 ], [ 5.7522, 49.2799 ], [ 5.7614, 49.279 ], [ 5.7693, 49.3034 ], [ 5.763, 49.3165 ], [ 5.7478, 49.3095 ], [ 5.7336, 49.31 ], [ 5.7291, 49.3216 ], [ 5.7233, 49.3217 ], [ 5.7197, 49.3306 ], [ 5.7376, 49.3397 ], [ 5.7392, 49.3543 ], [ 5.721, 49.3654 ], [ 5.7127, 49.3635 ], [ 5.716, 49.3706 ], [ 5.7082, 49.3766 ], [ 5.7078, 49.3841 ], [ 5.6873, 49.3937 ], [ 5.6951, 49.3989 ], [ 5.6913, 49.4163 ], [ 5.6813, 49.4142 ], [ 5.6751, 49.4215 ], [ 5.6496, 49.4282 ], [ 5.6466, 49.4334 ], [ 5.6367, 49.4336 ], [ 5.6346, 49.4374 ], [ 5.6158, 49.4305 ], [ 5.6172, 49.4208 ], [ 5.6148, 49.4257 ], [ 5.6057, 49.42 ], [ 5.5989, 49.4237 ], [ 5.5837, 49.4179 ], [ 5.5704, 49.4234 ], [ 5.5291, 49.4074 ], [ 5.5055, 49.4058 ], [ 5.5, 49.4088 ], [ 5.494, 49.404 ], [ 5.4986, 49.3997 ], [ 5.4949, 49.3911 ], [ 5.4803, 49.3823 ], [ 5.474, 49.389 ], [ 5.4759, 49.3969 ], [ 5.4655, 49.3954 ], [ 5.4475, 49.4024 ], [ 5.4729, 49.4107 ], [ 5.476, 49.4036 ], [ 5.4973, 49.4078 ], [ 5.5082, 49.4213 ], [ 5.5026, 49.4246 ], [ 5.4902, 49.4221 ], [ 5.4876, 49.4274 ], [ 5.4716, 49.4271 ], [ 5.4801, 49.4324 ], [ 5.4777, 49.4367 ], [ 5.4874, 49.4481 ], [ 5.4663, 49.4495 ], [ 5.4612, 49.4539 ], [ 5.4712, 49.4609 ], [ 5.4653, 49.463 ], [ 5.4692, 49.4654 ], [ 5.4643, 49.4712 ], [ 5.4695, 49.4806 ], [ 5.4631, 49.4819 ], [ 5.4736, 49.4826 ], [ 5.483, 49.4945 ], [ 5.4709, 49.4972 ] ] ] ] } }
]
}
