{
"type": "FeatureCollection",
"name": "dep59",
"crs": { "type": "name", "properties": { "name": "urn:ogc:def:crs:OGC:1.3:CRS84" } },
"xy_coordinate_resolution": 0.0001,
"features": [
{ "type": "Feature", "properties": { "code": "59", "nom": "Nord" }, "geometry": { "type": "MultiPolygon", "coordinates": [ [ [ [ 3.0404, 50.1597 ], [ 3.0501, 50.166 ], [ 3.0607, 50.167 ], [ 3.0596, 50.1741 ], [ 3.0901, 50.1718 ], [ 3.0949, 50.1637 ], [ 3.0843, 50.1535 ], [ 3.0755, 50.1534 ], [ 3.0681, 50.1473 ], [ 3.0735, 50.1316 ], [ 3.0673, 50.1287 ], [ 3.0538, 50.1326 ], [ 3.045, 50.1289 ], [ 3.037, 50.1303 ], [ 3.0252, 50.1161 ], [ 3.0106, 50.1128 ], [ 2.9993, 50.1188 ], [ 3.0031, 50.1301 ], [ 2.9935, 50.137 ], [ 3.0044, 50.1503 ], [ 3.0083, 50.1474 ], [ 3.0132, 50.1531 ], [ 3.0403, 50.1517 ], [ 3.0404, 50.1597 ] ] ], [ [ [ 2.0677, 51.0065 ], [ 2.0845, 51.0086 ], [ 2.0932, 51.0042 ], [ 2.103, 51.006 ], [ 2.1221, 50.9905 ], [ 2.1081, 51.0042 ], [ 2.1259, 51.0155 ], [ 2.1424, 51.0224 ], [ 2.1328, 51.0148 ], [ 2.1446, 51.021 ], [ 2.1485, 51.034 ], [ 2.153, 51.0199 ], [ 2.1679, 51.0221 ], [ 2.1774, 51.0152 ], [ 2.1709, 51.0133 ], [ 2.1774, 51.0068 ], [ 2.1789, 51.016 ], [ 2.1902, 51.018 ], [ 2.1751, 51.0233 ], [ 2.1936, 51.0278 ], [ 2.1952, 51.0366 ], [ 2.1912, 51.0403 ], [ 2.1819, 51.0399 ], [ 2.1714, 51.0443 ], [ 2.1952, 51.0403 ], [ 2.2031, 51.0322 ], [ 2.214, 51.0317 ], [ 2.3495, 51.0606 ], [ 2.3694, 51.0503 ], [ 2.3811, 51.0486 ], [ 2.4247, 51.0556 ], [ 2.5455, 51.089 ], [ 2.5629, 51.0646 ], [ 2.576, 51.0138 ], [ 2.5714, 51.0102 ], [ 2.574, 51.0035 ], [ 2.5925, 50.9929 ], [ 2.6069, 50.9909 ], [ 2.6107, 50.9736 ], [ 2.6327, 50.946 ], [ 2.6177, 50.9413 ], [ 2.6175, 50.9343 ], [ 2.59, 50.9191 ], [ 2.5941, 50.9144 ], [ 2.6041, 50.9161 ], [ 2.6079, 50.9101 ], [ 2.6048, 50.8861 ], [ 2.6119, 50.8634 ], [ 2.5991, 50.8487 ], [ 2.6154, 50.8483 ], [ 2.6163, 50.8397 ], [ 2.6256, 50.8366 ], [ 2.635, 50.8128 ], [ 2.6576, 50.8137 ], [ 2.6693, 50.8225 ], [ 2.6788, 50.8133 ], [ 2.7127, 50.8152 ], [ 2.7239, 50.8101 ], [ 2.7258, 50.7925 ], [ 2.7386, 50.7806 ], [ 2.7498, 50.7786 ], [ 2.7622, 50.7708 ], [ 2.757, 50.7631 ], [ 2.7642, 50.7614 ], [ 2.766, 50.7545 ], [ 2.7834, 50.7509 ], [ 2.7896, 50.7263 ], [ 2.8195, 50.7154 ], [ 2.8484, 50.7229 ], [ 2.8702, 50.7029 ], [ 2.8857, 50.7066 ], [ 2.8984, 50.6942 ], [ 2.9061, 50.6923 ], [ 2.9109, 50.6945 ], [ 2.9097, 50.7027 ], [ 2.9223, 50.7028 ], [ 2.9299, 50.7104 ], [ 2.9316, 50.7282 ], [ 2.9452, 50.7316 ], [ 2.9374, 50.7428 ], [ 2.9505, 50.7513 ], [ 2.9583, 50.7535 ], [ 2.962, 50.75 ], [ 2.9734, 50.7503 ], [ 3.0121, 50.7691 ], [ 3.0147, 50.774 ], [ 3.0339, 50.7697 ], [ 3.0569, 50.7806 ], [ 3.0887, 50.7734 ], [ 3.1046, 50.7818 ], [ 3.1109, 50.7941 ], [ 3.125, 50.7864 ], [ 3.1508, 50.7901 ], [ 3.154, 50.7792 ], [ 3.1817, 50.7525 ], [ 3.1878, 50.7401 ], [ 3.1991, 50.7347 ], [ 3.1912, 50.7244 ], [ 3.2084, 50.7187 ], [ 3.2051, 50.7124 ], [ 3.2206, 50.7095 ], [ 3.2457, 50.7132 ], [ 3.2509, 50.7054 ], [ 3.2612, 50.7013 ], [ 3.2612, 50.6914 ], [ 3.2537, 50.6889 ], [ 3.2648, 50.6761 ], [ 3.2413, 50.6687 ], [ 3.2401, 50.6586 ], [ 3.2494, 50.6469 ], [ 3.2442, 50.6405 ], [ 3.259, 50.63 ], [ 3.2552, 50.6226 ], [ 3.27, 50.6116 ], [ 3.2745, 50.5967 ], [ 3.2795, 50.5956 ], [ 3.2762, 50.5817 ], [ 3.2826, 50.5752 ], [ 3.2779, 50.5643 ], [ 3.2854, 50.5617 ], [ 3.276, 50.5585 ], [ 3.2828, 50.5518 ], [ 3.2787, 50.5514 ], [ 3.2791, 50.538 ], [ 3.2887, 50.5255 ], [ 3.3208, 50.5187 ], [ 3.3289, 50.5081 ], [ 3.3615, 50.5038 ], [ 3.3762, 50.4911 ], [ 3.3917, 50.4984 ], [ 3.3961, 50.4964 ], [ 3.4294, 50.5047 ], [ 3.4351, 50.5097 ], [ 3.4501, 50.5072 ], [ 3.4537, 50.5192 ], [ 3.4744, 50.5336 ], [ 3.4911, 50.528 ], [ 3.5043, 50.5297 ], [ 3.5199, 50.5233 ], [ 3.5156, 50.5122 ], [ 3.4963, 50.4987 ], [ 3.501, 50.487 ], [ 3.5223, 50.495 ], [ 3.5386, 50.4945 ], [ 3.5689, 50.501 ], [ 3.5853, 50.4905 ], [ 3.6084, 50.4967 ], [ 3.6324, 50.4799 ], [ 3.6436, 50.4632 ], [ 3.6544, 50.4631 ], [ 3.6623, 50.4562 ], [ 3.6593, 50.445 ], [ 3.6692, 50.4386 ], [ 3.6748, 50.4019 ], [ 3.673, 50.3879 ], [ 3.6572, 50.3693 ], [ 3.666, 50.3638 ], [ 3.6646, 50.3485 ], [ 3.6774, 50.3403 ], [ 3.6748, 50.333 ], [ 3.694, 50.3215 ], [ 3.6928, 50.3188 ], [ 3.6854, 50.3196 ], [ 3.7104, 50.3032 ], [ 3.7197, 50.3048 ], [ 3.7091, 50.319 ], [ 3.7186, 50.3175 ], [ 3.7211, 50.3113 ], [ 3.7306, 50.3101 ], [ 3.7302, 50.33 ], [ 3.7341, 50.33 ], [ 3.7392, 50.3477 ], [ 3.7474, 50.3509 ], [ 3.7635, 50.3481 ], [ 3.767, 50.3532 ], [ 3.7988, 50.3513 ], [ 3.8055, 50.3557 ], [ 3.8137, 50.3532 ], [ 3.8117, 50.3449 ], [ 3.8155, 50.3448 ], [ 3.8241, 50.3478 ], [ 3.8242, 50.3534 ], [ 3.8474, 50.3531 ], [ 3.8574, 50.3483 ], [ 3.8574, 50.3429 ], [ 3.8723, 50.3379 ], [ 3.8876, 50.3411 ], [ 3.8861, 50.3271 ], [ 3.9, 50.3273 ], [ 3.9679, 50.3504 ], [ 3.9658, 50.3413 ], [ 3.9723, 50.3477 ], [ 3.986, 50.3421 ], [ 3.9936, 50.3487 ], [ 4.0171, 50.3521 ], [ 4.0174, 50.3566 ], [ 4.0237, 50.3589 ], [ 4.0395, 50.3415 ], [ 4.055, 50.3386 ], [ 4.0558, 50.3324 ], [ 4.0652, 50.3306 ], [ 4.0776, 50.321 ], [ 4.0789, 50.3098 ], [ 4.0972, 50.3132 ], [ 4.1097, 50.3018 ], [ 4.1171, 50.3041 ], [ 4.1252, 50.2892 ], [ 4.1216, 50.2777 ], [ 4.1247, 50.2733 ], [ 4.1367, 50.2743 ], [ 4.1354, 50.2572 ], [ 4.1676, 50.2597 ], [ 4.1639, 50.2715 ], [ 4.1496, 50.2747 ], [ 4.1627, 50.2889 ], [ 4.1767, 50.2844 ], [ 4.1768, 50.2757 ], [ 4.208, 50.273 ], [ 4.2219, 50.257 ], [ 4.2207, 50.2522 ], [ 4.2043, 50.24 ], [ 4.1939, 50.2403 ], [ 4.1817, 50.2316 ], [ 4.1717, 50.2169 ], [ 4.1516, 50.2135 ], [ 4.1608, 50.1978 ], [ 4.1481, 50.1734 ], [ 4.1558, 50.172 ], [ 4.1557, 50.1643 ], [ 4.1377, 50.1516 ], [ 4.1269, 50.135 ], [ 4.1549, 50.1284 ], [ 4.1575, 50.1355 ], [ 4.197, 50.1353 ], [ 4.2034, 50.1212 ], [ 4.1976, 50.107 ], [ 4.2064, 50.106 ], [ 4.2012, 50.1008 ], [ 4.2249, 50.0856 ], [ 4.2311, 50.0713 ], [ 4.2178, 50.0608 ], [ 4.1985, 50.0564 ], [ 4.194, 50.0492 ], [ 4.1739, 50.0456 ], [ 4.1622, 50.049 ], [ 4.1443, 50.0307 ], [ 4.1358, 50.0134 ], [ 4.1457, 50.0039 ], [ 4.1621, 50.0004 ], [ 4.1631, 49.9948 ], [ 4.1545, 49.9848 ], [ 4.1338, 49.9761 ], [ 4.0843, 49.9693 ], [ 4.0837, 49.979 ], [ 4.0567, 49.9854 ], [ 4.0342, 49.9858 ], [ 4.0311, 49.9821 ], [ 4.0216, 49.9861 ], [ 4.0117, 49.9855 ], [ 4.0054, 49.9961 ], [ 3.9808, 49.9936 ], [ 3.9795, 50.003 ], [ 3.9955, 50.0277 ], [ 3.9895, 50.0414 ], [ 3.9823, 50.0444 ], [ 3.9501, 50.0271 ], [ 3.9443, 50.0302 ], [ 3.9235, 50.0264 ], [ 3.8874, 50.0095 ], [ 3.8897, 50.0226 ], [ 3.8783, 50.0279 ], [ 3.8872, 50.0304 ], [ 3.875, 50.0366 ], [ 3.8487, 50.0391 ], [ 3.8355, 50.0483 ], [ 3.8158, 50.039 ], [ 3.7992, 50.0481 ], [ 3.7779, 50.046 ], [ 3.7744, 50.0505 ], [ 3.7466, 50.0528 ], [ 3.7152, 50.0693 ], [ 3.6608, 50.052 ], [ 3.658, 50.0445 ], [ 3.6486, 50.0426 ], [ 3.6623, 50.0391 ], [ 3.6598, 50.0297 ], [ 3.6417, 50.0387 ], [ 3.6141, 50.025 ], [ 3.594, 50.0441 ], [ 3.5672, 50.0533 ], [ 3.5414, 50.0552 ], [ 3.5432, 50.046 ], [ 3.532, 50.0458 ], [ 3.5252, 50.0361 ], [ 3.5071, 50.0358 ], [ 3.4907, 50.0189 ], [ 3.4282, 50.0221 ], [ 3.421, 50.029 ], [ 3.4135, 50.0257 ], [ 3.3989, 50.0348 ], [ 3.3889, 50.0307 ], [ 3.3774, 50.0367 ], [ 3.3521, 50.0358 ], [ 3.3508, 50.0272 ], [ 3.3421, 50.0265 ], [ 3.3371, 50.0171 ], [ 3.3279, 50.0158 ], [ 3.3131, 50.02 ], [ 3.2859, 50.0138 ], [ 3.2777, 50.0143 ], [ 3.2734, 50.0204 ], [ 3.2782, 50.0218 ], [ 3.271, 50.0294 ], [ 3.2581, 50.032 ], [ 3.2582, 50.0244 ], [ 3.2443, 50.0308 ], [ 3.2344, 50.0278 ], [ 3.2273, 50.0325 ], [ 3.209, 50.0197 ], [ 3.173, 50.0113 ], [ 3.167, 50.021 ], [ 3.1471, 50.0181 ], [ 3.1499, 50.0273 ], [ 3.1331, 50.0242 ], [ 3.1191, 50.0262 ], [ 3.1164, 50.0378 ], [ 3.0904, 50.0473 ], [ 3.093, 50.052 ], [ 3.0842, 50.0557 ], [ 3.0875, 50.0676 ], [ 3.0984, 50.0682 ], [ 3.0877, 50.0756 ], [ 3.0883, 50.0831 ], [ 3.0988, 50.0829 ], [ 3.0976, 50.0789 ], [ 3.1005, 50.0811 ], [ 3.1034, 50.0785 ], [ 3.1141, 50.0922 ], [ 3.1049, 50.1155 ], [ 3.0918, 50.1206 ], [ 3.1366, 50.1434 ], [ 3.1154, 50.1478 ], [ 3.1088, 50.1585 ], [ 3.101, 50.162 ], [ 3.1159, 50.1678 ], [ 3.1189, 50.1653 ], [ 3.1376, 50.1667 ], [ 3.1455, 50.179 ], [ 3.1564, 50.1816 ], [ 3.1572, 50.1852 ], [ 3.1429, 50.1911 ], [ 3.1472, 50.1954 ], [ 3.1314, 50.1994 ], [ 3.1391, 50.2171 ], [ 3.1789, 50.2199 ], [ 3.1765, 50.2225 ], [ 3.1883, 50.2285 ], [ 3.1879, 50.2327 ], [ 3.1867, 50.2349 ], [ 3.1782, 50.2325 ], [ 3.1691, 50.2437 ], [ 3.1617, 50.2415 ], [ 3.1621, 50.2447 ], [ 3.158, 50.2428 ], [ 3.1472, 50.2462 ], [ 3.1491, 50.2625 ], [ 3.1406, 50.265 ], [ 3.0789, 50.2746 ], [ 3.0622, 50.2718 ], [ 3.0486, 50.2777 ], [ 3.0338, 50.2659 ], [ 3.0268, 50.2682 ], [ 3.0228, 50.2634 ], [ 3.0107, 50.269 ], [ 3.0171, 50.2749 ], [ 3.0122, 50.2816 ], [ 3.0178, 50.2846 ], [ 3.041, 50.2873 ], [ 3.0436, 50.2825 ], [ 3.0551, 50.2823 ], [ 3.051, 50.2856 ], [ 3.0552, 50.2898 ], [ 3.0478, 50.2937 ], [ 3.0544, 50.3021 ], [ 3.0666, 50.3089 ], [ 3.0693, 50.3054 ], [ 3.0843, 50.3112 ], [ 3.0642, 50.3241 ], [ 3.05, 50.3439 ], [ 3.0387, 50.344 ], [ 3.0291, 50.3535 ], [ 3.008, 50.3586 ], [ 3.0089, 50.3659 ], [ 2.993, 50.38 ], [ 2.9949, 50.3877 ], [ 2.9801, 50.4031 ], [ 2.9924, 50.3999 ], [ 3.0136, 50.403 ], [ 3.0298, 50.4105 ], [ 3.039, 50.4232 ], [ 3.0685, 50.4256 ], [ 3.0818, 50.4437 ], [ 3.0655, 50.4477 ], [ 3.0692, 50.4577 ], [ 3.0546, 50.4553 ], [ 3.0377, 50.4416 ], [ 3.0288, 50.4448 ], [ 3.0164, 50.4421 ], [ 3.0193, 50.4522 ], [ 3.0119, 50.4523 ], [ 3.0069, 50.4577 ], [ 3.0188, 50.4669 ], [ 3.0208, 50.4818 ], [ 3.0305, 50.4797 ], [ 3.0282, 50.4839 ], [ 3.0157, 50.4861 ], [ 3.0047, 50.495 ], [ 2.9918, 50.4977 ], [ 2.9647, 50.5128 ], [ 2.9579, 50.5094 ], [ 2.95, 50.5123 ], [ 2.9299, 50.5082 ], [ 2.9104, 50.4999 ], [ 2.9048, 50.5035 ], [ 2.9012, 50.5004 ], [ 2.8867, 50.503 ], [ 2.8914, 50.5044 ], [ 2.8894, 50.5079 ], [ 2.8821, 50.5078 ], [ 2.8799, 50.5159 ], [ 2.8905, 50.5297 ], [ 2.887, 50.5377 ], [ 2.8594, 50.5295 ], [ 2.8309, 50.5259 ], [ 2.8002, 50.5276 ], [ 2.8004, 50.5411 ], [ 2.7945, 50.5492 ], [ 2.8123, 50.5501 ], [ 2.8166, 50.5648 ], [ 2.8082, 50.5792 ], [ 2.7894, 50.583 ], [ 2.8065, 50.6068 ], [ 2.8434, 50.6294 ], [ 2.8487, 50.6255 ], [ 2.8697, 50.6311 ], [ 2.8399, 50.6573 ], [ 2.8213, 50.6613 ], [ 2.8092, 50.6694 ], [ 2.799, 50.6631 ], [ 2.7744, 50.6653 ], [ 2.7633, 50.6591 ], [ 2.7592, 50.6507 ], [ 2.7925, 50.6337 ], [ 2.7858, 50.6282 ], [ 2.7595, 50.6351 ], [ 2.7606, 50.6252 ], [ 2.7525, 50.6279 ], [ 2.7575, 50.6184 ], [ 2.7483, 50.6131 ], [ 2.7515, 50.6069 ], [ 2.7463, 50.6047 ], [ 2.7247, 50.6142 ], [ 2.7186, 50.6223 ], [ 2.7238, 50.6268 ], [ 2.7127, 50.6321 ], [ 2.6967, 50.6285 ], [ 2.6937, 50.6337 ], [ 2.6845, 50.6327 ], [ 2.6741, 50.6378 ], [ 2.6754, 50.6255 ], [ 2.6433, 50.6225 ], [ 2.6305, 50.618 ], [ 2.6247, 50.6257 ], [ 2.6142, 50.6273 ], [ 2.6146, 50.6348 ], [ 2.5955, 50.6312 ], [ 2.5898, 50.6375 ], [ 2.5771, 50.6305 ], [ 2.5656, 50.6326 ], [ 2.5639, 50.6246 ], [ 2.5594, 50.6294 ], [ 2.5552, 50.6258 ], [ 2.5451, 50.6255 ], [ 2.5368, 50.6308 ], [ 2.5389, 50.6401 ], [ 2.5327, 50.6435 ], [ 2.5258, 50.6428 ], [ 2.5165, 50.635 ], [ 2.4875, 50.6321 ], [ 2.4504, 50.6539 ], [ 2.429, 50.657 ], [ 2.4216, 50.6657 ], [ 2.4117, 50.669 ], [ 2.4032, 50.6817 ], [ 2.3808, 50.671 ], [ 2.3741, 50.6722 ], [ 2.3635, 50.6846 ], [ 2.3874, 50.7005 ], [ 2.3643, 50.7098 ], [ 2.3505, 50.7201 ], [ 2.3522, 50.7254 ], [ 2.3397, 50.7307 ], [ 2.339, 50.7401 ], [ 2.3711, 50.7559 ], [ 2.377, 50.752 ], [ 2.4005, 50.7646 ], [ 2.4078, 50.7624 ], [ 2.4115, 50.7667 ], [ 2.402, 50.7679 ], [ 2.4059, 50.7704 ], [ 2.3987, 50.7751 ], [ 2.3807, 50.7787 ], [ 2.3719, 50.7845 ], [ 2.3641, 50.78 ], [ 2.3694, 50.7715 ], [ 2.3429, 50.7811 ], [ 2.3143, 50.7827 ], [ 2.3123, 50.7872 ], [ 2.2886, 50.777 ], [ 2.2879, 50.787 ], [ 2.2701, 50.7828 ], [ 2.2525, 50.7881 ], [ 2.2347, 50.8046 ], [ 2.22, 50.8116 ], [ 2.2134, 50.8105 ], [ 2.2035, 50.8499 ], [ 2.1912, 50.8621 ], [ 2.1846, 50.8826 ], [ 2.1511, 50.9295 ], [ 2.1497, 50.9406 ], [ 2.1378, 50.9514 ], [ 2.1353, 50.9643 ], [ 2.1257, 50.9685 ], [ 2.1213, 50.9796 ], [ 2.1093, 50.9842 ], [ 2.0929, 51.0028 ], [ 2.0677, 51.0065 ] ] ] ] } }
]
}
