{
"type": "FeatureCollection",
"name": "dep52",
"crs": { "type": "name", "properties": { "name": "urn:ogc:def:crs:OGC:1.3:CRS84" } },
"xy_coordinate_resolution": 0.0001,
"features": [
{ "type": "Feature", "properties": { "code": "52", "nom": "Haute-Marne" }, "geometry": { "type": "Polygon", "coordinates": [ [ [ 4.6702, 48.5319 ], [ 4.6749, 48.5376 ], [ 4.6813, 48.535 ], [ 4.7073, 48.5371 ], [ 4.718, 48.542 ], [ 4.7809, 48.5331 ], [ 4.7913, 48.5285 ], [ 4.7992, 48.5298 ], [ 4.7828, 48.5542 ], [ 4.7963, 48.568 ], [ 4.7881, 48.5701 ], [ 4.776, 48.566 ], [ 4.7643, 48.5948 ], [ 4.7754, 48.5928 ], [ 4.7848, 48.5995 ], [ 4.7968, 48.5953 ], [ 4.8297, 48.6125 ], [ 4.8396, 48.6113 ], [ 4.8469, 48.6145 ], [ 4.857, 48.612 ], [ 4.858, 48.6143 ], [ 4.8512, 48.6155 ], [ 4.8483, 48.6279 ], [ 4.8536, 48.6348 ], [ 4.8391, 48.6458 ], [ 4.842, 48.6497 ], [ 4.8076, 48.6543 ], [ 4.7719, 48.6519 ], [ 4.7817, 48.6702 ], [ 4.7955, 48.6694 ], [ 4.7983, 48.6775 ], [ 4.8171, 48.6804 ], [ 4.821, 48.6749 ], [ 4.8492, 48.6717 ], [ 4.8499, 48.6677 ], [ 4.8678, 48.6672 ], [ 4.8778, 48.6751 ], [ 4.8949, 48.6781 ], [ 4.9113, 48.6887 ], [ 4.9387, 48.6748 ], [ 4.9515, 48.6887 ], [ 4.9549, 48.6846 ], [ 4.9763, 48.6893 ], [ 5.0091, 48.6786 ], [ 5.011, 48.6678 ], [ 4.9928, 48.6583 ], [ 4.9947, 48.6462 ], [ 5.0062, 48.6335 ], [ 4.9947, 48.6218 ], [ 5.0007, 48.6137 ], [ 5.0141, 48.6102 ], [ 5.0329, 48.6136 ], [ 5.052, 48.6333 ], [ 5.0567, 48.6323 ], [ 5.0596, 48.6125 ], [ 5.0709, 48.5957 ], [ 5.0957, 48.5929 ], [ 5.1195, 48.5957 ], [ 5.1179, 48.5849 ], [ 5.1463, 48.5603 ], [ 5.1672, 48.565 ], [ 5.1731, 48.5563 ], [ 5.1968, 48.5467 ], [ 5.1951, 48.5377 ], [ 5.2084, 48.5386 ], [ 5.2122, 48.5288 ], [ 5.2219, 48.5265 ], [ 5.2274, 48.532 ], [ 5.2629, 48.52 ], [ 5.2711, 48.5136 ], [ 5.2862, 48.5155 ], [ 5.2962, 48.5084 ], [ 5.3056, 48.5159 ], [ 5.317, 48.5084 ], [ 5.3275, 48.5094 ], [ 5.3285, 48.503 ], [ 5.358, 48.4776 ], [ 5.3814, 48.4711 ], [ 5.3977, 48.4738 ], [ 5.406, 48.4654 ], [ 5.4032, 48.4541 ], [ 5.4091, 48.4447 ], [ 5.4333, 48.432 ], [ 5.4387, 48.4353 ], [ 5.4508, 48.4227 ], [ 5.4683, 48.4238 ], [ 5.4701, 48.4209 ], [ 5.4593, 48.4162 ], [ 5.4466, 48.4153 ], [ 5.4196, 48.395 ], [ 5.3939, 48.3916 ], [ 5.4074, 48.3827 ], [ 5.4429, 48.3794 ], [ 5.4185, 48.3607 ], [ 5.4227, 48.3516 ], [ 5.417, 48.3427 ], [ 5.4268, 48.3312 ], [ 5.4454, 48.3375 ], [ 5.4618, 48.3521 ], [ 5.4691, 48.349 ], [ 5.481, 48.3564 ], [ 5.4978, 48.3555 ], [ 5.5063, 48.3504 ], [ 5.5265, 48.3469 ], [ 5.5246, 48.3335 ], [ 5.5373, 48.3183 ], [ 5.5889, 48.2756 ], [ 5.6116, 48.2918 ], [ 5.6433, 48.275 ], [ 5.6538, 48.2685 ], [ 5.6415, 48.2418 ], [ 5.6774, 48.229 ], [ 5.6878, 48.2342 ], [ 5.7182, 48.2145 ], [ 5.7301, 48.1983 ], [ 5.731, 48.1897 ], [ 5.7018, 48.1904 ], [ 5.6872, 48.1803 ], [ 5.6796, 48.1793 ], [ 5.6868, 48.1665 ], [ 5.6813, 48.1508 ], [ 5.6854, 48.1506 ], [ 5.6851, 48.1467 ], [ 5.6769, 48.1451 ], [ 5.6771, 48.1367 ], [ 5.6574, 48.1217 ], [ 5.6721, 48.1094 ], [ 5.6494, 48.105 ], [ 5.6374, 48.0976 ], [ 5.6388, 48.0888 ], [ 5.6339, 48.0902 ], [ 5.629, 48.0844 ], [ 5.6442, 48.0795 ], [ 5.6466, 48.0727 ], [ 5.6559, 48.0691 ], [ 5.6613, 48.072 ], [ 5.6528, 48.0804 ], [ 5.6575, 48.0862 ], [ 5.6733, 48.0788 ], [ 5.6751, 48.0819 ], [ 5.6884, 48.0754 ], [ 5.6968, 48.0772 ], [ 5.6988, 48.0668 ], [ 5.7089, 48.0654 ], [ 5.7213, 48.0527 ], [ 5.7205, 48.0442 ], [ 5.74, 48.0501 ], [ 5.7644, 48.0348 ], [ 5.7645, 48.0299 ], [ 5.777, 48.0335 ], [ 5.7764, 48.0224 ], [ 5.7856, 48.0129 ], [ 5.7868, 48.0023 ], [ 5.7947, 47.998 ], [ 5.7932, 47.9871 ], [ 5.7785, 47.978 ], [ 5.7873, 47.9526 ], [ 5.8053, 47.947 ], [ 5.8177, 47.958 ], [ 5.8316, 47.9578 ], [ 5.8458, 47.9757 ], [ 5.8466, 47.9695 ], [ 5.8536, 47.9699 ], [ 5.8496, 47.9606 ], [ 5.8575, 47.9451 ], [ 5.8686, 47.945 ], [ 5.8697, 47.9393 ], [ 5.8848, 47.9295 ], [ 5.8834, 47.9215 ], [ 5.8896, 47.9206 ], [ 5.8864, 47.9159 ], [ 5.8909, 47.9108 ], [ 5.8828, 47.9 ], [ 5.8484, 47.9043 ], [ 5.8375, 47.8912 ], [ 5.8386, 47.8854 ], [ 5.8207, 47.8691 ], [ 5.8281, 47.858 ], [ 5.8178, 47.8533 ], [ 5.8297, 47.8562 ], [ 5.828, 47.8519 ], [ 5.7961, 47.8468 ], [ 5.7989, 47.8557 ], [ 5.7748, 47.858 ], [ 5.7673, 47.8556 ], [ 5.7612, 47.8593 ], [ 5.7442, 47.8488 ], [ 5.7456, 47.8295 ], [ 5.7511, 47.829 ], [ 5.7408, 47.8192 ], [ 5.7303, 47.8177 ], [ 5.7011, 47.8236 ], [ 5.6899, 47.8191 ], [ 5.6815, 47.8091 ], [ 5.6766, 47.7792 ], [ 5.6821, 47.7755 ], [ 5.68, 47.77 ], [ 5.7075, 47.7676 ], [ 5.7096, 47.7453 ], [ 5.6904, 47.7351 ], [ 5.6887, 47.7305 ], [ 5.6952, 47.726 ], [ 5.6834, 47.7167 ], [ 5.6935, 47.7048 ], [ 5.6911, 47.6846 ], [ 5.6859, 47.6829 ], [ 5.6812, 47.6863 ], [ 5.6754, 47.6819 ], [ 5.6635, 47.6849 ], [ 5.648, 47.6753 ], [ 5.6012, 47.6752 ], [ 5.5967, 47.6717 ], [ 5.5846, 47.6907 ], [ 5.5851, 47.7002 ], [ 5.5674, 47.7071 ], [ 5.5298, 47.6728 ], [ 5.512, 47.6736 ], [ 5.4828, 47.6846 ], [ 5.4703, 47.675 ], [ 5.4475, 47.6708 ], [ 5.4338, 47.6713 ], [ 5.4202, 47.6777 ], [ 5.4063, 47.6734 ], [ 5.399, 47.6532 ], [ 5.4058, 47.6469 ], [ 5.3858, 47.6351 ], [ 5.3726, 47.6184 ], [ 5.3741, 47.6045 ], [ 5.367, 47.6047 ], [ 5.3593, 47.5937 ], [ 5.3556, 47.5915 ], [ 5.3421, 47.5947 ], [ 5.3455, 47.6047 ], [ 5.3392, 47.6095 ], [ 5.3223, 47.6124 ], [ 5.3145, 47.6062 ], [ 5.2982, 47.6043 ], [ 5.294, 47.5979 ], [ 5.2778, 47.5898 ], [ 5.2779, 47.5814 ], [ 5.2566, 47.5767 ], [ 5.238, 47.5965 ], [ 5.2586, 47.6222 ], [ 5.2369, 47.6168 ], [ 5.2302, 47.6295 ], [ 5.2213, 47.6322 ], [ 5.2114, 47.6419 ], [ 5.1736, 47.6526 ], [ 5.1783, 47.681 ], [ 5.1619, 47.6805 ], [ 5.155, 47.6672 ], [ 5.1353, 47.6537 ], [ 5.1386, 47.6509 ], [ 5.1254, 47.6468 ], [ 5.1169, 47.652 ], [ 5.1089, 47.6497 ], [ 5.104, 47.6589 ], [ 5.0861, 47.6566 ], [ 5.0692, 47.6686 ], [ 5.0674, 47.665 ], [ 5.067, 47.6678 ], [ 5.0535, 47.6683 ], [ 5.0436, 47.6765 ], [ 5.0607, 47.6948 ], [ 5.0555, 47.6973 ], [ 5.0536, 47.6942 ], [ 5.0288, 47.6933 ], [ 5.0339, 47.7016 ], [ 5.0291, 47.7099 ], [ 5.0046, 47.7012 ], [ 5.0036, 47.6937 ], [ 4.9967, 47.69 ], [ 4.9691, 47.6858 ], [ 4.972, 47.6916 ], [ 4.9541, 47.7015 ], [ 4.9538, 47.7069 ], [ 4.9644, 47.7134 ], [ 4.9635, 47.7222 ], [ 4.9717, 47.7294 ], [ 4.97, 47.7355 ], [ 4.9568, 47.7325 ], [ 4.9662, 47.7406 ], [ 4.959, 47.7619 ], [ 4.9474, 47.7666 ], [ 4.9227, 47.759 ], [ 4.9267, 47.7648 ], [ 4.9171, 47.7669 ], [ 4.9238, 47.7734 ], [ 4.918, 47.7771 ], [ 4.9823, 47.8001 ], [ 4.9939, 47.8129 ], [ 4.9888, 47.8187 ], [ 4.9941, 47.8197 ], [ 4.986, 47.8225 ], [ 4.9847, 47.8289 ], [ 4.9684, 47.8319 ], [ 4.9662, 47.8394 ], [ 4.9604, 47.8394 ], [ 4.9634, 47.8522 ], [ 4.9541, 47.8668 ], [ 4.9275, 47.8715 ], [ 4.9286, 47.8862 ], [ 4.9154, 47.8978 ], [ 4.9029, 47.921 ], [ 4.8928, 47.9227 ], [ 4.8693, 47.9174 ], [ 4.8592, 47.9018 ], [ 4.8604, 47.8963 ], [ 4.834, 47.9068 ], [ 4.8312, 47.9179 ], [ 4.8394, 47.9226 ], [ 4.8468, 47.9213 ], [ 4.8464, 47.9274 ], [ 4.8661, 47.9405 ], [ 4.8577, 47.9521 ], [ 4.8452, 47.9613 ], [ 4.8275, 47.9609 ], [ 4.8198, 47.9645 ], [ 4.8194, 47.9604 ], [ 4.811, 47.9593 ], [ 4.7865, 47.9642 ], [ 4.7857, 47.9715 ], [ 4.795, 47.9845 ], [ 4.8084, 47.9868 ], [ 4.8092, 47.9901 ], [ 4.7932, 47.9965 ], [ 4.7891, 48.0078 ], [ 4.7493, 48.0042 ], [ 4.7199, 48.0089 ], [ 4.7042, 48.0202 ], [ 4.7145, 48.0212 ], [ 4.705, 48.0277 ], [ 4.7107, 48.0362 ], [ 4.7218, 48.0404 ], [ 4.7232, 48.0458 ], [ 4.711, 48.0499 ], [ 4.6905, 48.0727 ], [ 4.6575, 48.0792 ], [ 4.7061, 48.0895 ], [ 4.7041, 48.1001 ], [ 4.7242, 48.1062 ], [ 4.7319, 48.1194 ], [ 4.744, 48.115 ], [ 4.7633, 48.1155 ], [ 4.8043, 48.1048 ], [ 4.8344, 48.1052 ], [ 4.8286, 48.1291 ], [ 4.8524, 48.1427 ], [ 4.837, 48.1515 ], [ 4.8369, 48.1679 ], [ 4.8506, 48.1761 ], [ 4.8471, 48.1799 ], [ 4.8644, 48.1992 ], [ 4.8616, 48.2109 ], [ 4.8417, 48.2144 ], [ 4.8353, 48.2211 ], [ 4.8539, 48.2288 ], [ 4.8478, 48.239 ], [ 4.8395, 48.2375 ], [ 4.8481, 48.2511 ], [ 4.845, 48.2572 ], [ 4.8571, 48.26 ], [ 4.8616, 48.2664 ], [ 4.8424, 48.2836 ], [ 4.8509, 48.2963 ], [ 4.8402, 48.2985 ], [ 4.8375, 48.3039 ], [ 4.8263, 48.3022 ], [ 4.8252, 48.3123 ], [ 4.8142, 48.323 ], [ 4.8415, 48.3395 ], [ 4.84, 48.342 ], [ 4.8325, 48.3462 ], [ 4.8156, 48.3448 ], [ 4.7943, 48.3567 ], [ 4.7787, 48.3562 ], [ 4.7546, 48.3665 ], [ 4.7602, 48.3876 ], [ 4.7478, 48.3921 ], [ 4.7171, 48.3956 ], [ 4.7053, 48.3908 ], [ 4.7001, 48.3959 ], [ 4.7084, 48.4012 ], [ 4.6935, 48.4152 ], [ 4.6818, 48.4176 ], [ 4.6895, 48.4247 ], [ 4.6778, 48.4321 ], [ 4.6784, 48.4405 ], [ 4.6293, 48.4612 ], [ 4.6278, 48.4686 ], [ 4.6535, 48.4705 ], [ 4.6504, 48.4775 ], [ 4.6594, 48.493 ], [ 4.6581, 48.5059 ], [ 4.6766, 48.5175 ], [ 4.6702, 48.5319 ] ] ] } }
]
}
