{
"type": "FeatureCollection",
"name": "dep57",
"crs": { "type": "name", "properties": { "name": "urn:ogc:def:crs:OGC:1.3:CRS84" } },
"xy_coordinate_resolution": 0.0001,
"features": [
{ "type": "Feature", "properties": { "code": "57", "nom": "Moselle" }, "geometry": { "type": "Polygon", "coordinates": [ [ [ 7.6293, 49.0737 ], [ 7.6379, 49.0461 ], [ 7.6064, 49.02 ], [ 7.6116, 49.0124 ], [ 7.5876, 48.9897 ], [ 7.5923, 48.9848 ], [ 7.5799, 48.9693 ], [ 7.5845, 48.9668 ], [ 7.5784, 48.9574 ], [ 7.5688, 48.9549 ], [ 7.5517, 48.9422 ], [ 7.5561, 48.9358 ], [ 7.5363, 48.9324 ], [ 7.5259, 48.9445 ], [ 7.5197, 48.9402 ], [ 7.5019, 48.9442 ], [ 7.4852, 48.9507 ], [ 7.4796, 48.9614 ], [ 7.4553, 48.963 ], [ 7.4516, 48.968 ], [ 7.3859, 48.9515 ], [ 7.3692, 48.9523 ], [ 7.3589, 48.9576 ], [ 7.3269, 48.9434 ], [ 7.3061, 48.9535 ], [ 7.3062, 48.9566 ], [ 7.2902, 48.9565 ], [ 7.2931, 48.9734 ], [ 7.2392, 48.9878 ], [ 7.2093, 48.9801 ], [ 7.1943, 48.9952 ], [ 7.1837, 48.9948 ], [ 7.1838, 49.0009 ], [ 7.1742, 49.0064 ], [ 7.1624, 49.0038 ], [ 7.1256, 49.0063 ], [ 7.128, 49.0132 ], [ 7.1217, 49.0187 ], [ 7.1217, 49.0298 ], [ 7.1134, 49.0325 ], [ 7.1195, 49.0372 ], [ 7.1084, 49.0427 ], [ 7.1019, 49.0591 ], [ 7.1017, 49.0637 ], [ 7.1193, 49.0684 ], [ 7.1044, 49.0719 ], [ 7.0993, 49.0779 ], [ 7.0836, 49.0687 ], [ 7.0743, 49.073 ], [ 7.0677, 49.065 ], [ 7.0787, 49.0504 ], [ 7.0523, 49.0283 ], [ 7.0474, 49.0146 ], [ 7.0545, 49.0099 ], [ 7.0306, 48.9871 ], [ 7.0358, 48.9782 ], [ 7.0413, 48.9773 ], [ 7.027, 48.969 ], [ 7.0322, 48.956 ], [ 6.9892, 48.9599 ], [ 6.9863, 48.9472 ], [ 6.9774, 48.939 ], [ 6.9798, 48.9348 ], [ 6.9711, 48.928 ], [ 6.9602, 48.9252 ], [ 6.9444, 48.9345 ], [ 6.9404, 48.9239 ], [ 6.9555, 48.9223 ], [ 6.9646, 48.9045 ], [ 6.9547, 48.8939 ], [ 6.9889, 48.8912 ], [ 7.0262, 48.8804 ], [ 7.0331, 48.8747 ], [ 7.0483, 48.8737 ], [ 7.0505, 48.8589 ], [ 7.0806, 48.8642 ], [ 7.0957, 48.8621 ], [ 7.0996, 48.8551 ], [ 7.0918, 48.8495 ], [ 7.0778, 48.8478 ], [ 7.0781, 48.8453 ], [ 7.0671, 48.849 ], [ 7.0515, 48.8466 ], [ 7.0545, 48.8327 ], [ 7.0472, 48.8201 ], [ 7.052, 48.8152 ], [ 7.0705, 48.8154 ], [ 7.0881, 48.8107 ], [ 7.0891, 48.8068 ], [ 7.0672, 48.7995 ], [ 7.0679, 48.7931 ], [ 7.0778, 48.7856 ], [ 7.0861, 48.7921 ], [ 7.1268, 48.8011 ], [ 7.1222, 48.8056 ], [ 7.1244, 48.8125 ], [ 7.1476, 48.8219 ], [ 7.1411, 48.8344 ], [ 7.1489, 48.8446 ], [ 7.1745, 48.8418 ], [ 7.1729, 48.8464 ], [ 7.1859, 48.8495 ], [ 7.1959, 48.8404 ], [ 7.1871, 48.8334 ], [ 7.1967, 48.8283 ], [ 7.2091, 48.8276 ], [ 7.2166, 48.8203 ], [ 7.2231, 48.8222 ], [ 7.2178, 48.8281 ], [ 7.2225, 48.8296 ], [ 7.2455, 48.8168 ], [ 7.2613, 48.82 ], [ 7.2452, 48.81 ], [ 7.2591, 48.8038 ], [ 7.262, 48.7984 ], [ 7.2705, 48.8025 ], [ 7.2876, 48.7977 ], [ 7.2907, 48.7856 ], [ 7.3064, 48.7691 ], [ 7.3133, 48.7672 ], [ 7.293, 48.753 ], [ 7.2869, 48.7313 ], [ 7.2666, 48.7142 ], [ 7.2602, 48.6943 ], [ 7.2469, 48.6951 ], [ 7.2425, 48.6915 ], [ 7.2615, 48.6722 ], [ 7.2646, 48.6627 ], [ 7.3044, 48.6602 ], [ 7.2938, 48.6472 ], [ 7.2829, 48.6425 ], [ 7.2811, 48.6366 ], [ 7.2619, 48.6318 ], [ 7.2797, 48.6282 ], [ 7.2759, 48.6201 ], [ 7.27, 48.6183 ], [ 7.2708, 48.6125 ], [ 7.2556, 48.5999 ], [ 7.2651, 48.5917 ], [ 7.2485, 48.5825 ], [ 7.2183, 48.5526 ], [ 7.2014, 48.5527 ], [ 7.1925, 48.5488 ], [ 7.1871, 48.5373 ], [ 7.1718, 48.5324 ], [ 7.1679, 48.5276 ], [ 7.1511, 48.5317 ], [ 7.1483, 48.527 ], [ 7.1351, 48.5281 ], [ 7.1243, 48.5364 ], [ 7.1144, 48.5374 ], [ 7.0921, 48.529 ], [ 7.0794, 48.5364 ], [ 7.0598, 48.5372 ], [ 7.0563, 48.539 ], [ 7.0836, 48.5413 ], [ 7.0839, 48.5453 ], [ 7.0539, 48.5519 ], [ 7.0533, 48.5581 ], [ 7.0441, 48.5621 ], [ 7.0429, 48.5717 ], [ 7.0357, 48.5742 ], [ 7.0342, 48.5804 ], [ 7.0192, 48.58 ], [ 7.0095, 48.5883 ], [ 6.9933, 48.5934 ], [ 6.993, 48.5965 ], [ 7.0167, 48.604 ], [ 7.0172, 48.6078 ], [ 7.0098, 48.6117 ], [ 6.9997, 48.608 ], [ 6.9858, 48.613 ], [ 6.9608, 48.6083 ], [ 6.9509, 48.6109 ], [ 6.9397, 48.6151 ], [ 6.945, 48.6188 ], [ 6.93, 48.6356 ], [ 6.9197, 48.6338 ], [ 6.9182, 48.6248 ], [ 6.9102, 48.6203 ], [ 6.893, 48.6251 ], [ 6.854, 48.6214 ], [ 6.844, 48.6261 ], [ 6.8366, 48.6431 ], [ 6.8105, 48.6474 ], [ 6.7825, 48.6427 ], [ 6.7741, 48.6479 ], [ 6.778, 48.6538 ], [ 6.764, 48.6521 ], [ 6.7573, 48.6638 ], [ 6.7599, 48.6698 ], [ 6.7502, 48.6664 ], [ 6.7404, 48.6687 ], [ 6.7338, 48.6631 ], [ 6.7261, 48.6644 ], [ 6.7211, 48.67 ], [ 6.7156, 48.6675 ], [ 6.704, 48.6747 ], [ 6.6996, 48.6714 ], [ 6.6923, 48.6728 ], [ 6.6944, 48.6796 ], [ 6.6858, 48.6842 ], [ 6.6773, 48.6732 ], [ 6.6669, 48.668 ], [ 6.6698, 48.6866 ], [ 6.6764, 48.6889 ], [ 6.6646, 48.7035 ], [ 6.6588, 48.708 ], [ 6.6386, 48.7011 ], [ 6.6273, 48.7126 ], [ 6.599, 48.7157 ], [ 6.5948, 48.7292 ], [ 6.5743, 48.7394 ], [ 6.5622, 48.7563 ], [ 6.5402, 48.7539 ], [ 6.5347, 48.7489 ], [ 6.5144, 48.7537 ], [ 6.5051, 48.7473 ], [ 6.505, 48.7525 ], [ 6.5119, 48.7545 ], [ 6.4858, 48.7669 ], [ 6.4723, 48.7653 ], [ 6.4654, 48.7698 ], [ 6.4598, 48.7657 ], [ 6.4536, 48.7663 ], [ 6.4521, 48.78 ], [ 6.4443, 48.7786 ], [ 6.4319, 48.7883 ], [ 6.396, 48.7747 ], [ 6.3904, 48.7799 ], [ 6.3706, 48.7846 ], [ 6.3579, 48.7791 ], [ 6.3556, 48.7947 ], [ 6.3456, 48.804 ], [ 6.3545, 48.8085 ], [ 6.3545, 48.8128 ], [ 6.338, 48.8119 ], [ 6.3325, 48.8146 ], [ 6.333, 48.8227 ], [ 6.307, 48.8212 ], [ 6.3011, 48.8242 ], [ 6.3038, 48.8272 ], [ 6.3121, 48.8256 ], [ 6.317, 48.8307 ], [ 6.3279, 48.8252 ], [ 6.338, 48.8268 ], [ 6.3389, 48.8341 ], [ 6.3207, 48.8378 ], [ 6.3064, 48.8333 ], [ 6.3009, 48.8405 ], [ 6.2842, 48.8464 ], [ 6.2897, 48.8509 ], [ 6.2994, 48.8517 ], [ 6.298, 48.8669 ], [ 6.3076, 48.8623 ], [ 6.3117, 48.8638 ], [ 6.31, 48.878 ], [ 6.298, 48.8811 ], [ 6.3091, 48.8922 ], [ 6.3269, 48.8966 ], [ 6.3284, 48.9001 ], [ 6.3268, 48.9073 ], [ 6.3096, 48.9119 ], [ 6.3112, 48.9211 ], [ 6.2884, 48.9163 ], [ 6.2878, 48.9277 ], [ 6.275, 48.9284 ], [ 6.2712, 48.9333 ], [ 6.2552, 48.9312 ], [ 6.2417, 48.9236 ], [ 6.2351, 48.9295 ], [ 6.2241, 48.9272 ], [ 6.2224, 48.9391 ], [ 6.1766, 48.9348 ], [ 6.169, 48.9385 ], [ 6.1715, 48.9442 ], [ 6.1573, 48.9437 ], [ 6.1499, 48.9393 ], [ 6.1496, 48.9332 ], [ 6.1322, 48.9347 ], [ 6.1249, 48.9391 ], [ 6.1298, 48.9462 ], [ 6.1294, 48.9494 ], [ 6.1232, 48.9494 ], [ 6.126, 48.9567 ], [ 6.1134, 48.9634 ], [ 6.1164, 48.9682 ], [ 6.1048, 48.9697 ], [ 6.0813, 48.9631 ], [ 6.0694, 48.9721 ], [ 6.0738, 48.9808 ], [ 6.0458, 48.9767 ], [ 6.0317, 48.9843 ], [ 6.0295, 48.9905 ], [ 6.0449, 48.9831 ], [ 6.0414, 48.9924 ], [ 6.0467, 48.9948 ], [ 6.0424, 49.0038 ], [ 6.0451, 49.0135 ], [ 6.0224, 49.0218 ], [ 6.0147, 49.0371 ], [ 6.0054, 49.0344 ], [ 5.9873, 49.0436 ], [ 5.9711, 49.041 ], [ 5.9674, 49.0471 ], [ 5.9582, 49.047 ], [ 5.9508, 49.0648 ], [ 5.9355, 49.0696 ], [ 5.9339, 49.0753 ], [ 5.9433, 49.0793 ], [ 5.9406, 49.0863 ], [ 5.9248, 49.0919 ], [ 5.9316, 49.1091 ], [ 5.9974, 49.1078 ], [ 6.0045, 49.112 ], [ 5.9871, 49.1283 ], [ 5.9935, 49.1282 ], [ 5.9973, 49.1347 ], [ 5.9858, 49.136 ], [ 5.9814, 49.1444 ], [ 5.9967, 49.1488 ], [ 5.9891, 49.1549 ], [ 6.0099, 49.1529 ], [ 6.0224, 49.1641 ], [ 6.0328, 49.1655 ], [ 6.0166, 49.172 ], [ 6.0132, 49.1778 ], [ 6.0074, 49.1771 ], [ 6.0066, 49.1836 ], [ 5.9814, 49.1868 ], [ 5.9786, 49.195 ], [ 5.9823, 49.1955 ], [ 5.9809, 49.2015 ], [ 5.9883, 49.2015 ], [ 5.984, 49.2073 ], [ 5.9876, 49.2096 ], [ 5.9956, 49.2072 ], [ 6.0096, 49.2218 ], [ 6.023, 49.2237 ], [ 6.0193, 49.2265 ], [ 6.0301, 49.2314 ], [ 6.0251, 49.2426 ], [ 6.032, 49.2512 ], [ 6.0114, 49.2607 ], [ 6.0052, 49.2571 ], [ 6.0105, 49.2664 ], [ 6.0063, 49.2687 ], [ 6.0098, 49.2725 ], [ 6.0001, 49.2776 ], [ 6.0064, 49.3017 ], [ 6.0037, 49.3119 ], [ 5.9971, 49.3142 ], [ 5.9852, 49.3052 ], [ 5.9693, 49.3198 ], [ 5.9637, 49.3191 ], [ 5.9498, 49.3283 ], [ 5.9493, 49.3338 ], [ 5.9414, 49.3354 ], [ 5.9445, 49.3416 ], [ 5.9784, 49.3449 ], [ 5.963, 49.3465 ], [ 5.9561, 49.3616 ], [ 5.9401, 49.3604 ], [ 5.9352, 49.3692 ], [ 5.9249, 49.373 ], [ 5.9359, 49.3787 ], [ 5.9331, 49.3961 ], [ 5.9271, 49.4045 ], [ 5.9119, 49.4077 ], [ 5.9287, 49.4271 ], [ 5.9423, 49.4304 ], [ 5.9309, 49.4463 ], [ 5.9427, 49.4514 ], [ 5.9394, 49.4663 ], [ 5.9317, 49.4716 ], [ 5.9413, 49.4757 ], [ 5.9296, 49.4853 ], [ 5.9128, 49.4818 ], [ 5.9065, 49.4859 ], [ 5.897, 49.4811 ], [ 5.8917, 49.4961 ], [ 5.9119, 49.502 ], [ 5.9276, 49.4982 ], [ 5.9399, 49.501 ], [ 5.9519, 49.494 ], [ 5.9724, 49.4911 ], [ 5.9686, 49.4865 ], [ 5.9749, 49.4806 ], [ 5.9742, 49.4648 ], [ 5.9786, 49.4612 ], [ 5.9877, 49.4624 ], [ 5.979, 49.4529 ], [ 5.9825, 49.4511 ], [ 6.0009, 49.4566 ], [ 6.0076, 49.4517 ], [ 6.0278, 49.4557 ], [ 6.0275, 49.4482 ], [ 6.0422, 49.4478 ], [ 6.0578, 49.4662 ], [ 6.0797, 49.4637 ], [ 6.0873, 49.4549 ], [ 6.1008, 49.4529 ], [ 6.0995, 49.4675 ], [ 6.1235, 49.4734 ], [ 6.1279, 49.4937 ], [ 6.1327, 49.49 ], [ 6.1417, 49.4918 ], [ 6.141, 49.4864 ], [ 6.1527, 49.4928 ], [ 6.1622, 49.4932 ], [ 6.1552, 49.5038 ], [ 6.1745, 49.5098 ], [ 6.1781, 49.5065 ], [ 6.2147, 49.5064 ], [ 6.2171, 49.5099 ], [ 6.2356, 49.5081 ], [ 6.2407, 49.5145 ], [ 6.2464, 49.509 ], [ 6.2564, 49.51 ], [ 6.2648, 49.504 ], [ 6.2791, 49.5034 ], [ 6.2798, 49.4945 ], [ 6.2896, 49.4932 ], [ 6.2844, 49.4915 ], [ 6.289, 49.4847 ], [ 6.2982, 49.4887 ], [ 6.2962, 49.4802 ], [ 6.3056, 49.4773 ], [ 6.3128, 49.4803 ], [ 6.3338, 49.4669 ], [ 6.3529, 49.4672 ], [ 6.3644, 49.4595 ], [ 6.3689, 49.4598 ], [ 6.3677, 49.4694 ], [ 6.3752, 49.4646 ], [ 6.3933, 49.4643 ], [ 6.4281, 49.4769 ], [ 6.4404, 49.4667 ], [ 6.4559, 49.463 ], [ 6.4647, 49.4665 ], [ 6.487, 49.4516 ], [ 6.4982, 49.4507 ], [ 6.5254, 49.4353 ], [ 6.5419, 49.4324 ], [ 6.5561, 49.421 ], [ 6.5379, 49.4106 ], [ 6.5405, 49.4012 ], [ 6.5518, 49.3998 ], [ 6.5521, 49.3945 ], [ 6.5634, 49.3882 ], [ 6.5767, 49.3897 ], [ 6.5871, 49.3849 ], [ 6.5839, 49.3686 ], [ 6.5951, 49.3714 ], [ 6.6018, 49.3665 ], [ 6.588, 49.3497 ], [ 6.5742, 49.3585 ], [ 6.5638, 49.3559 ], [ 6.5658, 49.3474 ], [ 6.5779, 49.3352 ], [ 6.5858, 49.3371 ], [ 6.5945, 49.3314 ], [ 6.5889, 49.3221 ], [ 6.6157, 49.3017 ], [ 6.6253, 49.3028 ], [ 6.6318, 49.296 ], [ 6.6504, 49.2884 ], [ 6.6532, 49.2811 ], [ 6.6603, 49.2837 ], [ 6.6704, 49.2803 ], [ 6.6615, 49.2573 ], [ 6.6644, 49.2546 ], [ 6.6755, 49.2573 ], [ 6.6898, 49.2497 ], [ 6.6846, 49.2423 ], [ 6.6904, 49.2313 ], [ 6.6885, 49.2223 ], [ 6.6959, 49.215 ], [ 6.7197, 49.2214 ], [ 6.7233, 49.2191 ], [ 6.7315, 49.2061 ], [ 6.7114, 49.1885 ], [ 6.7203, 49.1758 ], [ 6.7385, 49.1637 ], [ 6.7846, 49.1681 ], [ 6.8345, 49.1515 ], [ 6.8476, 49.1573 ], [ 6.8439, 49.1731 ], [ 6.8587, 49.1749 ], [ 6.8618, 49.1794 ], [ 6.8498, 49.1942 ], [ 6.8515, 49.2005 ], [ 6.8354, 49.2113 ], [ 6.8378, 49.2133 ], [ 6.8631, 49.222 ], [ 6.8732, 49.2145 ], [ 6.8924, 49.2088 ], [ 6.9255, 49.2236 ], [ 6.9379, 49.2222 ], [ 6.9597, 49.203 ], [ 6.975, 49.2098 ], [ 6.9988, 49.1943 ], [ 7.0091, 49.1939 ], [ 7.0107, 49.1881 ], [ 7.021, 49.1932 ], [ 7.0234, 49.1892 ], [ 7.035, 49.1906 ], [ 7.0277, 49.1701 ], [ 7.0458, 49.1391 ], [ 7.0452, 49.1194 ], [ 7.0543, 49.1126 ], [ 7.0661, 49.1146 ], [ 7.0719, 49.1247 ], [ 7.0889, 49.1302 ], [ 7.0803, 49.1488 ], [ 7.0833, 49.1532 ], [ 7.0912, 49.1518 ], [ 7.1009, 49.1556 ], [ 7.1133, 49.1517 ], [ 7.1041, 49.1461 ], [ 7.1039, 49.1389 ], [ 7.1263, 49.1419 ], [ 7.136, 49.1285 ], [ 7.1588, 49.1208 ], [ 7.1664, 49.1287 ], [ 7.1841, 49.1315 ], [ 7.1967, 49.1221 ], [ 7.198, 49.1152 ], [ 7.2087, 49.1247 ], [ 7.2453, 49.1298 ], [ 7.2664, 49.1226 ], [ 7.2817, 49.1245 ], [ 7.2826, 49.1169 ], [ 7.2937, 49.1151 ], [ 7.3237, 49.1427 ], [ 7.3633, 49.1452 ], [ 7.3614, 49.1527 ], [ 7.369, 49.1615 ], [ 7.3661, 49.1725 ], [ 7.4448, 49.1842 ], [ 7.4363, 49.18 ], [ 7.4415, 49.1729 ], [ 7.4333, 49.1682 ], [ 7.4365, 49.1642 ], [ 7.4473, 49.1687 ], [ 7.4595, 49.1626 ], [ 7.4731, 49.1687 ], [ 7.494, 49.1696 ], [ 7.4958, 49.1551 ], [ 7.5064, 49.1549 ], [ 7.4955, 49.141 ], [ 7.4903, 49.142 ], [ 7.4896, 49.1365 ], [ 7.4967, 49.1354 ], [ 7.5057, 49.1225 ], [ 7.5173, 49.1195 ], [ 7.529, 49.0972 ], [ 7.5382, 49.0963 ], [ 7.536, 49.0935 ], [ 7.5632, 49.0805 ], [ 7.6, 49.0833 ], [ 7.6293, 49.0737 ] ] ] } }
]
}
