{
"type": "FeatureCollection",
"name": "dep55",
"crs": { "type": "name", "properties": { "name": "urn:ogc:def:crs:OGC:1.3:CRS84" } },
"xy_coordinate_resolution": 0.0001,
"features": [
{ "type": "Feature", "properties": { "code": "55", "nom": "Meuse" }, "geometry": { "type": "Polygon", "coordinates": [ [ [ 4.951, 49.2369 ], [ 4.9614, 49.2409 ], [ 4.9675, 49.2493 ], [ 4.9994, 49.2595 ], [ 4.9964, 49.264 ], [ 5.0258, 49.2742 ], [ 5.0336, 49.2707 ], [ 5.0512, 49.2741 ], [ 5.049, 49.2853 ], [ 5.0594, 49.2899 ], [ 5.0543, 49.2949 ], [ 5.0398, 49.2952 ], [ 5.0425, 49.2982 ], [ 5.0358, 49.3074 ], [ 5.0255, 49.3104 ], [ 5.0381, 49.3162 ], [ 5.0274, 49.3268 ], [ 5.0263, 49.3362 ], [ 5.0556, 49.3587 ], [ 5.0533, 49.3657 ], [ 5.0615, 49.372 ], [ 5.0849, 49.3698 ], [ 5.1011, 49.3782 ], [ 5.0987, 49.3846 ], [ 5.1042, 49.3898 ], [ 5.0858, 49.3988 ], [ 5.0881, 49.4021 ], [ 5.0767, 49.4031 ], [ 5.0915, 49.4072 ], [ 5.0971, 49.4145 ], [ 5.1148, 49.419 ], [ 5.116, 49.4218 ], [ 5.1049, 49.4259 ], [ 5.1003, 49.4409 ], [ 5.1001, 49.4444 ], [ 5.1085, 49.4475 ], [ 5.1112, 49.4575 ], [ 5.1056, 49.4613 ], [ 5.0951, 49.4596 ], [ 5.083, 49.4704 ], [ 5.0835, 49.4841 ], [ 5.0747, 49.4864 ], [ 5.0595, 49.5006 ], [ 5.0617, 49.5075 ], [ 5.0788, 49.5095 ], [ 5.0993, 49.5316 ], [ 5.1004, 49.5372 ], [ 5.0898, 49.5349 ], [ 5.088, 49.5449 ], [ 5.0961, 49.5578 ], [ 5.1084, 49.5553 ], [ 5.1131, 49.5606 ], [ 5.1081, 49.5619 ], [ 5.1124, 49.5689 ], [ 5.1046, 49.5759 ], [ 5.1183, 49.5931 ], [ 5.1443, 49.5909 ], [ 5.1628, 49.5625 ], [ 5.1841, 49.5696 ], [ 5.1975, 49.5667 ], [ 5.2085, 49.5744 ], [ 5.2356, 49.5692 ], [ 5.2347, 49.5622 ], [ 5.2542, 49.5555 ], [ 5.2627, 49.5418 ], [ 5.2763, 49.5443 ], [ 5.2851, 49.5533 ], [ 5.3118, 49.5593 ], [ 5.3082, 49.5628 ], [ 5.3402, 49.5948 ], [ 5.3513, 49.5884 ], [ 5.3781, 49.593 ], [ 5.3809, 49.6043 ], [ 5.3935, 49.6171 ], [ 5.4286, 49.5959 ], [ 5.438, 49.5697 ], [ 5.4568, 49.5667 ], [ 5.4413, 49.5521 ], [ 5.4651, 49.5389 ], [ 5.4668, 49.5259 ], [ 5.4472, 49.5179 ], [ 5.4656, 49.5087 ], [ 5.4652, 49.4989 ], [ 5.483, 49.4945 ], [ 5.4736, 49.4826 ], [ 5.4631, 49.4819 ], [ 5.4695, 49.4806 ], [ 5.4643, 49.4712 ], [ 5.4692, 49.4654 ], [ 5.4653, 49.463 ], [ 5.4712, 49.4609 ], [ 5.4612, 49.4539 ], [ 5.4663, 49.4495 ], [ 5.4874, 49.4481 ], [ 5.4777, 49.4367 ], [ 5.4801, 49.4324 ], [ 5.4716, 49.4271 ], [ 5.4876, 49.4274 ], [ 5.4902, 49.4221 ], [ 5.5026, 49.4246 ], [ 5.5082, 49.4213 ], [ 5.4973, 49.4078 ], [ 5.476, 49.4036 ], [ 5.4729, 49.4107 ], [ 5.4475, 49.4024 ], [ 5.4655, 49.3954 ], [ 5.4759, 49.3969 ], [ 5.474, 49.389 ], [ 5.4803, 49.3823 ], [ 5.4949, 49.3911 ], [ 5.4986, 49.3997 ], [ 5.494, 49.404 ], [ 5.5, 49.4088 ], [ 5.5055, 49.4058 ], [ 5.5291, 49.4074 ], [ 5.5704, 49.4234 ], [ 5.5837, 49.4179 ], [ 5.5989, 49.4237 ], [ 5.6057, 49.42 ], [ 5.6148, 49.4257 ], [ 5.6172, 49.4208 ], [ 5.6158, 49.4305 ], [ 5.6346, 49.4374 ], [ 5.6367, 49.4336 ], [ 5.6466, 49.4334 ], [ 5.6496, 49.4282 ], [ 5.6751, 49.4215 ], [ 5.6813, 49.4142 ], [ 5.6913, 49.4163 ], [ 5.6951, 49.3989 ], [ 5.6873, 49.3937 ], [ 5.7078, 49.3841 ], [ 5.7082, 49.3766 ], [ 5.716, 49.3706 ], [ 5.7127, 49.3635 ], [ 5.721, 49.3654 ], [ 5.7392, 49.3543 ], [ 5.7376, 49.3397 ], [ 5.7197, 49.3306 ], [ 5.7233, 49.3217 ], [ 5.7291, 49.3216 ], [ 5.7336, 49.31 ], [ 5.7478, 49.3095 ], [ 5.763, 49.3165 ], [ 5.7693, 49.3034 ], [ 5.7614, 49.279 ], [ 5.7522, 49.2799 ], [ 5.7477, 49.2746 ], [ 5.7246, 49.2687 ], [ 5.723, 49.2643 ], [ 5.7304, 49.2569 ], [ 5.7209, 49.2477 ], [ 5.7406, 49.2301 ], [ 5.719, 49.216 ], [ 5.7269, 49.2023 ], [ 5.7251, 49.1957 ], [ 5.7596, 49.2016 ], [ 5.7658, 49.1975 ], [ 5.7445, 49.1573 ], [ 5.7601, 49.1528 ], [ 5.756, 49.1424 ], [ 5.7718, 49.139 ], [ 5.7534, 49.1337 ], [ 5.755, 49.1279 ], [ 5.7469, 49.1246 ], [ 5.7485, 49.121 ], [ 5.7658, 49.1064 ], [ 5.7726, 49.1053 ], [ 5.7774, 49.1116 ], [ 5.7838, 49.1126 ], [ 5.822, 49.1084 ], [ 5.8162, 49.1027 ], [ 5.8181, 49.0946 ], [ 5.827, 49.0899 ], [ 5.8128, 49.0831 ], [ 5.8051, 49.0645 ], [ 5.8072, 49.0609 ], [ 5.8361, 49.0661 ], [ 5.8364, 49.0548 ], [ 5.8542, 49.0424 ], [ 5.8503, 49.0379 ], [ 5.8305, 49.0325 ], [ 5.8148, 49.0083 ], [ 5.8281, 49.0062 ], [ 5.8167, 49.0017 ], [ 5.8009, 48.9859 ], [ 5.82, 48.9768 ], [ 5.8345, 48.9757 ], [ 5.8324, 48.9696 ], [ 5.8498, 48.959 ], [ 5.8473, 48.9518 ], [ 5.8364, 48.9519 ], [ 5.835, 48.9451 ], [ 5.8295, 48.9437 ], [ 5.8171, 48.9425 ], [ 5.8003, 48.9468 ], [ 5.7884, 48.939 ], [ 5.787, 48.9327 ], [ 5.7798, 48.9343 ], [ 5.7767, 48.9316 ], [ 5.784, 48.9289 ], [ 5.7788, 48.9251 ], [ 5.7549, 48.9231 ], [ 5.7476, 48.9173 ], [ 5.7577, 48.913 ], [ 5.7666, 48.8969 ], [ 5.7911, 48.8866 ], [ 5.7866, 48.8782 ], [ 5.7644, 48.8725 ], [ 5.7685, 48.8608 ], [ 5.7774, 48.8548 ], [ 5.7735, 48.8514 ], [ 5.7822, 48.8323 ], [ 5.78, 48.8243 ], [ 5.773, 48.822 ], [ 5.7757, 48.8151 ], [ 5.7688, 48.8044 ], [ 5.7572, 48.7998 ], [ 5.7624, 48.7939 ], [ 5.778, 48.7991 ], [ 5.7765, 48.7901 ], [ 5.7677, 48.7901 ], [ 5.7365, 48.7703 ], [ 5.7343, 48.7614 ], [ 5.7454, 48.7592 ], [ 5.7419, 48.7528 ], [ 5.7389, 48.7547 ], [ 5.7324, 48.7487 ], [ 5.7258, 48.7527 ], [ 5.714, 48.7445 ], [ 5.7257, 48.7374 ], [ 5.719, 48.7329 ], [ 5.7434, 48.7191 ], [ 5.7462, 48.7167 ], [ 5.742, 48.715 ], [ 5.7553, 48.7144 ], [ 5.7529, 48.7081 ], [ 5.7646, 48.7011 ], [ 5.7474, 48.6771 ], [ 5.743, 48.6527 ], [ 5.7609, 48.6316 ], [ 5.7584, 48.6213 ], [ 5.7721, 48.6203 ], [ 5.7928, 48.6289 ], [ 5.8032, 48.625 ], [ 5.7899, 48.6072 ], [ 5.7633, 48.6095 ], [ 5.7523, 48.6065 ], [ 5.7449, 48.5976 ], [ 5.7154, 48.5886 ], [ 5.7161, 48.5614 ], [ 5.7297, 48.5532 ], [ 5.7464, 48.552 ], [ 5.7763, 48.5411 ], [ 5.7744, 48.5358 ], [ 5.7665, 48.5356 ], [ 5.7614, 48.5238 ], [ 5.7651, 48.4965 ], [ 5.7553, 48.4917 ], [ 5.7386, 48.4661 ], [ 5.7132, 48.4603 ], [ 5.6951, 48.4635 ], [ 5.6806, 48.4711 ], [ 5.6557, 48.4722 ], [ 5.6549, 48.4685 ], [ 5.6422, 48.4724 ], [ 5.6377, 48.4694 ], [ 5.6532, 48.4588 ], [ 5.6483, 48.4545 ], [ 5.6305, 48.4513 ], [ 5.6183, 48.4424 ], [ 5.6221, 48.4264 ], [ 5.6158, 48.4323 ], [ 5.616, 48.4397 ], [ 5.6091, 48.4426 ], [ 5.589, 48.4424 ], [ 5.5803, 48.4388 ], [ 5.5767, 48.432 ], [ 5.5678, 48.4329 ], [ 5.5682, 48.4396 ], [ 5.5608, 48.4415 ], [ 5.5428, 48.4342 ], [ 5.5162, 48.4309 ], [ 5.5095, 48.4165 ], [ 5.5137, 48.4108 ], [ 5.5019, 48.4095 ], [ 5.4967, 48.4153 ], [ 5.4824, 48.4158 ], [ 5.4647, 48.4254 ], [ 5.4508, 48.4227 ], [ 5.4387, 48.4353 ], [ 5.4333, 48.432 ], [ 5.4091, 48.4447 ], [ 5.4032, 48.4541 ], [ 5.406, 48.4654 ], [ 5.3977, 48.4738 ], [ 5.3814, 48.4711 ], [ 5.358, 48.4776 ], [ 5.3285, 48.503 ], [ 5.3275, 48.5094 ], [ 5.317, 48.5084 ], [ 5.3056, 48.5159 ], [ 5.2962, 48.5084 ], [ 5.2862, 48.5155 ], [ 5.2711, 48.5136 ], [ 5.2629, 48.52 ], [ 5.2274, 48.532 ], [ 5.2219, 48.5265 ], [ 5.2122, 48.5288 ], [ 5.2084, 48.5386 ], [ 5.1951, 48.5377 ], [ 5.1968, 48.5467 ], [ 5.1731, 48.5563 ], [ 5.1672, 48.565 ], [ 5.1463, 48.5603 ], [ 5.1179, 48.5849 ], [ 5.1195, 48.5957 ], [ 5.0957, 48.5929 ], [ 5.0709, 48.5957 ], [ 5.0596, 48.6125 ], [ 5.0567, 48.6323 ], [ 5.052, 48.6333 ], [ 5.0329, 48.6136 ], [ 5.0141, 48.6102 ], [ 4.9993, 48.6148 ], [ 4.9947, 48.6218 ], [ 5.0062, 48.6335 ], [ 4.9947, 48.6462 ], [ 4.9928, 48.6583 ], [ 5.011, 48.6678 ], [ 5.0074, 48.6801 ], [ 4.9884, 48.6844 ], [ 4.9909, 48.6932 ], [ 4.9991, 48.6932 ], [ 5.0064, 48.6991 ], [ 4.9973, 48.7096 ], [ 5.0018, 48.7113 ], [ 5.0118, 48.7067 ], [ 5.016, 48.7095 ], [ 5.0114, 48.7179 ], [ 5.0046, 48.7197 ], [ 5.0092, 48.7414 ], [ 4.9901, 48.7418 ], [ 4.9814, 48.7456 ], [ 4.9723, 48.7576 ], [ 4.9502, 48.7688 ], [ 4.9351, 48.7832 ], [ 4.9378, 48.7865 ], [ 4.9331, 48.7914 ], [ 4.9207, 48.7906 ], [ 4.8952, 48.7961 ], [ 4.8886, 48.8006 ], [ 4.8968, 48.8088 ], [ 4.8889, 48.8169 ], [ 4.9146, 48.8351 ], [ 4.937, 48.8425 ], [ 4.9374, 48.8481 ], [ 4.928, 48.85 ], [ 4.9304, 48.856 ], [ 4.9214, 48.8606 ], [ 4.9253, 48.864 ], [ 4.9117, 48.8687 ], [ 4.9247, 48.8914 ], [ 4.9124, 48.8982 ], [ 4.9188, 48.9056 ], [ 4.9335, 48.9126 ], [ 4.9362, 48.9221 ], [ 4.9507, 48.9309 ], [ 4.9593, 48.9259 ], [ 5.0003, 48.9383 ], [ 5.0141, 48.9374 ], [ 5.0141, 48.9456 ], [ 5.0309, 48.9542 ], [ 5.0395, 48.9739 ], [ 5.0283, 48.9796 ], [ 5.0172, 48.9776 ], [ 5.0162, 48.9815 ], [ 5.0077, 48.9788 ], [ 5.0046, 48.9836 ], [ 4.9938, 48.9842 ], [ 5.0023, 48.987 ], [ 5.0047, 48.993 ], [ 5.018, 48.9959 ], [ 5.0346, 48.9935 ], [ 5.0314, 49.0061 ], [ 5.0388, 49.0107 ], [ 5.0365, 49.0238 ], [ 5.0102, 49.0351 ], [ 4.9654, 49.0214 ], [ 5.0035, 49.0533 ], [ 5.0005, 49.055 ], [ 5.0057, 49.0599 ], [ 4.9964, 49.0882 ], [ 4.9966, 49.1066 ], [ 4.9714, 49.1368 ], [ 4.9519, 49.1744 ], [ 4.9398, 49.1851 ], [ 4.9602, 49.1969 ], [ 4.9785, 49.1999 ], [ 4.9934, 49.2098 ], [ 4.978, 49.2189 ], [ 4.9708, 49.2361 ], [ 4.951, 49.2369 ] ], [ [ 5.4525, 49.4123 ], [ 5.4515, 49.4068 ], [ 5.4709, 49.4128 ], [ 5.4715, 49.4199 ], [ 5.4525, 49.4123 ] ], [ [ 5.426, 49.4861 ], [ 5.4407, 49.487 ], [ 5.4555, 49.4809 ], [ 5.4602, 49.488 ], [ 5.471, 49.4869 ], [ 5.442, 49.5036 ], [ 5.4343, 49.4971 ], [ 5.4348, 49.4905 ], [ 5.426, 49.4861 ] ] ] } }
]
}
