{
"type": "FeatureCollection",
"name": "dep69",
"crs": { "type": "name", "properties": { "name": "urn:ogc:def:crs:OGC:1.3:CRS84" } },
"xy_coordinate_resolution": 0.0001,
"features": [
{ "type": "Feature", "properties": { "code": "69", "nom": "Rhône" }, "geometry": { "type": "Polygon", "coordinates": [ [ [ 4.3881, 46.2198 ], [ 4.3867, 46.2316 ], [ 4.3924, 46.2354 ], [ 4.3855, 46.2468 ], [ 4.3924, 46.2516 ], [ 4.3897, 46.2585 ], [ 4.3971, 46.2668 ], [ 4.3975, 46.2833 ], [ 4.4078, 46.2924 ], [ 4.4058, 46.2961 ], [ 4.4219, 46.2949 ], [ 4.427, 46.3028 ], [ 4.4381, 46.2979 ], [ 4.4388, 46.2934 ], [ 4.4586, 46.2969 ], [ 4.4759, 46.284 ], [ 4.4885, 46.288 ], [ 4.504, 46.2671 ], [ 4.5373, 46.2699 ], [ 4.5465, 46.2739 ], [ 4.5478, 46.285 ], [ 4.5532, 46.2857 ], [ 4.5526, 46.2901 ], [ 4.5603, 46.2952 ], [ 4.5688, 46.2938 ], [ 4.5729, 46.2759 ], [ 4.5838, 46.2695 ], [ 4.6186, 46.2648 ], [ 4.6219, 46.2714 ], [ 4.6164, 46.2822 ], [ 4.6362, 46.2901 ], [ 4.6368, 46.3007 ], [ 4.6527, 46.304 ], [ 4.664, 46.295 ], [ 4.6779, 46.3005 ], [ 4.6792, 46.3063 ], [ 4.6934, 46.3014 ], [ 4.6947, 46.2921 ], [ 4.7104, 46.2786 ], [ 4.7077, 46.2697 ], [ 4.7042, 46.2712 ], [ 4.7007, 46.2675 ], [ 4.6934, 46.2717 ], [ 4.6879, 46.2653 ], [ 4.6816, 46.2668 ], [ 4.679, 46.2599 ], [ 4.6837, 46.2534 ], [ 4.6885, 46.254 ], [ 4.6882, 46.2493 ], [ 4.6932, 46.2482 ], [ 4.6983, 46.2529 ], [ 4.705, 46.2512 ], [ 4.7358, 46.2342 ], [ 4.7324, 46.2266 ], [ 4.7195, 46.2279 ], [ 4.7204, 46.2216 ], [ 4.7306, 46.219 ], [ 4.7289, 46.2141 ], [ 4.7357, 46.2117 ], [ 4.7343, 46.2064 ], [ 4.7263, 46.2083 ], [ 4.7207, 46.2007 ], [ 4.7244, 46.1843 ], [ 4.7295, 46.1828 ], [ 4.7273, 46.1791 ], [ 4.7516, 46.1723 ], [ 4.7802, 46.1767 ], [ 4.7843, 46.1684 ], [ 4.803, 46.1551 ], [ 4.7975, 46.1407 ], [ 4.7468, 46.0878 ], [ 4.7617, 46.0688 ], [ 4.7596, 46.0619 ], [ 4.7395, 46.0472 ], [ 4.747, 46.0315 ], [ 4.744, 46.0182 ], [ 4.7545, 45.9723 ], [ 4.7485, 45.9624 ], [ 4.7309, 45.9511 ], [ 4.7287, 45.9443 ], [ 4.7373, 45.9382 ], [ 4.7542, 45.9348 ], [ 4.7771, 45.9384 ], [ 4.7898, 45.9228 ], [ 4.8086, 45.9202 ], [ 4.8108, 45.9089 ], [ 4.8031, 45.9005 ], [ 4.8052, 45.8963 ], [ 4.848, 45.913 ], [ 4.8532, 45.9068 ], [ 4.8721, 45.9035 ], [ 4.872, 45.8946 ], [ 4.8807, 45.8972 ], [ 4.8838, 45.88 ], [ 4.909, 45.8741 ], [ 4.9006, 45.8576 ], [ 4.9171, 45.8453 ], [ 4.9222, 45.8194 ], [ 4.9183, 45.807 ], [ 4.9238, 45.804 ], [ 4.9631, 45.811 ], [ 4.9816, 45.8054 ], [ 5.0031, 45.81 ], [ 5.0134, 45.8051 ], [ 5.0448, 45.8117 ], [ 5.0635, 45.8094 ], [ 5.1011, 45.8134 ], [ 5.0893, 45.7843 ], [ 5.0593, 45.792 ], [ 5.0675, 45.7653 ], [ 5.0954, 45.7692 ], [ 5.0894, 45.7497 ], [ 5.0945, 45.7395 ], [ 5.126, 45.7379 ], [ 5.139, 45.731 ], [ 5.1439, 45.72 ], [ 5.1592, 45.7152 ], [ 5.154, 45.6997 ], [ 5.1502, 45.7058 ], [ 5.1431, 45.7 ], [ 5.1311, 45.7077 ], [ 5.1191, 45.6997 ], [ 5.1126, 45.7026 ], [ 5.1107, 45.6985 ], [ 5.1049, 45.7004 ], [ 5.1081, 45.688 ], [ 5.0608, 45.6664 ], [ 5.054, 45.6601 ], [ 5.0581, 45.6532 ], [ 5.0383, 45.645 ], [ 5.0351, 45.6372 ], [ 5.0391, 45.6322 ], [ 5.0351, 45.6285 ], [ 5.0436, 45.6213 ], [ 5.0367, 45.6129 ], [ 5.0047, 45.6231 ], [ 4.9894, 45.6185 ], [ 5.002, 45.614 ], [ 4.998, 45.6034 ], [ 4.9709, 45.6132 ], [ 4.9275, 45.6057 ], [ 4.901, 45.6062 ], [ 4.8928, 45.6016 ], [ 4.8823, 45.6018 ], [ 4.8598, 45.5908 ], [ 4.8576, 45.5765 ], [ 4.8296, 45.588 ], [ 4.7771, 45.5874 ], [ 4.7821, 45.5806 ], [ 4.8111, 45.5711 ], [ 4.8351, 45.5454 ], [ 4.8644, 45.5373 ], [ 4.8728, 45.5313 ], [ 4.8419, 45.501 ], [ 4.8251, 45.4953 ], [ 4.812, 45.4834 ], [ 4.7806, 45.4709 ], [ 4.7795, 45.455 ], [ 4.7569, 45.4557 ], [ 4.7385, 45.4728 ], [ 4.7436, 45.4737 ], [ 4.7443, 45.4791 ], [ 4.7396, 45.487 ], [ 4.7218, 45.4944 ], [ 4.6984, 45.4772 ], [ 4.6764, 45.482 ], [ 4.671, 45.4734 ], [ 4.6662, 45.4781 ], [ 4.6708, 45.4835 ], [ 4.6553, 45.4861 ], [ 4.6506, 45.4971 ], [ 4.6543, 45.4998 ], [ 4.6486, 45.5213 ], [ 4.6508, 45.5309 ], [ 4.6613, 45.5359 ], [ 4.6756, 45.5518 ], [ 4.683, 45.5509 ], [ 4.6875, 45.5582 ], [ 4.6803, 45.5678 ], [ 4.6723, 45.5703 ], [ 4.6655, 45.5693 ], [ 4.6646, 45.5642 ], [ 4.6497, 45.5649 ], [ 4.6462, 45.5551 ], [ 4.6594, 45.5434 ], [ 4.6447, 45.5405 ], [ 4.6367, 45.5458 ], [ 4.6277, 45.5662 ], [ 4.6149, 45.5755 ], [ 4.6023, 45.5704 ], [ 4.5884, 45.5706 ], [ 4.5673, 45.5836 ], [ 4.52, 45.5729 ], [ 4.5139, 45.577 ], [ 4.5048, 45.5765 ], [ 4.5048, 45.5863 ], [ 4.4896, 45.5842 ], [ 4.4806, 45.5884 ], [ 4.4691, 45.585 ], [ 4.4685, 45.5905 ], [ 4.4757, 45.5939 ], [ 4.4733, 45.5968 ], [ 4.4494, 45.6058 ], [ 4.4488, 45.6168 ], [ 4.4415, 45.6231 ], [ 4.4102, 45.6325 ], [ 4.3938, 45.6504 ], [ 4.3993, 45.6565 ], [ 4.3925, 45.6625 ], [ 4.3659, 45.6712 ], [ 4.3701, 45.672 ], [ 4.3643, 45.6845 ], [ 4.3735, 45.6908 ], [ 4.3655, 45.6985 ], [ 4.3729, 45.7026 ], [ 4.3738, 45.7125 ], [ 4.3849, 45.7214 ], [ 4.3918, 45.7391 ], [ 4.4029, 45.7439 ], [ 4.3913, 45.7549 ], [ 4.371, 45.749 ], [ 4.36, 45.751 ], [ 4.3607, 45.7565 ], [ 4.3548, 45.7577 ], [ 4.3481, 45.7695 ], [ 4.3591, 45.7764 ], [ 4.3584, 45.7833 ], [ 4.3603, 45.7776 ], [ 4.3797, 45.784 ], [ 4.3737, 45.8051 ], [ 4.3816, 45.8072 ], [ 4.3878, 45.803 ], [ 4.3889, 45.8064 ], [ 4.3778, 45.8176 ], [ 4.3848, 45.8195 ], [ 4.3773, 45.8248 ], [ 4.3837, 45.8271 ], [ 4.382, 45.8322 ], [ 4.3906, 45.8375 ], [ 4.3825, 45.8456 ], [ 4.3915, 45.8502 ], [ 4.3962, 45.8601 ], [ 4.3916, 45.865 ], [ 4.377, 45.863 ], [ 4.3686, 45.8679 ], [ 4.3632, 45.8644 ], [ 4.3422, 45.8772 ], [ 4.3381, 45.8889 ], [ 4.3232, 45.9039 ], [ 4.3448, 45.9154 ], [ 4.3348, 45.9165 ], [ 4.346, 45.9299 ], [ 4.3362, 45.9317 ], [ 4.3194, 45.9435 ], [ 4.3145, 45.94 ], [ 4.3007, 45.9471 ], [ 4.2949, 45.9529 ], [ 4.3012, 45.9575 ], [ 4.2981, 45.9657 ], [ 4.2752, 45.9798 ], [ 4.2511, 45.9846 ], [ 4.244, 45.9959 ], [ 4.2581, 45.9948 ], [ 4.2629, 46.0019 ], [ 4.2699, 45.9997 ], [ 4.2654, 45.9967 ], [ 4.2713, 45.988 ], [ 4.2753, 45.9947 ], [ 4.2851, 45.9939 ], [ 4.289, 45.9984 ], [ 4.2927, 45.9908 ], [ 4.3001, 45.9889 ], [ 4.3125, 46.0056 ], [ 4.3059, 46.0216 ], [ 4.2877, 46.0173 ], [ 4.2764, 46.023 ], [ 4.2503, 46.05 ], [ 4.2578, 46.0544 ], [ 4.2673, 46.0516 ], [ 4.2857, 46.0535 ], [ 4.3001, 46.0652 ], [ 4.304, 46.0698 ], [ 4.3014, 46.0784 ], [ 4.3111, 46.0803 ], [ 4.307, 46.1063 ], [ 4.3198, 46.1168 ], [ 4.3231, 46.1308 ], [ 4.3333, 46.1359 ], [ 4.3427, 46.1344 ], [ 4.3616, 46.1385 ], [ 4.377, 46.1498 ], [ 4.4174, 46.1359 ], [ 4.4221, 46.1505 ], [ 4.4344, 46.1593 ], [ 4.4386, 46.1679 ], [ 4.4327, 46.1733 ], [ 4.3959, 46.1895 ], [ 4.3962, 46.1956 ], [ 4.4226, 46.2026 ], [ 4.4218, 46.2086 ], [ 4.4072, 46.2206 ], [ 4.3881, 46.2198 ] ] ] } }
]
}
