{
"type": "FeatureCollection",
"name": "dep60",
"crs": { "type": "name", "properties": { "name": "urn:ogc:def:crs:OGC:1.3:CRS84" } },
"xy_coordinate_resolution": 0.0001,
"features": [
{ "type": "Feature", "properties": { "code": "60", "nom": "Oise" }, "geometry": { "type": "MultiPolygon", "coordinates": [ [ [ [ 3.0434, 49.2277 ], [ 3.047, 49.2294 ], [ 3.0484, 49.2275 ], [ 3.0434, 49.2277 ] ] ], [ [ [ 2.9902, 49.2107 ], [ 2.9818, 49.2164 ], [ 2.9978, 49.2236 ], [ 3.0028, 49.2188 ], [ 2.9902, 49.2107 ] ] ], [ [ [ 2.9967, 49.1926 ], [ 2.9989, 49.1911 ], [ 2.9966, 49.1912 ], [ 2.9967, 49.1926 ] ] ], [ [ [ 1.7627, 49.7569 ], [ 1.791, 49.7574 ], [ 1.7941, 49.7499 ], [ 1.809, 49.7543 ], [ 1.8205, 49.739 ], [ 1.8395, 49.7393 ], [ 1.8395, 49.7309 ], [ 1.8206, 49.7225 ], [ 1.8227, 49.7177 ], [ 1.8376, 49.7184 ], [ 1.8415, 49.7127 ], [ 1.8375, 49.7099 ], [ 1.849, 49.7016 ], [ 1.8674, 49.7041 ], [ 1.8747, 49.6991 ], [ 1.8939, 49.699 ], [ 1.9169, 49.715 ], [ 1.9327, 49.7198 ], [ 1.9491, 49.7008 ], [ 1.9713, 49.7199 ], [ 1.9783, 49.7097 ], [ 1.9888, 49.7116 ], [ 1.9897, 49.7088 ], [ 2.0015, 49.7133 ], [ 2.0078, 49.7083 ], [ 2.0347, 49.7107 ], [ 2.0343, 49.705 ], [ 2.0461, 49.7026 ], [ 2.0469, 49.6969 ], [ 2.0594, 49.6976 ], [ 2.0583, 49.6915 ], [ 2.064, 49.6877 ], [ 2.0502, 49.6865 ], [ 2.0631, 49.6861 ], [ 2.0653, 49.6832 ], [ 2.0813, 49.6935 ], [ 2.0877, 49.6901 ], [ 2.1035, 49.6947 ], [ 2.1138, 49.6936 ], [ 2.124, 49.688 ], [ 2.1403, 49.6913 ], [ 2.1508, 49.7021 ], [ 2.1727, 49.7009 ], [ 2.1821, 49.7041 ], [ 2.2039, 49.6981 ], [ 2.2195, 49.7023 ], [ 2.2472, 49.7016 ], [ 2.2499, 49.6971 ], [ 2.2797, 49.6911 ], [ 2.3018, 49.6811 ], [ 2.3168, 49.6877 ], [ 2.3353, 49.6794 ], [ 2.3338, 49.6707 ], [ 2.3513, 49.6634 ], [ 2.3621, 49.6667 ], [ 2.3709, 49.6563 ], [ 2.3887, 49.6558 ], [ 2.4127, 49.6628 ], [ 2.4214, 49.657 ], [ 2.4457, 49.653 ], [ 2.455, 49.6413 ], [ 2.4537, 49.6356 ], [ 2.4585, 49.6342 ], [ 2.4656, 49.638 ], [ 2.4723, 49.6343 ], [ 2.4708, 49.63 ], [ 2.4636, 49.6283 ], [ 2.4781, 49.6208 ], [ 2.5047, 49.6395 ], [ 2.5063, 49.635 ], [ 2.5211, 49.6278 ], [ 2.5267, 49.6294 ], [ 2.5296, 49.6254 ], [ 2.5406, 49.6246 ], [ 2.5372, 49.6206 ], [ 2.5436, 49.6183 ], [ 2.5409, 49.6156 ], [ 2.5665, 49.6188 ], [ 2.5588, 49.6071 ], [ 2.5714, 49.597 ], [ 2.5757, 49.5994 ], [ 2.5779, 49.5963 ], [ 2.5872, 49.6038 ], [ 2.5839, 49.6079 ], [ 2.597, 49.6117 ], [ 2.6051, 49.608 ], [ 2.6161, 49.6124 ], [ 2.626, 49.6109 ], [ 2.6229, 49.6057 ], [ 2.6328, 49.599 ], [ 2.6264, 49.5909 ], [ 2.6287, 49.5819 ], [ 2.6496, 49.5718 ], [ 2.6702, 49.5811 ], [ 2.6731, 49.5949 ], [ 2.6686, 49.6 ], [ 2.6741, 49.6 ], [ 2.6746, 49.6055 ], [ 2.6879, 49.6143 ], [ 2.6876, 49.6247 ], [ 2.6983, 49.6263 ], [ 2.7023, 49.6233 ], [ 2.708, 49.6259 ], [ 2.7204, 49.6211 ], [ 2.7271, 49.6262 ], [ 2.7384, 49.6239 ], [ 2.7391, 49.627 ], [ 2.7655, 49.6156 ], [ 2.7867, 49.6121 ], [ 2.7995, 49.6206 ], [ 2.7894, 49.6402 ], [ 2.7972, 49.6607 ], [ 2.8215, 49.6593 ], [ 2.8286, 49.6621 ], [ 2.8328, 49.6593 ], [ 2.8376, 49.6621 ], [ 2.8459, 49.6594 ], [ 2.8502, 49.6631 ], [ 2.8456, 49.6707 ], [ 2.8624, 49.6794 ], [ 2.8568, 49.6827 ], [ 2.8612, 49.6852 ], [ 2.8745, 49.6858 ], [ 2.88, 49.6752 ], [ 2.8888, 49.6707 ], [ 2.8881, 49.6872 ], [ 2.8662, 49.7025 ], [ 2.8851, 49.7095 ], [ 2.8817, 49.7137 ], [ 2.894, 49.6989 ], [ 2.9054, 49.6995 ], [ 2.9134, 49.7095 ], [ 2.9136, 49.704 ], [ 2.9302, 49.6879 ], [ 2.9252, 49.6833 ], [ 2.9287, 49.6802 ], [ 2.9378, 49.6813 ], [ 2.9333, 49.6762 ], [ 2.9396, 49.6802 ], [ 2.9428, 49.6747 ], [ 2.9487, 49.6758 ], [ 2.9549, 49.6653 ], [ 2.9561, 49.6783 ], [ 2.9477, 49.6826 ], [ 2.9484, 49.694 ], [ 2.9622, 49.6932 ], [ 2.9731, 49.6972 ], [ 2.9774, 49.7055 ], [ 2.991, 49.7042 ], [ 2.9906, 49.708 ], [ 3.0051, 49.7027 ], [ 3.006, 49.6932 ], [ 3.0152, 49.6929 ], [ 3.0163, 49.685 ], [ 3.0262, 49.6803 ], [ 3.0335, 49.6831 ], [ 3.0405, 49.6966 ], [ 3.0553, 49.694 ], [ 3.0592, 49.7018 ], [ 3.0524, 49.7138 ], [ 3.0835, 49.7125 ], [ 3.0781, 49.6932 ], [ 3.0838, 49.6905 ], [ 3.0965, 49.7055 ], [ 3.1184, 49.706 ], [ 3.1264, 49.6966 ], [ 3.1143, 49.6838 ], [ 3.1242, 49.6769 ], [ 3.1277, 49.6619 ], [ 3.1211, 49.6602 ], [ 3.1173, 49.6667 ], [ 3.1083, 49.6647 ], [ 3.108, 49.6581 ], [ 3.0978, 49.6567 ], [ 3.0965, 49.6506 ], [ 3.1054, 49.6503 ], [ 3.1129, 49.6418 ], [ 3.1084, 49.6369 ], [ 3.1128, 49.6313 ], [ 3.0936, 49.6225 ], [ 3.122, 49.6037 ], [ 3.1242, 49.5963 ], [ 3.1339, 49.5899 ], [ 3.1384, 49.576 ], [ 3.1261, 49.5701 ], [ 3.1269, 49.5639 ], [ 3.1339, 49.56 ], [ 3.1286, 49.5519 ], [ 3.1315, 49.5434 ], [ 3.1259, 49.5418 ], [ 3.1276, 49.527 ], [ 3.1217, 49.5207 ], [ 3.0963, 49.5179 ], [ 3.0958, 49.5134 ], [ 3.1004, 49.5057 ], [ 3.1213, 49.4937 ], [ 3.1239, 49.4863 ], [ 3.1238, 49.4801 ], [ 3.1055, 49.4744 ], [ 3.1071, 49.4682 ], [ 3.1538, 49.4547 ], [ 3.1662, 49.447 ], [ 3.1601, 49.4393 ], [ 3.1319, 49.4318 ], [ 3.1207, 49.4316 ], [ 3.1107, 49.4384 ], [ 3.0978, 49.4372 ], [ 3.0931, 49.4326 ], [ 3.0972, 49.4051 ], [ 3.0904, 49.3939 ], [ 3.0951, 49.3765 ], [ 3.079, 49.3739 ], [ 3.0747, 49.349 ], [ 3.0612, 49.3453 ], [ 3.0618, 49.3405 ], [ 3.0422, 49.3331 ], [ 3.0439, 49.3288 ], [ 3.0363, 49.3257 ], [ 3.033, 49.3314 ], [ 3.0217, 49.333 ], [ 3.0209, 49.3365 ], [ 3.0015, 49.34 ], [ 2.9931, 49.3329 ], [ 2.9684, 49.3263 ], [ 2.9643, 49.3214 ], [ 2.9726, 49.3119 ], [ 2.9801, 49.3114 ], [ 2.9789, 49.3058 ], [ 2.9679, 49.3027 ], [ 2.9749, 49.3025 ], [ 2.9772, 49.2987 ], [ 2.9853, 49.3003 ], [ 2.9836, 49.2969 ], [ 2.9943, 49.2985 ], [ 2.9871, 49.2879 ], [ 2.9959, 49.2867 ], [ 3.0051, 49.2929 ], [ 3.021, 49.2897 ], [ 3.0139, 49.2821 ], [ 3.0171, 49.28 ], [ 3.0254, 49.2879 ], [ 3.0376, 49.2864 ], [ 3.0361, 49.2788 ], [ 3.0269, 49.2755 ], [ 3.0259, 49.2599 ], [ 3.032, 49.254 ], [ 3.0333, 49.2381 ], [ 3.0419, 49.2304 ], [ 3.0369, 49.2222 ], [ 3.0318, 49.2268 ], [ 3.0322, 49.2216 ], [ 3.0261, 49.2216 ], [ 3.0217, 49.2162 ], [ 3.0144, 49.2224 ], [ 3.0038, 49.2214 ], [ 3.0149, 49.23 ], [ 3.0067, 49.2341 ], [ 2.9648, 49.2326 ], [ 2.9587, 49.227 ], [ 2.9621, 49.2183 ], [ 2.9706, 49.2143 ], [ 2.9713, 49.2081 ], [ 2.9663, 49.2053 ], [ 2.9738, 49.1972 ], [ 2.9677, 49.1918 ], [ 2.9716, 49.1877 ], [ 2.9837, 49.1842 ], [ 2.9917, 49.1939 ], [ 2.9964, 49.1866 ], [ 3.0163, 49.1824 ], [ 3.023, 49.1699 ], [ 3.0379, 49.1692 ], [ 3.0351, 49.1836 ], [ 3.0258, 49.1875 ], [ 3.026, 49.193 ], [ 3.0124, 49.1846 ], [ 3.0067, 49.1854 ], [ 2.9973, 49.199 ], [ 3.003, 49.203 ], [ 2.9954, 49.2091 ], [ 3.0005, 49.2136 ], [ 3.0188, 49.2166 ], [ 3.0295, 49.2134 ], [ 3.0356, 49.2049 ], [ 3.0457, 49.2099 ], [ 3.065, 49.2047 ], [ 3.0568, 49.1966 ], [ 3.0629, 49.1939 ], [ 3.073, 49.1965 ], [ 3.085, 49.1904 ], [ 3.0807, 49.189 ], [ 3.0876, 49.1851 ], [ 3.0815, 49.1776 ], [ 3.0816, 49.1648 ], [ 3.0926, 49.1549 ], [ 3.099, 49.1549 ], [ 3.0893, 49.1615 ], [ 3.084, 49.1727 ], [ 3.0927, 49.1894 ], [ 3.1009, 49.192 ], [ 3.0969, 49.1947 ], [ 3.1007, 49.1975 ], [ 3.1167, 49.1895 ], [ 3.1126, 49.1818 ], [ 3.1167, 49.1765 ], [ 3.1083, 49.1664 ], [ 3.116, 49.1699 ], [ 3.1214, 49.1616 ], [ 3.1481, 49.1608 ], [ 3.1371, 49.1513 ], [ 3.1249, 49.1484 ], [ 3.1271, 49.1451 ], [ 3.1055, 49.1469 ], [ 3.1153, 49.1391 ], [ 3.1112, 49.1319 ], [ 3.0934, 49.1421 ], [ 3.0967, 49.1316 ], [ 3.084, 49.1209 ], [ 3.0773, 49.1221 ], [ 3.0697, 49.1175 ], [ 3.0566, 49.1021 ], [ 3.0556, 49.0964 ], [ 3.065, 49.0851 ], [ 3.0585, 49.0885 ], [ 3.051, 49.0851 ], [ 3.0328, 49.0891 ], [ 3.0316, 49.0856 ], [ 3.0085, 49.0915 ], [ 3.006, 49.0865 ], [ 3.0009, 49.0895 ], [ 2.9912, 49.084 ], [ 2.9882, 49.0727 ], [ 2.9828, 49.0713 ], [ 2.9753, 49.0742 ], [ 2.9687, 49.0915 ], [ 2.9567, 49.0854 ], [ 2.9458, 49.0881 ], [ 2.9406, 49.0771 ], [ 2.9331, 49.081 ], [ 2.9233, 49.0776 ], [ 2.9015, 49.0854 ], [ 2.8949, 49.0771 ], [ 2.8876, 49.0795 ], [ 2.8703, 49.0702 ], [ 2.8547, 49.0702 ], [ 2.8449, 49.0849 ], [ 2.8295, 49.0838 ], [ 2.8093, 49.0975 ], [ 2.784, 49.0886 ], [ 2.7889, 49.0829 ], [ 2.7683, 49.0833 ], [ 2.7871, 49.0755 ], [ 2.7535, 49.0607 ], [ 2.735, 49.0605 ], [ 2.7244, 49.0805 ], [ 2.7052, 49.065 ], [ 2.6978, 49.0644 ], [ 2.6899, 49.0676 ], [ 2.695, 49.0747 ], [ 2.6774, 49.0883 ], [ 2.6502, 49.1005 ], [ 2.6412, 49.0991 ], [ 2.6333, 49.1084 ], [ 2.623, 49.0956 ], [ 2.6103, 49.0949 ], [ 2.5979, 49.0818 ], [ 2.5866, 49.0798 ], [ 2.5789, 49.0845 ], [ 2.5787, 49.0919 ], [ 2.5582, 49.0984 ], [ 2.5515, 49.1126 ], [ 2.557, 49.1238 ], [ 2.549, 49.122 ], [ 2.5472, 49.1162 ], [ 2.5398, 49.1164 ], [ 2.5408, 49.1222 ], [ 2.533, 49.1194 ], [ 2.5311, 49.0996 ], [ 2.4899, 49.1064 ], [ 2.5033, 49.1176 ], [ 2.4992, 49.1223 ], [ 2.4755, 49.1283 ], [ 2.4776, 49.1311 ], [ 2.4716, 49.1354 ], [ 2.4615, 49.1359 ], [ 2.4582, 49.1411 ], [ 2.4354, 49.1339 ], [ 2.4409, 49.1458 ], [ 2.4131, 49.1523 ], [ 2.3913, 49.1494 ], [ 2.3805, 49.158 ], [ 2.3724, 49.1594 ], [ 2.3593, 49.1474 ], [ 2.3188, 49.1852 ], [ 2.3012, 49.1839 ], [ 2.2994, 49.1758 ], [ 2.2851, 49.1657 ], [ 2.2864, 49.1599 ], [ 2.2681, 49.1557 ], [ 2.2622, 49.1583 ], [ 2.2538, 49.1526 ], [ 2.223, 49.1519 ], [ 2.2166, 49.1547 ], [ 2.2354, 49.167 ], [ 2.2187, 49.1807 ], [ 2.1955, 49.1732 ], [ 2.1761, 49.176 ], [ 2.1822, 49.1704 ], [ 2.1688, 49.164 ], [ 2.1577, 49.1726 ], [ 2.1646, 49.1797 ], [ 2.147, 49.1881 ], [ 2.137, 49.179 ], [ 2.1352, 49.1912 ], [ 2.1281, 49.1934 ], [ 2.1133, 49.1865 ], [ 2.1097, 49.1907 ], [ 2.0977, 49.1892 ], [ 2.0895, 49.1937 ], [ 2.0912, 49.2085 ], [ 2.0828, 49.2057 ], [ 2.0809, 49.2105 ], [ 2.072, 49.2041 ], [ 2.0475, 49.1986 ], [ 2.0336, 49.1881 ], [ 2.0218, 49.1887 ], [ 2.0018, 49.1759 ], [ 1.9904, 49.1767 ], [ 1.9734, 49.1839 ], [ 1.9627, 49.1746 ], [ 1.9498, 49.1703 ], [ 1.9245, 49.1735 ], [ 1.8826, 49.1625 ], [ 1.8768, 49.1753 ], [ 1.8582, 49.1699 ], [ 1.8445, 49.1704 ], [ 1.8365, 49.1645 ], [ 1.8343, 49.1756 ], [ 1.8269, 49.1796 ], [ 1.8117, 49.1736 ], [ 1.8138, 49.178 ], [ 1.8036, 49.18 ], [ 1.8026, 49.1849 ], [ 1.7955, 49.1853 ], [ 1.791, 49.1799 ], [ 1.7848, 49.1858 ], [ 1.7555, 49.1746 ], [ 1.7408, 49.1807 ], [ 1.7446, 49.1832 ], [ 1.7374, 49.1946 ], [ 1.7268, 49.1949 ], [ 1.7148, 49.2073 ], [ 1.7337, 49.211 ], [ 1.7341, 49.2213 ], [ 1.7404, 49.2234 ], [ 1.7121, 49.233 ], [ 1.7126, 49.2412 ], [ 1.7044, 49.2322 ], [ 1.699, 49.2349 ], [ 1.6987, 49.2467 ], [ 1.7077, 49.255 ], [ 1.7069, 49.2614 ], [ 1.7367, 49.2702 ], [ 1.7532, 49.268 ], [ 1.7587, 49.2724 ], [ 1.757, 49.266 ], [ 1.767, 49.2615 ], [ 1.7669, 49.252 ], [ 1.7906, 49.2466 ], [ 1.7898, 49.2538 ], [ 1.8027, 49.2734 ], [ 1.7932, 49.2743 ], [ 1.7975, 49.2884 ], [ 1.7915, 49.288 ], [ 1.7844, 49.2932 ], [ 1.7725, 49.2911 ], [ 1.7753, 49.3057 ], [ 1.7675, 49.3205 ], [ 1.7742, 49.3372 ], [ 1.7675, 49.34 ], [ 1.7582, 49.3562 ], [ 1.761, 49.3662 ], [ 1.7476, 49.372 ], [ 1.7449, 49.38 ], [ 1.7302, 49.3907 ], [ 1.7205, 49.394 ], [ 1.7404, 49.4057 ], [ 1.7211, 49.4062 ], [ 1.719, 49.4034 ], [ 1.7139, 49.4092 ], [ 1.724, 49.4224 ], [ 1.7234, 49.4346 ], [ 1.7286, 49.4361 ], [ 1.7248, 49.4414 ], [ 1.7335, 49.4413 ], [ 1.7391, 49.4493 ], [ 1.7515, 49.4525 ], [ 1.7477, 49.4586 ], [ 1.7759, 49.4713 ], [ 1.7765, 49.483 ], [ 1.7723, 49.4849 ], [ 1.7806, 49.4908 ], [ 1.7886, 49.4901 ], [ 1.7902, 49.5035 ], [ 1.7719, 49.5129 ], [ 1.7669, 49.5094 ], [ 1.7594, 49.5114 ], [ 1.7507, 49.5037 ], [ 1.7526, 49.4973 ], [ 1.7452, 49.4888 ], [ 1.7396, 49.4997 ], [ 1.7255, 49.4998 ], [ 1.725, 49.503 ], [ 1.7164, 49.5039 ], [ 1.7265, 49.5139 ], [ 1.7413, 49.519 ], [ 1.7356, 49.5248 ], [ 1.7441, 49.529 ], [ 1.7419, 49.5329 ], [ 1.7483, 49.5384 ], [ 1.739, 49.5432 ], [ 1.733, 49.5412 ], [ 1.7235, 49.5439 ], [ 1.7298, 49.5613 ], [ 1.714, 49.5776 ], [ 1.7033, 49.5777 ], [ 1.6977, 49.5722 ], [ 1.6946, 49.5747 ], [ 1.6995, 49.5804 ], [ 1.6907, 49.58 ], [ 1.72, 49.5816 ], [ 1.7216, 49.5888 ], [ 1.7094, 49.5867 ], [ 1.7052, 49.5909 ], [ 1.7085, 49.5949 ], [ 1.6937, 49.6011 ], [ 1.7175, 49.6148 ], [ 1.7216, 49.622 ], [ 1.7173, 49.6331 ], [ 1.6987, 49.6439 ], [ 1.7088, 49.6464 ], [ 1.713, 49.6546 ], [ 1.7216, 49.6585 ], [ 1.7231, 49.6725 ], [ 1.7522, 49.681 ], [ 1.7511, 49.6944 ], [ 1.7401, 49.7014 ], [ 1.7242, 49.6938 ], [ 1.7147, 49.6824 ], [ 1.7045, 49.6809 ], [ 1.6896, 49.6948 ], [ 1.7056, 49.707 ], [ 1.7116, 49.7051 ], [ 1.7155, 49.7086 ], [ 1.7128, 49.7339 ], [ 1.7232, 49.7301 ], [ 1.7455, 49.7386 ], [ 1.7391, 49.749 ], [ 1.7503, 49.7637 ], [ 1.7627, 49.7569 ] ] ] ] } }
]
}
