{
"type": "FeatureCollection",
"name": "dep66",
"crs": { "type": "name", "properties": { "name": "urn:ogc:def:crs:OGC:1.3:CRS84" } },
"xy_coordinate_resolution": 0.0001,
"features": [
{ "type": "Feature", "properties": { "code": "66", "nom": "Pyrénées-Orientales" }, "geometry": { "type": "Polygon", "coordinates": [ [ [ 2.166, 42.6639 ], [ 2.177, 42.6492 ], [ 2.1913, 42.6521 ], [ 2.1922, 42.6591 ], [ 2.2063, 42.6671 ], [ 2.2465, 42.6812 ], [ 2.2552, 42.698 ], [ 2.2645, 42.7016 ], [ 2.2647, 42.7093 ], [ 2.2768, 42.7025 ], [ 2.2971, 42.701 ], [ 2.3054, 42.7059 ], [ 2.3197, 42.7065 ], [ 2.3456, 42.7252 ], [ 2.3554, 42.727 ], [ 2.3525, 42.7627 ], [ 2.343, 42.7754 ], [ 2.3439, 42.8012 ], [ 2.3334, 42.8019 ], [ 2.3321, 42.8204 ], [ 2.3193, 42.824 ], [ 2.3206, 42.8284 ], [ 2.3277, 42.8291 ], [ 2.3239, 42.8338 ], [ 2.3271, 42.8374 ], [ 2.3822, 42.8485 ], [ 2.4525, 42.8369 ], [ 2.4749, 42.8399 ], [ 2.5052, 42.8512 ], [ 2.5166, 42.8424 ], [ 2.5514, 42.8439 ], [ 2.5515, 42.8467 ], [ 2.6043, 42.8359 ], [ 2.6651, 42.8366 ], [ 2.6805, 42.8307 ], [ 2.6976, 42.8304 ], [ 2.7111, 42.8361 ], [ 2.7371, 42.8356 ], [ 2.7544, 42.8519 ], [ 2.7622, 42.8737 ], [ 2.789, 42.896 ], [ 2.8177, 42.9003 ], [ 2.8347, 42.9123 ], [ 2.8653, 42.9183 ], [ 2.8826, 42.8998 ], [ 2.9069, 42.8958 ], [ 2.9171, 42.8849 ], [ 2.985, 42.867 ], [ 3.0435, 42.8382 ], [ 3.0379, 42.7554 ], [ 3.0408, 42.7167 ], [ 3.0384, 42.7046 ], [ 3.0258, 42.7067 ], [ 3.0245, 42.7039 ], [ 3.0389, 42.7012 ], [ 3.0354, 42.6423 ], [ 3.0496, 42.5501 ], [ 3.058, 42.5363 ], [ 3.0831, 42.5316 ], [ 3.0854, 42.5244 ], [ 3.1061, 42.5259 ], [ 3.1156, 42.5189 ], [ 3.1176, 42.5232 ], [ 3.1411, 42.5152 ], [ 3.1233, 42.5059 ], [ 3.1295, 42.4995 ], [ 3.1356, 42.4997 ], [ 3.1275, 42.4873 ], [ 3.1328, 42.4857 ], [ 3.1319, 42.4812 ], [ 3.1551, 42.4774 ], [ 3.155, 42.4702 ], [ 3.1624, 42.465 ], [ 3.1573, 42.4605 ], [ 3.1674, 42.4562 ], [ 3.1599, 42.4519 ], [ 3.1691, 42.4464 ], [ 3.1663, 42.4405 ], [ 3.1778, 42.4395 ], [ 3.1715, 42.435 ], [ 3.1448, 42.4331 ], [ 3.1255, 42.4347 ], [ 3.1208, 42.438 ], [ 3.1102, 42.4354 ], [ 3.1017, 42.4261 ], [ 3.0861, 42.4252 ], [ 3.0472, 42.4571 ], [ 3.0405, 42.4744 ], [ 3.0328, 42.4749 ], [ 3.0132, 42.4662 ], [ 3.0009, 42.473 ], [ 2.9889, 42.4738 ], [ 2.9798, 42.4674 ], [ 2.9674, 42.4654 ], [ 2.9471, 42.4818 ], [ 2.9302, 42.4721 ], [ 2.9245, 42.4584 ], [ 2.9184, 42.4561 ], [ 2.892, 42.4618 ], [ 2.8855, 42.4599 ], [ 2.8703, 42.4673 ], [ 2.8633, 42.4633 ], [ 2.8615, 42.4548 ], [ 2.8395, 42.4593 ], [ 2.8275, 42.4396 ], [ 2.8153, 42.4397 ], [ 2.8085, 42.4311 ], [ 2.8037, 42.432 ], [ 2.7992, 42.4186 ], [ 2.7841, 42.4175 ], [ 2.777, 42.4119 ], [ 2.7702, 42.4118 ], [ 2.7554, 42.4257 ], [ 2.7334, 42.4245 ], [ 2.7167, 42.4212 ], [ 2.692, 42.4062 ], [ 2.6739, 42.4047 ], [ 2.6714, 42.3875 ], [ 2.6515, 42.3864 ], [ 2.6607, 42.3782 ], [ 2.6611, 42.366 ], [ 2.6749, 42.3571 ], [ 2.6755, 42.3424 ], [ 2.6624, 42.3406 ], [ 2.6325, 42.3464 ], [ 2.6163, 42.3456 ], [ 2.5869, 42.3572 ], [ 2.5709, 42.358 ], [ 2.554, 42.354 ], [ 2.5487, 42.3396 ], [ 2.5445, 42.3394 ], [ 2.5421, 42.3337 ], [ 2.5327, 42.3331 ], [ 2.5003, 42.3429 ], [ 2.4812, 42.3406 ], [ 2.4546, 42.3697 ], [ 2.4467, 42.3691 ], [ 2.4335, 42.3771 ], [ 2.4325, 42.3933 ], [ 2.4125, 42.3913 ], [ 2.3875, 42.4001 ], [ 2.3608, 42.4028 ], [ 2.3464, 42.4087 ], [ 2.3435, 42.417 ], [ 2.3261, 42.4172 ], [ 2.3141, 42.4278 ], [ 2.3069, 42.4288 ], [ 2.3006, 42.4239 ], [ 2.2913, 42.4229 ], [ 2.2567, 42.4384 ], [ 2.2462, 42.4288 ], [ 2.2239, 42.4256 ], [ 2.2016, 42.4164 ], [ 2.1802, 42.4182 ], [ 2.1676, 42.4246 ], [ 2.1509, 42.4211 ], [ 2.1256, 42.4097 ], [ 2.1218, 42.3977 ], [ 2.1149, 42.3945 ], [ 2.1168, 42.3832 ], [ 2.0896, 42.3737 ], [ 2.0846, 42.3618 ], [ 2.0724, 42.3646 ], [ 2.0591, 42.3578 ], [ 2.0326, 42.3583 ], [ 2.0229, 42.355 ], [ 2.0154, 42.3468 ], [ 2.012, 42.3529 ], [ 1.9859, 42.362 ], [ 1.9647, 42.3816 ], [ 1.9608, 42.404 ], [ 1.9554, 42.4103 ], [ 1.9583, 42.424 ], [ 1.941, 42.4302 ], [ 1.943, 42.4441 ], [ 1.9369, 42.4536 ], [ 1.9324, 42.4545 ], [ 1.9207, 42.4468 ], [ 1.8983, 42.4501 ], [ 1.8914, 42.4478 ], [ 1.8841, 42.4509 ], [ 1.8814, 42.4597 ], [ 1.8643, 42.4666 ], [ 1.8597, 42.4625 ], [ 1.8542, 42.4641 ], [ 1.8474, 42.4679 ], [ 1.8434, 42.4771 ], [ 1.8235, 42.4862 ], [ 1.8168, 42.4831 ], [ 1.8046, 42.4901 ], [ 1.7917, 42.4858 ], [ 1.7633, 42.4868 ], [ 1.7465, 42.4956 ], [ 1.7307, 42.4928 ], [ 1.7218, 42.517 ], [ 1.7296, 42.5203 ], [ 1.7335, 42.5279 ], [ 1.7345, 42.5491 ], [ 1.7505, 42.564 ], [ 1.7696, 42.5645 ], [ 1.7861, 42.5736 ], [ 1.801, 42.5724 ], [ 1.8371, 42.5845 ], [ 1.8516, 42.5843 ], [ 1.8539, 42.5813 ], [ 1.8604, 42.584 ], [ 1.8643, 42.579 ], [ 1.8745, 42.5814 ], [ 1.8742, 42.59 ], [ 1.8913, 42.5933 ], [ 1.8931, 42.6063 ], [ 1.9002, 42.6149 ], [ 1.9073, 42.6086 ], [ 1.9267, 42.6094 ], [ 1.9334, 42.6048 ], [ 1.9438, 42.6085 ], [ 1.9501, 42.6177 ], [ 1.9718, 42.6169 ], [ 1.9986, 42.6613 ], [ 2.0276, 42.6525 ], [ 2.0433, 42.6575 ], [ 2.047, 42.6636 ], [ 2.0609, 42.6617 ], [ 2.0705, 42.6664 ], [ 2.0853, 42.6668 ], [ 2.109, 42.6639 ], [ 2.1278, 42.6723 ], [ 2.1513, 42.662 ], [ 2.166, 42.6639 ] ], [ [ 1.963, 42.4785 ], [ 1.9562, 42.4577 ], [ 1.961, 42.4529 ], [ 1.9843, 42.4465 ], [ 2.0127, 42.4483 ], [ 2.0106, 42.4558 ], [ 1.9916, 42.4627 ], [ 1.9866, 42.4714 ], [ 1.9926, 42.4841 ], [ 1.9983, 42.4852 ], [ 1.9895, 42.4935 ], [ 1.9788, 42.4948 ], [ 1.9783, 42.486 ], [ 1.963, 42.4785 ] ] ] } }
]
}
