{
"type": "FeatureCollection",
"name": "dep68",
"crs": { "type": "name", "properties": { "name": "urn:ogc:def:crs:OGC:1.3:CRS84" } },
"xy_coordinate_resolution": 0.0001,
"features": [
{ "type": "Feature", "properties": { "code": "68", "nom": "Haut-Rhin" }, "geometry": { "type": "Polygon", "coordinates": [ [ [ 7.1983, 48.3105 ], [ 7.2351, 48.3093 ], [ 7.2417, 48.3024 ], [ 7.2566, 48.3063 ], [ 7.2653, 48.3035 ], [ 7.2751, 48.3056 ], [ 7.301, 48.2826 ], [ 7.2905, 48.2742 ], [ 7.2925, 48.2708 ], [ 7.3041, 48.2681 ], [ 7.3329, 48.2727 ], [ 7.3202, 48.2612 ], [ 7.3149, 48.2633 ], [ 7.3106, 48.2537 ], [ 7.3265, 48.2441 ], [ 7.3536, 48.2485 ], [ 7.4025, 48.2317 ], [ 7.4042, 48.2266 ], [ 7.4436, 48.218 ], [ 7.4498, 48.2116 ], [ 7.4769, 48.2035 ], [ 7.4728, 48.173 ], [ 7.4676, 48.169 ], [ 7.4716, 48.1682 ], [ 7.4701, 48.1602 ], [ 7.5203, 48.1495 ], [ 7.515, 48.1396 ], [ 7.5194, 48.1261 ], [ 7.5773, 48.1204 ], [ 7.5797, 48.1023 ], [ 7.5692, 48.0814 ], [ 7.5738, 48.053 ], [ 7.5687, 48.0341 ], [ 7.6088, 48.0003 ], [ 7.622, 47.9757 ], [ 7.6088, 47.9532 ], [ 7.5833, 47.9311 ], [ 7.5819, 47.8965 ], [ 7.5567, 47.8799 ], [ 7.5631, 47.8438 ], [ 7.5296, 47.7789 ], [ 7.5481, 47.7396 ], [ 7.5477, 47.7299 ], [ 7.5403, 47.7184 ], [ 7.5137, 47.7028 ], [ 7.5118, 47.697 ], [ 7.5195, 47.6847 ], [ 7.5224, 47.6623 ], [ 7.5633, 47.6357 ], [ 7.5736, 47.6167 ], [ 7.591, 47.6047 ], [ 7.5849, 47.5756 ], [ 7.5671, 47.5776 ], [ 7.5567, 47.5723 ], [ 7.5572, 47.565 ], [ 7.5, 47.5398 ], [ 7.5014, 47.5287 ], [ 7.5111, 47.5291 ], [ 7.5193, 47.5346 ], [ 7.5274, 47.5326 ], [ 7.5312, 47.5266 ], [ 7.5229, 47.5142 ], [ 7.5176, 47.517 ], [ 7.5035, 47.5146 ], [ 7.4978, 47.5212 ], [ 7.4988, 47.5167 ], [ 7.5097, 47.5084 ], [ 7.511, 47.4967 ], [ 7.4869, 47.4817 ], [ 7.4709, 47.4804 ], [ 7.4621, 47.4891 ], [ 7.4509, 47.4901 ], [ 7.4348, 47.498 ], [ 7.4318, 47.4961 ], [ 7.4211, 47.4804 ], [ 7.4361, 47.4806 ], [ 7.4557, 47.4705 ], [ 7.4454, 47.4617 ], [ 7.4301, 47.4593 ], [ 7.421, 47.4461 ], [ 7.4034, 47.4355 ], [ 7.3856, 47.4316 ], [ 7.3557, 47.4338 ], [ 7.3307, 47.4416 ], [ 7.3029, 47.4387 ], [ 7.2939, 47.4335 ], [ 7.2835, 47.4348 ], [ 7.2695, 47.4267 ], [ 7.2462, 47.4202 ], [ 7.2328, 47.4388 ], [ 7.1997, 47.435 ], [ 7.1708, 47.4431 ], [ 7.1782, 47.4585 ], [ 7.1772, 47.4676 ], [ 7.1872, 47.483 ], [ 7.1914, 47.4888 ], [ 7.2023, 47.4917 ], [ 7.2011, 47.4939 ], [ 7.1617, 47.49 ], [ 7.1303, 47.503 ], [ 7.1435, 47.5246 ], [ 7.1336, 47.539 ], [ 7.1069, 47.5505 ], [ 7.1077, 47.5648 ], [ 7.0942, 47.5736 ], [ 7.0863, 47.5926 ], [ 7.074, 47.5989 ], [ 7.0702, 47.5963 ], [ 7.0704, 47.6007 ], [ 7.0544, 47.5985 ], [ 7.0398, 47.6011 ], [ 7.0339, 47.5941 ], [ 7.0196, 47.5885 ], [ 7.0157, 47.5918 ], [ 7.0216, 47.5938 ], [ 7.0193, 47.5961 ], [ 7.0059, 47.6024 ], [ 7.0105, 47.605 ], [ 7.0059, 47.6289 ], [ 7.0113, 47.6304 ], [ 7.0142, 47.6257 ], [ 7.0169, 47.6272 ], [ 7.0121, 47.6393 ], [ 7.0192, 47.6412 ], [ 7.0176, 47.6499 ], [ 7.0392, 47.6506 ], [ 7.0342, 47.6611 ], [ 7.0451, 47.6694 ], [ 7.0379, 47.6745 ], [ 7.048, 47.6841 ], [ 7.0401, 47.6857 ], [ 7.0337, 47.6996 ], [ 7.0265, 47.701 ], [ 7.0374, 47.7216 ], [ 7.0215, 47.7333 ], [ 7.016, 47.7432 ], [ 7.013, 47.7413 ], [ 6.9723, 47.7515 ], [ 6.9435, 47.7665 ], [ 6.9404, 47.7716 ], [ 6.9268, 47.7695 ], [ 6.914, 47.7772 ], [ 6.8926, 47.7775 ], [ 6.867, 47.7833 ], [ 6.8601, 47.7944 ], [ 6.8485, 47.8019 ], [ 6.8502, 47.8071 ], [ 6.841, 47.819 ], [ 6.8676, 47.8295 ], [ 6.8961, 47.833 ], [ 6.9029, 47.843 ], [ 6.92, 47.8503 ], [ 6.9181, 47.8573 ], [ 6.9065, 47.8651 ], [ 6.9047, 47.8796 ], [ 6.9097, 47.8816 ], [ 6.8978, 47.8843 ], [ 6.8969, 47.8908 ], [ 6.9185, 47.8984 ], [ 6.917, 47.9021 ], [ 6.9288, 47.9099 ], [ 6.9259, 47.9173 ], [ 6.9132, 47.9194 ], [ 6.9257, 47.9298 ], [ 6.9194, 47.9443 ], [ 6.9307, 47.9719 ], [ 6.9437, 47.9809 ], [ 6.9438, 47.9995 ], [ 6.9529, 48.0029 ], [ 6.9608, 48.0002 ], [ 6.9826, 48.0098 ], [ 6.9902, 48.0194 ], [ 7.0013, 48.0218 ], [ 7.0122, 48.0317 ], [ 7.0091, 48.0328 ], [ 7.0156, 48.038 ], [ 7.0098, 48.0429 ], [ 7.0234, 48.0563 ], [ 7.0229, 48.0636 ], [ 7.0299, 48.0661 ], [ 7.0298, 48.0719 ], [ 7.0516, 48.0826 ], [ 7.0713, 48.1076 ], [ 7.0767, 48.1085 ], [ 7.0842, 48.1292 ], [ 7.0698, 48.1295 ], [ 7.058, 48.1377 ], [ 7.0605, 48.1446 ], [ 7.079, 48.1639 ], [ 7.0776, 48.1709 ], [ 7.0832, 48.1725 ], [ 7.0858, 48.1841 ], [ 7.0998, 48.1891 ], [ 7.1084, 48.1976 ], [ 7.1056, 48.2005 ], [ 7.1177, 48.2082 ], [ 7.1154, 48.2121 ], [ 7.1232, 48.2165 ], [ 7.134, 48.2377 ], [ 7.133, 48.2475 ], [ 7.1477, 48.2644 ], [ 7.1595, 48.2687 ], [ 7.1635, 48.2806 ], [ 7.1767, 48.289 ], [ 7.1724, 48.2975 ], [ 7.1936, 48.302 ], [ 7.1983, 48.3105 ] ] ] } }
]
}
