{
"type": "FeatureCollection",
"name": "dep63",
"crs": { "type": "name", "properties": { "name": "urn:ogc:def:crs:OGC:1.3:CRS84" } },
"xy_coordinate_resolution": 0.0001,
"features": [
{ "type": "Feature", "properties": { "code": "63", "nom": "Puy-de-Dôme" }, "geometry": { "type": "Polygon", "coordinates": [ [ [ 2.5654, 46.143 ], [ 2.5724, 46.1418 ], [ 2.5914, 46.1268 ], [ 2.6069, 46.1303 ], [ 2.6176, 46.1238 ], [ 2.6407, 46.1185 ], [ 2.655, 46.1244 ], [ 2.6562, 46.1329 ], [ 2.6641, 46.1405 ], [ 2.6614, 46.1426 ], [ 2.6685, 46.1443 ], [ 2.6682, 46.1548 ], [ 2.6764, 46.1571 ], [ 2.6749, 46.172 ], [ 2.7017, 46.1807 ], [ 2.7231, 46.1815 ], [ 2.7219, 46.1877 ], [ 2.7322, 46.1943 ], [ 2.7207, 46.2118 ], [ 2.733, 46.2233 ], [ 2.7492, 46.2193 ], [ 2.7589, 46.2097 ], [ 2.7697, 46.2118 ], [ 2.7868, 46.1986 ], [ 2.8088, 46.1947 ], [ 2.8169, 46.2024 ], [ 2.8179, 46.2181 ], [ 2.8233, 46.2199 ], [ 2.8176, 46.2321 ], [ 2.8192, 46.2418 ], [ 2.8263, 46.2417 ], [ 2.8379, 46.2512 ], [ 2.845, 46.2487 ], [ 2.8598, 46.2566 ], [ 2.8648, 46.2495 ], [ 2.8909, 46.2536 ], [ 2.9044, 46.2486 ], [ 2.9214, 46.2503 ], [ 2.9454, 46.2408 ], [ 2.9316, 46.2329 ], [ 2.9352, 46.224 ], [ 2.9411, 46.225 ], [ 2.9337, 46.2185 ], [ 2.9266, 46.2194 ], [ 2.9147, 46.214 ], [ 2.9161, 46.2083 ], [ 2.9096, 46.2035 ], [ 2.9207, 46.1909 ], [ 2.9133, 46.1767 ], [ 2.9433, 46.1681 ], [ 2.952, 46.1713 ], [ 2.9624, 46.1302 ], [ 2.9716, 46.1218 ], [ 2.985, 46.1251 ], [ 3.001, 46.1203 ], [ 3.0113, 46.1128 ], [ 3.0143, 46.1029 ], [ 3.0226, 46.1017 ], [ 3.0385, 46.1074 ], [ 3.0481, 46.1003 ], [ 3.0674, 46.1028 ], [ 3.0906, 46.1145 ], [ 3.0908, 46.1052 ], [ 3.1011, 46.0931 ], [ 3.0983, 46.0836 ], [ 3.1156, 46.0807 ], [ 3.1309, 46.0694 ], [ 3.1753, 46.0659 ], [ 3.184, 46.075 ], [ 3.2035, 46.0726 ], [ 3.2145, 46.0749 ], [ 3.2214, 46.0667 ], [ 3.2241, 46.0709 ], [ 3.2291, 46.0705 ], [ 3.2336, 46.0636 ], [ 3.2448, 46.0621 ], [ 3.2566, 46.0658 ], [ 3.2772, 46.0618 ], [ 3.2811, 46.0665 ], [ 3.2952, 46.0625 ], [ 3.3024, 46.0658 ], [ 3.3013, 46.061 ], [ 3.3162, 46.062 ], [ 3.3156, 46.0571 ], [ 3.3354, 46.0548 ], [ 3.332, 46.0441 ], [ 3.3548, 46.053 ], [ 3.3724, 46.0548 ], [ 3.3814, 46.0656 ], [ 3.402, 46.0661 ], [ 3.4186, 46.0737 ], [ 3.4337, 46.0608 ], [ 3.4436, 46.0596 ], [ 3.4536, 46.0638 ], [ 3.4594, 46.061 ], [ 3.4602, 46.0507 ], [ 3.4719, 46.0392 ], [ 3.4618, 46.0399 ], [ 3.468, 46.0247 ], [ 3.4636, 46.021 ], [ 3.4641, 46.0082 ], [ 3.4826, 46.0142 ], [ 3.5007, 46.0132 ], [ 3.5064, 46.017 ], [ 3.5253, 46.0121 ], [ 3.5207, 46.0186 ], [ 3.5234, 46.0217 ], [ 3.5374, 46.0219 ], [ 3.5435, 46.0132 ], [ 3.5563, 46.019 ], [ 3.5768, 46.0176 ], [ 3.5848, 46.0237 ], [ 3.5921, 46.024 ], [ 3.6256, 45.9854 ], [ 3.632, 45.9611 ], [ 3.6416, 45.9666 ], [ 3.6768, 45.9581 ], [ 3.6828, 45.9405 ], [ 3.694, 45.9307 ], [ 3.7234, 45.9219 ], [ 3.7302, 45.9122 ], [ 3.7396, 45.9092 ], [ 3.7526, 45.8911 ], [ 3.7544, 45.886 ], [ 3.7452, 45.8843 ], [ 3.7476, 45.8818 ], [ 3.7389, 45.8723 ], [ 3.7164, 45.8713 ], [ 3.7201, 45.8611 ], [ 3.7249, 45.8596 ], [ 3.7285, 45.8625 ], [ 3.7284, 45.8554 ], [ 3.7188, 45.8483 ], [ 3.7284, 45.8315 ], [ 3.7173, 45.8193 ], [ 3.7218, 45.8136 ], [ 3.7116, 45.7996 ], [ 3.6886, 45.7911 ], [ 3.7008, 45.7814 ], [ 3.7108, 45.7832 ], [ 3.7318, 45.7745 ], [ 3.7389, 45.7668 ], [ 3.7276, 45.7559 ], [ 3.7323, 45.751 ], [ 3.7459, 45.7422 ], [ 3.7514, 45.7471 ], [ 3.7586, 45.7463 ], [ 3.7682, 45.7283 ], [ 3.7809, 45.7244 ], [ 3.7767, 45.7199 ], [ 3.7828, 45.7067 ], [ 3.7759, 45.7004 ], [ 3.777, 45.6908 ], [ 3.8179, 45.6465 ], [ 3.8235, 45.6324 ], [ 3.8395, 45.6262 ], [ 3.8588, 45.6247 ], [ 3.8609, 45.6155 ], [ 3.8817, 45.6035 ], [ 3.9067, 45.5978 ], [ 3.935, 45.5784 ], [ 3.9443, 45.563 ], [ 3.9544, 45.556 ], [ 3.9457, 45.5452 ], [ 3.9615, 45.5061 ], [ 3.9658, 45.5004 ], [ 3.9847, 45.4952 ], [ 3.983, 45.4821 ], [ 3.9695, 45.4771 ], [ 3.9667, 45.4721 ], [ 3.9734, 45.4599 ], [ 3.9688, 45.452 ], [ 3.9741, 45.4493 ], [ 3.9602, 45.4432 ], [ 3.9626, 45.4352 ], [ 3.9196, 45.4246 ], [ 3.9083, 45.4177 ], [ 3.9096, 45.4119 ], [ 3.8985, 45.4098 ], [ 3.8892, 45.3945 ], [ 3.8954, 45.3834 ], [ 3.8907, 45.3802 ], [ 3.8908, 45.3702 ], [ 3.8966, 45.3563 ], [ 3.8735, 45.3551 ], [ 3.854, 45.36 ], [ 3.8508, 45.3683 ], [ 3.8376, 45.3658 ], [ 3.8359, 45.383 ], [ 3.8224, 45.3799 ], [ 3.821, 45.3847 ], [ 3.8049, 45.3921 ], [ 3.7952, 45.3838 ], [ 3.7914, 45.3848 ], [ 3.7854, 45.3702 ], [ 3.7906, 45.3641 ], [ 3.79, 45.3539 ], [ 3.7795, 45.3548 ], [ 3.7758, 45.3487 ], [ 3.7574, 45.3574 ], [ 3.7559, 45.3539 ], [ 3.7408, 45.3528 ], [ 3.7301, 45.3614 ], [ 3.6999, 45.3595 ], [ 3.6971, 45.3655 ], [ 3.7068, 45.3695 ], [ 3.7074, 45.3739 ], [ 3.6905, 45.3733 ], [ 3.6907, 45.38 ], [ 3.6834, 45.378 ], [ 3.6801, 45.3842 ], [ 3.6739, 45.3803 ], [ 3.6702, 45.3838 ], [ 3.6637, 45.3617 ], [ 3.6448, 45.3593 ], [ 3.6449, 45.351 ], [ 3.6279, 45.339 ], [ 3.6186, 45.3377 ], [ 3.5869, 45.3613 ], [ 3.5881, 45.3752 ], [ 3.5706, 45.4021 ], [ 3.5562, 45.3916 ], [ 3.5541, 45.3972 ], [ 3.5306, 45.4015 ], [ 3.5299, 45.3982 ], [ 3.5244, 45.4063 ], [ 3.5209, 45.4024 ], [ 3.5065, 45.4113 ], [ 3.5016, 45.427 ], [ 3.4798, 45.4211 ], [ 3.4767, 45.4151 ], [ 3.461, 45.4065 ], [ 3.4636, 45.4019 ], [ 3.4303, 45.4021 ], [ 3.4197, 45.3974 ], [ 3.4186, 45.4006 ], [ 3.4061, 45.4034 ], [ 3.4023, 45.3999 ], [ 3.3902, 45.4036 ], [ 3.3783, 45.4008 ], [ 3.3559, 45.4227 ], [ 3.3498, 45.4196 ], [ 3.3408, 45.4214 ], [ 3.3431, 45.417 ], [ 3.334, 45.4077 ], [ 3.3341, 45.3983 ], [ 3.3276, 45.3968 ], [ 3.3201, 45.4132 ], [ 3.3156, 45.4115 ], [ 3.311, 45.4184 ], [ 3.2982, 45.4203 ], [ 3.29, 45.4007 ], [ 3.2541, 45.3887 ], [ 3.2379, 45.3936 ], [ 3.2217, 45.3818 ], [ 3.2186, 45.3695 ], [ 3.2115, 45.3672 ], [ 3.2087, 45.3712 ], [ 3.2019, 45.3711 ], [ 3.1923, 45.3668 ], [ 3.1945, 45.3626 ], [ 3.1814, 45.3647 ], [ 3.1746, 45.3553 ], [ 3.1804, 45.3515 ], [ 3.1466, 45.3502 ], [ 3.1397, 45.3552 ], [ 3.1308, 45.3514 ], [ 3.1042, 45.3548 ], [ 3.0965, 45.352 ], [ 3.0874, 45.3386 ], [ 3.0727, 45.3378 ], [ 3.0653, 45.3325 ], [ 3.0621, 45.3255 ], [ 3.0656, 45.3155 ], [ 3.059, 45.3136 ], [ 3.0523, 45.3028 ], [ 3.0218, 45.2954 ], [ 3.021, 45.2879 ], [ 3.0167, 45.2871 ], [ 2.999, 45.2907 ], [ 2.9686, 45.3074 ], [ 2.9486, 45.3091 ], [ 2.9258, 45.3426 ], [ 2.9225, 45.3681 ], [ 2.9137, 45.3662 ], [ 2.9007, 45.3708 ], [ 2.8998, 45.3769 ], [ 2.8832, 45.3841 ], [ 2.8742, 45.3809 ], [ 2.8735, 45.3754 ], [ 2.8677, 45.3761 ], [ 2.8572, 45.3825 ], [ 2.8524, 45.3923 ], [ 2.8306, 45.3897 ], [ 2.8231, 45.3924 ], [ 2.8216, 45.4002 ], [ 2.8139, 45.4015 ], [ 2.8009, 45.3922 ], [ 2.7857, 45.3896 ], [ 2.7848, 45.3847 ], [ 2.7612, 45.386 ], [ 2.7422, 45.3933 ], [ 2.7143, 45.3818 ], [ 2.7013, 45.3913 ], [ 2.7039, 45.3989 ], [ 2.6953, 45.3979 ], [ 2.6907, 45.4016 ], [ 2.6932, 45.4059 ], [ 2.6807, 45.4072 ], [ 2.6799, 45.4227 ], [ 2.6897, 45.43 ], [ 2.6885, 45.4377 ], [ 2.6801, 45.437 ], [ 2.6782, 45.4401 ], [ 2.6626, 45.4341 ], [ 2.6503, 45.4433 ], [ 2.6363, 45.4464 ], [ 2.6245, 45.4439 ], [ 2.6223, 45.4685 ], [ 2.6164, 45.4691 ], [ 2.6172, 45.4639 ], [ 2.6037, 45.45 ], [ 2.5932, 45.4527 ], [ 2.5848, 45.4501 ], [ 2.5639, 45.4656 ], [ 2.5456, 45.4626 ], [ 2.5365, 45.4566 ], [ 2.544, 45.479 ], [ 2.5197, 45.4833 ], [ 2.5084, 45.4785 ], [ 2.5075, 45.4817 ], [ 2.5139, 45.4924 ], [ 2.5078, 45.5031 ], [ 2.5204, 45.5204 ], [ 2.5118, 45.5251 ], [ 2.5194, 45.5322 ], [ 2.5151, 45.5369 ], [ 2.5168, 45.553 ], [ 2.501, 45.5535 ], [ 2.4909, 45.5604 ], [ 2.4915, 45.568 ], [ 2.4711, 45.5792 ], [ 2.4752, 45.5824 ], [ 2.4612, 45.5965 ], [ 2.4784, 45.6079 ], [ 2.4796, 45.6271 ], [ 2.4875, 45.6424 ], [ 2.492, 45.6378 ], [ 2.4976, 45.6407 ], [ 2.5201, 45.6407 ], [ 2.518, 45.646 ], [ 2.5283, 45.6585 ], [ 2.519, 45.6592 ], [ 2.5126, 45.6698 ], [ 2.5175, 45.6782 ], [ 2.5287, 45.6822 ], [ 2.5235, 45.6876 ], [ 2.5267, 45.692 ], [ 2.5189, 45.6976 ], [ 2.523, 45.7115 ], [ 2.5164, 45.713 ], [ 2.4848, 45.7485 ], [ 2.4744, 45.7457 ], [ 2.4687, 45.7563 ], [ 2.4548, 45.7612 ], [ 2.4505, 45.7572 ], [ 2.4445, 45.7582 ], [ 2.4355, 45.767 ], [ 2.4273, 45.7946 ], [ 2.4128, 45.8023 ], [ 2.4126, 45.8081 ], [ 2.388, 45.8274 ], [ 2.4037, 45.8384 ], [ 2.4159, 45.8337 ], [ 2.4309, 45.8338 ], [ 2.4342, 45.8453 ], [ 2.4459, 45.845 ], [ 2.4495, 45.8482 ], [ 2.4497, 45.8536 ], [ 2.4426, 45.8569 ], [ 2.4434, 45.8666 ], [ 2.4571, 45.8657 ], [ 2.4706, 45.8723 ], [ 2.479, 45.8704 ], [ 2.4797, 45.8645 ], [ 2.4922, 45.864 ], [ 2.5033, 45.8782 ], [ 2.5022, 45.8885 ], [ 2.5142, 45.8857 ], [ 2.5147, 45.89 ], [ 2.5288, 45.8996 ], [ 2.5414, 45.901 ], [ 2.5428, 45.9065 ], [ 2.555, 45.9125 ], [ 2.5439, 45.9158 ], [ 2.5415, 45.9215 ], [ 2.5443, 45.9324 ], [ 2.5536, 45.9358 ], [ 2.5516, 45.9413 ], [ 2.5699, 45.9472 ], [ 2.5636, 45.9556 ], [ 2.609, 45.9667 ], [ 2.6109, 45.9741 ], [ 2.5932, 45.993 ], [ 2.6025, 46.0335 ], [ 2.5707, 46.0473 ], [ 2.5504, 46.0861 ], [ 2.5518, 46.104 ], [ 2.5473, 46.113 ], [ 2.5582, 46.1245 ], [ 2.554, 46.1264 ], [ 2.5559, 46.1325 ], [ 2.5609, 46.1317 ], [ 2.5586, 46.1379 ], [ 2.5654, 46.143 ] ] ] } }
]
}
