{
"type": "FeatureCollection",
"name": "dep67",
"crs": { "type": "name", "properties": { "name": "urn:ogc:def:crs:OGC:1.3:CRS84" } },
"xy_coordinate_resolution": 0.0001,
"features": [
{ "type": "Feature", "properties": { "code": "67", "nom": "Bas-Rhin" }, "geometry": { "type": "Polygon", "coordinates": [ [ [ 7.6353, 49.0542 ], [ 7.6745, 49.045 ], [ 7.6814, 49.049 ], [ 7.6971, 49.0498 ], [ 7.6927, 49.0547 ], [ 7.6961, 49.0578 ], [ 7.7227, 49.0513 ], [ 7.7318, 49.0556 ], [ 7.7322, 49.0444 ], [ 7.7507, 49.048 ], [ 7.7582, 49.0453 ], [ 7.7694, 49.0477 ], [ 7.7807, 49.0586 ], [ 7.7883, 49.0581 ], [ 7.7946, 49.0658 ], [ 7.8104, 49.0614 ], [ 7.831, 49.0473 ], [ 7.8494, 49.0442 ], [ 7.8555, 49.0354 ], [ 7.8663, 49.0334 ], [ 7.8882, 49.0486 ], [ 7.9103, 49.0451 ], [ 7.9167, 49.041 ], [ 7.9338, 49.058 ], [ 7.9456, 49.0555 ], [ 7.9496, 49.0471 ], [ 7.9668, 49.0414 ], [ 7.9747, 49.027 ], [ 8.0005, 49.0282 ], [ 8.0126, 49.0212 ], [ 8.0492, 49.0142 ], [ 8.0707, 48.9959 ], [ 8.0869, 48.9905 ], [ 8.1234, 48.9855 ], [ 8.1394, 48.9783 ], [ 8.1944, 48.9774 ], [ 8.1986, 48.9675 ], [ 8.2227, 48.976 ], [ 8.2333, 48.9667 ], [ 8.1958, 48.9562 ], [ 8.1479, 48.9038 ], [ 8.1226, 48.8671 ], [ 8.1039, 48.8197 ], [ 8.0891, 48.8036 ], [ 8.0651, 48.7898 ], [ 8.0396, 48.7906 ], [ 8.0291, 48.7865 ], [ 8.0228, 48.7684 ], [ 8.0147, 48.7612 ], [ 8.0049, 48.7588 ], [ 7.9818, 48.761 ], [ 7.9718, 48.7576 ], [ 7.9631, 48.7214 ], [ 7.8909, 48.6631 ], [ 7.8398, 48.6414 ], [ 7.8309, 48.6207 ], [ 7.8004, 48.5845 ], [ 7.8052, 48.5136 ], [ 7.7947, 48.5021 ], [ 7.7682, 48.4897 ], [ 7.763, 48.4514 ], [ 7.7336, 48.3987 ], [ 7.7315, 48.3781 ], [ 7.7447, 48.3278 ], [ 7.7358, 48.3191 ], [ 7.7068, 48.3104 ], [ 7.6934, 48.3015 ], [ 7.666, 48.2209 ], [ 7.6435, 48.2065 ], [ 7.6295, 48.1834 ], [ 7.6012, 48.1584 ], [ 7.5992, 48.1358 ], [ 7.5773, 48.1204 ], [ 7.5194, 48.1261 ], [ 7.515, 48.1396 ], [ 7.5203, 48.1495 ], [ 7.4701, 48.1602 ], [ 7.4716, 48.1682 ], [ 7.4676, 48.169 ], [ 7.4728, 48.173 ], [ 7.4769, 48.2035 ], [ 7.4498, 48.2116 ], [ 7.4436, 48.218 ], [ 7.4042, 48.2266 ], [ 7.4025, 48.2317 ], [ 7.3536, 48.2485 ], [ 7.3265, 48.2441 ], [ 7.3106, 48.2537 ], [ 7.3149, 48.2633 ], [ 7.3202, 48.2612 ], [ 7.3329, 48.2727 ], [ 7.3041, 48.2681 ], [ 7.2925, 48.2708 ], [ 7.2905, 48.2742 ], [ 7.301, 48.2826 ], [ 7.2751, 48.3056 ], [ 7.2653, 48.3035 ], [ 7.2566, 48.3063 ], [ 7.2417, 48.3024 ], [ 7.2351, 48.3093 ], [ 7.1983, 48.3105 ], [ 7.1898, 48.3188 ], [ 7.1918, 48.3248 ], [ 7.1772, 48.3253 ], [ 7.1837, 48.3394 ], [ 7.1695, 48.3423 ], [ 7.1535, 48.3334 ], [ 7.1205, 48.3334 ], [ 7.1128, 48.3359 ], [ 7.1077, 48.3443 ], [ 7.076, 48.3526 ], [ 7.1093, 48.3787 ], [ 7.1041, 48.3883 ], [ 7.085, 48.3979 ], [ 7.0974, 48.4056 ], [ 7.0923, 48.4102 ], [ 7.0974, 48.418 ], [ 7.0957, 48.4265 ], [ 7.0996, 48.4342 ], [ 7.1099, 48.4397 ], [ 7.1019, 48.4514 ], [ 7.1187, 48.4745 ], [ 7.1169, 48.4849 ], [ 7.0937, 48.4893 ], [ 7.0906, 48.5037 ], [ 7.0952, 48.5056 ], [ 7.1032, 48.4998 ], [ 7.1358, 48.4976 ], [ 7.1302, 48.4996 ], [ 7.1325, 48.5022 ], [ 7.1208, 48.5051 ], [ 7.1277, 48.5095 ], [ 7.1178, 48.5157 ], [ 7.1102, 48.5139 ], [ 7.1022, 48.5187 ], [ 7.0967, 48.5152 ], [ 7.0833, 48.5159 ], [ 7.0807, 48.5125 ], [ 7.0709, 48.5223 ], [ 7.0645, 48.5234 ], [ 7.0794, 48.5364 ], [ 7.0921, 48.529 ], [ 7.1144, 48.5374 ], [ 7.1243, 48.5364 ], [ 7.1351, 48.5281 ], [ 7.1483, 48.527 ], [ 7.1511, 48.5317 ], [ 7.1679, 48.5276 ], [ 7.1718, 48.5324 ], [ 7.1871, 48.5373 ], [ 7.1925, 48.5488 ], [ 7.2014, 48.5527 ], [ 7.2183, 48.5526 ], [ 7.2485, 48.5825 ], [ 7.2651, 48.5917 ], [ 7.2556, 48.5999 ], [ 7.2708, 48.6125 ], [ 7.27, 48.6183 ], [ 7.2759, 48.6201 ], [ 7.2797, 48.6282 ], [ 7.2619, 48.6318 ], [ 7.2811, 48.6366 ], [ 7.2829, 48.6425 ], [ 7.2938, 48.6472 ], [ 7.3044, 48.6602 ], [ 7.2646, 48.6627 ], [ 7.2615, 48.6722 ], [ 7.2425, 48.6915 ], [ 7.2469, 48.6951 ], [ 7.2602, 48.6943 ], [ 7.2666, 48.7142 ], [ 7.2869, 48.7313 ], [ 7.293, 48.753 ], [ 7.3133, 48.7672 ], [ 7.3064, 48.7691 ], [ 7.2907, 48.7856 ], [ 7.2876, 48.7977 ], [ 7.2705, 48.8025 ], [ 7.262, 48.7984 ], [ 7.2591, 48.8038 ], [ 7.2452, 48.81 ], [ 7.2613, 48.82 ], [ 7.2455, 48.8168 ], [ 7.2225, 48.8296 ], [ 7.2178, 48.8281 ], [ 7.2231, 48.8222 ], [ 7.2166, 48.8203 ], [ 7.2091, 48.8276 ], [ 7.1967, 48.8283 ], [ 7.1871, 48.8334 ], [ 7.1959, 48.8404 ], [ 7.1859, 48.8495 ], [ 7.1729, 48.8464 ], [ 7.1745, 48.8418 ], [ 7.1489, 48.8446 ], [ 7.1411, 48.8344 ], [ 7.1476, 48.8219 ], [ 7.1244, 48.8125 ], [ 7.1222, 48.8056 ], [ 7.1268, 48.8011 ], [ 7.0861, 48.7921 ], [ 7.0778, 48.7856 ], [ 7.0679, 48.7931 ], [ 7.0672, 48.7995 ], [ 7.0891, 48.8068 ], [ 7.0881, 48.8107 ], [ 7.0705, 48.8154 ], [ 7.052, 48.8152 ], [ 7.0472, 48.8201 ], [ 7.0545, 48.8327 ], [ 7.0515, 48.8466 ], [ 7.0671, 48.849 ], [ 7.0781, 48.8453 ], [ 7.0778, 48.8478 ], [ 7.0918, 48.8495 ], [ 7.0996, 48.8551 ], [ 7.0957, 48.8621 ], [ 7.0806, 48.8642 ], [ 7.0505, 48.8589 ], [ 7.0483, 48.8737 ], [ 7.0331, 48.8747 ], [ 7.0262, 48.8804 ], [ 6.9889, 48.8912 ], [ 6.9547, 48.8939 ], [ 6.9646, 48.9045 ], [ 6.962, 48.9111 ], [ 6.9555, 48.9223 ], [ 6.9404, 48.9239 ], [ 6.9462, 48.9351 ], [ 6.9602, 48.9252 ], [ 6.9711, 48.928 ], [ 6.9798, 48.9348 ], [ 6.9774, 48.939 ], [ 6.9863, 48.9472 ], [ 6.9892, 48.9599 ], [ 7.0322, 48.956 ], [ 7.027, 48.969 ], [ 7.0413, 48.9773 ], [ 7.0358, 48.9782 ], [ 7.0306, 48.9871 ], [ 7.0545, 49.0099 ], [ 7.0474, 49.0146 ], [ 7.0523, 49.0283 ], [ 7.0787, 49.0504 ], [ 7.0677, 49.065 ], [ 7.0759, 49.074 ], [ 7.0836, 49.0687 ], [ 7.0993, 49.0779 ], [ 7.1044, 49.0719 ], [ 7.1193, 49.0684 ], [ 7.1017, 49.0637 ], [ 7.1019, 49.0591 ], [ 7.1084, 49.0427 ], [ 7.1195, 49.0372 ], [ 7.1134, 49.0325 ], [ 7.1217, 49.0298 ], [ 7.1217, 49.0187 ], [ 7.128, 49.0132 ], [ 7.1256, 49.0063 ], [ 7.1624, 49.0038 ], [ 7.1742, 49.0064 ], [ 7.1838, 49.0009 ], [ 7.1837, 48.9948 ], [ 7.1943, 48.9952 ], [ 7.2093, 48.9801 ], [ 7.2392, 48.9878 ], [ 7.2931, 48.9734 ], [ 7.2902, 48.9565 ], [ 7.3062, 48.9566 ], [ 7.3061, 48.9535 ], [ 7.3269, 48.9434 ], [ 7.3589, 48.9576 ], [ 7.3692, 48.9523 ], [ 7.3859, 48.9515 ], [ 7.4516, 48.968 ], [ 7.4553, 48.963 ], [ 7.4796, 48.9614 ], [ 7.4852, 48.9507 ], [ 7.5019, 48.9442 ], [ 7.5197, 48.9402 ], [ 7.5259, 48.9445 ], [ 7.5363, 48.9324 ], [ 7.5561, 48.9358 ], [ 7.5517, 48.9422 ], [ 7.5688, 48.9549 ], [ 7.5784, 48.9574 ], [ 7.5845, 48.9668 ], [ 7.5799, 48.9693 ], [ 7.5923, 48.9848 ], [ 7.5876, 48.9897 ], [ 7.6116, 49.0124 ], [ 7.6064, 49.02 ], [ 7.6379, 49.0461 ], [ 7.6353, 49.0542 ] ] ] } }
]
}
