{
"type": "FeatureCollection",
"name": "dep64",
"crs": { "type": "name", "properties": { "name": "urn:ogc:def:crs:OGC:1.3:CRS84" } },
"xy_coordinate_resolution": 0.0001,
"features": [
{ "type": "Feature", "properties": { "code": "64", "nom": "Pyrénées-Atlantiques" }, "geometry": { "type": "Polygon", "coordinates": [ [ [ -0.2541, 43.5827 ], [ -0.235, 43.5834 ], [ -0.2331, 43.5886 ], [ -0.2106, 43.5932 ], [ -0.2047, 43.5836 ], [ -0.1766, 43.5968 ], [ -0.1604, 43.5806 ], [ -0.1481, 43.5858 ], [ -0.1382, 43.5799 ], [ -0.1289, 43.5812 ], [ -0.1216, 43.5868 ], [ -0.1083, 43.5818 ], [ -0.0968, 43.5824 ], [ -0.0889, 43.5572 ], [ -0.0941, 43.5439 ], [ -0.0887, 43.542 ], [ -0.0806, 43.5469 ], [ -0.066, 43.5481 ], [ -0.0657, 43.5413 ], [ -0.0607, 43.5421 ], [ -0.056, 43.5329 ], [ -0.0446, 43.5253 ], [ -0.0401, 43.5126 ], [ -0.0496, 43.4919 ], [ -0.0349, 43.4885 ], [ -0.0347, 43.4749 ], [ -0.0178, 43.4721 ], [ -0.0191, 43.465 ], [ -0.0657, 43.4635 ], [ -0.0617, 43.4525 ], [ -0.0707, 43.4353 ], [ -0.0508, 43.4196 ], [ -0.0623, 43.4178 ], [ -0.0673, 43.4104 ], [ -0.043, 43.4102 ], [ -0.0337, 43.4327 ], [ -0.0248, 43.43 ], [ -0.0165, 43.444 ], [ -0.0025, 43.4451 ], [ -0.0048, 43.4316 ], [ 0.0097, 43.4222 ], [ -0.0038, 43.3981 ], [ -0.0004, 43.3963 ], [ -0.0043, 43.3934 ], [ 0.005, 43.3938 ], [ -0.0019, 43.3873 ], [ 0.001, 43.3837 ], [ -0.0058, 43.373 ], [ 0.0015, 43.3689 ], [ 0.0049, 43.3718 ], [ 0.0056, 43.3636 ], [ 0.0295, 43.3462 ], [ 0.0103, 43.3253 ], [ -0.0032, 43.3321 ], [ -0.0254, 43.3296 ], [ -0.0292, 43.3158 ], [ -0.0461, 43.3009 ], [ -0.0444, 43.2853 ], [ -0.024, 43.2802 ], [ -0.0271, 43.2759 ], [ -0.0177, 43.2746 ], [ -0.017, 43.2704 ], [ -0.0256, 43.261 ], [ -0.0243, 43.254 ], [ -0.0458, 43.2326 ], [ -0.0495, 43.2172 ], [ -0.0623, 43.2225 ], [ -0.074, 43.2224 ], [ -0.0679, 43.1771 ], [ -0.0955, 43.1772 ], [ -0.0975, 43.1666 ], [ -0.1059, 43.1665 ], [ -0.1113, 43.1793 ], [ -0.1177, 43.1803 ], [ -0.1269, 43.1654 ], [ -0.1262, 43.1577 ], [ -0.1429, 43.1432 ], [ -0.141, 43.1359 ], [ -0.1461, 43.1282 ], [ -0.1663, 43.1219 ], [ -0.175, 43.1101 ], [ -0.1938, 43.115 ], [ -0.1916, 43.1056 ], [ -0.1977, 43.0982 ], [ -0.1867, 43.0919 ], [ -0.1864, 43.0843 ], [ -0.1961, 43.0744 ], [ -0.1991, 43.0644 ], [ -0.1816, 43.0525 ], [ -0.1896, 43.052 ], [ -0.2001, 43.0427 ], [ -0.2239, 43.0337 ], [ -0.2394, 43.0397 ], [ -0.2582, 43.0382 ], [ -0.2611, 43.0328 ], [ -0.2554, 43.0262 ], [ -0.2597, 43.0137 ], [ -0.276, 43.0059 ], [ -0.2872, 43.0059 ], [ -0.2932, 42.9927 ], [ -0.2873, 42.967 ], [ -0.2907, 42.9605 ], [ -0.2819, 42.9509 ], [ -0.2816, 42.9336 ], [ -0.2866, 42.9294 ], [ -0.2978, 42.931 ], [ -0.308, 42.9265 ], [ -0.3108, 42.919 ], [ -0.3272, 42.9165 ], [ -0.3253, 42.9044 ], [ -0.3162, 42.8966 ], [ -0.3159, 42.8822 ], [ -0.3071, 42.87 ], [ -0.3109, 42.8531 ], [ -0.324, 42.835 ], [ -0.3471, 42.8377 ], [ -0.3647, 42.8164 ], [ -0.383, 42.8072 ], [ -0.3834, 42.801 ], [ -0.3949, 42.7989 ], [ -0.4092, 42.8077 ], [ -0.4435, 42.7959 ], [ -0.4518, 42.8036 ], [ -0.4782, 42.8095 ], [ -0.4822, 42.8151 ], [ -0.4923, 42.8168 ], [ -0.5011, 42.8278 ], [ -0.5104, 42.8253 ], [ -0.5243, 42.8122 ], [ -0.5229, 42.7991 ], [ -0.5297, 42.7915 ], [ -0.5438, 42.7932 ], [ -0.5512, 42.7775 ], [ -0.5669, 42.7805 ], [ -0.5706, 42.7905 ], [ -0.5647, 42.798 ], [ -0.566, 42.8038 ], [ -0.5768, 42.8081 ], [ -0.5905, 42.8027 ], [ -0.6008, 42.8063 ], [ -0.5984, 42.814 ], [ -0.6036, 42.8326 ], [ -0.6196, 42.838 ], [ -0.6362, 42.8532 ], [ -0.6551, 42.8581 ], [ -0.6662, 42.8755 ], [ -0.6784, 42.8844 ], [ -0.6989, 42.8788 ], [ -0.7319, 42.896 ], [ -0.7364, 42.913 ], [ -0.7244, 42.9188 ], [ -0.7241, 42.9223 ], [ -0.7325, 42.9284 ], [ -0.7306, 42.9455 ], [ -0.7436, 42.9518 ], [ -0.753, 42.9677 ], [ -0.768, 42.9688 ], [ -0.7716, 42.9656 ], [ -0.7902, 42.9638 ], [ -0.8148, 42.951 ], [ -0.8374, 42.9543 ], [ -0.865, 42.9508 ], [ -0.8754, 42.9549 ], [ -0.8974, 42.9557 ], [ -0.8988, 42.9613 ], [ -0.9076, 42.9643 ], [ -0.9142, 42.9638 ], [ -0.9256, 42.9539 ], [ -0.9438, 42.9532 ], [ -0.9723, 42.962 ], [ -0.9813, 42.9707 ], [ -0.9975, 42.9757 ], [ -1.0064, 42.989 ], [ -1.0166, 42.9947 ], [ -1.0259, 42.992 ], [ -1.0742, 42.9986 ], [ -1.0852, 43.0034 ], [ -1.0836, 43.0109 ], [ -1.103, 43.0154 ], [ -1.1147, 43.0239 ], [ -1.1341, 43.0086 ], [ -1.1422, 43.008 ], [ -1.1444, 43.0235 ], [ -1.1641, 43.0349 ], [ -1.1737, 43.0376 ], [ -1.1807, 43.0325 ], [ -1.2124, 43.0513 ], [ -1.2302, 43.0554 ], [ -1.2472, 43.0424 ], [ -1.263, 43.0434 ], [ -1.2705, 43.0547 ], [ -1.2879, 43.0637 ], [ -1.3093, 43.0686 ], [ -1.2971, 43.0953 ], [ -1.2702, 43.1186 ], [ -1.3206, 43.1127 ], [ -1.3322, 43.1078 ], [ -1.3451, 43.094 ], [ -1.3403, 43.0808 ], [ -1.3429, 43.0545 ], [ -1.3537, 43.0282 ], [ -1.4412, 43.0463 ], [ -1.4732, 43.0868 ], [ -1.4642, 43.0975 ], [ -1.4407, 43.1077 ], [ -1.4431, 43.1115 ], [ -1.4273, 43.1169 ], [ -1.4241, 43.125 ], [ -1.4148, 43.1279 ], [ -1.4096, 43.1428 ], [ -1.4161, 43.1487 ], [ -1.4022, 43.1557 ], [ -1.402, 43.1779 ], [ -1.3817, 43.1896 ], [ -1.3865, 43.194 ], [ -1.3804, 43.2144 ], [ -1.3843, 43.2212 ], [ -1.3778, 43.2301 ], [ -1.3827, 43.253 ], [ -1.3885, 43.2586 ], [ -1.4132, 43.2734 ], [ -1.4275, 43.267 ], [ -1.4388, 43.2665 ], [ -1.4659, 43.2723 ], [ -1.4826, 43.2828 ], [ -1.4919, 43.2804 ], [ -1.5059, 43.2933 ], [ -1.5353, 43.2946 ], [ -1.5396, 43.2913 ], [ -1.5647, 43.2879 ], [ -1.5582, 43.2769 ], [ -1.5692, 43.2556 ], [ -1.5766, 43.2499 ], [ -1.5808, 43.2532 ], [ -1.5979, 43.2546 ], [ -1.6087, 43.2519 ], [ -1.6224, 43.264 ], [ -1.6304, 43.2844 ], [ -1.6241, 43.3061 ], [ -1.6354, 43.309 ], [ -1.6453, 43.3068 ], [ -1.6549, 43.3126 ], [ -1.6685, 43.3149 ], [ -1.6857, 43.3091 ], [ -1.6947, 43.3122 ], [ -1.7135, 43.3003 ], [ -1.7234, 43.3 ], [ -1.7297, 43.2957 ], [ -1.7413, 43.3167 ], [ -1.7377, 43.3304 ], [ -1.7492, 43.3314 ], [ -1.7539, 43.342 ], [ -1.7755, 43.3439 ], [ -1.7892, 43.3546 ], [ -1.7829, 43.362 ], [ -1.7923, 43.3706 ], [ -1.7887, 43.3784 ], [ -1.789, 43.3741 ], [ -1.7746, 43.373 ], [ -1.7555, 43.3792 ], [ -1.7581, 43.3811 ], [ -1.7523, 43.3871 ], [ -1.7398, 43.3809 ], [ -1.6821, 43.3975 ], [ -1.6815, 43.39 ], [ -1.6655, 43.3893 ], [ -1.6607, 43.3934 ], [ -1.6664, 43.3999 ], [ -1.6617, 43.4038 ], [ -1.6391, 43.4084 ], [ -1.6389, 43.4128 ], [ -1.6288, 43.4135 ], [ -1.6311, 43.4166 ], [ -1.6247, 43.4189 ], [ -1.6258, 43.4226 ], [ -1.6177, 43.4272 ], [ -1.6097, 43.4267 ], [ -1.6015, 43.4333 ], [ -1.5949, 43.4484 ], [ -1.5876, 43.4516 ], [ -1.5701, 43.4747 ], [ -1.5713, 43.4817 ], [ -1.5544, 43.4901 ], [ -1.5558, 43.4945 ], [ -1.5481, 43.496 ], [ -1.5249, 43.5297 ], [ -1.494, 43.5285 ], [ -1.4782, 43.5397 ], [ -1.4718, 43.5339 ], [ -1.4611, 43.5317 ], [ -1.465, 43.5166 ], [ -1.4599, 43.519 ], [ -1.4375, 43.5131 ], [ -1.4311, 43.5146 ], [ -1.4177, 43.4969 ], [ -1.3679, 43.4949 ], [ -1.3245, 43.5051 ], [ -1.2889, 43.4987 ], [ -1.2173, 43.5307 ], [ -1.1956, 43.5461 ], [ -1.1708, 43.5456 ], [ -1.1595, 43.5387 ], [ -1.1535, 43.5287 ], [ -1.1308, 43.5187 ], [ -1.1333, 43.5097 ], [ -1.1473, 43.5111 ], [ -1.1523, 43.5073 ], [ -1.1649, 43.5084 ], [ -1.1719, 43.5048 ], [ -1.1687, 43.4922 ], [ -1.1641, 43.4909 ], [ -1.1532, 43.497 ], [ -1.1444, 43.4876 ], [ -1.1387, 43.4903 ], [ -1.138, 43.4996 ], [ -1.118, 43.5015 ], [ -1.1093, 43.5141 ], [ -1.0877, 43.5112 ], [ -1.0815, 43.5222 ], [ -1.0725, 43.5186 ], [ -1.069, 43.5085 ], [ -1.0581, 43.5126 ], [ -1.0517, 43.5089 ], [ -1.0464, 43.5143 ], [ -1.0442, 43.5088 ], [ -1.0314, 43.51 ], [ -1.0237, 43.5017 ], [ -1.02, 43.5063 ], [ -0.9924, 43.504 ], [ -0.9891, 43.5305 ], [ -1.0011, 43.5382 ], [ -0.9885, 43.5414 ], [ -0.9856, 43.5371 ], [ -0.9786, 43.5399 ], [ -0.9509, 43.5321 ], [ -0.9404, 43.5385 ], [ -0.9266, 43.532 ], [ -0.9215, 43.5353 ], [ -0.9225, 43.5427 ], [ -0.9054, 43.5505 ], [ -0.8457, 43.5422 ], [ -0.8427, 43.5536 ], [ -0.8183, 43.5614 ], [ -0.804, 43.5563 ], [ -0.7942, 43.564 ], [ -0.7818, 43.5642 ], [ -0.7824, 43.5767 ], [ -0.7683, 43.5795 ], [ -0.7341, 43.5557 ], [ -0.7285, 43.5452 ], [ -0.7174, 43.5406 ], [ -0.7093, 43.5413 ], [ -0.7075, 43.56 ], [ -0.7005, 43.5616 ], [ -0.688, 43.5568 ], [ -0.6768, 43.5602 ], [ -0.6708, 43.5667 ], [ -0.6411, 43.5748 ], [ -0.6413, 43.5707 ], [ -0.6583, 43.5606 ], [ -0.6578, 43.5561 ], [ -0.6338, 43.5541 ], [ -0.6157, 43.5444 ], [ -0.6144, 43.5377 ], [ -0.5963, 43.5382 ], [ -0.5961, 43.5418 ], [ -0.5723, 43.5522 ], [ -0.5671, 43.5582 ], [ -0.5572, 43.5428 ], [ -0.5528, 43.5432 ], [ -0.5313, 43.5526 ], [ -0.526, 43.5593 ], [ -0.5112, 43.5627 ], [ -0.5045, 43.5726 ], [ -0.4679, 43.5897 ], [ -0.4611, 43.5869 ], [ -0.4492, 43.5963 ], [ -0.4369, 43.5908 ], [ -0.4316, 43.5837 ], [ -0.4326, 43.578 ], [ -0.441, 43.5787 ], [ -0.4473, 43.5732 ], [ -0.4479, 43.5666 ], [ -0.459, 43.5622 ], [ -0.4557, 43.5693 ], [ -0.4634, 43.5666 ], [ -0.4497, 43.5499 ], [ -0.4334, 43.5547 ], [ -0.428, 43.5599 ], [ -0.4241, 43.5572 ], [ -0.406, 43.5682 ], [ -0.4007, 43.5632 ], [ -0.3944, 43.5693 ], [ -0.3755, 43.5683 ], [ -0.3658, 43.5619 ], [ -0.3567, 43.563 ], [ -0.336, 43.5509 ], [ -0.3275, 43.5558 ], [ -0.3037, 43.5603 ], [ -0.3012, 43.5713 ], [ -0.2909, 43.5681 ], [ -0.283, 43.5857 ], [ -0.273, 43.5841 ], [ -0.2592, 43.5889 ], [ -0.2534, 43.5883 ], [ -0.2541, 43.5827 ] ], [ [ -0.1033, 43.3586 ], [ -0.0902, 43.3594 ], [ -0.0866, 43.3362 ], [ -0.0935, 43.3331 ], [ -0.1093, 43.3379 ], [ -0.1155, 43.3324 ], [ -0.1102, 43.3122 ], [ -0.0976, 43.3139 ], [ -0.075, 43.3071 ], [ -0.0686, 43.3125 ], [ -0.0625, 43.3467 ], [ -0.0649, 43.355 ], [ -0.0829, 43.3664 ], [ -0.0832, 43.3714 ], [ -0.0931, 43.3739 ], [ -0.1073, 43.3707 ], [ -0.1033, 43.3586 ] ], [ [ -0.1031, 43.2428 ], [ -0.1038, 43.2496 ], [ -0.0943, 43.2547 ], [ -0.0921, 43.2521 ], [ -0.0797, 43.2626 ], [ -0.0793, 43.2717 ], [ -0.0962, 43.2855 ], [ -0.0893, 43.3008 ], [ -0.1115, 43.3104 ], [ -0.12, 43.3062 ], [ -0.1251, 43.2944 ], [ -0.1373, 43.2857 ], [ -0.1406, 43.2719 ], [ -0.1213, 43.2409 ], [ -0.1031, 43.2428 ] ] ] } }
]
}
