{
"type": "FeatureCollection",
"name": "dep65",
"crs": { "type": "name", "properties": { "name": "urn:ogc:def:crs:OGC:1.3:CRS84" } },
"xy_coordinate_resolution": 0.0001,
"features": [
{ "type": "Feature", "properties": { "code": "65", "nom": "Hautes-Pyrénées" }, "geometry": { "type": "MultiPolygon", "coordinates": [ [ [ [ -0.1031, 43.2428 ], [ -0.1213, 43.2409 ], [ -0.1406, 43.2719 ], [ -0.1373, 43.2857 ], [ -0.1251, 43.2944 ], [ -0.12, 43.3062 ], [ -0.1115, 43.3104 ], [ -0.0893, 43.3008 ], [ -0.0962, 43.2855 ], [ -0.0793, 43.2717 ], [ -0.0797, 43.2626 ], [ -0.0921, 43.2521 ], [ -0.0943, 43.2547 ], [ -0.1038, 43.2496 ], [ -0.1031, 43.2428 ] ] ], [ [ [ -0.1033, 43.3586 ], [ -0.1073, 43.3707 ], [ -0.0931, 43.3739 ], [ -0.0832, 43.3714 ], [ -0.0829, 43.3664 ], [ -0.0649, 43.355 ], [ -0.0625, 43.3467 ], [ -0.0686, 43.3125 ], [ -0.075, 43.3071 ], [ -0.0976, 43.3139 ], [ -0.1102, 43.3122 ], [ -0.1155, 43.3324 ], [ -0.1093, 43.3379 ], [ -0.0935, 43.3331 ], [ -0.0866, 43.3362 ], [ -0.0902, 43.3594 ], [ -0.1033, 43.3586 ] ] ], [ [ [ -0.0889, 43.5572 ], [ -0.0975, 43.5894 ], [ -0.0757, 43.5916 ], [ -0.074, 43.6063 ], [ -0.0548, 43.6062 ], [ -0.0447, 43.6132 ], [ -0.0334, 43.604 ], [ -0.0154, 43.6055 ], [ -0.0036, 43.5854 ], [ -0.0029, 43.5662 ], [ 0.0089, 43.5605 ], [ 0.0168, 43.5431 ], [ 0.0296, 43.5449 ], [ 0.043, 43.5344 ], [ 0.0514, 43.5185 ], [ 0.0723, 43.5198 ], [ 0.0803, 43.5239 ], [ 0.0897, 43.5102 ], [ 0.1013, 43.5108 ], [ 0.1003, 43.5134 ], [ 0.1121, 43.5174 ], [ 0.1166, 43.5149 ], [ 0.1165, 43.5101 ], [ 0.1305, 43.4949 ], [ 0.1271, 43.4917 ], [ 0.135, 43.4657 ], [ 0.15, 43.4647 ], [ 0.1659, 43.4443 ], [ 0.1375, 43.434 ], [ 0.1323, 43.4242 ], [ 0.1449, 43.4147 ], [ 0.1531, 43.3995 ], [ 0.1738, 43.4028 ], [ 0.1801, 43.3816 ], [ 0.1766, 43.3766 ], [ 0.182, 43.3712 ], [ 0.1995, 43.3753 ], [ 0.2063, 43.3678 ], [ 0.2203, 43.3704 ], [ 0.2326, 43.3678 ], [ 0.249, 43.377 ], [ 0.257, 43.3766 ], [ 0.2784, 43.3862 ], [ 0.298, 43.3881 ], [ 0.3001, 43.3729 ], [ 0.3066, 43.3681 ], [ 0.3154, 43.3674 ], [ 0.3245, 43.3745 ], [ 0.3271, 43.3727 ], [ 0.3318, 43.3432 ], [ 0.348, 43.3491 ], [ 0.3918, 43.3556 ], [ 0.3911, 43.35 ], [ 0.3993, 43.3502 ], [ 0.3951, 43.3499 ], [ 0.3957, 43.3336 ], [ 0.4144, 43.3288 ], [ 0.443, 43.3279 ], [ 0.445, 43.3407 ], [ 0.4822, 43.332 ], [ 0.494, 43.3251 ], [ 0.5079, 43.3341 ], [ 0.5411, 43.3271 ], [ 0.5507, 43.3296 ], [ 0.5527, 43.3262 ], [ 0.5621, 43.3251 ], [ 0.5632, 43.3209 ], [ 0.5718, 43.3197 ], [ 0.5756, 43.3226 ], [ 0.5909, 43.3141 ], [ 0.5963, 43.3158 ], [ 0.6356, 43.3012 ], [ 0.6347, 43.2935 ], [ 0.6157, 43.2888 ], [ 0.6139, 43.2771 ], [ 0.5967, 43.2738 ], [ 0.5768, 43.2591 ], [ 0.5784, 43.2537 ], [ 0.5668, 43.2523 ], [ 0.5534, 43.2377 ], [ 0.5728, 43.2331 ], [ 0.5738, 43.2203 ], [ 0.5519, 43.2092 ], [ 0.5449, 43.2133 ], [ 0.5356, 43.2077 ], [ 0.5174, 43.2124 ], [ 0.5059, 43.1982 ], [ 0.5191, 43.1945 ], [ 0.526, 43.1983 ], [ 0.5219, 43.1921 ], [ 0.4878, 43.1652 ], [ 0.4708, 43.1579 ], [ 0.442, 43.1313 ], [ 0.4643, 43.1181 ], [ 0.4532, 43.1112 ], [ 0.489, 43.1152 ], [ 0.4912, 43.1087 ], [ 0.5026, 43.1068 ], [ 0.4983, 43.1029 ], [ 0.5008, 43.0957 ], [ 0.5324, 43.0933 ], [ 0.5317, 43.0829 ], [ 0.5542, 43.0794 ], [ 0.5537, 43.0742 ], [ 0.5639, 43.0743 ], [ 0.5529, 43.0654 ], [ 0.5612, 43.0603 ], [ 0.5602, 43.0471 ], [ 0.5667, 43.0374 ], [ 0.5626, 43.0358 ], [ 0.5472, 43.0448 ], [ 0.5379, 43.0416 ], [ 0.536, 43.0186 ], [ 0.527, 43.0089 ], [ 0.5282, 43.0047 ], [ 0.5321, 43.0077 ], [ 0.531, 43.0033 ], [ 0.5402, 43.0013 ], [ 0.5656, 43.0203 ], [ 0.5745, 43.0222 ], [ 0.5839, 43.0191 ], [ 0.5857, 43.0234 ], [ 0.5918, 43.0224 ], [ 0.5932, 43.0354 ], [ 0.6066, 43.0346 ], [ 0.6165, 43.0206 ], [ 0.6157, 43.0111 ], [ 0.6274, 43.0001 ], [ 0.6238, 42.9904 ], [ 0.6122, 42.9886 ], [ 0.6188, 42.9724 ], [ 0.6358, 42.9689 ], [ 0.6461, 42.9609 ], [ 0.642, 42.9529 ], [ 0.6355, 42.9515 ], [ 0.6266, 42.9418 ], [ 0.6061, 42.9344 ], [ 0.5995, 42.9272 ], [ 0.5983, 42.9136 ], [ 0.586, 42.9007 ], [ 0.5759, 42.8708 ], [ 0.5623, 42.8608 ], [ 0.554, 42.8601 ], [ 0.5498, 42.8647 ], [ 0.5342, 42.8613 ], [ 0.5255, 42.8675 ], [ 0.5025, 42.8684 ], [ 0.4965, 42.8763 ], [ 0.4774, 42.8782 ], [ 0.4722, 42.8704 ], [ 0.4727, 42.8592 ], [ 0.4602, 42.8518 ], [ 0.4675, 42.8468 ], [ 0.4558, 42.8169 ], [ 0.456, 42.8104 ], [ 0.4636, 42.8045 ], [ 0.4631, 42.7901 ], [ 0.4547, 42.772 ], [ 0.4634, 42.7596 ], [ 0.4627, 42.7392 ], [ 0.4582, 42.7348 ], [ 0.449, 42.7338 ], [ 0.4846, 42.7103 ], [ 0.4825, 42.7029 ], [ 0.468, 42.695 ], [ 0.4363, 42.69 ], [ 0.403, 42.6961 ], [ 0.3953, 42.6996 ], [ 0.3926, 42.7131 ], [ 0.3758, 42.7142 ], [ 0.3601, 42.7243 ], [ 0.3454, 42.711 ], [ 0.3251, 42.7052 ], [ 0.3215, 42.6841 ], [ 0.3129, 42.6835 ], [ 0.2951, 42.6732 ], [ 0.2635, 42.6932 ], [ 0.2681, 42.6998 ], [ 0.2599, 42.7158 ], [ 0.2493, 42.7185 ], [ 0.2265, 42.7173 ], [ 0.206, 42.7293 ], [ 0.1757, 42.737 ], [ 0.1635, 42.7292 ], [ 0.162, 42.723 ], [ 0.1366, 42.7223 ], [ 0.1333, 42.7161 ], [ 0.1161, 42.7108 ], [ 0.1059, 42.7105 ], [ 0.0904, 42.7171 ], [ 0.0784, 42.7149 ], [ 0.0707, 42.7039 ], [ 0.0586, 42.6977 ], [ 0.0482, 42.6959 ], [ 0.0246, 42.7025 ], [ 0.0144, 42.7017 ], [ 0.0137, 42.6934 ], [ 0.0019, 42.6858 ], [ -0.0166, 42.6849 ], [ -0.0495, 42.6942 ], [ -0.0567, 42.6921 ], [ -0.0633, 42.6962 ], [ -0.0688, 42.7179 ], [ -0.1068, 42.7205 ], [ -0.1117, 42.7267 ], [ -0.108, 42.732 ], [ -0.1176, 42.7383 ], [ -0.1229, 42.7516 ], [ -0.1384, 42.7669 ], [ -0.1499, 42.7692 ], [ -0.1471, 42.7756 ], [ -0.1542, 42.7808 ], [ -0.1546, 42.7927 ], [ -0.1609, 42.7983 ], [ -0.1757, 42.7865 ], [ -0.1894, 42.7866 ], [ -0.1976, 42.7952 ], [ -0.2139, 42.796 ], [ -0.2199, 42.8028 ], [ -0.2241, 42.801 ], [ -0.2391, 42.8089 ], [ -0.2434, 42.8231 ], [ -0.256, 42.8191 ], [ -0.2747, 42.8285 ], [ -0.2767, 42.8355 ], [ -0.3064, 42.8412 ], [ -0.3134, 42.8494 ], [ -0.3071, 42.87 ], [ -0.3159, 42.8822 ], [ -0.3162, 42.8966 ], [ -0.3253, 42.9044 ], [ -0.3272, 42.9165 ], [ -0.3108, 42.919 ], [ -0.308, 42.9265 ], [ -0.2978, 42.931 ], [ -0.2866, 42.9294 ], [ -0.2816, 42.9336 ], [ -0.2819, 42.9509 ], [ -0.2907, 42.9605 ], [ -0.2873, 42.967 ], [ -0.2932, 42.9927 ], [ -0.2872, 43.0059 ], [ -0.276, 43.0059 ], [ -0.2597, 43.0137 ], [ -0.2554, 43.0262 ], [ -0.2611, 43.0328 ], [ -0.2582, 43.0382 ], [ -0.2394, 43.0397 ], [ -0.2239, 43.0337 ], [ -0.2001, 43.0427 ], [ -0.1896, 43.052 ], [ -0.1816, 43.0525 ], [ -0.1991, 43.0644 ], [ -0.1961, 43.0744 ], [ -0.1864, 43.0843 ], [ -0.1867, 43.0919 ], [ -0.1977, 43.0982 ], [ -0.1916, 43.1056 ], [ -0.1938, 43.115 ], [ -0.175, 43.1101 ], [ -0.1663, 43.1219 ], [ -0.1461, 43.1282 ], [ -0.141, 43.1359 ], [ -0.1429, 43.1432 ], [ -0.1262, 43.1577 ], [ -0.1269, 43.1654 ], [ -0.1177, 43.1803 ], [ -0.1113, 43.1793 ], [ -0.1059, 43.1665 ], [ -0.0975, 43.1666 ], [ -0.0955, 43.1772 ], [ -0.0679, 43.1771 ], [ -0.074, 43.2224 ], [ -0.0623, 43.2225 ], [ -0.0495, 43.2172 ], [ -0.0458, 43.2326 ], [ -0.0243, 43.254 ], [ -0.0256, 43.261 ], [ -0.017, 43.2704 ], [ -0.0177, 43.2746 ], [ -0.0271, 43.2759 ], [ -0.024, 43.2802 ], [ -0.0444, 43.2853 ], [ -0.0461, 43.3009 ], [ -0.0292, 43.3158 ], [ -0.0254, 43.3296 ], [ -0.0032, 43.3321 ], [ 0.0103, 43.3253 ], [ 0.0295, 43.3462 ], [ 0.0056, 43.3636 ], [ 0.0049, 43.3718 ], [ 0.0015, 43.3689 ], [ -0.0058, 43.373 ], [ 0.001, 43.3837 ], [ -0.0019, 43.3873 ], [ 0.005, 43.3938 ], [ -0.0043, 43.3934 ], [ -0.0004, 43.3963 ], [ -0.0038, 43.3981 ], [ 0.0097, 43.4222 ], [ -0.0048, 43.4316 ], [ -0.0025, 43.4451 ], [ -0.0165, 43.444 ], [ -0.0248, 43.43 ], [ -0.0337, 43.4327 ], [ -0.043, 43.4102 ], [ -0.0673, 43.4104 ], [ -0.0623, 43.4178 ], [ -0.0508, 43.4196 ], [ -0.0707, 43.4353 ], [ -0.0617, 43.4525 ], [ -0.0657, 43.4635 ], [ -0.0191, 43.465 ], [ -0.0178, 43.4721 ], [ -0.0347, 43.4749 ], [ -0.0349, 43.4885 ], [ -0.0496, 43.4919 ], [ -0.0401, 43.5126 ], [ -0.0446, 43.5253 ], [ -0.056, 43.5329 ], [ -0.0607, 43.5421 ], [ -0.0657, 43.5413 ], [ -0.066, 43.5481 ], [ -0.0806, 43.5469 ], [ -0.0887, 43.542 ], [ -0.0941, 43.5439 ], [ -0.0889, 43.5572 ] ] ] ] } }
]
}
