{
"type": "FeatureCollection",
"name": "dep62",
"crs": { "type": "name", "properties": { "name": "urn:ogc:def:crs:OGC:1.3:CRS84" } },
"xy_coordinate_resolution": 0.0001,
"features": [
{ "type": "Feature", "properties": { "code": "62", "nom": "Pas-de-Calais" }, "geometry": { "type": "Polygon", "coordinates": [ [ [ 2.0677, 51.0065 ], [ 2.0929, 51.0028 ], [ 2.1093, 50.9842 ], [ 2.1213, 50.9796 ], [ 2.1257, 50.9685 ], [ 2.1353, 50.9643 ], [ 2.1378, 50.9514 ], [ 2.1497, 50.9406 ], [ 2.1511, 50.9295 ], [ 2.1846, 50.8826 ], [ 2.1912, 50.8621 ], [ 2.2035, 50.8499 ], [ 2.2134, 50.8105 ], [ 2.22, 50.8116 ], [ 2.2347, 50.8046 ], [ 2.2525, 50.7881 ], [ 2.2701, 50.7828 ], [ 2.2879, 50.787 ], [ 2.2886, 50.777 ], [ 2.3123, 50.7872 ], [ 2.3143, 50.7827 ], [ 2.3429, 50.7811 ], [ 2.3694, 50.7715 ], [ 2.3641, 50.78 ], [ 2.3719, 50.7845 ], [ 2.3807, 50.7787 ], [ 2.3987, 50.7751 ], [ 2.4059, 50.7704 ], [ 2.402, 50.7679 ], [ 2.4115, 50.7667 ], [ 2.4078, 50.7624 ], [ 2.4005, 50.7646 ], [ 2.377, 50.752 ], [ 2.3711, 50.7559 ], [ 2.339, 50.7401 ], [ 2.3397, 50.7307 ], [ 2.3522, 50.7254 ], [ 2.3505, 50.7201 ], [ 2.3643, 50.7098 ], [ 2.3874, 50.7005 ], [ 2.3635, 50.6846 ], [ 2.3741, 50.6722 ], [ 2.3808, 50.671 ], [ 2.4032, 50.6817 ], [ 2.4117, 50.669 ], [ 2.4216, 50.6657 ], [ 2.429, 50.657 ], [ 2.4504, 50.6539 ], [ 2.4875, 50.6321 ], [ 2.5165, 50.635 ], [ 2.5258, 50.6428 ], [ 2.5327, 50.6435 ], [ 2.5389, 50.6401 ], [ 2.5368, 50.6308 ], [ 2.5451, 50.6255 ], [ 2.5552, 50.6258 ], [ 2.5594, 50.6294 ], [ 2.5639, 50.6246 ], [ 2.5656, 50.6326 ], [ 2.5771, 50.6305 ], [ 2.5898, 50.6375 ], [ 2.5955, 50.6312 ], [ 2.6146, 50.6348 ], [ 2.6142, 50.6273 ], [ 2.6247, 50.6257 ], [ 2.6305, 50.618 ], [ 2.6433, 50.6225 ], [ 2.6754, 50.6255 ], [ 2.6741, 50.6378 ], [ 2.6845, 50.6327 ], [ 2.6937, 50.6337 ], [ 2.6967, 50.6285 ], [ 2.7127, 50.6321 ], [ 2.7238, 50.6268 ], [ 2.7186, 50.6223 ], [ 2.7247, 50.6142 ], [ 2.7463, 50.6047 ], [ 2.7515, 50.6069 ], [ 2.7483, 50.6131 ], [ 2.7575, 50.6184 ], [ 2.7525, 50.6279 ], [ 2.7606, 50.6252 ], [ 2.7595, 50.6351 ], [ 2.7858, 50.6282 ], [ 2.7925, 50.6337 ], [ 2.7592, 50.6507 ], [ 2.7633, 50.6591 ], [ 2.7744, 50.6653 ], [ 2.799, 50.6631 ], [ 2.8092, 50.6694 ], [ 2.8213, 50.6613 ], [ 2.8399, 50.6573 ], [ 2.8697, 50.6311 ], [ 2.8487, 50.6255 ], [ 2.8434, 50.6294 ], [ 2.8065, 50.6068 ], [ 2.7894, 50.583 ], [ 2.8082, 50.5792 ], [ 2.8166, 50.5648 ], [ 2.8123, 50.5501 ], [ 2.7945, 50.5492 ], [ 2.8004, 50.5411 ], [ 2.8002, 50.5276 ], [ 2.8309, 50.5259 ], [ 2.8594, 50.5295 ], [ 2.887, 50.5377 ], [ 2.8905, 50.5297 ], [ 2.8799, 50.5159 ], [ 2.8821, 50.5078 ], [ 2.8894, 50.5079 ], [ 2.8914, 50.5044 ], [ 2.8867, 50.503 ], [ 2.9012, 50.5004 ], [ 2.9048, 50.5035 ], [ 2.9104, 50.4999 ], [ 2.9299, 50.5082 ], [ 2.95, 50.5123 ], [ 2.9579, 50.5094 ], [ 2.9647, 50.5128 ], [ 2.9918, 50.4977 ], [ 3.0047, 50.495 ], [ 3.0157, 50.4861 ], [ 3.0282, 50.4839 ], [ 3.0305, 50.4797 ], [ 3.0208, 50.4818 ], [ 3.0188, 50.4669 ], [ 3.0069, 50.4577 ], [ 3.0119, 50.4523 ], [ 3.0193, 50.4522 ], [ 3.0164, 50.4421 ], [ 3.0288, 50.4448 ], [ 3.0377, 50.4416 ], [ 3.0546, 50.4553 ], [ 3.0692, 50.4577 ], [ 3.0655, 50.4477 ], [ 3.0818, 50.4437 ], [ 3.0685, 50.4256 ], [ 3.039, 50.4232 ], [ 3.0298, 50.4105 ], [ 3.0136, 50.403 ], [ 2.9924, 50.3999 ], [ 2.9801, 50.4031 ], [ 2.9949, 50.3877 ], [ 2.993, 50.38 ], [ 3.0089, 50.3659 ], [ 3.008, 50.3586 ], [ 3.0291, 50.3535 ], [ 3.0387, 50.344 ], [ 3.05, 50.3439 ], [ 3.0642, 50.3241 ], [ 3.0843, 50.3112 ], [ 3.0693, 50.3054 ], [ 3.0666, 50.3089 ], [ 3.0544, 50.3021 ], [ 3.0478, 50.2937 ], [ 3.0552, 50.2898 ], [ 3.051, 50.2856 ], [ 3.0551, 50.2823 ], [ 3.0436, 50.2825 ], [ 3.041, 50.2873 ], [ 3.0178, 50.2846 ], [ 3.0122, 50.2816 ], [ 3.0171, 50.2749 ], [ 3.0107, 50.269 ], [ 3.0228, 50.2634 ], [ 3.0268, 50.2682 ], [ 3.0338, 50.2659 ], [ 3.0486, 50.2777 ], [ 3.0622, 50.2718 ], [ 3.0789, 50.2746 ], [ 3.1406, 50.265 ], [ 3.1491, 50.2625 ], [ 3.1472, 50.2462 ], [ 3.158, 50.2428 ], [ 3.1621, 50.2447 ], [ 3.1617, 50.2415 ], [ 3.1691, 50.2437 ], [ 3.1782, 50.2325 ], [ 3.1867, 50.2349 ], [ 3.1883, 50.2285 ], [ 3.174, 50.2187 ], [ 3.1391, 50.2171 ], [ 3.1314, 50.1994 ], [ 3.1472, 50.1954 ], [ 3.1429, 50.1911 ], [ 3.1572, 50.1852 ], [ 3.1564, 50.1816 ], [ 3.1455, 50.179 ], [ 3.1376, 50.1667 ], [ 3.1189, 50.1653 ], [ 3.1159, 50.1678 ], [ 3.101, 50.162 ], [ 3.1088, 50.1585 ], [ 3.1154, 50.1478 ], [ 3.1366, 50.1434 ], [ 3.0918, 50.1206 ], [ 3.1049, 50.1155 ], [ 3.1141, 50.0922 ], [ 3.1034, 50.0785 ], [ 3.1005, 50.0811 ], [ 3.0976, 50.0789 ], [ 3.0988, 50.0829 ], [ 3.0883, 50.0831 ], [ 3.0877, 50.0756 ], [ 3.0984, 50.0682 ], [ 3.0861, 50.0661 ], [ 3.0842, 50.0557 ], [ 3.0903, 50.0537 ], [ 3.0859, 50.0482 ], [ 3.0745, 50.0453 ], [ 3.0459, 50.0548 ], [ 3.033, 50.0551 ], [ 3.0343, 50.0581 ], [ 3.0247, 50.0542 ], [ 3.0144, 50.0591 ], [ 2.9718, 50.0416 ], [ 2.9688, 50.0484 ], [ 2.9454, 50.0542 ], [ 2.9329, 50.0434 ], [ 2.9207, 50.0489 ], [ 2.9162, 50.0349 ], [ 2.9132, 50.0382 ], [ 2.8963, 50.037 ], [ 2.8753, 50.0274 ], [ 2.8776, 50.0208 ], [ 2.8685, 50.0228 ], [ 2.8638, 50.0201 ], [ 2.8495, 50.0293 ], [ 2.8584, 50.035 ], [ 2.8641, 50.0325 ], [ 2.87, 50.0349 ], [ 2.8776, 50.0424 ], [ 2.8639, 50.0607 ], [ 2.8553, 50.0624 ], [ 2.8578, 50.0774 ], [ 2.8481, 50.0783 ], [ 2.8336, 50.0715 ], [ 2.8335, 50.0639 ], [ 2.8223, 50.0675 ], [ 2.8213, 50.0624 ], [ 2.8151, 50.0626 ], [ 2.8116, 50.0581 ], [ 2.8075, 50.0624 ], [ 2.789, 50.0453 ], [ 2.7857, 50.0512 ], [ 2.7749, 50.0424 ], [ 2.7529, 50.039 ], [ 2.7425, 50.0482 ], [ 2.7637, 50.0606 ], [ 2.7589, 50.0682 ], [ 2.7818, 50.0911 ], [ 2.7769, 50.1159 ], [ 2.7626, 50.1096 ], [ 2.7504, 50.1121 ], [ 2.7296, 50.1259 ], [ 2.7088, 50.1285 ], [ 2.7139, 50.1098 ], [ 2.698, 50.106 ], [ 2.6957, 50.1022 ], [ 2.7187, 50.0881 ], [ 2.7046, 50.0812 ], [ 2.6907, 50.093 ], [ 2.6822, 50.0952 ], [ 2.6721, 50.0936 ], [ 2.6549, 50.1 ], [ 2.6476, 50.0944 ], [ 2.6387, 50.0971 ], [ 2.6281, 50.1093 ], [ 2.6131, 50.111 ], [ 2.5929, 50.1065 ], [ 2.5915, 50.1124 ], [ 2.5757, 50.1133 ], [ 2.5694, 50.1206 ], [ 2.5866, 50.1374 ], [ 2.5782, 50.1399 ], [ 2.5684, 50.136 ], [ 2.5573, 50.143 ], [ 2.5456, 50.1355 ], [ 2.548, 50.1235 ], [ 2.5331, 50.114 ], [ 2.5149, 50.1408 ], [ 2.4815, 50.1382 ], [ 2.4593, 50.1294 ], [ 2.4554, 50.1311 ], [ 2.4297, 50.0882 ], [ 2.4186, 50.0877 ], [ 2.4145, 50.1006 ], [ 2.4002, 50.102 ], [ 2.4033, 50.1057 ], [ 2.392, 50.1118 ], [ 2.3901, 50.106 ], [ 2.3755, 50.1092 ], [ 2.3869, 50.1347 ], [ 2.3824, 50.1394 ], [ 2.389, 50.14 ], [ 2.3935, 50.1469 ], [ 2.389, 50.1547 ], [ 2.3991, 50.1564 ], [ 2.4033, 50.1648 ], [ 2.4133, 50.1624 ], [ 2.4148, 50.1731 ], [ 2.4202, 50.1758 ], [ 2.4372, 50.181 ], [ 2.4508, 50.1785 ], [ 2.4957, 50.1946 ], [ 2.4852, 50.2078 ], [ 2.4741, 50.2084 ], [ 2.4611, 50.2167 ], [ 2.4507, 50.2309 ], [ 2.4369, 50.2273 ], [ 2.417, 50.2281 ], [ 2.4096, 50.2354 ], [ 2.4034, 50.2338 ], [ 2.3922, 50.2246 ], [ 2.3823, 50.2261 ], [ 2.3786, 50.2183 ], [ 2.3729, 50.2176 ], [ 2.3709, 50.2089 ], [ 2.3589, 50.2061 ], [ 2.3549, 50.2077 ], [ 2.3601, 50.2146 ], [ 2.3327, 50.238 ], [ 2.3147, 50.2348 ], [ 2.3316, 50.2221 ], [ 2.3275, 50.2133 ], [ 2.3204, 50.2202 ], [ 2.2988, 50.212 ], [ 2.287, 50.2223 ], [ 2.2698, 50.2288 ], [ 2.2463, 50.211 ], [ 2.2433, 50.2144 ], [ 2.2218, 50.2089 ], [ 2.2263, 50.2141 ], [ 2.2131, 50.2183 ], [ 2.1919, 50.2091 ], [ 2.1742, 50.2089 ], [ 2.1498, 50.1904 ], [ 2.146, 50.1992 ], [ 2.1287, 50.2099 ], [ 2.1207, 50.211 ], [ 2.1146, 50.2029 ], [ 2.0946, 50.2083 ], [ 2.0937, 50.2017 ], [ 2.0877, 50.2004 ], [ 2.0833, 50.2043 ], [ 2.0845, 50.2165 ], [ 2.0748, 50.2203 ], [ 2.075, 50.227 ], [ 2.068, 50.2273 ], [ 2.068, 50.2338 ], [ 2.0638, 50.2345 ], [ 2.0652, 50.2413 ], [ 2.0741, 50.2438 ], [ 2.0756, 50.2519 ], [ 2.0476, 50.2567 ], [ 2.0375, 50.2668 ], [ 2.0312, 50.2655 ], [ 2.0264, 50.2696 ], [ 2.0112, 50.2675 ], [ 1.9771, 50.2821 ], [ 1.9688, 50.2818 ], [ 1.9607, 50.2903 ], [ 1.9497, 50.2859 ], [ 1.9315, 50.2991 ], [ 1.9617, 50.3123 ], [ 1.9643, 50.3217 ], [ 1.9544, 50.3286 ], [ 1.9381, 50.3301 ], [ 1.9235, 50.3204 ], [ 1.9193, 50.3116 ], [ 1.908, 50.3116 ], [ 1.8981, 50.3139 ], [ 1.8979, 50.3184 ], [ 1.8814, 50.318 ], [ 1.872, 50.3255 ], [ 1.8726, 50.334 ], [ 1.8584, 50.3361 ], [ 1.8517, 50.3429 ], [ 1.8409, 50.3465 ], [ 1.8323, 50.3447 ], [ 1.8051, 50.3596 ], [ 1.7788, 50.3619 ], [ 1.7617, 50.3616 ], [ 1.7593, 50.358 ], [ 1.7353, 50.3534 ], [ 1.7403, 50.3512 ], [ 1.7281, 50.3459 ], [ 1.7047, 50.3438 ], [ 1.6948, 50.3389 ], [ 1.6897, 50.3437 ], [ 1.6913, 50.3386 ], [ 1.6654, 50.33 ], [ 1.6626, 50.338 ], [ 1.6555, 50.3361 ], [ 1.6512, 50.34 ], [ 1.6452, 50.3392 ], [ 1.6462, 50.3484 ], [ 1.6314, 50.3606 ], [ 1.6296, 50.3694 ], [ 1.6171, 50.3722 ], [ 1.6117, 50.37 ], [ 1.6009, 50.378 ], [ 1.5832, 50.3762 ], [ 1.5676, 50.3945 ], [ 1.5566, 50.3963 ], [ 1.57, 50.4445 ], [ 1.5774, 50.5165 ], [ 1.5854, 50.5374 ], [ 1.5938, 50.5375 ], [ 1.599, 50.5269 ], [ 1.6025, 50.5296 ], [ 1.6094, 50.5269 ], [ 1.6373, 50.5097 ], [ 1.6592, 50.5078 ], [ 1.6358, 50.5131 ], [ 1.6265, 50.52 ], [ 1.6207, 50.5337 ], [ 1.6118, 50.5393 ], [ 1.6086, 50.5362 ], [ 1.6026, 50.5482 ], [ 1.5813, 50.5628 ], [ 1.5766, 50.5722 ], [ 1.5762, 50.641 ], [ 1.5607, 50.6997 ], [ 1.5733, 50.7165 ], [ 1.5625, 50.7244 ], [ 1.5748, 50.7278 ], [ 1.5712, 50.7197 ], [ 1.5744, 50.7173 ], [ 1.5782, 50.7276 ], [ 1.5863, 50.7313 ], [ 1.5908, 50.7286 ], [ 1.582, 50.7235 ], [ 1.5969, 50.7275 ], [ 1.6025, 50.7216 ], [ 1.5981, 50.7279 ], [ 1.5913, 50.7305 ], [ 1.5941, 50.7502 ], [ 1.6056, 50.7676 ], [ 1.6033, 50.8044 ], [ 1.5779, 50.853 ], [ 1.5819, 50.871 ], [ 1.603, 50.8712 ], [ 1.6421, 50.8789 ], [ 1.6673, 50.8923 ], [ 1.7123, 50.9294 ], [ 1.7807, 50.9549 ], [ 1.8444, 50.9676 ], [ 1.8484, 50.9609 ], [ 1.8548, 50.9632 ], [ 1.8489, 50.9672 ], [ 1.8662, 50.9696 ], [ 1.8527, 50.971 ], [ 1.8712, 50.9749 ], [ 1.8897, 50.9723 ], [ 1.9158, 50.9841 ], [ 2.0426, 50.9971 ], [ 2.0487, 51.0037 ], [ 2.0677, 51.0065 ] ], [ [ 3.0404, 50.1597 ], [ 3.0403, 50.1517 ], [ 3.0132, 50.1531 ], [ 3.0083, 50.1474 ], [ 3.0044, 50.1503 ], [ 2.9935, 50.137 ], [ 3.0031, 50.1301 ], [ 2.9993, 50.1188 ], [ 3.0106, 50.1128 ], [ 3.0252, 50.1161 ], [ 3.037, 50.1303 ], [ 3.045, 50.1289 ], [ 3.0538, 50.1326 ], [ 3.0673, 50.1287 ], [ 3.0735, 50.1316 ], [ 3.0681, 50.1473 ], [ 3.0755, 50.1534 ], [ 3.0843, 50.1535 ], [ 3.0949, 50.1637 ], [ 3.0901, 50.1718 ], [ 3.0596, 50.1741 ], [ 3.0607, 50.167 ], [ 3.0501, 50.166 ], [ 3.0404, 50.1597 ] ] ] } }
]
}
