{
"type": "FeatureCollection",
"name": "dep61",
"crs": { "type": "name", "properties": { "name": "urn:ogc:def:crs:OGC:1.3:CRS84" } },
"xy_coordinate_resolution": 0.0001,
"features": [
{ "type": "Feature", "properties": { "code": "61", "nom": "Orne" }, "geometry": { "type": "Polygon", "coordinates": [ [ [ -0.8409, 48.7522 ], [ -0.8224, 48.7526 ], [ -0.8082, 48.7601 ], [ -0.7806, 48.7866 ], [ -0.7608, 48.7881 ], [ -0.7126, 48.8007 ], [ -0.7044, 48.8106 ], [ -0.6822, 48.8218 ], [ -0.6905, 48.8237 ], [ -0.7057, 48.8379 ], [ -0.6927, 48.8473 ], [ -0.6807, 48.8406 ], [ -0.6722, 48.8437 ], [ -0.6697, 48.8395 ], [ -0.66, 48.8413 ], [ -0.656, 48.8375 ], [ -0.6434, 48.841 ], [ -0.6454, 48.8272 ], [ -0.624, 48.827 ], [ -0.6054, 48.8342 ], [ -0.5807, 48.838 ], [ -0.5722, 48.8301 ], [ -0.5597, 48.8343 ], [ -0.5499, 48.8474 ], [ -0.5233, 48.8503 ], [ -0.5019, 48.8465 ], [ -0.494, 48.8486 ], [ -0.4998, 48.8546 ], [ -0.4966, 48.8583 ], [ -0.4762, 48.8588 ], [ -0.4637, 48.8714 ], [ -0.4499, 48.8693 ], [ -0.4388, 48.8729 ], [ -0.4339, 48.8689 ], [ -0.4369, 48.8725 ], [ -0.4322, 48.8748 ], [ -0.4252, 48.8723 ], [ -0.4261, 48.8657 ], [ -0.4062, 48.8698 ], [ -0.4042, 48.8608 ], [ -0.3862, 48.8453 ], [ -0.3812, 48.8495 ], [ -0.3761, 48.8456 ], [ -0.3596, 48.8475 ], [ -0.361, 48.8423 ], [ -0.3746, 48.8405 ], [ -0.3681, 48.8402 ], [ -0.3733, 48.8349 ], [ -0.3641, 48.8351 ], [ -0.3462, 48.822 ], [ -0.3274, 48.8391 ], [ -0.3359, 48.8458 ], [ -0.3285, 48.8576 ], [ -0.3054, 48.8582 ], [ -0.2986, 48.8492 ], [ -0.2806, 48.8542 ], [ -0.2622, 48.8536 ], [ -0.2605, 48.8494 ], [ -0.2424, 48.8494 ], [ -0.2129, 48.8401 ], [ -0.2044, 48.8464 ], [ -0.1953, 48.8382 ], [ -0.1914, 48.8405 ], [ -0.1784, 48.8355 ], [ -0.1792, 48.8292 ], [ -0.1688, 48.8274 ], [ -0.1701, 48.8248 ], [ -0.1518, 48.8202 ], [ -0.1475, 48.8227 ], [ -0.1275, 48.8163 ], [ -0.1463, 48.8345 ], [ -0.1335, 48.8346 ], [ -0.1233, 48.8396 ], [ -0.1271, 48.8459 ], [ -0.1141, 48.8395 ], [ -0.0829, 48.845 ], [ -0.0675, 48.8406 ], [ -0.059, 48.8535 ], [ -0.0349, 48.8661 ], [ -0.0267, 48.8764 ], [ -0.0233, 48.8779 ], [ -0.0192, 48.8742 ], [ -0.0126, 48.8776 ], [ -0.0069, 48.8724 ], [ -0.0071, 48.8854 ], [ 0.0561, 48.9016 ], [ 0.0667, 48.9274 ], [ 0.0807, 48.938 ], [ 0.1007, 48.9344 ], [ 0.1042, 48.9401 ], [ 0.1276, 48.9522 ], [ 0.1434, 48.9452 ], [ 0.148, 48.929 ], [ 0.1539, 48.9244 ], [ 0.1649, 48.9257 ], [ 0.1796, 48.9296 ], [ 0.1842, 48.9386 ], [ 0.1951, 48.9437 ], [ 0.2175, 48.9464 ], [ 0.2326, 48.9393 ], [ 0.2423, 48.9444 ], [ 0.2392, 48.9521 ], [ 0.2463, 48.96 ], [ 0.2775, 48.9653 ], [ 0.2815, 48.9594 ], [ 0.2775, 48.95 ], [ 0.2896, 48.9488 ], [ 0.3095, 48.9539 ], [ 0.3241, 48.9443 ], [ 0.3332, 48.9428 ], [ 0.3565, 48.9496 ], [ 0.3773, 48.9725 ], [ 0.3843, 48.9667 ], [ 0.4061, 48.9635 ], [ 0.4002, 48.9528 ], [ 0.4128, 48.9506 ], [ 0.3915, 48.9282 ], [ 0.3862, 48.9104 ], [ 0.4062, 48.9005 ], [ 0.4216, 48.8987 ], [ 0.4211, 48.8868 ], [ 0.4415, 48.8854 ], [ 0.4388, 48.8887 ], [ 0.45, 48.891 ], [ 0.4431, 48.8813 ], [ 0.4574, 48.8798 ], [ 0.4573, 48.8861 ], [ 0.4632, 48.8885 ], [ 0.4949, 48.8786 ], [ 0.5069, 48.8772 ], [ 0.5209, 48.8808 ], [ 0.5515, 48.8744 ], [ 0.5715, 48.8907 ], [ 0.5847, 48.8921 ], [ 0.5972, 48.885 ], [ 0.5866, 48.8814 ], [ 0.5896, 48.8726 ], [ 0.6035, 48.8742 ], [ 0.6092, 48.8791 ], [ 0.615, 48.8777 ], [ 0.6024, 48.8625 ], [ 0.6121, 48.8575 ], [ 0.6094, 48.8533 ], [ 0.6362, 48.8543 ], [ 0.6202, 48.8469 ], [ 0.6079, 48.8325 ], [ 0.6221, 48.8296 ], [ 0.6431, 48.8162 ], [ 0.6651, 48.8099 ], [ 0.6893, 48.7934 ], [ 0.6955, 48.7951 ], [ 0.7155, 48.7854 ], [ 0.7203, 48.7879 ], [ 0.7319, 48.7855 ], [ 0.7396, 48.777 ], [ 0.7584, 48.768 ], [ 0.7495, 48.7607 ], [ 0.775, 48.7375 ], [ 0.7605, 48.7282 ], [ 0.7591, 48.7202 ], [ 0.7436, 48.717 ], [ 0.7288, 48.7069 ], [ 0.7318, 48.7032 ], [ 0.7527, 48.7041 ], [ 0.766, 48.6968 ], [ 0.7615, 48.6801 ], [ 0.7691, 48.6785 ], [ 0.7648, 48.6753 ], [ 0.7687, 48.6699 ], [ 0.7822, 48.6665 ], [ 0.7954, 48.6752 ], [ 0.8148, 48.6702 ], [ 0.8097, 48.6624 ], [ 0.8188, 48.6583 ], [ 0.8252, 48.6486 ], [ 0.8219, 48.6361 ], [ 0.83, 48.6323 ], [ 0.8172, 48.6155 ], [ 0.8224, 48.6089 ], [ 0.8471, 48.6095 ], [ 0.8506, 48.5826 ], [ 0.8691, 48.5726 ], [ 0.8936, 48.5718 ], [ 0.9257, 48.5596 ], [ 0.9388, 48.5506 ], [ 0.9229, 48.5384 ], [ 0.9251, 48.5356 ], [ 0.9677, 48.5239 ], [ 0.954, 48.5038 ], [ 0.9416, 48.4987 ], [ 0.9554, 48.4926 ], [ 0.9563, 48.4823 ], [ 0.9357, 48.4755 ], [ 0.939, 48.4608 ], [ 0.9559, 48.4444 ], [ 0.9693, 48.4413 ], [ 0.9734, 48.4437 ], [ 0.9764, 48.4388 ], [ 0.9445, 48.4173 ], [ 0.95, 48.3994 ], [ 0.9406, 48.3984 ], [ 0.929, 48.3904 ], [ 0.909, 48.3703 ], [ 0.9009, 48.3738 ], [ 0.8837, 48.3567 ], [ 0.8758, 48.3553 ], [ 0.8716, 48.3597 ], [ 0.8618, 48.3509 ], [ 0.852, 48.3487 ], [ 0.8399, 48.3527 ], [ 0.8424, 48.3467 ], [ 0.8285, 48.3425 ], [ 0.8122, 48.3495 ], [ 0.8069, 48.3441 ], [ 0.7906, 48.3427 ], [ 0.7689, 48.3219 ], [ 0.7689, 48.3132 ], [ 0.7557, 48.2998 ], [ 0.7783, 48.3033 ], [ 0.7934, 48.293 ], [ 0.8071, 48.2897 ], [ 0.7964, 48.2871 ], [ 0.7859, 48.2711 ], [ 0.7891, 48.2616 ], [ 0.8305, 48.2107 ], [ 0.8056, 48.2054 ], [ 0.8088, 48.1976 ], [ 0.7577, 48.1799 ], [ 0.7378, 48.1891 ], [ 0.7301, 48.2005 ], [ 0.7236, 48.1981 ], [ 0.7158, 48.2147 ], [ 0.7045, 48.2189 ], [ 0.7069, 48.2227 ], [ 0.6999, 48.2317 ], [ 0.6863, 48.2407 ], [ 0.6829, 48.2549 ], [ 0.6712, 48.2552 ], [ 0.665, 48.2608 ], [ 0.6523, 48.264 ], [ 0.6398, 48.261 ], [ 0.6311, 48.2526 ], [ 0.6385, 48.2356 ], [ 0.6319, 48.2346 ], [ 0.6236, 48.2453 ], [ 0.613, 48.2421 ], [ 0.5361, 48.2497 ], [ 0.5385, 48.257 ], [ 0.5329, 48.2643 ], [ 0.5164, 48.269 ], [ 0.5131, 48.2669 ], [ 0.4946, 48.282 ], [ 0.4946, 48.2868 ], [ 0.5074, 48.2949 ], [ 0.49, 48.3094 ], [ 0.4805, 48.2986 ], [ 0.4663, 48.3059 ], [ 0.4313, 48.3066 ], [ 0.4205, 48.3211 ], [ 0.4115, 48.3204 ], [ 0.4129, 48.3171 ], [ 0.4062, 48.3146 ], [ 0.3955, 48.3205 ], [ 0.3826, 48.3338 ], [ 0.3806, 48.3431 ], [ 0.3849, 48.3431 ], [ 0.3881, 48.3497 ], [ 0.3798, 48.3665 ], [ 0.3802, 48.3801 ], [ 0.3739, 48.387 ], [ 0.3771, 48.3916 ], [ 0.3717, 48.4105 ], [ 0.3809, 48.4158 ], [ 0.3824, 48.4249 ], [ 0.3678, 48.4377 ], [ 0.3656, 48.4488 ], [ 0.3568, 48.4577 ], [ 0.3388, 48.4616 ], [ 0.3385, 48.4655 ], [ 0.3268, 48.4717 ], [ 0.3091, 48.4725 ], [ 0.3007, 48.4805 ], [ 0.2746, 48.4792 ], [ 0.2648, 48.4847 ], [ 0.2591, 48.4767 ], [ 0.2491, 48.474 ], [ 0.2133, 48.4736 ], [ 0.1905, 48.4619 ], [ 0.1732, 48.4652 ], [ 0.1711, 48.4494 ], [ 0.1456, 48.4573 ], [ 0.1448, 48.4527 ], [ 0.1578, 48.4408 ], [ 0.1513, 48.4372 ], [ 0.1172, 48.436 ], [ 0.1064, 48.4265 ], [ 0.1104, 48.4231 ], [ 0.1001, 48.4101 ], [ 0.0705, 48.4091 ], [ 0.0541, 48.392 ], [ 0.0608, 48.3796 ], [ 0.0153, 48.3817 ], [ 0.0109, 48.3903 ], [ 0.0036, 48.3888 ], [ 0.0034, 48.396 ], [ -0.0024, 48.3974 ], [ -0.0187, 48.3945 ], [ -0.0208, 48.3865 ], [ -0.0348, 48.3863 ], [ -0.0366, 48.3806 ], [ -0.0506, 48.3802 ], [ -0.0507, 48.3752 ], [ -0.058, 48.3875 ], [ -0.0527, 48.393 ], [ -0.0578, 48.4087 ], [ -0.0525, 48.4133 ], [ -0.0577, 48.4205 ], [ -0.053, 48.425 ], [ -0.0573, 48.431 ], [ -0.0504, 48.4435 ], [ -0.0513, 48.4529 ], [ -0.0705, 48.458 ], [ -0.073, 48.4505 ], [ -0.1059, 48.4473 ], [ -0.1469, 48.4564 ], [ -0.1506, 48.4651 ], [ -0.1473, 48.473 ], [ -0.1535, 48.477 ], [ -0.1491, 48.4802 ], [ -0.156, 48.4958 ], [ -0.168, 48.5037 ], [ -0.1721, 48.5021 ], [ -0.1725, 48.5105 ], [ -0.1631, 48.5177 ], [ -0.1454, 48.5206 ], [ -0.1446, 48.5278 ], [ -0.1737, 48.5415 ], [ -0.1794, 48.5408 ], [ -0.2081, 48.5641 ], [ -0.2173, 48.5581 ], [ -0.2426, 48.568 ], [ -0.2487, 48.5635 ], [ -0.2464, 48.5584 ], [ -0.2627, 48.5486 ], [ -0.2464, 48.5426 ], [ -0.2413, 48.5367 ], [ -0.2509, 48.5267 ], [ -0.2612, 48.5269 ], [ -0.2745, 48.5178 ], [ -0.2682, 48.5169 ], [ -0.2715, 48.5075 ], [ -0.2854, 48.5068 ], [ -0.2881, 48.5193 ], [ -0.2935, 48.515 ], [ -0.3202, 48.5229 ], [ -0.3359, 48.5093 ], [ -0.3359, 48.5019 ], [ -0.3485, 48.5013 ], [ -0.3558, 48.4957 ], [ -0.3494, 48.4889 ], [ -0.3532, 48.4838 ], [ -0.3682, 48.4879 ], [ -0.3667, 48.4936 ], [ -0.3716, 48.4958 ], [ -0.3933, 48.5011 ], [ -0.3913, 48.5087 ], [ -0.3951, 48.5103 ], [ -0.4091, 48.5056 ], [ -0.4238, 48.5068 ], [ -0.4342, 48.5138 ], [ -0.4386, 48.5117 ], [ -0.4472, 48.5154 ], [ -0.4701, 48.5119 ], [ -0.4689, 48.5083 ], [ -0.4782, 48.5016 ], [ -0.4846, 48.5042 ], [ -0.4933, 48.5018 ], [ -0.5097, 48.509 ], [ -0.5169, 48.504 ], [ -0.5164, 48.4981 ], [ -0.5374, 48.4905 ], [ -0.5517, 48.4731 ], [ -0.5596, 48.4721 ], [ -0.5648, 48.4772 ], [ -0.5733, 48.4688 ], [ -0.5953, 48.4726 ], [ -0.6156, 48.4589 ], [ -0.6511, 48.444 ], [ -0.6597, 48.4691 ], [ -0.6557, 48.4741 ], [ -0.6625, 48.4763 ], [ -0.6601, 48.4798 ], [ -0.6662, 48.4859 ], [ -0.6704, 48.4825 ], [ -0.6766, 48.484 ], [ -0.6753, 48.4807 ], [ -0.6853, 48.4772 ], [ -0.6817, 48.471 ], [ -0.6918, 48.4681 ], [ -0.7021, 48.4672 ], [ -0.6999, 48.4733 ], [ -0.705, 48.4756 ], [ -0.715, 48.4692 ], [ -0.7311, 48.4728 ], [ -0.7359, 48.4611 ], [ -0.7149, 48.4544 ], [ -0.7151, 48.4489 ], [ -0.7354, 48.4457 ], [ -0.7518, 48.4373 ], [ -0.7649, 48.4367 ], [ -0.7798, 48.4461 ], [ -0.7779, 48.4654 ], [ -0.7966, 48.4662 ], [ -0.7992, 48.4589 ], [ -0.8127, 48.4549 ], [ -0.8186, 48.469 ], [ -0.8148, 48.4721 ], [ -0.8325, 48.4794 ], [ -0.8464, 48.4995 ], [ -0.8605, 48.5023 ], [ -0.847, 48.5216 ], [ -0.8271, 48.5305 ], [ -0.8059, 48.5508 ], [ -0.7902, 48.5517 ], [ -0.7742, 48.5627 ], [ -0.7762, 48.5737 ], [ -0.7696, 48.5899 ], [ -0.7517, 48.6013 ], [ -0.7535, 48.6208 ], [ -0.7387, 48.6226 ], [ -0.7422, 48.6273 ], [ -0.7621, 48.631 ], [ -0.7734, 48.6575 ], [ -0.76, 48.6643 ], [ -0.7549, 48.6746 ], [ -0.7455, 48.6763 ], [ -0.7433, 48.6809 ], [ -0.7363, 48.6795 ], [ -0.7347, 48.6855 ], [ -0.7432, 48.6901 ], [ -0.764, 48.6924 ], [ -0.7787, 48.7022 ], [ -0.7903, 48.7041 ], [ -0.8045, 48.7139 ], [ -0.8077, 48.7254 ], [ -0.8177, 48.7311 ], [ -0.8285, 48.7336 ], [ -0.8349, 48.7273 ], [ -0.8492, 48.7308 ], [ -0.8521, 48.7458 ], [ -0.8409, 48.7522 ] ], [ [ -0.4329, 48.8633 ], [ -0.4313, 48.8655 ], [ -0.4334, 48.8655 ], [ -0.4329, 48.8633 ] ] ] } }
]
}
