{
"type": "FeatureCollection",
"name": "dep75",
"crs": { "type": "name", "properties": { "name": "urn:ogc:def:crs:OGC:1.3:CRS84" } },
"xy_coordinate_resolution": 0.0001,
"features": [
{ "type": "Feature", "properties": { "code": "75", "nom": "Paris" }, "geometry": { "type": "Polygon", "coordinates": [ [ [ 2.3319, 48.817 ], [ 2.2791, 48.8325 ], [ 2.2675, 48.8278 ], [ 2.2701, 48.833 ], [ 2.2551, 48.8348 ], [ 2.2525, 48.8455 ], [ 2.2242, 48.8535 ], [ 2.2317, 48.8691 ], [ 2.2457, 48.8764 ], [ 2.2554, 48.8743 ], [ 2.2585, 48.8804 ], [ 2.2799, 48.8786 ], [ 2.2857, 48.8866 ], [ 2.3206, 48.9008 ], [ 2.3851, 48.902 ], [ 2.3949, 48.8984 ], [ 2.4002, 48.8838 ], [ 2.4124, 48.876 ], [ 2.4163, 48.8492 ], [ 2.4122, 48.8345 ], [ 2.4221, 48.8358 ], [ 2.4218, 48.8444 ], [ 2.4372, 48.8409 ], [ 2.4407, 48.846 ], [ 2.4623, 48.8425 ], [ 2.4697, 48.8366 ], [ 2.4627, 48.8191 ], [ 2.4572, 48.817 ], [ 2.4375, 48.8182 ], [ 2.4292, 48.8236 ], [ 2.4111, 48.8249 ], [ 2.4025, 48.8295 ], [ 2.3629, 48.8161 ], [ 2.3319, 48.817 ] ] ] } }
]
}
