{
"type": "FeatureCollection",
"name": "dep79",
"crs": { "type": "name", "properties": { "name": "urn:ogc:def:crs:OGC:1.3:CRS84" } },
"xy_coordinate_resolution": 0.0001,
"features": [
{ "type": "Feature", "properties": { "code": "79", "nom": "Deux-Sèvres" }, "geometry": { "type": "Polygon", "coordinates": [ [ [ -0.9024, 46.9708 ], [ -0.885, 46.9771 ], [ -0.8584, 46.969 ], [ -0.8492, 46.9738 ], [ -0.8568, 46.9788 ], [ -0.848, 46.9822 ], [ -0.8443, 46.9893 ], [ -0.8362, 46.9858 ], [ -0.828, 46.9919 ], [ -0.8115, 46.9943 ], [ -0.8125, 46.9904 ], [ -0.8084, 46.9876 ], [ -0.8051, 46.9897 ], [ -0.8095, 46.9927 ], [ -0.7962, 46.996 ], [ -0.7876, 47.0051 ], [ -0.7817, 47.002 ], [ -0.7693, 47.0029 ], [ -0.7687, 46.9962 ], [ -0.762, 46.9921 ], [ -0.7429, 46.9919 ], [ -0.7434, 47.0007 ], [ -0.7279, 46.995 ], [ -0.7159, 46.9839 ], [ -0.6985, 46.9946 ], [ -0.6802, 46.9877 ], [ -0.6762, 47.0019 ], [ -0.6706, 47.0029 ], [ -0.6621, 46.9978 ], [ -0.6479, 46.9965 ], [ -0.6455, 46.9921 ], [ -0.633, 46.9975 ], [ -0.6188, 46.9924 ], [ -0.5955, 46.9979 ], [ -0.5971, 47.0007 ], [ -0.584, 47.0121 ], [ -0.5655, 47.0194 ], [ -0.5623, 47.0307 ], [ -0.5457, 47.0292 ], [ -0.5425, 47.0323 ], [ -0.5443, 47.0375 ], [ -0.5557, 47.0426 ], [ -0.5573, 47.0644 ], [ -0.4944, 47.0831 ], [ -0.4596, 47.0824 ], [ -0.4643, 47.0744 ], [ -0.4775, 47.0719 ], [ -0.4855, 47.0652 ], [ -0.4804, 47.0536 ], [ -0.458, 47.0688 ], [ -0.4408, 47.0678 ], [ -0.4258, 47.0727 ], [ -0.4069, 47.067 ], [ -0.4008, 47.0708 ], [ -0.3959, 47.0916 ], [ -0.3869, 47.0923 ], [ -0.3861, 47.0874 ], [ -0.3535, 47.0953 ], [ -0.3501, 47.0916 ], [ -0.3409, 47.092 ], [ -0.3415, 47.0873 ], [ -0.3142, 47.0913 ], [ -0.3047, 47.0976 ], [ -0.2827, 47.1033 ], [ -0.2815, 47.0995 ], [ -0.2629, 47.1055 ], [ -0.2627, 47.0991 ], [ -0.2407, 47.1057 ], [ -0.2063, 47.0932 ], [ -0.1871, 47.1011 ], [ -0.1852, 47.1084 ], [ -0.1521, 47.1009 ], [ -0.1413, 47.1037 ], [ -0.1456, 47.0914 ], [ -0.163, 47.0838 ], [ -0.179, 47.0702 ], [ -0.166, 47.0646 ], [ -0.1575, 47.07 ], [ -0.1473, 47.0697 ], [ -0.1366, 47.0638 ], [ -0.1372, 47.0566 ], [ -0.1289, 47.0542 ], [ -0.1021, 47.0648 ], [ -0.0877, 47.0231 ], [ -0.077, 47.0091 ], [ -0.0793, 47.0069 ], [ -0.0941, 47.0133 ], [ -0.0863, 46.9853 ], [ -0.0584, 46.9946 ], [ -0.0388, 46.9904 ], [ -0.0337, 46.9832 ], [ -0.0342, 46.9768 ], [ -0.0462, 46.9665 ], [ -0.0455, 46.9595 ], [ -0.0329, 46.9514 ], [ -0.0302, 46.9414 ], [ -0.0222, 46.9385 ], [ -0.009, 46.9075 ], [ -0.023, 46.8963 ], [ -0.0263, 46.8806 ], [ -0.0356, 46.8751 ], [ -0.0304, 46.8713 ], [ -0.0265, 46.8754 ], [ -0.0047, 46.8705 ], [ -0.0027, 46.8647 ], [ 0.0102, 46.8582 ], [ 0.0256, 46.8529 ], [ 0.0338, 46.8541 ], [ 0.0166, 46.835 ], [ 0.0059, 46.8444 ], [ -0.0116, 46.848 ], [ -0.0167, 46.8417 ], [ -0.0228, 46.8428 ], [ -0.0297, 46.839 ], [ -0.0345, 46.8321 ], [ -0.0457, 46.8321 ], [ -0.0442, 46.8244 ], [ -0.0496, 46.8206 ], [ -0.0313, 46.8202 ], [ -0.0203, 46.8126 ], [ -0.007, 46.8221 ], [ 0.008, 46.8143 ], [ 0.0063, 46.8089 ], [ -0.0263, 46.7886 ], [ -0.0174, 46.7807 ], [ -0.0219, 46.7764 ], [ -0.0176, 46.7718 ], [ -0.0231, 46.7691 ], [ -0.0127, 46.7544 ], [ -0.0013, 46.7616 ], [ 0.0383, 46.7316 ], [ -0.002, 46.7159 ], [ 0.0032, 46.7109 ], [ 0.0028, 46.7003 ], [ -0.0212, 46.6933 ], [ -0.0069, 46.6829 ], [ -0.0404, 46.6637 ], [ -0.0318, 46.6614 ], [ -0.0361, 46.6586 ], [ -0.0319, 46.6517 ], [ -0.0545, 46.6426 ], [ -0.0677, 46.6295 ], [ -0.0658, 46.6228 ], [ -0.0467, 46.6238 ], [ -0.0248, 46.6291 ], [ -0.0188, 46.6388 ], [ -0.0052, 46.6447 ], [ 0.0008, 46.6431 ], [ -0.0001, 46.6328 ], [ -0.0131, 46.6149 ], [ 0.0037, 46.6108 ], [ 0.0229, 46.6145 ], [ 0.0229, 46.5953 ], [ 0.0427, 46.5912 ], [ 0.0335, 46.5859 ], [ 0.0201, 46.5851 ], [ -0.0073, 46.5685 ], [ -0.0105, 46.5528 ], [ 0.0079, 46.548 ], [ 0.0063, 46.5415 ], [ -0.0072, 46.5233 ], [ -0.0177, 46.5266 ], [ -0.0245, 46.522 ], [ -0.0313, 46.525 ], [ -0.0295, 46.5178 ], [ -0.0338, 46.5155 ], [ -0.03, 46.5099 ], [ -0.0409, 46.4933 ], [ -0.0308, 46.4895 ], [ -0.0299, 46.4856 ], [ -0.0356, 46.4873 ], [ -0.047, 46.483 ], [ -0.0382, 46.4814 ], [ -0.0431, 46.4805 ], [ -0.0423, 46.47 ], [ -0.016, 46.4755 ], [ -0.0098, 46.4678 ], [ -0.0192, 46.4533 ], [ -0.0097, 46.4501 ], [ -0.0152, 46.4363 ], [ -0.011, 46.4232 ], [ -0.0195, 46.4195 ], [ -0.0165, 46.4128 ], [ -0.0233, 46.4008 ], [ -0.0085, 46.4042 ], [ -0.0123, 46.3985 ], [ -0.0116, 46.3952 ], [ -0.0055, 46.3957 ], [ -0.008, 46.3891 ], [ 0.0154, 46.3916 ], [ 0.0227, 46.3775 ], [ 0.0342, 46.3735 ], [ 0.0139, 46.3571 ], [ 0.014, 46.3533 ], [ 0.0366, 46.3457 ], [ 0.0254, 46.3454 ], [ 0.0208, 46.3416 ], [ 0.0151, 46.3263 ], [ 0.0311, 46.3295 ], [ 0.0782, 46.3049 ], [ 0.0976, 46.3212 ], [ 0.0937, 46.3244 ], [ 0.0978, 46.3308 ], [ 0.1209, 46.3426 ], [ 0.1243, 46.3484 ], [ 0.1376, 46.3494 ], [ 0.1544, 46.3446 ], [ 0.177, 46.3304 ], [ 0.1648, 46.3181 ], [ 0.1692, 46.3073 ], [ 0.1633, 46.3049 ], [ 0.1582, 46.3077 ], [ 0.1522, 46.3032 ], [ 0.1723, 46.2786 ], [ 0.1596, 46.2666 ], [ 0.1288, 46.2672 ], [ 0.1437, 46.2294 ], [ 0.1372, 46.2249 ], [ 0.1298, 46.2272 ], [ 0.1176, 46.2116 ], [ 0.1134, 46.2122 ], [ 0.1133, 46.195 ], [ 0.1077, 46.1861 ], [ 0.1386, 46.181 ], [ 0.1422, 46.1731 ], [ 0.1495, 46.1722 ], [ 0.1475, 46.1665 ], [ 0.154, 46.1645 ], [ 0.1551, 46.1572 ], [ 0.1719, 46.1558 ], [ 0.1734, 46.1511 ], [ 0.1804, 46.1492 ], [ 0.1897, 46.1495 ], [ 0.1947, 46.1605 ], [ 0.2202, 46.1581 ], [ 0.2158, 46.1389 ], [ 0.2058, 46.1354 ], [ 0.2041, 46.1295 ], [ 0.1973, 46.129 ], [ 0.205, 46.1245 ], [ 0.2029, 46.1195 ], [ 0.1885, 46.1112 ], [ 0.1974, 46.0956 ], [ 0.1914, 46.0949 ], [ 0.1925, 46.0917 ], [ 0.1699, 46.081 ], [ 0.1632, 46.089 ], [ 0.1358, 46.1041 ], [ 0.1157, 46.0962 ], [ 0.107, 46.0969 ], [ 0.0973, 46.1057 ], [ 0.0926, 46.103 ], [ 0.1003, 46.0922 ], [ 0.0969, 46.0889 ], [ 0.0786, 46.0944 ], [ 0.0664, 46.0912 ], [ 0.0508, 46.0794 ], [ 0.0626, 46.0727 ], [ 0.0424, 46.068 ], [ 0.0377, 46.0701 ], [ 0.0193, 46.0528 ], [ 0.0052, 46.0595 ], [ -0.0009, 46.0555 ], [ -0.0236, 46.0567 ], [ -0.0395, 46.0531 ], [ -0.0377, 46.0439 ], [ -0.0214, 46.0289 ], [ -0.0308, 46.0219 ], [ -0.0454, 46.0198 ], [ -0.0479, 46.0044 ], [ -0.0574, 45.9989 ], [ -0.0409, 45.9986 ], [ -0.0381, 45.9924 ], [ -0.0441, 45.9945 ], [ -0.0432, 45.9903 ], [ -0.0584, 45.9868 ], [ -0.062, 45.9797 ], [ -0.0753, 45.9804 ], [ -0.1062, 45.9698 ], [ -0.1161, 45.9775 ], [ -0.1369, 45.979 ], [ -0.1324, 45.9842 ], [ -0.1391, 45.9994 ], [ -0.1448, 46.0047 ], [ -0.1593, 46.0052 ], [ -0.1575, 46.0082 ], [ -0.1646, 46.0107 ], [ -0.1625, 46.0222 ], [ -0.1716, 46.0227 ], [ -0.1603, 46.0366 ], [ -0.1656, 46.0374 ], [ -0.1891, 46.0261 ], [ -0.191, 46.0436 ], [ -0.1965, 46.0445 ], [ -0.1926, 46.0542 ], [ -0.213, 46.0441 ], [ -0.273, 46.0573 ], [ -0.2798, 46.0785 ], [ -0.2918, 46.0875 ], [ -0.3036, 46.0776 ], [ -0.331, 46.0825 ], [ -0.3627, 46.0755 ], [ -0.365, 46.079 ], [ -0.3586, 46.0829 ], [ -0.372, 46.0935 ], [ -0.3813, 46.0931 ], [ -0.3862, 46.0979 ], [ -0.4014, 46.0843 ], [ -0.4225, 46.0939 ], [ -0.4225, 46.1133 ], [ -0.4402, 46.1046 ], [ -0.4366, 46.0978 ], [ -0.4404, 46.0946 ], [ -0.4519, 46.103 ], [ -0.468, 46.1022 ], [ -0.491, 46.1083 ], [ -0.5061, 46.1067 ], [ -0.5164, 46.1125 ], [ -0.5096, 46.1175 ], [ -0.5188, 46.1237 ], [ -0.5111, 46.1282 ], [ -0.5115, 46.1302 ], [ -0.5174, 46.1269 ], [ -0.5286, 46.1298 ], [ -0.5271, 46.1363 ], [ -0.5312, 46.1352 ], [ -0.5331, 46.1397 ], [ -0.5529, 46.1448 ], [ -0.5657, 46.1421 ], [ -0.5793, 46.1483 ], [ -0.583, 46.1397 ], [ -0.5997, 46.1435 ], [ -0.619, 46.1372 ], [ -0.6324, 46.1506 ], [ -0.6068, 46.1528 ], [ -0.6015, 46.1563 ], [ -0.6051, 46.1593 ], [ -0.6284, 46.161 ], [ -0.6274, 46.1646 ], [ -0.633, 46.1659 ], [ -0.6449, 46.165 ], [ -0.6697, 46.185 ], [ -0.6911, 46.1798 ], [ -0.696, 46.1863 ], [ -0.6877, 46.1908 ], [ -0.6978, 46.1922 ], [ -0.694, 46.1967 ], [ -0.6868, 46.1946 ], [ -0.6802, 46.1972 ], [ -0.686, 46.2028 ], [ -0.6882, 46.2167 ], [ -0.7531, 46.2481 ], [ -0.7548, 46.253 ], [ -0.7351, 46.2682 ], [ -0.7484, 46.2833 ], [ -0.7553, 46.3021 ], [ -0.7197, 46.3032 ], [ -0.7164, 46.3075 ], [ -0.7231, 46.3096 ], [ -0.7201, 46.3149 ], [ -0.6967, 46.3251 ], [ -0.6723, 46.3162 ], [ -0.6484, 46.3169 ], [ -0.6364, 46.3253 ], [ -0.6366, 46.3376 ], [ -0.6224, 46.3378 ], [ -0.6049, 46.3471 ], [ -0.6032, 46.3615 ], [ -0.5773, 46.3554 ], [ -0.5618, 46.3597 ], [ -0.5378, 46.3865 ], [ -0.5505, 46.3933 ], [ -0.5661, 46.3931 ], [ -0.5724, 46.4007 ], [ -0.6102, 46.4137 ], [ -0.6209, 46.3905 ], [ -0.6406, 46.397 ], [ -0.6291, 46.4041 ], [ -0.6394, 46.4105 ], [ -0.6368, 46.4323 ], [ -0.6188, 46.4389 ], [ -0.6192, 46.4552 ], [ -0.6139, 46.4491 ], [ -0.6077, 46.4549 ], [ -0.6163, 46.4622 ], [ -0.6191, 46.4758 ], [ -0.6312, 46.4786 ], [ -0.6246, 46.4854 ], [ -0.625, 46.4975 ], [ -0.6463, 46.5114 ], [ -0.6405, 46.5127 ], [ -0.6375, 46.519 ], [ -0.6381, 46.522 ], [ -0.644, 46.5218 ], [ -0.6422, 46.5248 ], [ -0.6221, 46.5301 ], [ -0.6159, 46.5261 ], [ -0.6124, 46.53 ], [ -0.609, 46.5261 ], [ -0.6021, 46.5333 ], [ -0.6022, 46.548 ], [ -0.6084, 46.551 ], [ -0.6066, 46.5637 ], [ -0.6152, 46.5606 ], [ -0.62, 46.5652 ], [ -0.6184, 46.5724 ], [ -0.6245, 46.575 ], [ -0.6119, 46.5883 ], [ -0.6209, 46.593 ], [ -0.614, 46.599 ], [ -0.6257, 46.6051 ], [ -0.614, 46.6216 ], [ -0.6233, 46.6325 ], [ -0.6342, 46.6374 ], [ -0.6589, 46.6359 ], [ -0.6594, 46.6398 ], [ -0.6491, 46.6453 ], [ -0.6486, 46.6564 ], [ -0.637, 46.6633 ], [ -0.6807, 46.6869 ], [ -0.6562, 46.7008 ], [ -0.6781, 46.7257 ], [ -0.6855, 46.7298 ], [ -0.688, 46.7257 ], [ -0.687, 46.7302 ], [ -0.6921, 46.7328 ], [ -0.6963, 46.7295 ], [ -0.6961, 46.7368 ], [ -0.7026, 46.7349 ], [ -0.694, 46.7438 ], [ -0.6983, 46.7518 ], [ -0.7042, 46.7494 ], [ -0.7156, 46.7518 ], [ -0.7201, 46.7637 ], [ -0.7271, 46.7664 ], [ -0.7271, 46.7823 ], [ -0.7173, 46.7923 ], [ -0.7178, 46.8005 ], [ -0.6987, 46.8109 ], [ -0.71, 46.8216 ], [ -0.7329, 46.8215 ], [ -0.7379, 46.8289 ], [ -0.7667, 46.8345 ], [ -0.7834, 46.8442 ], [ -0.7871, 46.8533 ], [ -0.8085, 46.8686 ], [ -0.8163, 46.8806 ], [ -0.8294, 46.8835 ], [ -0.817, 46.904 ], [ -0.8205, 46.911 ], [ -0.8074, 46.9198 ], [ -0.8214, 46.9183 ], [ -0.8291, 46.9334 ], [ -0.8408, 46.9288 ], [ -0.8461, 46.9317 ], [ -0.8407, 46.9361 ], [ -0.848, 46.941 ], [ -0.8579, 46.9343 ], [ -0.8495, 46.946 ], [ -0.8789, 46.945 ], [ -0.8838, 46.9511 ], [ -0.8751, 46.9537 ], [ -0.8666, 46.948 ], [ -0.8606, 46.9491 ], [ -0.8661, 46.9522 ], [ -0.8634, 46.9566 ], [ -0.8691, 46.9572 ], [ -0.8638, 46.9622 ], [ -0.8761, 46.9556 ], [ -0.8833, 46.9595 ], [ -0.8771, 46.9685 ], [ -0.8899, 46.9707 ], [ -0.8925, 46.966 ], [ -0.8941, 46.9691 ], [ -0.902, 46.9671 ], [ -0.9024, 46.9708 ] ] ] } }
]
}
