{
"type": "FeatureCollection",
"name": "dep74",
"crs": { "type": "name", "properties": { "name": "urn:ogc:def:crs:OGC:1.3:CRS84" } },
"xy_coordinate_resolution": 0.0001,
"features": [
{ "type": "Feature", "properties": { "code": "74", "nom": "Haute-Savoie" }, "geometry": { "type": "Polygon", "coordinates": [ [ [ 6.8025, 45.7784 ], [ 6.78, 45.7694 ], [ 6.7664, 45.7702 ], [ 6.7555, 45.7664 ], [ 6.7398, 45.7451 ], [ 6.7119, 45.7229 ], [ 6.689, 45.7281 ], [ 6.6978, 45.7366 ], [ 6.699, 45.7448 ], [ 6.6861, 45.7553 ], [ 6.6905, 45.771 ], [ 6.6588, 45.8 ], [ 6.639, 45.8006 ], [ 6.6264, 45.7962 ], [ 6.6017, 45.7954 ], [ 6.5992, 45.7924 ], [ 6.5842, 45.8009 ], [ 6.5772, 45.8166 ], [ 6.5656, 45.8157 ], [ 6.5592, 45.8201 ], [ 6.5353, 45.862 ], [ 6.5682, 45.8624 ], [ 6.5661, 45.8708 ], [ 6.5729, 45.8776 ], [ 6.5589, 45.8863 ], [ 6.5587, 45.8931 ], [ 6.532, 45.8966 ], [ 6.5273, 45.9011 ], [ 6.5162, 45.9027 ], [ 6.5112, 45.909 ], [ 6.4947, 45.8895 ], [ 6.4706, 45.8847 ], [ 6.462, 45.8679 ], [ 6.4508, 45.8613 ], [ 6.4543, 45.8548 ], [ 6.4449, 45.8449 ], [ 6.4499, 45.8373 ], [ 6.4309, 45.8203 ], [ 6.4249, 45.8035 ], [ 6.3625, 45.7686 ], [ 6.3747, 45.7657 ], [ 6.3716, 45.7541 ], [ 6.3477, 45.7372 ], [ 6.3533, 45.7329 ], [ 6.3286, 45.6928 ], [ 6.3048, 45.6933 ], [ 6.2799, 45.6843 ], [ 6.2605, 45.6875 ], [ 6.2581, 45.6836 ], [ 6.2379, 45.6854 ], [ 6.2276, 45.6818 ], [ 6.2322, 45.7019 ], [ 6.2143, 45.709 ], [ 6.2123, 45.7006 ], [ 6.2015, 45.7 ], [ 6.1962, 45.6928 ], [ 6.1897, 45.7042 ], [ 6.1955, 45.7323 ], [ 6.1822, 45.7335 ], [ 6.1774, 45.7379 ], [ 6.1784, 45.7471 ], [ 6.1661, 45.7487 ], [ 6.1662, 45.7557 ], [ 6.1429, 45.7615 ], [ 6.1376, 45.7613 ], [ 6.1379, 45.7566 ], [ 6.1257, 45.7499 ], [ 6.1037, 45.7618 ], [ 6.1009, 45.7321 ], [ 6.0961, 45.7428 ], [ 6.0756, 45.7409 ], [ 6.0551, 45.7511 ], [ 6.0429, 45.7391 ], [ 6.0095, 45.7511 ], [ 5.9938, 45.7477 ], [ 5.9914, 45.7516 ], [ 5.9967, 45.7612 ], [ 5.9728, 45.77 ], [ 5.9817, 45.7812 ], [ 5.9805, 45.7962 ], [ 5.9581, 45.7949 ], [ 5.9628, 45.8127 ], [ 5.9432, 45.8104 ], [ 5.9337, 45.814 ], [ 5.9306, 45.8071 ], [ 5.9132, 45.8041 ], [ 5.9049, 45.8109 ], [ 5.9048, 45.8261 ], [ 5.8816, 45.8267 ], [ 5.8815, 45.831 ], [ 5.8731, 45.8341 ], [ 5.8774, 45.8461 ], [ 5.8746, 45.8545 ], [ 5.8793, 45.8605 ], [ 5.868, 45.8914 ], [ 5.8621, 45.9324 ], [ 5.8446, 45.9346 ], [ 5.8379, 45.932 ], [ 5.8252, 45.9389 ], [ 5.835, 45.9511 ], [ 5.834, 45.972 ], [ 5.8096, 45.9898 ], [ 5.8109, 46.0099 ], [ 5.8056, 46.0143 ], [ 5.8124, 46.024 ], [ 5.807, 46.0438 ], [ 5.8142, 46.0572 ], [ 5.8076, 46.0639 ], [ 5.8114, 46.0784 ], [ 5.8227, 46.0923 ], [ 5.8196, 46.1031 ], [ 5.8316, 46.1063 ], [ 5.8557, 46.0868 ], [ 5.8832, 46.0849 ], [ 5.8914, 46.0885 ], [ 5.8935, 46.0956 ], [ 5.8853, 46.1079 ], [ 5.8917, 46.1175 ], [ 5.9035, 46.12 ], [ 5.9203, 46.1312 ], [ 5.926, 46.1279 ], [ 5.9462, 46.1279 ], [ 5.9561, 46.1321 ], [ 5.9573, 46.1279 ], [ 5.9772, 46.133 ], [ 5.9822, 46.1417 ], [ 5.9928, 46.1444 ], [ 6.0179, 46.1427 ], [ 6.0367, 46.1365 ], [ 6.0486, 46.1413 ], [ 6.052, 46.1514 ], [ 6.0749, 46.1489 ], [ 6.0925, 46.1518 ], [ 6.099, 46.1439 ], [ 6.1312, 46.1404 ], [ 6.1414, 46.1462 ], [ 6.1449, 46.1448 ], [ 6.1521, 46.1517 ], [ 6.1771, 46.1591 ], [ 6.1889, 46.1663 ], [ 6.1874, 46.1803 ], [ 6.1983, 46.1834 ], [ 6.2067, 46.1922 ], [ 6.2342, 46.2064 ], [ 6.2476, 46.2052 ], [ 6.2774, 46.2156 ], [ 6.2945, 46.2249 ], [ 6.3103, 46.2438 ], [ 6.3059, 46.2514 ], [ 6.3095, 46.2563 ], [ 6.2954, 46.2558 ], [ 6.2949, 46.2646 ], [ 6.285, 46.2549 ], [ 6.2666, 46.2475 ], [ 6.2376, 46.2778 ], [ 6.2529, 46.2905 ], [ 6.249, 46.3018 ], [ 6.2435, 46.3035 ], [ 6.2533, 46.3116 ], [ 6.2577, 46.3255 ], [ 6.2713, 46.3374 ], [ 6.2767, 46.3497 ], [ 6.3052, 46.3668 ], [ 6.3267, 46.3716 ], [ 6.3447, 46.37 ], [ 6.3506, 46.3673 ], [ 6.3595, 46.3494 ], [ 6.3891, 46.3401 ], [ 6.4131, 46.3596 ], [ 6.4314, 46.36 ], [ 6.4749, 46.3748 ], [ 6.4845, 46.3935 ], [ 6.5131, 46.4048 ], [ 6.5439, 46.3948 ], [ 6.6354, 46.406 ], [ 6.7239, 46.408 ], [ 6.7898, 46.3929 ], [ 6.8053, 46.3941 ], [ 6.802, 46.3856 ], [ 6.8062, 46.3798 ], [ 6.7919, 46.3671 ], [ 6.7809, 46.3665 ], [ 6.7714, 46.3609 ], [ 6.772, 46.3503 ], [ 6.7843, 46.3332 ], [ 6.7965, 46.3329 ], [ 6.7999, 46.3205 ], [ 6.8072, 46.3206 ], [ 6.825, 46.3119 ], [ 6.83, 46.3 ], [ 6.8478, 46.2898 ], [ 6.8589, 46.2906 ], [ 6.8645, 46.2796 ], [ 6.8556, 46.2551 ], [ 6.8399, 46.2482 ], [ 6.8296, 46.2338 ], [ 6.821, 46.2319 ], [ 6.8217, 46.2231 ], [ 6.8037, 46.2043 ], [ 6.8127, 46.1816 ], [ 6.792, 46.1622 ], [ 6.7965, 46.1386 ], [ 6.807, 46.1365 ], [ 6.8147, 46.1297 ], [ 6.838, 46.1326 ], [ 6.8518, 46.1264 ], [ 6.8999, 46.1239 ], [ 6.8933, 46.1124 ], [ 6.8955, 46.1087 ], [ 6.8828, 46.0951 ], [ 6.8918, 46.0851 ], [ 6.8883, 46.0788 ], [ 6.8915, 46.0739 ], [ 6.8804, 46.0694 ], [ 6.873, 46.0551 ], [ 6.8756, 46.0477 ], [ 6.8913, 46.0424 ], [ 6.8952, 46.0484 ], [ 6.9085, 46.0502 ], [ 6.9245, 46.0652 ], [ 6.9379, 46.0633 ], [ 6.9358, 46.0551 ], [ 6.9432, 46.0508 ], [ 6.9502, 46.0517 ], [ 6.9629, 46.0305 ], [ 6.9815, 46.0198 ], [ 6.9851, 46.0047 ], [ 7.0007, 45.999 ], [ 7.0054, 46.0016 ], [ 7.0105, 45.9974 ], [ 7.0122, 45.9871 ], [ 7.0232, 45.9785 ], [ 7.0102, 45.9732 ], [ 7.009, 45.969 ], [ 7.018, 45.9603 ], [ 7.0376, 45.9543 ], [ 7.0359, 45.9379 ], [ 7.0451, 45.9225 ], [ 7.0183, 45.9144 ], [ 7.0031, 45.8978 ], [ 7.0067, 45.8871 ], [ 6.9915, 45.868 ], [ 6.9764, 45.8683 ], [ 6.9513, 45.8612 ], [ 6.9414, 45.8469 ], [ 6.9337, 45.8448 ], [ 6.9218, 45.8476 ], [ 6.9133, 45.8408 ], [ 6.9078, 45.844 ], [ 6.8951, 45.8426 ], [ 6.8791, 45.8492 ], [ 6.8703, 45.8393 ], [ 6.8721, 45.8301 ], [ 6.8674, 45.8241 ], [ 6.8604, 45.8327 ], [ 6.8444, 45.8405 ], [ 6.8189, 45.8362 ], [ 6.8048, 45.8156 ], [ 6.8131, 45.8075 ], [ 6.8131, 45.7955 ], [ 6.8056, 45.7929 ], [ 6.8025, 45.7784 ] ] ] } }
]
}
