{
"type": "FeatureCollection",
"name": "dep77",
"crs": { "type": "name", "properties": { "name": "urn:ogc:def:crs:OGC:1.3:CRS84" } },
"xy_coordinate_resolution": 0.0001,
"features": [
{ "type": "Feature", "properties": { "code": "77", "nom": "Seine-et-Marne" }, "geometry": { "type": "Polygon", "coordinates": [ [ [ 2.582, 48.6896 ], [ 2.5706, 48.6949 ], [ 2.5819, 48.6974 ], [ 2.57, 48.7035 ], [ 2.5681, 48.709 ], [ 2.5753, 48.7128 ], [ 2.5792, 48.7227 ], [ 2.5947, 48.7318 ], [ 2.5953, 48.7365 ], [ 2.5854, 48.7417 ], [ 2.6023, 48.7537 ], [ 2.5975, 48.7606 ], [ 2.6156, 48.7624 ], [ 2.607, 48.7744 ], [ 2.5928, 48.7712 ], [ 2.5868, 48.7736 ], [ 2.5856, 48.7786 ], [ 2.5998, 48.795 ], [ 2.5921, 48.7996 ], [ 2.5965, 48.8061 ], [ 2.5923, 48.8074 ], [ 2.5965, 48.8109 ], [ 2.5946, 48.8213 ], [ 2.5916, 48.8277 ], [ 2.5873, 48.8257 ], [ 2.5738, 48.8534 ], [ 2.5831, 48.8554 ], [ 2.5879, 48.8636 ], [ 2.5724, 48.8679 ], [ 2.5676, 48.8659 ], [ 2.5714, 48.8797 ], [ 2.5594, 48.8865 ], [ 2.5722, 48.8925 ], [ 2.587, 48.894 ], [ 2.5842, 48.9033 ], [ 2.5924, 48.9077 ], [ 2.5888, 48.9209 ], [ 2.6026, 48.9294 ], [ 2.6032, 48.9375 ], [ 2.5959, 48.9386 ], [ 2.5898, 48.9534 ], [ 2.5625, 48.9789 ], [ 2.5787, 48.9791 ], [ 2.5768, 48.9841 ], [ 2.5814, 48.9859 ], [ 2.5758, 49.0003 ], [ 2.5647, 49.0056 ], [ 2.5705, 49.0077 ], [ 2.5688, 49.0111 ], [ 2.5531, 49.0098 ], [ 2.549, 49.0147 ], [ 2.5408, 49.0116 ], [ 2.5345, 49.0186 ], [ 2.535, 49.0238 ], [ 2.5452, 49.0224 ], [ 2.5661, 49.0286 ], [ 2.568, 49.0389 ], [ 2.577, 49.0461 ], [ 2.5945, 49.0471 ], [ 2.5847, 49.0526 ], [ 2.5858, 49.0578 ], [ 2.5742, 49.0542 ], [ 2.571, 49.0606 ], [ 2.5905, 49.0797 ], [ 2.6033, 49.0859 ], [ 2.6103, 49.0949 ], [ 2.623, 49.0956 ], [ 2.6333, 49.1084 ], [ 2.6412, 49.0991 ], [ 2.6502, 49.1005 ], [ 2.6774, 49.0883 ], [ 2.695, 49.0747 ], [ 2.6899, 49.0676 ], [ 2.6978, 49.0644 ], [ 2.7052, 49.065 ], [ 2.7244, 49.0805 ], [ 2.735, 49.0605 ], [ 2.7535, 49.0607 ], [ 2.7779, 49.0702 ], [ 2.7871, 49.0755 ], [ 2.7683, 49.0833 ], [ 2.7889, 49.0829 ], [ 2.784, 49.0886 ], [ 2.8093, 49.0975 ], [ 2.8295, 49.0838 ], [ 2.8449, 49.0849 ], [ 2.8547, 49.0702 ], [ 2.8703, 49.0702 ], [ 2.8876, 49.0795 ], [ 2.8949, 49.0771 ], [ 2.9015, 49.0854 ], [ 2.9233, 49.0776 ], [ 2.9331, 49.081 ], [ 2.9406, 49.0771 ], [ 2.9458, 49.0881 ], [ 2.9567, 49.0854 ], [ 2.9687, 49.0915 ], [ 2.9753, 49.0742 ], [ 2.9869, 49.0711 ], [ 2.9912, 49.084 ], [ 3.0009, 49.0895 ], [ 3.006, 49.0865 ], [ 3.0085, 49.0915 ], [ 3.0316, 49.0856 ], [ 3.0328, 49.0891 ], [ 3.051, 49.0851 ], [ 3.0585, 49.0885 ], [ 3.065, 49.0851 ], [ 3.056, 49.1005 ], [ 3.0719, 49.1176 ], [ 3.081, 49.1118 ], [ 3.1382, 49.1071 ], [ 3.144, 49.1019 ], [ 3.1652, 49.0996 ], [ 3.1536, 49.0833 ], [ 3.1766, 49.0696 ], [ 3.1822, 49.0524 ], [ 3.19, 49.0526 ], [ 3.1909, 49.0476 ], [ 3.1805, 49.0445 ], [ 3.1769, 49.0307 ], [ 3.161, 49.0242 ], [ 3.1674, 49.0124 ], [ 3.1975, 49.0085 ], [ 3.1961, 49.0048 ], [ 3.2072, 49.0007 ], [ 3.2093, 48.9938 ], [ 3.2292, 48.9884 ], [ 3.2312, 48.9768 ], [ 3.2494, 48.9744 ], [ 3.2649, 48.9391 ], [ 3.2845, 48.9405 ], [ 3.3048, 48.9488 ], [ 3.3129, 48.9336 ], [ 3.3131, 48.9212 ], [ 3.3303, 48.9087 ], [ 3.3465, 48.917 ], [ 3.3536, 48.9152 ], [ 3.3605, 48.9184 ], [ 3.3683, 48.9277 ], [ 3.3765, 48.9097 ], [ 3.369, 48.8937 ], [ 3.3837, 48.8889 ], [ 3.3814, 48.8716 ], [ 3.3917, 48.8709 ], [ 3.3932, 48.8754 ], [ 3.4059, 48.8759 ], [ 3.4005, 48.8677 ], [ 3.4042, 48.864 ], [ 3.424, 48.8674 ], [ 3.4303, 48.8607 ], [ 3.4456, 48.8604 ], [ 3.4522, 48.8563 ], [ 3.4454, 48.8432 ], [ 3.4607, 48.8394 ], [ 3.4705, 48.851 ], [ 3.4852, 48.8519 ], [ 3.4913, 48.8347 ], [ 3.485, 48.825 ], [ 3.4872, 48.8152 ], [ 3.4809, 48.8122 ], [ 3.4704, 48.8209 ], [ 3.4482, 48.8111 ], [ 3.4166, 48.8178 ], [ 3.4042, 48.8093 ], [ 3.423, 48.8008 ], [ 3.4421, 48.8036 ], [ 3.444, 48.7914 ], [ 3.4419, 48.7824 ], [ 3.4382, 48.7851 ], [ 3.4295, 48.7794 ], [ 3.4241, 48.7841 ], [ 3.4089, 48.7839 ], [ 3.3958, 48.7592 ], [ 3.4091, 48.7523 ], [ 3.4259, 48.7545 ], [ 3.4285, 48.7584 ], [ 3.4366, 48.7532 ], [ 3.4363, 48.7437 ], [ 3.4441, 48.7366 ], [ 3.4697, 48.7379 ], [ 3.4643, 48.7074 ], [ 3.4778, 48.6979 ], [ 3.4726, 48.6979 ], [ 3.4717, 48.6857 ], [ 3.4627, 48.6854 ], [ 3.4476, 48.6773 ], [ 3.4427, 48.6725 ], [ 3.4462, 48.6669 ], [ 3.4406, 48.6636 ], [ 3.4604, 48.653 ], [ 3.4511, 48.6347 ], [ 3.4766, 48.6373 ], [ 3.4929, 48.6476 ], [ 3.5175, 48.6434 ], [ 3.5332, 48.6465 ], [ 3.5174, 48.6372 ], [ 3.5191, 48.6335 ], [ 3.538, 48.6316 ], [ 3.5585, 48.617 ], [ 3.5408, 48.616 ], [ 3.5346, 48.6103 ], [ 3.5032, 48.6046 ], [ 3.5159, 48.5898 ], [ 3.4932, 48.5902 ], [ 3.4853, 48.5804 ], [ 3.4655, 48.5705 ], [ 3.4742, 48.5645 ], [ 3.4764, 48.5521 ], [ 3.4859, 48.5473 ], [ 3.4791, 48.5455 ], [ 3.4817, 48.5414 ], [ 3.4757, 48.5414 ], [ 3.4569, 48.5296 ], [ 3.44, 48.5284 ], [ 3.4142, 48.5335 ], [ 3.4054, 48.528 ], [ 3.4236, 48.5148 ], [ 3.4351, 48.496 ], [ 3.4346, 48.4903 ], [ 3.4204, 48.4917 ], [ 3.4097, 48.4857 ], [ 3.4051, 48.4886 ], [ 3.3834, 48.4794 ], [ 3.3911, 48.4705 ], [ 3.3996, 48.4677 ], [ 3.3944, 48.4627 ], [ 3.4065, 48.4525 ], [ 3.4049, 48.4394 ], [ 3.4016, 48.4357 ], [ 3.3952, 48.4368 ], [ 3.3917, 48.4233 ], [ 3.4118, 48.4213 ], [ 3.4115, 48.4174 ], [ 3.4024, 48.4177 ], [ 3.4025, 48.4152 ], [ 3.4221, 48.4162 ], [ 3.4148, 48.3903 ], [ 3.402, 48.3897 ], [ 3.3879, 48.3984 ], [ 3.3779, 48.3991 ], [ 3.3735, 48.3935 ], [ 3.3672, 48.3943 ], [ 3.3652, 48.3723 ], [ 3.3564, 48.3712 ], [ 3.3566, 48.3784 ], [ 3.351, 48.3786 ], [ 3.3484, 48.3733 ], [ 3.3364, 48.373 ], [ 3.3355, 48.3702 ], [ 3.3121, 48.3772 ], [ 3.3109, 48.373 ], [ 3.3051, 48.3729 ], [ 3.3002, 48.3784 ], [ 3.2896, 48.3758 ], [ 3.2913, 48.3801 ], [ 3.2828, 48.3816 ], [ 3.2824, 48.3775 ], [ 3.268, 48.378 ], [ 3.2544, 48.365 ], [ 3.2237, 48.3704 ], [ 3.2003, 48.3637 ], [ 3.1903, 48.3709 ], [ 3.1849, 48.3681 ], [ 3.1797, 48.3757 ], [ 3.1718, 48.3777 ], [ 3.1668, 48.3706 ], [ 3.1524, 48.3714 ], [ 3.1466, 48.3657 ], [ 3.1399, 48.3726 ], [ 3.1288, 48.3672 ], [ 3.1172, 48.3666 ], [ 3.1034, 48.3495 ], [ 3.0989, 48.3578 ], [ 3.0784, 48.3612 ], [ 3.0606, 48.3574 ], [ 3.0495, 48.3601 ], [ 3.0371, 48.3426 ], [ 3.0367, 48.335 ], [ 3.0436, 48.3304 ], [ 3.0282, 48.3216 ], [ 3.0148, 48.3062 ], [ 3.0274, 48.3029 ], [ 3.0187, 48.2948 ], [ 3.0298, 48.2858 ], [ 3.025, 48.276 ], [ 3.0455, 48.2707 ], [ 3.0428, 48.262 ], [ 3.0476, 48.2497 ], [ 3.0315, 48.2489 ], [ 3.0186, 48.2352 ], [ 3.0228, 48.2303 ], [ 3.0113, 48.2208 ], [ 3.0046, 48.2068 ], [ 2.993, 48.2044 ], [ 2.989, 48.209 ], [ 2.9731, 48.2055 ], [ 2.9713, 48.1948 ], [ 2.9554, 48.1925 ], [ 2.9369, 48.183 ], [ 2.9363, 48.1634 ], [ 2.868, 48.1564 ], [ 2.8499, 48.1411 ], [ 2.8362, 48.1341 ], [ 2.8242, 48.1339 ], [ 2.8209, 48.1297 ], [ 2.8012, 48.1315 ], [ 2.7979, 48.1512 ], [ 2.8114, 48.1638 ], [ 2.8103, 48.1661 ], [ 2.8017, 48.1643 ], [ 2.7953, 48.1691 ], [ 2.7921, 48.1646 ], [ 2.7792, 48.1675 ], [ 2.7717, 48.1617 ], [ 2.7672, 48.1649 ], [ 2.7552, 48.1601 ], [ 2.7364, 48.1663 ], [ 2.7536, 48.1532 ], [ 2.7552, 48.1457 ], [ 2.7205, 48.1369 ], [ 2.7053, 48.123 ], [ 2.6774, 48.1259 ], [ 2.6648, 48.1205 ], [ 2.6397, 48.1389 ], [ 2.6027, 48.1315 ], [ 2.5748, 48.1313 ], [ 2.5706, 48.1408 ], [ 2.5583, 48.1416 ], [ 2.5375, 48.1403 ], [ 2.5196, 48.1271 ], [ 2.5219, 48.1251 ], [ 2.476, 48.1296 ], [ 2.4649, 48.1291 ], [ 2.4544, 48.1224 ], [ 2.4428, 48.1254 ], [ 2.4443, 48.1315 ], [ 2.4601, 48.1368 ], [ 2.4675, 48.1482 ], [ 2.4747, 48.1488 ], [ 2.4739, 48.1541 ], [ 2.4832, 48.1645 ], [ 2.5063, 48.1564 ], [ 2.5165, 48.1662 ], [ 2.5123, 48.1707 ], [ 2.5155, 48.1748 ], [ 2.5073, 48.1797 ], [ 2.5181, 48.1899 ], [ 2.513, 48.193 ], [ 2.5231, 48.1949 ], [ 2.5141, 48.2144 ], [ 2.5133, 48.2244 ], [ 2.5183, 48.2276 ], [ 2.5069, 48.226 ], [ 2.5062, 48.2385 ], [ 2.4841, 48.239 ], [ 2.4763, 48.2444 ], [ 2.4789, 48.2495 ], [ 2.4691, 48.2553 ], [ 2.4502, 48.25 ], [ 2.4464, 48.2552 ], [ 2.4401, 48.2532 ], [ 2.4235, 48.2604 ], [ 2.4177, 48.2788 ], [ 2.4233, 48.2948 ], [ 2.3936, 48.3268 ], [ 2.3932, 48.3363 ], [ 2.4023, 48.333 ], [ 2.4266, 48.3376 ], [ 2.4338, 48.3345 ], [ 2.4298, 48.348 ], [ 2.4347, 48.3542 ], [ 2.4407, 48.3516 ], [ 2.444, 48.3573 ], [ 2.4298, 48.362 ], [ 2.443, 48.3695 ], [ 2.4506, 48.3672 ], [ 2.4476, 48.3727 ], [ 2.4515, 48.3749 ], [ 2.4692, 48.3764 ], [ 2.4848, 48.3834 ], [ 2.4738, 48.3904 ], [ 2.4835, 48.3973 ], [ 2.4986, 48.3968 ], [ 2.5029, 48.3929 ], [ 2.5216, 48.4049 ], [ 2.5469, 48.4017 ], [ 2.5174, 48.4275 ], [ 2.505, 48.4299 ], [ 2.5074, 48.438 ], [ 2.5002, 48.4405 ], [ 2.5073, 48.451 ], [ 2.4979, 48.4573 ], [ 2.5059, 48.4612 ], [ 2.5019, 48.4669 ], [ 2.5072, 48.4697 ], [ 2.5022, 48.4721 ], [ 2.5019, 48.4848 ], [ 2.5101, 48.4884 ], [ 2.5154, 48.5061 ], [ 2.5138, 48.5095 ], [ 2.509, 48.5081 ], [ 2.5087, 48.5168 ], [ 2.4976, 48.5172 ], [ 2.4974, 48.5254 ], [ 2.5108, 48.5431 ], [ 2.4993, 48.5429 ], [ 2.4993, 48.5454 ], [ 2.5198, 48.5625 ], [ 2.5192, 48.5701 ], [ 2.5306, 48.5709 ], [ 2.5316, 48.5737 ], [ 2.5218, 48.5732 ], [ 2.5182, 48.5843 ], [ 2.5409, 48.5942 ], [ 2.5438, 48.6039 ], [ 2.5407, 48.6114 ], [ 2.5258, 48.6131 ], [ 2.5268, 48.6214 ], [ 2.5157, 48.6289 ], [ 2.5253, 48.6331 ], [ 2.5422, 48.6333 ], [ 2.5419, 48.6462 ], [ 2.5474, 48.6517 ], [ 2.5411, 48.6515 ], [ 2.5336, 48.6573 ], [ 2.5448, 48.6712 ], [ 2.5494, 48.6691 ], [ 2.5573, 48.6758 ], [ 2.5685, 48.6667 ], [ 2.571, 48.6749 ], [ 2.5858, 48.679 ], [ 2.582, 48.6896 ] ] ] } }
]
}
