{
"type": "FeatureCollection",
"name": "dep73",
"crs": { "type": "name", "properties": { "name": "urn:ogc:def:crs:OGC:1.3:CRS84" } },
"xy_coordinate_resolution": 0.0001,
"features": [
{ "type": "Feature", "properties": { "code": "73", "nom": "Savoie" }, "geometry": { "type": "Polygon", "coordinates": [ [ [ 6.8025, 45.7784 ], [ 6.8056, 45.7485 ], [ 6.8173, 45.7403 ], [ 6.8084, 45.7251 ], [ 6.8193, 45.7187 ], [ 6.8291, 45.7028 ], [ 6.8414, 45.7004 ], [ 6.8463, 45.6902 ], [ 6.8933, 45.6755 ], [ 6.9025, 45.6809 ], [ 6.907, 45.6759 ], [ 6.9021, 45.6637 ], [ 6.9145, 45.6612 ], [ 6.9148, 45.6517 ], [ 6.9308, 45.6457 ], [ 6.9606, 45.6549 ], [ 6.9705, 45.6539 ], [ 6.9749, 45.6466 ], [ 6.9895, 45.644 ], [ 6.9931, 45.6396 ], [ 7.0007, 45.6399 ], [ 7.001, 45.635 ], [ 6.9851, 45.6209 ], [ 6.978, 45.5872 ], [ 6.9944, 45.5759 ], [ 6.997, 45.5689 ], [ 6.9902, 45.5639 ], [ 6.9897, 45.5568 ], [ 6.996, 45.5452 ], [ 6.9912, 45.5304 ], [ 7.0053, 45.5171 ], [ 7.0003, 45.5044 ], [ 7.0212, 45.4968 ], [ 7.0546, 45.495 ], [ 7.0556, 45.4875 ], [ 7.0458, 45.4783 ], [ 7.048, 45.4734 ], [ 7.0603, 45.471 ], [ 7.077, 45.4738 ], [ 7.103, 45.4684 ], [ 7.0992, 45.4588 ], [ 7.1146, 45.4417 ], [ 7.1143, 45.4335 ], [ 7.1522, 45.4232 ], [ 7.1634, 45.4134 ], [ 7.1843, 45.4075 ], [ 7.1794, 45.3904 ], [ 7.165, 45.3836 ], [ 7.1585, 45.3704 ], [ 7.1645, 45.3607 ], [ 7.1339, 45.3472 ], [ 7.1317, 45.3292 ], [ 7.1112, 45.3269 ], [ 7.1096, 45.3189 ], [ 7.118, 45.3116 ], [ 7.1218, 45.2962 ], [ 7.1364, 45.2808 ], [ 7.1281, 45.2718 ], [ 7.1376, 45.2557 ], [ 7.1252, 45.2439 ], [ 7.1106, 45.2464 ], [ 7.1063, 45.2373 ], [ 7.0807, 45.2244 ], [ 7.0831, 45.2178 ], [ 7.0719, 45.2099 ], [ 7.0472, 45.2258 ], [ 7.0263, 45.2154 ], [ 7.0233, 45.2186 ], [ 7.0196, 45.2147 ], [ 7.0036, 45.2199 ], [ 6.9947, 45.2155 ], [ 6.9931, 45.21 ], [ 6.9657, 45.2079 ], [ 6.9606, 45.203 ], [ 6.9674, 45.1964 ], [ 6.9523, 45.1897 ], [ 6.9542, 45.1796 ], [ 6.9429, 45.1762 ], [ 6.9471, 45.1708 ], [ 6.9272, 45.1705 ], [ 6.9243, 45.1663 ], [ 6.8916, 45.167 ], [ 6.8841, 45.1567 ], [ 6.8902, 45.1465 ], [ 6.8976, 45.143 ], [ 6.8923, 45.1368 ], [ 6.8736, 45.1359 ], [ 6.8479, 45.1272 ], [ 6.8472, 45.1356 ], [ 6.836, 45.1352 ], [ 6.8214, 45.1453 ], [ 6.768, 45.1597 ], [ 6.74, 45.1367 ], [ 6.7121, 45.1446 ], [ 6.6921, 45.1392 ], [ 6.6801, 45.1401 ], [ 6.6725, 45.1244 ], [ 6.6581, 45.1218 ], [ 6.6482, 45.1148 ], [ 6.6356, 45.1159 ], [ 6.63, 45.1093 ], [ 6.6155, 45.1215 ], [ 6.5927, 45.1189 ], [ 6.5765, 45.1231 ], [ 6.5613, 45.1112 ], [ 6.5613, 45.1053 ], [ 6.5392, 45.0991 ], [ 6.5297, 45.0986 ], [ 6.5104, 45.109 ], [ 6.4805, 45.0942 ], [ 6.4896, 45.0677 ], [ 6.4862, 45.0561 ], [ 6.4518, 45.0517 ], [ 6.4343, 45.0636 ], [ 6.4228, 45.0601 ], [ 6.4038, 45.0648 ], [ 6.3963, 45.0611 ], [ 6.3649, 45.0702 ], [ 6.3747, 45.0832 ], [ 6.3628, 45.1051 ], [ 6.3399, 45.1161 ], [ 6.3345, 45.1228 ], [ 6.3173, 45.112 ], [ 6.2992, 45.1086 ], [ 6.2863, 45.1102 ], [ 6.2606, 45.1268 ], [ 6.2654, 45.1396 ], [ 6.25, 45.1508 ], [ 6.2241, 45.1411 ], [ 6.2119, 45.1548 ], [ 6.181, 45.1649 ], [ 6.1613, 45.151 ], [ 6.1438, 45.1546 ], [ 6.1483, 45.1601 ], [ 6.1449, 45.1652 ], [ 6.1537, 45.1687 ], [ 6.1619, 45.1884 ], [ 6.1595, 45.2025 ], [ 6.1378, 45.2133 ], [ 6.1418, 45.2223 ], [ 6.1271, 45.2324 ], [ 6.1257, 45.2443 ], [ 6.141, 45.2613 ], [ 6.1332, 45.2706 ], [ 6.1307, 45.2849 ], [ 6.143, 45.296 ], [ 6.1412, 45.2988 ], [ 6.1541, 45.3043 ], [ 6.1539, 45.3114 ], [ 6.1868, 45.3199 ], [ 6.1845, 45.3282 ], [ 6.1924, 45.3382 ], [ 6.1948, 45.3522 ], [ 6.1711, 45.3571 ], [ 6.1918, 45.3693 ], [ 6.1775, 45.3932 ], [ 6.1447, 45.4136 ], [ 6.1288, 45.4363 ], [ 6.1161, 45.4382 ], [ 6.0954, 45.4317 ], [ 6.093, 45.4442 ], [ 6.0632, 45.4442 ], [ 6.0491, 45.4379 ], [ 6.0085, 45.4538 ], [ 6.0109, 45.4732 ], [ 5.9912, 45.4751 ], [ 5.9824, 45.4867 ], [ 5.9662, 45.4923 ], [ 5.9534, 45.4848 ], [ 5.9154, 45.4764 ], [ 5.9253, 45.4641 ], [ 5.9212, 45.4437 ], [ 5.9136, 45.4355 ], [ 5.9045, 45.4326 ], [ 5.9036, 45.408 ], [ 5.9283, 45.4167 ], [ 5.9096, 45.3904 ], [ 5.8916, 45.3907 ], [ 5.8899, 45.4013 ], [ 5.8811, 45.4067 ], [ 5.8607, 45.4093 ], [ 5.8543, 45.4166 ], [ 5.8197, 45.4211 ], [ 5.8081, 45.4258 ], [ 5.7981, 45.4382 ], [ 5.7873, 45.4386 ], [ 5.7828, 45.4423 ], [ 5.7661, 45.4404 ], [ 5.7577, 45.4349 ], [ 5.7402, 45.4368 ], [ 5.732, 45.4528 ], [ 5.7365, 45.4717 ], [ 5.7191, 45.4838 ], [ 5.7098, 45.5023 ], [ 5.7135, 45.5064 ], [ 5.7012, 45.5082 ], [ 5.7037, 45.5134 ], [ 5.6912, 45.5218 ], [ 5.692, 45.5276 ], [ 5.676, 45.5307 ], [ 5.6697, 45.5381 ], [ 5.6733, 45.5435 ], [ 5.6811, 45.542 ], [ 5.6797, 45.5465 ], [ 5.6723, 45.5466 ], [ 5.6752, 45.5525 ], [ 5.6696, 45.5558 ], [ 5.6745, 45.5591 ], [ 5.6534, 45.5707 ], [ 5.6457, 45.5842 ], [ 5.623, 45.6043 ], [ 5.6222, 45.6116 ], [ 5.634, 45.6125 ], [ 5.6369, 45.6218 ], [ 5.6478, 45.626 ], [ 5.6515, 45.6359 ], [ 5.6781, 45.6384 ], [ 5.6872, 45.6431 ], [ 5.6849, 45.6662 ], [ 5.7098, 45.6865 ], [ 5.7006, 45.7099 ], [ 5.7382, 45.7103 ], [ 5.7488, 45.7053 ], [ 5.7762, 45.7264 ], [ 5.7698, 45.7413 ], [ 5.7835, 45.7443 ], [ 5.779, 45.7599 ], [ 5.7865, 45.8032 ], [ 5.7841, 45.8165 ], [ 5.7972, 45.831 ], [ 5.8037, 45.8556 ], [ 5.8285, 45.9093 ], [ 5.8284, 45.9197 ], [ 5.8219, 45.9293 ], [ 5.8312, 45.9385 ], [ 5.8379, 45.932 ], [ 5.8446, 45.9346 ], [ 5.8621, 45.9324 ], [ 5.868, 45.8914 ], [ 5.8793, 45.8605 ], [ 5.8746, 45.8545 ], [ 5.8774, 45.8461 ], [ 5.8731, 45.8341 ], [ 5.8815, 45.831 ], [ 5.8816, 45.8267 ], [ 5.9048, 45.8261 ], [ 5.9049, 45.8109 ], [ 5.9132, 45.8041 ], [ 5.9306, 45.8071 ], [ 5.9337, 45.814 ], [ 5.9432, 45.8104 ], [ 5.9628, 45.8127 ], [ 5.9581, 45.7949 ], [ 5.9805, 45.7962 ], [ 5.9817, 45.7812 ], [ 5.9728, 45.77 ], [ 5.9967, 45.7612 ], [ 5.9914, 45.7516 ], [ 5.9938, 45.7477 ], [ 6.0095, 45.7511 ], [ 6.0429, 45.7391 ], [ 6.0551, 45.7511 ], [ 6.0756, 45.7409 ], [ 6.0961, 45.7428 ], [ 6.1009, 45.7321 ], [ 6.1037, 45.7618 ], [ 6.1257, 45.7499 ], [ 6.1379, 45.7566 ], [ 6.1376, 45.7613 ], [ 6.1662, 45.7557 ], [ 6.1661, 45.7487 ], [ 6.1784, 45.7471 ], [ 6.1774, 45.7379 ], [ 6.1822, 45.7335 ], [ 6.1955, 45.7323 ], [ 6.1906, 45.6965 ], [ 6.1962, 45.6928 ], [ 6.2015, 45.7 ], [ 6.2123, 45.7006 ], [ 6.2143, 45.709 ], [ 6.2317, 45.7027 ], [ 6.2276, 45.6818 ], [ 6.2379, 45.6854 ], [ 6.2581, 45.6836 ], [ 6.2605, 45.6875 ], [ 6.2799, 45.6843 ], [ 6.3048, 45.6933 ], [ 6.3286, 45.6928 ], [ 6.3533, 45.7329 ], [ 6.3477, 45.7372 ], [ 6.3716, 45.7541 ], [ 6.3747, 45.7657 ], [ 6.3625, 45.7686 ], [ 6.4249, 45.8035 ], [ 6.4309, 45.8203 ], [ 6.4499, 45.8373 ], [ 6.4449, 45.8449 ], [ 6.4543, 45.8548 ], [ 6.4508, 45.8613 ], [ 6.462, 45.8679 ], [ 6.4706, 45.8847 ], [ 6.4947, 45.8895 ], [ 6.5112, 45.909 ], [ 6.5162, 45.9027 ], [ 6.5273, 45.9011 ], [ 6.532, 45.8966 ], [ 6.5587, 45.8931 ], [ 6.5589, 45.8863 ], [ 6.5729, 45.8776 ], [ 6.5661, 45.8708 ], [ 6.5682, 45.8624 ], [ 6.5353, 45.862 ], [ 6.5592, 45.8201 ], [ 6.5656, 45.8157 ], [ 6.5772, 45.8166 ], [ 6.5842, 45.8009 ], [ 6.5992, 45.7924 ], [ 6.6017, 45.7954 ], [ 6.6264, 45.7962 ], [ 6.639, 45.8006 ], [ 6.6588, 45.8 ], [ 6.6905, 45.771 ], [ 6.6861, 45.7553 ], [ 6.699, 45.7448 ], [ 6.6978, 45.7366 ], [ 6.689, 45.7281 ], [ 6.7119, 45.7229 ], [ 6.7398, 45.7451 ], [ 6.7555, 45.7664 ], [ 6.7664, 45.7702 ], [ 6.78, 45.7694 ], [ 6.8025, 45.7784 ] ] ] } }
]
}
