{
"type": "FeatureCollection",
"name": "dep70",
"crs": { "type": "name", "properties": { "name": "urn:ogc:def:crs:OGC:1.3:CRS84" } },
"xy_coordinate_resolution": 0.0001,
"features": [
{ "type": "Feature", "properties": { "code": "70", "nom": "Haute-Saône" }, "geometry": { "type": "Polygon", "coordinates": [ [ [ 5.8847, 47.9261 ], [ 5.8972, 47.931 ], [ 5.8929, 47.9371 ], [ 5.9001, 47.9447 ], [ 5.918, 47.9474 ], [ 5.9174, 47.9662 ], [ 5.9325, 47.9773 ], [ 5.9475, 47.9792 ], [ 5.9496, 47.9729 ], [ 5.9601, 47.968 ], [ 5.9379, 47.9516 ], [ 5.9284, 47.9378 ], [ 5.9494, 47.9354 ], [ 5.9689, 47.9474 ], [ 5.9708, 47.9572 ], [ 6.0053, 47.9578 ], [ 6.0121, 47.9718 ], [ 6.019, 47.9697 ], [ 6.0261, 47.9815 ], [ 6.0182, 47.9842 ], [ 6.019, 47.9875 ], [ 6.0247, 47.9871 ], [ 6.0249, 47.9916 ], [ 6.0322, 47.9906 ], [ 6.0325, 47.9986 ], [ 6.0412, 48.0044 ], [ 6.0728, 48.0158 ], [ 6.0808, 48.0128 ], [ 6.0977, 48.015 ], [ 6.1092, 48.0125 ], [ 6.1174, 48.0199 ], [ 6.1314, 48.0241 ], [ 6.1561, 48.0069 ], [ 6.1526, 47.9941 ], [ 6.1596, 47.9923 ], [ 6.1576, 47.9845 ], [ 6.1646, 47.9731 ], [ 6.1509, 47.9706 ], [ 6.1498, 47.9659 ], [ 6.1556, 47.9651 ], [ 6.1571, 47.9679 ], [ 6.168, 47.9524 ], [ 6.182, 47.9563 ], [ 6.1974, 47.9518 ], [ 6.1971, 47.9474 ], [ 6.2081, 47.9468 ], [ 6.2052, 47.9321 ], [ 6.2144, 47.9304 ], [ 6.2192, 47.9358 ], [ 6.238, 47.9328 ], [ 6.2432, 47.9396 ], [ 6.2508, 47.9391 ], [ 6.2773, 47.9538 ], [ 6.2891, 47.9558 ], [ 6.3233, 47.9488 ], [ 6.3353, 47.9558 ], [ 6.3453, 47.9545 ], [ 6.3616, 47.9613 ], [ 6.3806, 47.9585 ], [ 6.3889, 47.9608 ], [ 6.3945, 47.955 ], [ 6.4054, 47.9531 ], [ 6.4084, 47.9432 ], [ 6.4347, 47.9428 ], [ 6.4492, 47.9217 ], [ 6.4627, 47.9173 ], [ 6.456, 47.9068 ], [ 6.4655, 47.8971 ], [ 6.478, 47.893 ], [ 6.4741, 47.891 ], [ 6.4783, 47.8854 ], [ 6.5032, 47.8962 ], [ 6.544, 47.9031 ], [ 6.544, 47.9084 ], [ 6.5522, 47.9116 ], [ 6.5634, 47.9314 ], [ 6.5898, 47.9425 ], [ 6.6074, 47.9438 ], [ 6.6185, 47.9314 ], [ 6.6274, 47.9301 ], [ 6.6331, 47.9214 ], [ 6.6419, 47.9178 ], [ 6.6393, 47.9103 ], [ 6.6464, 47.9032 ], [ 6.7028, 47.8817 ], [ 6.7378, 47.8617 ], [ 6.7826, 47.8513 ], [ 6.7922, 47.8422 ], [ 6.7884, 47.8345 ], [ 6.7927, 47.8295 ], [ 6.8235, 47.8131 ], [ 6.8249, 47.8091 ], [ 6.8113, 47.7943 ], [ 6.7847, 47.7814 ], [ 6.7644, 47.7585 ], [ 6.7576, 47.7479 ], [ 6.761, 47.7301 ], [ 6.7562, 47.7255 ], [ 6.7682, 47.7174 ], [ 6.7726, 47.7116 ], [ 6.7705, 47.7016 ], [ 6.7794, 47.6953 ], [ 6.7817, 47.6842 ], [ 6.7761, 47.6681 ], [ 6.7817, 47.6626 ], [ 6.7798, 47.6568 ], [ 6.7973, 47.6449 ], [ 6.801, 47.636 ], [ 6.7894, 47.6256 ], [ 6.7804, 47.6253 ], [ 6.7776, 47.6156 ], [ 6.7871, 47.6101 ], [ 6.7916, 47.5962 ], [ 6.8023, 47.5905 ], [ 6.802, 47.5838 ], [ 6.8217, 47.5733 ], [ 6.8012, 47.5624 ], [ 6.797, 47.549 ], [ 6.7853, 47.5434 ], [ 6.7829, 47.5377 ], [ 6.773, 47.535 ], [ 6.7551, 47.5423 ], [ 6.7397, 47.557 ], [ 6.7223, 47.5595 ], [ 6.7195, 47.5525 ], [ 6.7081, 47.558 ], [ 6.6886, 47.5606 ], [ 6.6852, 47.5632 ], [ 6.6889, 47.5708 ], [ 6.6583, 47.572 ], [ 6.6638, 47.5769 ], [ 6.6601, 47.5799 ], [ 6.652, 47.5724 ], [ 6.6702, 47.5579 ], [ 6.6494, 47.5369 ], [ 6.6246, 47.5289 ], [ 6.6094, 47.5308 ], [ 6.5967, 47.5421 ], [ 6.5814, 47.544 ], [ 6.5818, 47.5399 ], [ 6.5677, 47.5313 ], [ 6.5726, 47.527 ], [ 6.5814, 47.5293 ], [ 6.5836, 47.51 ], [ 6.5735, 47.4955 ], [ 6.5582, 47.4968 ], [ 6.556, 47.4904 ], [ 6.5345, 47.5061 ], [ 6.5303, 47.5006 ], [ 6.5158, 47.4966 ], [ 6.4988, 47.5107 ], [ 6.4832, 47.4976 ], [ 6.4759, 47.4965 ], [ 6.4758, 47.4885 ], [ 6.4711, 47.4872 ], [ 6.4635, 47.5121 ], [ 6.4522, 47.5168 ], [ 6.441, 47.5147 ], [ 6.4113, 47.5223 ], [ 6.3934, 47.5166 ], [ 6.39, 47.5059 ], [ 6.3681, 47.5135 ], [ 6.3476, 47.5052 ], [ 6.3357, 47.5065 ], [ 6.3195, 47.4855 ], [ 6.3025, 47.4915 ], [ 6.302, 47.4698 ], [ 6.2864, 47.4605 ], [ 6.2831, 47.4511 ], [ 6.2872, 47.4462 ], [ 6.2802, 47.444 ], [ 6.2645, 47.4472 ], [ 6.2623, 47.4306 ], [ 6.2558, 47.4244 ], [ 6.239, 47.4318 ], [ 6.2334, 47.4297 ], [ 6.2438, 47.4137 ], [ 6.2416, 47.4107 ], [ 6.2327, 47.4138 ], [ 6.2263, 47.4218 ], [ 6.2035, 47.4304 ], [ 6.1928, 47.4131 ], [ 6.1758, 47.4168 ], [ 6.1711, 47.4087 ], [ 6.1893, 47.4056 ], [ 6.1905, 47.4022 ], [ 6.1777, 47.4018 ], [ 6.1692, 47.3893 ], [ 6.1684, 47.3928 ], [ 6.1616, 47.3924 ], [ 6.1681, 47.3883 ], [ 6.1356, 47.3868 ], [ 6.1206, 47.3956 ], [ 6.1135, 47.3872 ], [ 6.1044, 47.3844 ], [ 6.1051, 47.3778 ], [ 6.1113, 47.3797 ], [ 6.1067, 47.3771 ], [ 6.1197, 47.3685 ], [ 6.1165, 47.365 ], [ 6.1127, 47.3677 ], [ 6.113, 47.3613 ], [ 6.1025, 47.3613 ], [ 6.1006, 47.3716 ], [ 6.0863, 47.3731 ], [ 6.0815, 47.3709 ], [ 6.0807, 47.3548 ], [ 6.0749, 47.3512 ], [ 6.0541, 47.3492 ], [ 6.0521, 47.3522 ], [ 6.0484, 47.3464 ], [ 6.0389, 47.3455 ], [ 6.0183, 47.3314 ], [ 5.9982, 47.3405 ], [ 5.9931, 47.3287 ], [ 5.9864, 47.331 ], [ 5.9796, 47.326 ], [ 5.9608, 47.3406 ], [ 5.9267, 47.3448 ], [ 5.9254, 47.3367 ], [ 5.9315, 47.3288 ], [ 5.9209, 47.3276 ], [ 5.9029, 47.3339 ], [ 5.8961, 47.3277 ], [ 5.9024, 47.3155 ], [ 5.8977, 47.3105 ], [ 5.8839, 47.3216 ], [ 5.8739, 47.314 ], [ 5.8605, 47.3155 ], [ 5.844, 47.3 ], [ 5.8139, 47.2931 ], [ 5.8124, 47.2967 ], [ 5.798, 47.2893 ], [ 5.7813, 47.2894 ], [ 5.7711, 47.2771 ], [ 5.7511, 47.2738 ], [ 5.7444, 47.2646 ], [ 5.7381, 47.2668 ], [ 5.7323, 47.2636 ], [ 5.7337, 47.2673 ], [ 5.7138, 47.2707 ], [ 5.6987, 47.265 ], [ 5.692, 47.2723 ], [ 5.6851, 47.271 ], [ 5.6767, 47.2757 ], [ 5.6696, 47.2746 ], [ 5.6705, 47.2698 ], [ 5.66, 47.2643 ], [ 5.6534, 47.265 ], [ 5.6542, 47.2608 ], [ 5.6485, 47.2613 ], [ 5.6423, 47.2562 ], [ 5.6227, 47.253 ], [ 5.6024, 47.2615 ], [ 5.5777, 47.2525 ], [ 5.5692, 47.2631 ], [ 5.5721, 47.2684 ], [ 5.5666, 47.2712 ], [ 5.556, 47.2687 ], [ 5.5589, 47.2782 ], [ 5.5436, 47.2799 ], [ 5.5391, 47.2858 ], [ 5.5311, 47.2848 ], [ 5.5339, 47.2894 ], [ 5.5223, 47.3058 ], [ 5.5167, 47.3041 ], [ 5.513, 47.3083 ], [ 5.5063, 47.3079 ], [ 5.4981, 47.3156 ], [ 5.4805, 47.3168 ], [ 5.4805, 47.3137 ], [ 5.475, 47.3134 ], [ 5.4701, 47.3165 ], [ 5.4763, 47.3212 ], [ 5.4769, 47.3312 ], [ 5.4872, 47.3265 ], [ 5.4953, 47.3389 ], [ 5.488, 47.362 ], [ 5.4971, 47.3898 ], [ 5.4774, 47.3953 ], [ 5.4518, 47.3832 ], [ 5.4338, 47.3931 ], [ 5.4358, 47.4028 ], [ 5.4445, 47.4041 ], [ 5.4304, 47.4214 ], [ 5.431, 47.436 ], [ 5.4407, 47.4455 ], [ 5.4388, 47.4504 ], [ 5.4182, 47.4489 ], [ 5.4131, 47.4557 ], [ 5.4159, 47.4582 ], [ 5.4068, 47.4618 ], [ 5.3798, 47.4507 ], [ 5.3862, 47.459 ], [ 5.3673, 47.4645 ], [ 5.3688, 47.4671 ], [ 5.3766, 47.4647 ], [ 5.4076, 47.4772 ], [ 5.3876, 47.4821 ], [ 5.3992, 47.499 ], [ 5.4274, 47.4955 ], [ 5.4316, 47.498 ], [ 5.4344, 47.4964 ], [ 5.429, 47.4925 ], [ 5.4389, 47.4924 ], [ 5.4475, 47.4962 ], [ 5.4719, 47.5273 ], [ 5.4864, 47.527 ], [ 5.4969, 47.5441 ], [ 5.4971, 47.5542 ], [ 5.4913, 47.5634 ], [ 5.4805, 47.564 ], [ 5.4882, 47.577 ], [ 5.4775, 47.6087 ], [ 5.4708, 47.6084 ], [ 5.4416, 47.63 ], [ 5.4256, 47.6321 ], [ 5.3995, 47.5967 ], [ 5.3905, 47.5942 ], [ 5.3857, 47.601 ], [ 5.3741, 47.6045 ], [ 5.3726, 47.6184 ], [ 5.3858, 47.6351 ], [ 5.4058, 47.6469 ], [ 5.399, 47.6532 ], [ 5.4063, 47.6734 ], [ 5.4202, 47.6777 ], [ 5.4338, 47.6713 ], [ 5.4475, 47.6708 ], [ 5.4703, 47.675 ], [ 5.4828, 47.6846 ], [ 5.512, 47.6736 ], [ 5.5298, 47.6728 ], [ 5.5674, 47.7071 ], [ 5.5851, 47.7002 ], [ 5.5846, 47.6907 ], [ 5.5967, 47.6717 ], [ 5.6012, 47.6752 ], [ 5.648, 47.6753 ], [ 5.6635, 47.6849 ], [ 5.6754, 47.6819 ], [ 5.6812, 47.6863 ], [ 5.6859, 47.6829 ], [ 5.6911, 47.6846 ], [ 5.6935, 47.7048 ], [ 5.6834, 47.7167 ], [ 5.6952, 47.726 ], [ 5.6887, 47.7305 ], [ 5.6904, 47.7351 ], [ 5.7096, 47.7453 ], [ 5.7061, 47.7515 ], [ 5.7092, 47.7637 ], [ 5.7017, 47.7699 ], [ 5.68, 47.77 ], [ 5.6821, 47.7755 ], [ 5.6766, 47.7792 ], [ 5.6815, 47.8091 ], [ 5.6992, 47.8236 ], [ 5.7217, 47.8217 ], [ 5.7303, 47.8177 ], [ 5.7408, 47.8192 ], [ 5.7511, 47.829 ], [ 5.7456, 47.8295 ], [ 5.7442, 47.8488 ], [ 5.7612, 47.8593 ], [ 5.7673, 47.8556 ], [ 5.7748, 47.858 ], [ 5.7989, 47.8557 ], [ 5.7961, 47.8468 ], [ 5.828, 47.8519 ], [ 5.8297, 47.8562 ], [ 5.8178, 47.8533 ], [ 5.8281, 47.858 ], [ 5.8218, 47.8709 ], [ 5.8386, 47.8854 ], [ 5.8375, 47.8912 ], [ 5.8513, 47.906 ], [ 5.87, 47.9007 ], [ 5.8828, 47.9 ], [ 5.8873, 47.9036 ], [ 5.8909, 47.9108 ], [ 5.8847, 47.9261 ] ] ] } }
]
}
