{
"type": "FeatureCollection",
"name": "dep76",
"crs": { "type": "name", "properties": { "name": "urn:ogc:def:crs:OGC:1.3:CRS84" } },
"xy_coordinate_resolution": 0.0001,
"features": [
{ "type": "Feature", "properties": { "code": "76", "nom": "Seine-Maritime" }, "geometry": { "type": "Polygon", "coordinates": [ [ [ 1.3816, 50.0658 ], [ 1.3866, 50.0614 ], [ 1.3963, 50.0643 ], [ 1.3973, 50.0583 ], [ 1.4093, 50.0571 ], [ 1.4236, 50.0708 ], [ 1.4491, 50.0689 ], [ 1.4591, 50.0625 ], [ 1.4556, 50.0443 ], [ 1.4492, 50.0469 ], [ 1.4548, 50.0378 ], [ 1.4708, 50.0351 ], [ 1.4914, 50.0183 ], [ 1.4999, 50.0193 ], [ 1.5164, 50.0121 ], [ 1.5275, 49.9951 ], [ 1.5728, 49.9749 ], [ 1.5776, 49.9638 ], [ 1.5859, 49.9607 ], [ 1.6034, 49.9431 ], [ 1.6782, 49.9183 ], [ 1.692, 49.8969 ], [ 1.7128, 49.8859 ], [ 1.7117, 49.8737 ], [ 1.7206, 49.8603 ], [ 1.7173, 49.8488 ], [ 1.7257, 49.8453 ], [ 1.7253, 49.8327 ], [ 1.7358, 49.8103 ], [ 1.7466, 49.8032 ], [ 1.7579, 49.7808 ], [ 1.7733, 49.777 ], [ 1.7846, 49.7636 ], [ 1.7848, 49.7585 ], [ 1.7675, 49.7567 ], [ 1.7503, 49.7637 ], [ 1.7391, 49.749 ], [ 1.7455, 49.7386 ], [ 1.7232, 49.7301 ], [ 1.7128, 49.7339 ], [ 1.7155, 49.7086 ], [ 1.7116, 49.7051 ], [ 1.7056, 49.707 ], [ 1.6896, 49.6948 ], [ 1.7045, 49.6809 ], [ 1.7147, 49.6824 ], [ 1.7242, 49.6938 ], [ 1.7401, 49.7014 ], [ 1.7511, 49.6944 ], [ 1.7522, 49.681 ], [ 1.7231, 49.6725 ], [ 1.7216, 49.6585 ], [ 1.713, 49.6546 ], [ 1.7088, 49.6464 ], [ 1.6987, 49.6439 ], [ 1.7173, 49.6331 ], [ 1.7216, 49.622 ], [ 1.7175, 49.6148 ], [ 1.6937, 49.6011 ], [ 1.7085, 49.5949 ], [ 1.7052, 49.5909 ], [ 1.7094, 49.5867 ], [ 1.7216, 49.5888 ], [ 1.72, 49.5816 ], [ 1.6907, 49.58 ], [ 1.6995, 49.5804 ], [ 1.6946, 49.5747 ], [ 1.6977, 49.5722 ], [ 1.7033, 49.5777 ], [ 1.714, 49.5776 ], [ 1.7298, 49.5613 ], [ 1.7235, 49.5439 ], [ 1.733, 49.5412 ], [ 1.739, 49.5432 ], [ 1.7483, 49.5384 ], [ 1.7419, 49.5329 ], [ 1.7441, 49.529 ], [ 1.7356, 49.5248 ], [ 1.7413, 49.519 ], [ 1.7265, 49.5139 ], [ 1.7164, 49.5039 ], [ 1.725, 49.503 ], [ 1.7255, 49.4998 ], [ 1.7396, 49.4997 ], [ 1.7452, 49.4888 ], [ 1.7577, 49.5107 ], [ 1.7669, 49.5094 ], [ 1.7719, 49.5129 ], [ 1.7891, 49.5054 ], [ 1.7905, 49.4979 ], [ 1.7886, 49.4901 ], [ 1.7806, 49.4908 ], [ 1.7723, 49.4849 ], [ 1.7765, 49.483 ], [ 1.7759, 49.4713 ], [ 1.7477, 49.4586 ], [ 1.7515, 49.4525 ], [ 1.7391, 49.4493 ], [ 1.7335, 49.4413 ], [ 1.7248, 49.4414 ], [ 1.7288, 49.4371 ], [ 1.7226, 49.4328 ], [ 1.7224, 49.4198 ], [ 1.7112, 49.4077 ], [ 1.707, 49.4065 ], [ 1.7045, 49.4107 ], [ 1.6944, 49.4011 ], [ 1.6986, 49.3989 ], [ 1.6943, 49.3949 ], [ 1.6806, 49.4061 ], [ 1.668, 49.407 ], [ 1.6593, 49.399 ], [ 1.6279, 49.4107 ], [ 1.6282, 49.4151 ], [ 1.6221, 49.4158 ], [ 1.6144, 49.41 ], [ 1.6045, 49.4117 ], [ 1.5762, 49.4401 ], [ 1.5471, 49.4409 ], [ 1.5473, 49.4364 ], [ 1.5372, 49.4301 ], [ 1.5296, 49.4423 ], [ 1.5042, 49.438 ], [ 1.4958, 49.4463 ], [ 1.4772, 49.4513 ], [ 1.4486, 49.45 ], [ 1.4357, 49.4551 ], [ 1.4003, 49.4568 ], [ 1.3927, 49.449 ], [ 1.3841, 49.4485 ], [ 1.3824, 49.4532 ], [ 1.3911, 49.4606 ], [ 1.3874, 49.463 ], [ 1.3758, 49.4531 ], [ 1.361, 49.4482 ], [ 1.3452, 49.4481 ], [ 1.3412, 49.4426 ], [ 1.3507, 49.4382 ], [ 1.3472, 49.4346 ], [ 1.3375, 49.4389 ], [ 1.3367, 49.4277 ], [ 1.3273, 49.4315 ], [ 1.3096, 49.4287 ], [ 1.3143, 49.4154 ], [ 1.3081, 49.3954 ], [ 1.2932, 49.395 ], [ 1.2915, 49.3883 ], [ 1.2855, 49.3882 ], [ 1.2899, 49.3757 ], [ 1.2817, 49.3568 ], [ 1.2722, 49.3571 ], [ 1.2721, 49.3463 ], [ 1.2186, 49.3486 ], [ 1.2096, 49.3524 ], [ 1.1995, 49.3511 ], [ 1.2031, 49.3365 ], [ 1.2007, 49.3392 ], [ 1.1849, 49.3381 ], [ 1.1875, 49.3412 ], [ 1.1827, 49.3438 ], [ 1.172, 49.3417 ], [ 1.1686, 49.336 ], [ 1.1668, 49.3414 ], [ 1.1601, 49.3418 ], [ 1.1541, 49.3355 ], [ 1.1455, 49.3355 ], [ 1.1451, 49.3298 ], [ 1.1347, 49.3246 ], [ 1.134, 49.3098 ], [ 1.0807, 49.3088 ], [ 1.0482, 49.2979 ], [ 1.0688, 49.2763 ], [ 1.052, 49.2731 ], [ 1.0562, 49.2664 ], [ 1.0651, 49.2629 ], [ 1.0627, 49.259 ], [ 1.0495, 49.2634 ], [ 1.0412, 49.2585 ], [ 1.033, 49.2607 ], [ 1.0018, 49.2509 ], [ 0.9928, 49.2532 ], [ 0.992, 49.258 ], [ 1.0084, 49.2628 ], [ 1.0069, 49.2649 ], [ 0.9851, 49.2609 ], [ 0.9873, 49.268 ], [ 0.9755, 49.272 ], [ 0.9733, 49.2799 ], [ 0.9558, 49.2714 ], [ 0.9492, 49.2792 ], [ 0.956, 49.28 ], [ 0.959, 49.2867 ], [ 0.9655, 49.2864 ], [ 0.9577, 49.2893 ], [ 0.9634, 49.2945 ], [ 0.9526, 49.2941 ], [ 0.9499, 49.2969 ], [ 0.9402, 49.3229 ], [ 0.9289, 49.3139 ], [ 0.9073, 49.3078 ], [ 0.9104, 49.2985 ], [ 0.9017, 49.2979 ], [ 0.8926, 49.3032 ], [ 0.8983, 49.3167 ], [ 0.8919, 49.3142 ], [ 0.8875, 49.3191 ], [ 0.8619, 49.326 ], [ 0.8451, 49.3242 ], [ 0.8417, 49.3294 ], [ 0.8527, 49.3315 ], [ 0.8478, 49.336 ], [ 0.8592, 49.3396 ], [ 0.8601, 49.3463 ], [ 0.8708, 49.3419 ], [ 0.882, 49.3477 ], [ 0.9208, 49.3382 ], [ 0.9305, 49.3434 ], [ 0.9213, 49.3524 ], [ 0.9243, 49.3589 ], [ 0.9181, 49.3855 ], [ 0.8957, 49.3797 ], [ 0.8929, 49.3722 ], [ 0.8793, 49.3735 ], [ 0.8857, 49.388 ], [ 0.8739, 49.3909 ], [ 0.8785, 49.3963 ], [ 0.8453, 49.392 ], [ 0.8211, 49.397 ], [ 0.8108, 49.4046 ], [ 0.8028, 49.4273 ], [ 0.7993, 49.4269 ], [ 0.805, 49.4116 ], [ 0.7979, 49.4175 ], [ 0.7831, 49.4108 ], [ 0.7756, 49.4175 ], [ 0.7649, 49.4196 ], [ 0.7595, 49.4147 ], [ 0.7424, 49.413 ], [ 0.7383, 49.4081 ], [ 0.708, 49.411 ], [ 0.7049, 49.4022 ], [ 0.6905, 49.4065 ], [ 0.6644, 49.4017 ], [ 0.6495, 49.4092 ], [ 0.6598, 49.4162 ], [ 0.6522, 49.4218 ], [ 0.6443, 49.415 ], [ 0.6398, 49.4192 ], [ 0.645, 49.4261 ], [ 0.6413, 49.4276 ], [ 0.6295, 49.4223 ], [ 0.6335, 49.4339 ], [ 0.6461, 49.4396 ], [ 0.6425, 49.4443 ], [ 0.6116, 49.4292 ], [ 0.5882, 49.4312 ], [ 0.571, 49.4402 ], [ 0.5249, 49.4779 ], [ 0.5092, 49.4842 ], [ 0.4901, 49.4836 ], [ 0.4043, 49.451 ], [ 0.339, 49.4409 ], [ 0.3393, 49.4499 ], [ 0.2731, 49.4534 ], [ 0.272, 49.4424 ], [ 0.2714, 49.4473 ], [ 0.2634, 49.449 ], [ 0.2583, 49.4461 ], [ 0.2177, 49.453 ], [ 0.1727, 49.4531 ], [ 0.1739, 49.4565 ], [ 0.1213, 49.4632 ], [ 0.0907, 49.4821 ], [ 0.0918, 49.4977 ], [ 0.0666, 49.5101 ], [ 0.0688, 49.5249 ], [ 0.1499, 49.6395 ], [ 0.1545, 49.6486 ], [ 0.1527, 49.6617 ], [ 0.157, 49.6617 ], [ 0.1642, 49.6865 ], [ 0.206, 49.7142 ], [ 0.2374, 49.719 ], [ 0.2857, 49.738 ], [ 0.3044, 49.7416 ], [ 0.3121, 49.7398 ], [ 0.3367, 49.7468 ], [ 0.3549, 49.755 ], [ 0.3701, 49.7691 ], [ 0.3816, 49.7697 ], [ 0.4242, 49.7843 ], [ 0.5021, 49.8183 ], [ 0.5138, 49.82 ], [ 0.5344, 49.8338 ], [ 0.5835, 49.8526 ], [ 0.6005, 49.8531 ], [ 0.642, 49.8642 ], [ 0.6919, 49.8713 ], [ 0.71, 49.873 ], [ 0.7182, 49.8694 ], [ 0.7822, 49.8742 ], [ 0.8326, 49.8896 ], [ 0.9243, 49.9052 ], [ 0.9593, 49.9195 ], [ 1.0232, 49.9162 ], [ 1.0727, 49.9277 ], [ 1.0897, 49.9371 ], [ 1.0939, 49.9348 ], [ 1.1073, 49.9371 ], [ 1.2018, 49.9713 ], [ 1.2056, 49.981 ], [ 1.2279, 49.9855 ], [ 1.3324, 50.0471 ], [ 1.3696, 50.0648 ], [ 1.3816, 50.0658 ] ] ] } }
]
}
