{
"type": "FeatureCollection",
"name": "dep78",
"crs": { "type": "name", "properties": { "name": "urn:ogc:def:crs:OGC:1.3:CRS84" } },
"xy_coordinate_resolution": 0.0001,
"features": [
{ "type": "Feature", "properties": { "code": "78", "nom": "Yvelines" }, "geometry": { "type": "Polygon", "coordinates": [ [ [ 1.6051, 49.0852 ], [ 1.6142, 49.0715 ], [ 1.6429, 49.0812 ], [ 1.6727, 49.0786 ], [ 1.6966, 49.0665 ], [ 1.6946, 49.0561 ], [ 1.7235, 49.045 ], [ 1.7321, 49.0504 ], [ 1.7512, 49.0482 ], [ 1.75, 49.0535 ], [ 1.7573, 49.0584 ], [ 1.7532, 49.0598 ], [ 1.7601, 49.0634 ], [ 1.7739, 49.057 ], [ 1.7943, 49.0582 ], [ 1.7922, 49.0607 ], [ 1.7998, 49.0646 ], [ 1.7966, 49.0722 ], [ 1.8286, 49.0762 ], [ 1.8451, 49.062 ], [ 1.8655, 49.0575 ], [ 1.8513, 49.0334 ], [ 1.859, 49.0324 ], [ 1.8596, 49.0239 ], [ 1.8653, 49.0216 ], [ 1.8618, 49.0143 ], [ 1.8705, 49.0193 ], [ 1.8819, 49.0195 ], [ 1.8832, 49.0338 ], [ 1.9085, 49.048 ], [ 1.9378, 49.0218 ], [ 1.9484, 49.0265 ], [ 1.9571, 49.0218 ], [ 1.9642, 49.0256 ], [ 1.9741, 49.0194 ], [ 1.9919, 49.021 ], [ 2.013, 49.0016 ], [ 2.0236, 48.9979 ], [ 2.0644, 49.0082 ], [ 2.0755, 49.0023 ], [ 2.0849, 49.0147 ], [ 2.1102, 49.0087 ], [ 2.1213, 49.0183 ], [ 2.1271, 49.0097 ], [ 2.1207, 48.9933 ], [ 2.127, 48.9891 ], [ 2.1656, 48.982 ], [ 2.1793, 48.9658 ], [ 2.1731, 48.9533 ], [ 2.2059, 48.9497 ], [ 2.2056, 48.9402 ], [ 2.1989, 48.9352 ], [ 2.2055, 48.9221 ], [ 2.1992, 48.919 ], [ 2.2037, 48.9144 ], [ 2.1982, 48.912 ], [ 2.2006, 48.9087 ], [ 2.1684, 48.8951 ], [ 2.1635, 48.8832 ], [ 2.1493, 48.87 ], [ 2.1571, 48.8696 ], [ 2.1503, 48.858 ], [ 2.1599, 48.8475 ], [ 2.1509, 48.848 ], [ 2.1459, 48.836 ], [ 2.1516, 48.817 ], [ 2.1627, 48.8124 ], [ 2.1748, 48.8151 ], [ 2.182, 48.8006 ], [ 2.187, 48.8007 ], [ 2.1829, 48.7972 ], [ 2.2026, 48.7984 ], [ 2.2116, 48.7913 ], [ 2.2089, 48.7876 ], [ 2.2233, 48.786 ], [ 2.229, 48.7703 ], [ 2.2053, 48.7697 ], [ 2.2011, 48.7757 ], [ 2.1911, 48.7751 ], [ 2.186, 48.7725 ], [ 2.1931, 48.7647 ], [ 2.1881, 48.7539 ], [ 2.1807, 48.7586 ], [ 2.168, 48.7568 ], [ 2.161, 48.7499 ], [ 2.1512, 48.7545 ], [ 2.1369, 48.7455 ], [ 2.1398, 48.7422 ], [ 2.135, 48.7371 ], [ 2.1195, 48.7423 ], [ 2.1025, 48.7376 ], [ 2.099, 48.7339 ], [ 2.1125, 48.7229 ], [ 2.1062, 48.7193 ], [ 2.1103, 48.7144 ], [ 2.0969, 48.7028 ], [ 2.0978, 48.694 ], [ 2.0888, 48.6981 ], [ 2.0821, 48.6854 ], [ 2.0685, 48.6902 ], [ 2.065, 48.6864 ], [ 2.0457, 48.6876 ], [ 2.0424, 48.68 ], [ 2.0339, 48.6794 ], [ 2.0282, 48.6573 ], [ 2.0113, 48.6599 ], [ 2.01, 48.6483 ], [ 2.0188, 48.6451 ], [ 2.0163, 48.641 ], [ 2.0381, 48.6408 ], [ 2.0345, 48.6318 ], [ 2.0406, 48.6309 ], [ 2.0461, 48.6215 ], [ 2.0609, 48.6157 ], [ 2.0548, 48.608 ], [ 2.0343, 48.6053 ], [ 2.0316, 48.594 ], [ 2.0357, 48.5889 ], [ 2.0227, 48.5799 ], [ 2.0159, 48.5689 ], [ 2.0176, 48.5576 ], [ 1.9986, 48.5553 ], [ 1.9846, 48.5584 ], [ 1.9788, 48.5536 ], [ 1.9672, 48.5603 ], [ 1.9513, 48.5593 ], [ 1.9379, 48.5629 ], [ 1.9344, 48.5473 ], [ 1.9692, 48.5322 ], [ 1.9673, 48.5362 ], [ 1.9734, 48.5374 ], [ 1.9785, 48.5258 ], [ 1.9631, 48.5284 ], [ 1.9458, 48.5178 ], [ 1.9466, 48.5104 ], [ 1.9343, 48.4958 ], [ 1.9326, 48.4803 ], [ 1.9251, 48.4812 ], [ 1.9152, 48.474 ], [ 1.9162, 48.4632 ], [ 1.9227, 48.46 ], [ 1.9207, 48.4477 ], [ 1.9071, 48.4454 ], [ 1.9043, 48.4386 ], [ 1.8717, 48.4398 ], [ 1.8576, 48.4468 ], [ 1.8449, 48.4461 ], [ 1.8366, 48.4671 ], [ 1.8014, 48.466 ], [ 1.8032, 48.4726 ], [ 1.7916, 48.4812 ], [ 1.7963, 48.4842 ], [ 1.7856, 48.4901 ], [ 1.789, 48.5002 ], [ 1.783, 48.5002 ], [ 1.7768, 48.5093 ], [ 1.7757, 48.5277 ], [ 1.7872, 48.5537 ], [ 1.7782, 48.5526 ], [ 1.768, 48.559 ], [ 1.7627, 48.5651 ], [ 1.7653, 48.5694 ], [ 1.7574, 48.575 ], [ 1.7459, 48.5761 ], [ 1.7439, 48.5725 ], [ 1.7368, 48.5723 ], [ 1.7318, 48.5755 ], [ 1.7274, 48.5726 ], [ 1.7093, 48.578 ], [ 1.7103, 48.5814 ], [ 1.702, 48.585 ], [ 1.7188, 48.6057 ], [ 1.7147, 48.6147 ], [ 1.7028, 48.6118 ], [ 1.6926, 48.6146 ], [ 1.6871, 48.6112 ], [ 1.6823, 48.6156 ], [ 1.6906, 48.6174 ], [ 1.6849, 48.6198 ], [ 1.6744, 48.6147 ], [ 1.6679, 48.6171 ], [ 1.6662, 48.6137 ], [ 1.6552, 48.6227 ], [ 1.6582, 48.6276 ], [ 1.6496, 48.6323 ], [ 1.6504, 48.6374 ], [ 1.6383, 48.6451 ], [ 1.6432, 48.6513 ], [ 1.6212, 48.6496 ], [ 1.6031, 48.6624 ], [ 1.6013, 48.6683 ], [ 1.608, 48.6723 ], [ 1.6047, 48.6752 ], [ 1.6118, 48.6895 ], [ 1.5944, 48.6948 ], [ 1.5912, 48.6925 ], [ 1.5768, 48.7026 ], [ 1.5917, 48.7077 ], [ 1.5876, 48.7106 ], [ 1.6158, 48.7361 ], [ 1.6203, 48.736 ], [ 1.6265, 48.748 ], [ 1.6083, 48.7608 ], [ 1.5855, 48.7617 ], [ 1.5815, 48.7655 ], [ 1.5876, 48.7736 ], [ 1.5766, 48.783 ], [ 1.5753, 48.7912 ], [ 1.581, 48.7937 ], [ 1.5773, 48.8052 ], [ 1.5912, 48.8149 ], [ 1.579, 48.8294 ], [ 1.5939, 48.8337 ], [ 1.5978, 48.8391 ], [ 1.5773, 48.8444 ], [ 1.584, 48.8605 ], [ 1.5605, 48.8678 ], [ 1.5552, 48.8651 ], [ 1.5462, 48.8724 ], [ 1.5598, 48.882 ], [ 1.5637, 48.8906 ], [ 1.5534, 48.8933 ], [ 1.5392, 48.9049 ], [ 1.5453, 48.913 ], [ 1.5384, 48.9225 ], [ 1.5186, 48.9254 ], [ 1.5142, 48.9219 ], [ 1.5073, 48.9276 ], [ 1.512, 48.9345 ], [ 1.5015, 48.9411 ], [ 1.511, 48.9536 ], [ 1.5011, 48.9527 ], [ 1.495, 48.9568 ], [ 1.4994, 48.9605 ], [ 1.4919, 48.9644 ], [ 1.5184, 48.9784 ], [ 1.5079, 48.9838 ], [ 1.4984, 48.9792 ], [ 1.4786, 48.9805 ], [ 1.4709, 48.9748 ], [ 1.4609, 48.9864 ], [ 1.4715, 48.9897 ], [ 1.4691, 48.9935 ], [ 1.4788, 48.9989 ], [ 1.48, 49.0075 ], [ 1.4741, 49.0096 ], [ 1.4749, 49.0177 ], [ 1.4578, 49.0263 ], [ 1.458, 49.0348 ], [ 1.4465, 49.0464 ], [ 1.4528, 49.0505 ], [ 1.4473, 49.0535 ], [ 1.4617, 49.0641 ], [ 1.4803, 49.052 ], [ 1.4874, 49.0517 ], [ 1.5033, 49.0591 ], [ 1.5143, 49.0794 ], [ 1.5079, 49.0854 ], [ 1.5159, 49.0809 ], [ 1.5213, 49.0684 ], [ 1.5413, 49.0737 ], [ 1.5581, 49.0692 ], [ 1.5734, 49.0785 ], [ 1.6051, 49.0852 ] ] ] } }
]
}
