{
"type": "FeatureCollection",
"name": "dep71",
"crs": { "type": "name", "properties": { "name": "urn:ogc:def:crs:OGC:1.3:CRS84" } },
"xy_coordinate_resolution": 0.0001,
"features": [
{ "type": "Feature", "properties": { "code": "71", "nom": "Saône-et-Loire" }, "geometry": { "type": "Polygon", "coordinates": [ [ [ 4.1099, 47.1182 ], [ 4.1268, 47.1306 ], [ 4.1331, 47.1215 ], [ 4.1474, 47.114 ], [ 4.1538, 47.1146 ], [ 4.1608, 47.1219 ], [ 4.1775, 47.1134 ], [ 4.1687, 47.1233 ], [ 4.18, 47.125 ], [ 4.188, 47.1337 ], [ 4.1902, 47.1461 ], [ 4.1819, 47.1505 ], [ 4.1851, 47.1526 ], [ 4.1944, 47.1475 ], [ 4.2028, 47.155 ], [ 4.2151, 47.1544 ], [ 4.2132, 47.1444 ], [ 4.2262, 47.1472 ], [ 4.2324, 47.1425 ], [ 4.2419, 47.1482 ], [ 4.2449, 47.146 ], [ 4.2366, 47.1432 ], [ 4.244, 47.1411 ], [ 4.2427, 47.1329 ], [ 4.2516, 47.1315 ], [ 4.2569, 47.1258 ], [ 4.2538, 47.1174 ], [ 4.2649, 47.1114 ], [ 4.2747, 47.1071 ], [ 4.2971, 47.1131 ], [ 4.3065, 47.1033 ], [ 4.3468, 47.1014 ], [ 4.3442, 47.0724 ], [ 4.3534, 47.064 ], [ 4.3588, 47.0619 ], [ 4.3653, 47.0662 ], [ 4.3705, 47.0796 ], [ 4.3995, 47.0832 ], [ 4.4163, 47.0766 ], [ 4.4049, 47.0696 ], [ 4.4082, 47.0645 ], [ 4.4009, 47.0529 ], [ 4.422, 47.047 ], [ 4.4276, 47.0374 ], [ 4.4334, 47.041 ], [ 4.439, 47.0382 ], [ 4.4553, 47.0421 ], [ 4.4716, 47.0305 ], [ 4.4818, 47.0297 ], [ 4.4897, 47.0334 ], [ 4.4988, 47.0256 ], [ 4.4986, 47.0199 ], [ 4.5122, 47.0118 ], [ 4.5286, 47.0116 ], [ 4.5548, 47.02 ], [ 4.5579, 47.0082 ], [ 4.5555, 46.9993 ], [ 4.5474, 46.9976 ], [ 4.5479, 46.9921 ], [ 4.5505, 46.9941 ], [ 4.5554, 46.9899 ], [ 4.567, 46.9927 ], [ 4.5696, 46.9853 ], [ 4.5659, 46.9853 ], [ 4.5737, 46.9734 ], [ 4.5922, 46.9681 ], [ 4.5896, 46.9557 ], [ 4.6009, 46.9499 ], [ 4.6168, 46.9481 ], [ 4.6164, 46.9415 ], [ 4.6501, 46.9413 ], [ 4.6609, 46.9339 ], [ 4.6791, 46.9302 ], [ 4.6645, 46.9142 ], [ 4.6871, 46.9001 ], [ 4.7175, 46.9079 ], [ 4.7147, 46.9119 ], [ 4.7217, 46.9132 ], [ 4.7217, 46.9219 ], [ 4.7281, 46.9194 ], [ 4.7445, 46.9244 ], [ 4.7547, 46.9167 ], [ 4.7746, 46.9169 ], [ 4.7919, 46.926 ], [ 4.7885, 46.9319 ], [ 4.8065, 46.9332 ], [ 4.8087, 46.9306 ], [ 4.8208, 46.9379 ], [ 4.8534, 46.9457 ], [ 4.862, 46.9446 ], [ 4.8763, 46.951 ], [ 4.8936, 46.9509 ], [ 4.8947, 46.9663 ], [ 4.9491, 46.9662 ], [ 5.0023, 46.9581 ], [ 4.9952, 46.9614 ], [ 5.0034, 46.9721 ], [ 5.0099, 46.9732 ], [ 5.0169, 46.9685 ], [ 5.0305, 46.9811 ], [ 5.0493, 46.9816 ], [ 5.067, 46.9708 ], [ 5.0659, 46.967 ], [ 5.0734, 46.967 ], [ 5.074, 46.9597 ], [ 5.0913, 46.9605 ], [ 5.095, 46.9548 ], [ 5.1026, 46.9575 ], [ 5.0975, 46.9449 ], [ 5.1056, 46.9503 ], [ 5.1072, 46.9587 ], [ 5.1202, 46.9632 ], [ 5.1405, 46.9619 ], [ 5.1539, 46.967 ], [ 5.1662, 46.9639 ], [ 5.1704, 46.9667 ], [ 5.1672, 46.9687 ], [ 5.1775, 46.9696 ], [ 5.1817, 46.9748 ], [ 5.1958, 46.9705 ], [ 5.194, 46.9771 ], [ 5.2051, 46.9853 ], [ 5.2122, 46.9802 ], [ 5.222, 46.9889 ], [ 5.2406, 46.984 ], [ 5.2397, 46.9816 ], [ 5.2548, 46.9817 ], [ 5.2544, 46.9707 ], [ 5.2646, 46.9587 ], [ 5.2611, 46.9466 ], [ 5.2536, 46.9476 ], [ 5.2521, 46.944 ], [ 5.2641, 46.9374 ], [ 5.262, 46.9274 ], [ 5.2697, 46.9278 ], [ 5.2834, 46.94 ], [ 5.2923, 46.9407 ], [ 5.2988, 46.9365 ], [ 5.3079, 46.9384 ], [ 5.3125, 46.91 ], [ 5.329, 46.8957 ], [ 5.3288, 46.8876 ], [ 5.3355, 46.8847 ], [ 5.3516, 46.8933 ], [ 5.3621, 46.8828 ], [ 5.3908, 46.8944 ], [ 5.3995, 46.8926 ], [ 5.4038, 46.8895 ], [ 5.3998, 46.8813 ], [ 5.405, 46.8793 ], [ 5.4018, 46.8683 ], [ 5.4187, 46.8607 ], [ 5.4308, 46.8599 ], [ 5.4331, 46.8548 ], [ 5.4438, 46.855 ], [ 5.4445, 46.8516 ], [ 5.45, 46.8563 ], [ 5.4395, 46.8556 ], [ 5.4361, 46.8615 ], [ 5.4611, 46.8541 ], [ 5.4571, 46.8453 ], [ 5.4651, 46.8408 ], [ 5.4568, 46.831 ], [ 5.4628, 46.8274 ], [ 5.4576, 46.8303 ], [ 5.4479, 46.8255 ], [ 5.4442, 46.829 ], [ 5.429, 46.8259 ], [ 5.4123, 46.828 ], [ 5.4084, 46.8331 ], [ 5.3908, 46.8304 ], [ 5.3893, 46.8267 ], [ 5.3681, 46.8253 ], [ 5.3516, 46.8136 ], [ 5.3455, 46.8163 ], [ 5.3474, 46.819 ], [ 5.3392, 46.8261 ], [ 5.342, 46.8196 ], [ 5.3381, 46.8227 ], [ 5.3274, 46.8151 ], [ 5.3336, 46.8051 ], [ 5.3328, 46.7956 ], [ 5.34, 46.7909 ], [ 5.3541, 46.7925 ], [ 5.3648, 46.7831 ], [ 5.3695, 46.7831 ], [ 5.3693, 46.7865 ], [ 5.3717, 46.7766 ], [ 5.3855, 46.7752 ], [ 5.3902, 46.7706 ], [ 5.3733, 46.751 ], [ 5.3668, 46.7524 ], [ 5.3611, 46.731 ], [ 5.3936, 46.7286 ], [ 5.3902, 46.7229 ], [ 5.3972, 46.7171 ], [ 5.3943, 46.7084 ], [ 5.4063, 46.704 ], [ 5.4084, 46.6984 ], [ 5.3954, 46.685 ], [ 5.4221, 46.673 ], [ 5.4186, 46.6678 ], [ 5.4271, 46.6602 ], [ 5.4131, 46.6543 ], [ 5.4411, 46.6375 ], [ 5.4372, 46.6293 ], [ 5.4171, 46.6155 ], [ 5.396, 46.6111 ], [ 5.404, 46.6103 ], [ 5.4084, 46.6021 ], [ 5.4142, 46.6004 ], [ 5.4052, 46.5882 ], [ 5.4057, 46.5817 ], [ 5.3677, 46.5799 ], [ 5.3622, 46.577 ], [ 5.3679, 46.5669 ], [ 5.3562, 46.5618 ], [ 5.3625, 46.552 ], [ 5.3583, 46.5197 ], [ 5.3849, 46.5156 ], [ 5.3935, 46.5066 ], [ 5.4023, 46.5056 ], [ 5.4099, 46.4999 ], [ 5.422, 46.5004 ], [ 5.4157, 46.4731 ], [ 5.3981, 46.4666 ], [ 5.384, 46.4712 ], [ 5.3733, 46.4601 ], [ 5.3591, 46.4642 ], [ 5.3474, 46.4607 ], [ 5.3234, 46.4625 ], [ 5.3231, 46.4565 ], [ 5.312, 46.4523 ], [ 5.3106, 46.4468 ], [ 5.2907, 46.4498 ], [ 5.2837, 46.4456 ], [ 5.2662, 46.4512 ], [ 5.2576, 46.4499 ], [ 5.248, 46.4594 ], [ 5.2415, 46.4613 ], [ 5.2352, 46.4579 ], [ 5.2255, 46.4683 ], [ 5.2151, 46.4684 ], [ 5.2159, 46.4745 ], [ 5.2103, 46.4789 ], [ 5.2136, 46.4845 ], [ 5.2059, 46.4863 ], [ 5.2104, 46.4923 ], [ 5.2043, 46.4944 ], [ 5.2019, 46.5083 ], [ 5.1775, 46.5111 ], [ 5.1673, 46.5191 ], [ 5.1662, 46.5031 ], [ 5.1568, 46.5074 ], [ 5.1351, 46.509 ], [ 5.1344, 46.5015 ], [ 5.1182, 46.4971 ], [ 5.1146, 46.4926 ], [ 5.1093, 46.4915 ], [ 5.0972, 46.5 ], [ 5.0767, 46.4862 ], [ 5.0564, 46.4839 ], [ 5.0407, 46.4914 ], [ 5.0287, 46.492 ], [ 5.013, 46.5013 ], [ 5.0106, 46.5111 ], [ 4.9835, 46.5154 ], [ 4.9627, 46.5123 ], [ 4.9713, 46.5083 ], [ 4.9703, 46.5055 ], [ 4.9598, 46.5077 ], [ 4.9501, 46.5008 ], [ 4.9442, 46.5106 ], [ 4.9545, 46.5127 ], [ 4.9445, 46.5144 ], [ 4.9413, 46.5197 ], [ 4.9424, 46.513 ], [ 4.9336, 46.5124 ], [ 4.925, 46.4962 ], [ 4.9156, 46.4889 ], [ 4.9135, 46.4607 ], [ 4.8935, 46.444 ], [ 4.8882, 46.403 ], [ 4.8515, 46.3563 ], [ 4.8534, 46.3299 ], [ 4.8332, 46.3001 ], [ 4.825, 46.2732 ], [ 4.811, 46.2599 ], [ 4.8078, 46.237 ], [ 4.795, 46.2194 ], [ 4.7932, 46.2019 ], [ 4.7802, 46.1891 ], [ 4.7802, 46.1767 ], [ 4.7608, 46.176 ], [ 4.7585, 46.1721 ], [ 4.7273, 46.1791 ], [ 4.7295, 46.1828 ], [ 4.7244, 46.1843 ], [ 4.7201, 46.194 ], [ 4.7263, 46.2083 ], [ 4.7343, 46.2064 ], [ 4.7357, 46.2117 ], [ 4.7289, 46.2141 ], [ 4.7306, 46.219 ], [ 4.7204, 46.2216 ], [ 4.7195, 46.2279 ], [ 4.7324, 46.2266 ], [ 4.7358, 46.2342 ], [ 4.705, 46.2512 ], [ 4.6983, 46.2529 ], [ 4.6932, 46.2482 ], [ 4.6882, 46.2493 ], [ 4.6885, 46.254 ], [ 4.6837, 46.2534 ], [ 4.679, 46.2599 ], [ 4.6816, 46.2668 ], [ 4.6879, 46.2653 ], [ 4.6934, 46.2717 ], [ 4.7007, 46.2675 ], [ 4.7042, 46.2712 ], [ 4.7077, 46.2697 ], [ 4.7104, 46.2786 ], [ 4.6947, 46.2921 ], [ 4.6934, 46.3014 ], [ 4.6792, 46.3063 ], [ 4.6779, 46.3005 ], [ 4.664, 46.295 ], [ 4.6527, 46.304 ], [ 4.6368, 46.3007 ], [ 4.6362, 46.2901 ], [ 4.6164, 46.2822 ], [ 4.6219, 46.2714 ], [ 4.6186, 46.2648 ], [ 4.5838, 46.2695 ], [ 4.5729, 46.2759 ], [ 4.5688, 46.2938 ], [ 4.5603, 46.2952 ], [ 4.5526, 46.2901 ], [ 4.5532, 46.2857 ], [ 4.5478, 46.285 ], [ 4.5465, 46.2739 ], [ 4.5373, 46.2699 ], [ 4.504, 46.2671 ], [ 4.4885, 46.288 ], [ 4.4759, 46.284 ], [ 4.4586, 46.2969 ], [ 4.4388, 46.2934 ], [ 4.4381, 46.2979 ], [ 4.427, 46.3028 ], [ 4.4219, 46.2949 ], [ 4.4058, 46.2961 ], [ 4.4078, 46.2924 ], [ 4.3975, 46.2833 ], [ 4.3971, 46.2668 ], [ 4.3897, 46.2585 ], [ 4.3924, 46.2516 ], [ 4.3855, 46.2468 ], [ 4.3924, 46.2354 ], [ 4.3859, 46.226 ], [ 4.3894, 46.2133 ], [ 4.3751, 46.2111 ], [ 4.3735, 46.2046 ], [ 4.3628, 46.2 ], [ 4.3621, 46.1956 ], [ 4.3696, 46.1934 ], [ 4.3739, 46.1868 ], [ 4.3633, 46.182 ], [ 4.3457, 46.1878 ], [ 4.3366, 46.181 ], [ 4.3271, 46.1848 ], [ 4.3153, 46.1706 ], [ 4.307, 46.1746 ], [ 4.2923, 46.1725 ], [ 4.2812, 46.1559 ], [ 4.2499, 46.1582 ], [ 4.2487, 46.1671 ], [ 4.2635, 46.1754 ], [ 4.2549, 46.188 ], [ 4.2424, 46.1888 ], [ 4.2369, 46.1817 ], [ 4.2247, 46.178 ], [ 4.2079, 46.1948 ], [ 4.1852, 46.1894 ], [ 4.187, 46.1746 ], [ 4.1643, 46.173 ], [ 4.1334, 46.1773 ], [ 4.1038, 46.1984 ], [ 4.0685, 46.1864 ], [ 4.0589, 46.1881 ], [ 4.0305, 46.1698 ], [ 3.9935, 46.1729 ], [ 3.9901, 46.1691 ], [ 3.9797, 46.1782 ], [ 3.9781, 46.186 ], [ 3.971, 46.1891 ], [ 3.9726, 46.2027 ], [ 3.9335, 46.2064 ], [ 3.9184, 46.2029 ], [ 3.8983, 46.2102 ], [ 3.8901, 46.2145 ], [ 3.8981, 46.2252 ], [ 3.8966, 46.2371 ], [ 3.8989, 46.2406 ], [ 3.9049, 46.2379 ], [ 3.9097, 46.2478 ], [ 3.9055, 46.2521 ], [ 3.9094, 46.2577 ], [ 3.9047, 46.2735 ], [ 3.8912, 46.2853 ], [ 3.8993, 46.2892 ], [ 3.8972, 46.2925 ], [ 3.9454, 46.3005 ], [ 3.9495, 46.3139 ], [ 3.9458, 46.3212 ], [ 3.9589, 46.3188 ], [ 3.9714, 46.3215 ], [ 3.9898, 46.3151 ], [ 3.9894, 46.323 ], [ 4.0046, 46.3275 ], [ 3.9847, 46.3297 ], [ 3.9916, 46.3696 ], [ 3.9772, 46.3992 ], [ 3.9887, 46.4088 ], [ 3.9841, 46.4196 ], [ 3.9961, 46.4274 ], [ 3.9895, 46.4378 ], [ 4.0055, 46.4425 ], [ 3.9975, 46.4503 ], [ 4.0008, 46.4625 ], [ 3.9791, 46.4739 ], [ 3.9768, 46.4789 ], [ 3.9523, 46.4785 ], [ 3.9557, 46.4917 ], [ 3.9376, 46.4908 ], [ 3.9102, 46.4954 ], [ 3.9013, 46.4906 ], [ 3.8952, 46.4807 ], [ 3.8649, 46.4897 ], [ 3.8604, 46.4956 ], [ 3.8638, 46.5127 ], [ 3.8572, 46.5156 ], [ 3.8419, 46.5142 ], [ 3.8398, 46.5176 ], [ 3.8465, 46.5244 ], [ 3.8392, 46.5313 ], [ 3.8051, 46.5193 ], [ 3.7932, 46.5278 ], [ 3.7807, 46.5284 ], [ 3.7725, 46.5385 ], [ 3.7547, 46.536 ], [ 3.7419, 46.5395 ], [ 3.7315, 46.5496 ], [ 3.7431, 46.5655 ], [ 3.7339, 46.5951 ], [ 3.7373, 46.6016 ], [ 3.7324, 46.6049 ], [ 3.7197, 46.605 ], [ 3.7129, 46.6102 ], [ 3.724, 46.6263 ], [ 3.7092, 46.6353 ], [ 3.697, 46.6606 ], [ 3.669, 46.6735 ], [ 3.6732, 46.6818 ], [ 3.6578, 46.6852 ], [ 3.6507, 46.7052 ], [ 3.6376, 46.7075 ], [ 3.6376, 46.7245 ], [ 3.6226, 46.7401 ], [ 3.6317, 46.75 ], [ 3.6312, 46.7452 ], [ 3.6395, 46.7394 ], [ 3.6486, 46.7426 ], [ 3.6604, 46.7375 ], [ 3.7389, 46.7523 ], [ 3.7837, 46.7361 ], [ 3.7815, 46.7299 ], [ 3.7769, 46.7298 ], [ 3.7886, 46.7212 ], [ 3.7973, 46.7015 ], [ 3.8082, 46.7057 ], [ 3.8291, 46.7045 ], [ 3.8327, 46.7097 ], [ 3.839, 46.7102 ], [ 3.8407, 46.7178 ], [ 3.8452, 46.7172 ], [ 3.8445, 46.7226 ], [ 3.8742, 46.7267 ], [ 3.8764, 46.7323 ], [ 3.8873, 46.7272 ], [ 3.8988, 46.7348 ], [ 3.9127, 46.7342 ], [ 3.9128, 46.742 ], [ 3.9235, 46.7385 ], [ 3.9334, 46.7417 ], [ 3.928, 46.7505 ], [ 3.9534, 46.7542 ], [ 3.9677, 46.7691 ], [ 3.9734, 46.7672 ], [ 3.994, 46.7789 ], [ 4.019, 46.776 ], [ 4.0334, 46.7876 ], [ 4.0553, 46.7762 ], [ 4.0627, 46.7894 ], [ 4.0583, 46.8212 ], [ 4.0424, 46.8341 ], [ 4.0562, 46.8433 ], [ 4.1009, 46.8591 ], [ 4.0994, 46.8669 ], [ 4.0701, 46.8961 ], [ 4.057, 46.9011 ], [ 4.0454, 46.8999 ], [ 4.0393, 46.9094 ], [ 4.0365, 46.9278 ], [ 4.042, 46.9329 ], [ 4.0484, 46.9321 ], [ 4.0399, 46.9411 ], [ 4.0396, 46.9481 ], [ 4.0557, 46.9567 ], [ 4.0413, 46.9737 ], [ 4.0394, 46.9851 ], [ 4.0316, 46.9848 ], [ 4.0096, 46.971 ], [ 3.9971, 46.974 ], [ 3.9937, 46.979 ], [ 3.996, 46.9867 ], [ 4.0022, 46.9862 ], [ 4.0178, 46.9955 ], [ 4.0323, 46.9988 ], [ 4.0438, 47.0092 ], [ 4.0555, 47.0127 ], [ 4.0617, 47.0234 ], [ 4.0559, 47.0366 ], [ 4.0734, 47.0553 ], [ 4.0495, 47.076 ], [ 4.0385, 47.0805 ], [ 4.0389, 47.0858 ], [ 4.0538, 47.095 ], [ 4.0482, 47.11 ], [ 4.06, 47.1212 ], [ 4.0899, 47.1162 ], [ 4.0949, 47.1276 ], [ 4.1099, 47.1182 ] ], [ [ 5.4561, 46.8508 ], [ 5.458, 46.854 ], [ 5.4523, 46.8536 ], [ 5.4519, 46.8527 ], [ 5.4561, 46.8508 ] ], [ [ 5.4408, 46.8462 ], [ 5.4478, 46.8467 ], [ 5.442, 46.8511 ], [ 5.4408, 46.8462 ] ] ] } }
]
}
