{
"type": "FeatureCollection",
"name": "dep72",
"crs": { "type": "name", "properties": { "name": "urn:ogc:def:crs:OGC:1.3:CRS84" } },
"xy_coordinate_resolution": 0.0001,
"features": [
{ "type": "Feature", "properties": { "code": "72", "nom": "Sarthe" }, "geometry": { "type": "Polygon", "coordinates": [ [ [ -0.0545, 48.382 ], [ -0.0507, 48.3752 ], [ -0.0506, 48.3802 ], [ -0.0366, 48.3806 ], [ -0.0348, 48.3863 ], [ -0.0208, 48.3865 ], [ -0.0187, 48.3945 ], [ -0.0014, 48.3974 ], [ 0.0034, 48.396 ], [ 0.0036, 48.3888 ], [ 0.0109, 48.3903 ], [ 0.0153, 48.3817 ], [ 0.0608, 48.3796 ], [ 0.0541, 48.392 ], [ 0.0705, 48.4091 ], [ 0.1001, 48.4101 ], [ 0.1104, 48.4231 ], [ 0.1064, 48.4265 ], [ 0.1172, 48.436 ], [ 0.1513, 48.4372 ], [ 0.1578, 48.4408 ], [ 0.1448, 48.4527 ], [ 0.1456, 48.4573 ], [ 0.1711, 48.4494 ], [ 0.1732, 48.4652 ], [ 0.1905, 48.4619 ], [ 0.2133, 48.4736 ], [ 0.2491, 48.474 ], [ 0.2591, 48.4767 ], [ 0.2648, 48.4847 ], [ 0.2746, 48.4792 ], [ 0.3007, 48.4805 ], [ 0.3091, 48.4725 ], [ 0.3268, 48.4717 ], [ 0.3385, 48.4655 ], [ 0.3388, 48.4616 ], [ 0.3568, 48.4577 ], [ 0.3656, 48.4488 ], [ 0.3678, 48.4377 ], [ 0.3824, 48.4249 ], [ 0.3809, 48.4158 ], [ 0.3717, 48.4105 ], [ 0.3771, 48.3916 ], [ 0.3739, 48.387 ], [ 0.3802, 48.3801 ], [ 0.3798, 48.3665 ], [ 0.3881, 48.3497 ], [ 0.3805, 48.3418 ], [ 0.3836, 48.3325 ], [ 0.4042, 48.3153 ], [ 0.4205, 48.3211 ], [ 0.4313, 48.3066 ], [ 0.4663, 48.3059 ], [ 0.4805, 48.2986 ], [ 0.49, 48.3094 ], [ 0.5074, 48.2949 ], [ 0.4946, 48.2868 ], [ 0.4946, 48.282 ], [ 0.5131, 48.2669 ], [ 0.5164, 48.269 ], [ 0.5329, 48.2643 ], [ 0.5385, 48.257 ], [ 0.5361, 48.2497 ], [ 0.613, 48.2421 ], [ 0.6236, 48.2453 ], [ 0.6319, 48.2346 ], [ 0.6385, 48.2356 ], [ 0.6311, 48.2526 ], [ 0.6336, 48.2576 ], [ 0.6499, 48.2637 ], [ 0.665, 48.2608 ], [ 0.6712, 48.2552 ], [ 0.6829, 48.2549 ], [ 0.6863, 48.2407 ], [ 0.6999, 48.2317 ], [ 0.7069, 48.2227 ], [ 0.7045, 48.2189 ], [ 0.7158, 48.2147 ], [ 0.7236, 48.1981 ], [ 0.7301, 48.2005 ], [ 0.7454, 48.1849 ], [ 0.7607, 48.1802 ], [ 0.7977, 48.1945 ], [ 0.7956, 48.188 ], [ 0.8111, 48.1857 ], [ 0.8133, 48.1808 ], [ 0.8395, 48.1657 ], [ 0.8599, 48.1676 ], [ 0.8689, 48.1633 ], [ 0.8863, 48.162 ], [ 0.9116, 48.1489 ], [ 0.9093, 48.1439 ], [ 0.9167, 48.1389 ], [ 0.9137, 48.135 ], [ 0.8504, 48.1331 ], [ 0.8554, 48.1226 ], [ 0.8412, 48.1031 ], [ 0.8327, 48.0984 ], [ 0.8144, 48.0988 ], [ 0.8152, 48.0937 ], [ 0.8286, 48.0899 ], [ 0.831, 48.0923 ], [ 0.8379, 48.0888 ], [ 0.8387, 48.0942 ], [ 0.8482, 48.0946 ], [ 0.843, 48.0726 ], [ 0.794, 48.0697 ], [ 0.7978, 48.0658 ], [ 0.7941, 48.0486 ], [ 0.7976, 48.0372 ], [ 0.806, 48.0383 ], [ 0.8084, 48.0317 ], [ 0.8267, 48.0297 ], [ 0.835, 48.0344 ], [ 0.8419, 48.0302 ], [ 0.8324, 47.9966 ], [ 0.8187, 47.9893 ], [ 0.8281, 47.9723 ], [ 0.8377, 47.9687 ], [ 0.8454, 47.9476 ], [ 0.8495, 47.9472 ], [ 0.8477, 47.9416 ], [ 0.8163, 47.9343 ], [ 0.8118, 47.9288 ], [ 0.8084, 47.9166 ], [ 0.8161, 47.9129 ], [ 0.8075, 47.9079 ], [ 0.8152, 47.9039 ], [ 0.8177, 47.893 ], [ 0.8121, 47.8885 ], [ 0.7951, 47.8999 ], [ 0.79, 47.9122 ], [ 0.7757, 47.9087 ], [ 0.7709, 47.9025 ], [ 0.7602, 47.8989 ], [ 0.7571, 47.8858 ], [ 0.7647, 47.8666 ], [ 0.7592, 47.8592 ], [ 0.7739, 47.8503 ], [ 0.7749, 47.8438 ], [ 0.7684, 47.8311 ], [ 0.7589, 47.8335 ], [ 0.7459, 47.8276 ], [ 0.7402, 47.8116 ], [ 0.7195, 47.7928 ], [ 0.7145, 47.7938 ], [ 0.7121, 47.7871 ], [ 0.6984, 47.7893 ], [ 0.6912, 47.7834 ], [ 0.6893, 47.78 ], [ 0.7, 47.7745 ], [ 0.7025, 47.7668 ], [ 0.6914, 47.7638 ], [ 0.677, 47.7695 ], [ 0.6454, 47.7528 ], [ 0.6276, 47.7519 ], [ 0.6212, 47.7483 ], [ 0.6205, 47.7389 ], [ 0.6107, 47.732 ], [ 0.609, 47.7253 ], [ 0.5941, 47.7231 ], [ 0.5811, 47.7136 ], [ 0.593, 47.7036 ], [ 0.5956, 47.6883 ], [ 0.6042, 47.6856 ], [ 0.6144, 47.6942 ], [ 0.6188, 47.6935 ], [ 0.6148, 47.6827 ], [ 0.6078, 47.6824 ], [ 0.5969, 47.6728 ], [ 0.5791, 47.6678 ], [ 0.5588, 47.6708 ], [ 0.5596, 47.6662 ], [ 0.5517, 47.6592 ], [ 0.523, 47.6531 ], [ 0.5161, 47.6566 ], [ 0.4984, 47.6448 ], [ 0.464, 47.6456 ], [ 0.4531, 47.6338 ], [ 0.4569, 47.6284 ], [ 0.4499, 47.6193 ], [ 0.4239, 47.6178 ], [ 0.3962, 47.6409 ], [ 0.3828, 47.6431 ], [ 0.3642, 47.6253 ], [ 0.3643, 47.6205 ], [ 0.3835, 47.6102 ], [ 0.397, 47.594 ], [ 0.3959, 47.5868 ], [ 0.4024, 47.5784 ], [ 0.3914, 47.5765 ], [ 0.3785, 47.5685 ], [ 0.3397, 47.5794 ], [ 0.3384, 47.585 ], [ 0.3221, 47.5952 ], [ 0.2756, 47.5984 ], [ 0.2679, 47.6026 ], [ 0.2678, 47.6087 ], [ 0.2592, 47.6123 ], [ 0.2361, 47.6117 ], [ 0.23, 47.6084 ], [ 0.2241, 47.6123 ], [ 0.2113, 47.6123 ], [ 0.2062, 47.6034 ], [ 0.2018, 47.6141 ], [ 0.1922, 47.6174 ], [ 0.1858, 47.6165 ], [ 0.1831, 47.5968 ], [ 0.1733, 47.5931 ], [ 0.1619, 47.5941 ], [ 0.1516, 47.5815 ], [ 0.1457, 47.5813 ], [ 0.1323, 47.5966 ], [ 0.1233, 47.5944 ], [ 0.1186, 47.5969 ], [ 0.1157, 47.6057 ], [ 0.0958, 47.6033 ], [ 0.07, 47.6082 ], [ 0.0649, 47.6044 ], [ 0.0532, 47.6057 ], [ 0.0358, 47.6187 ], [ 0.0098, 47.624 ], [ 0.0125, 47.6293 ], [ 0.006, 47.6305 ], [ 0.0103, 47.6349 ], [ -0.0017, 47.6465 ], [ -0.02, 47.6371 ], [ -0.0246, 47.6467 ], [ -0.0547, 47.6484 ], [ -0.0704, 47.6552 ], [ -0.0721, 47.6599 ], [ -0.0897, 47.6504 ], [ -0.0946, 47.6623 ], [ -0.1018, 47.6619 ], [ -0.1056, 47.6532 ], [ -0.1142, 47.6481 ], [ -0.1113, 47.6354 ], [ -0.1177, 47.6334 ], [ -0.1255, 47.6374 ], [ -0.1345, 47.6325 ], [ -0.1478, 47.636 ], [ -0.1587, 47.647 ], [ -0.1814, 47.6453 ], [ -0.1965, 47.6489 ], [ -0.1951, 47.6614 ], [ -0.2084, 47.6715 ], [ -0.2062, 47.6751 ], [ -0.2202, 47.6896 ], [ -0.2155, 47.6959 ], [ -0.2053, 47.6927 ], [ -0.2003, 47.6947 ], [ -0.1816, 47.706 ], [ -0.1837, 47.7118 ], [ -0.1734, 47.7134 ], [ -0.1745, 47.7164 ], [ -0.1846, 47.7148 ], [ -0.1938, 47.724 ], [ -0.2024, 47.7252 ], [ -0.2304, 47.7094 ], [ -0.2346, 47.7033 ], [ -0.2576, 47.7073 ], [ -0.2681, 47.7147 ], [ -0.2768, 47.7137 ], [ -0.2858, 47.7195 ], [ -0.3057, 47.7167 ], [ -0.3334, 47.7217 ], [ -0.3481, 47.7148 ], [ -0.3658, 47.7161 ], [ -0.3569, 47.7305 ], [ -0.3636, 47.7368 ], [ -0.3749, 47.739 ], [ -0.3726, 47.7439 ], [ -0.3807, 47.7503 ], [ -0.3747, 47.7596 ], [ -0.3817, 47.7606 ], [ -0.3754, 47.7672 ], [ -0.3854, 47.802 ], [ -0.3882, 47.8053 ], [ -0.4168, 47.8025 ], [ -0.4287, 47.8062 ], [ -0.4479, 47.8322 ], [ -0.43, 47.8416 ], [ -0.4283, 47.8504 ], [ -0.411, 47.8466 ], [ -0.4124, 47.8575 ], [ -0.3975, 47.8567 ], [ -0.3896, 47.8603 ], [ -0.3781, 47.8549 ], [ -0.3714, 47.8587 ], [ -0.3804, 47.8677 ], [ -0.3692, 47.8703 ], [ -0.3733, 47.8846 ], [ -0.3944, 47.8937 ], [ -0.4102, 47.8947 ], [ -0.4037, 47.9023 ], [ -0.4129, 47.9158 ], [ -0.4047, 47.9209 ], [ -0.4052, 47.915 ], [ -0.3968, 47.9164 ], [ -0.397, 47.9259 ], [ -0.3774, 47.9328 ], [ -0.3614, 47.9298 ], [ -0.3553, 47.9341 ], [ -0.3388, 47.9306 ], [ -0.3313, 47.9381 ], [ -0.3199, 47.9354 ], [ -0.2953, 47.944 ], [ -0.2906, 47.951 ], [ -0.2766, 47.9575 ], [ -0.3017, 47.9655 ], [ -0.2987, 47.9796 ], [ -0.3038, 47.9795 ], [ -0.3049, 47.99 ], [ -0.3134, 47.9941 ], [ -0.3085, 48.0057 ], [ -0.3415, 48.0118 ], [ -0.3337, 48.028 ], [ -0.3417, 48.0431 ], [ -0.3304, 48.0504 ], [ -0.3172, 48.0451 ], [ -0.304, 48.0512 ], [ -0.2799, 48.0553 ], [ -0.2843, 48.06 ], [ -0.2715, 48.0652 ], [ -0.2309, 48.059 ], [ -0.2223, 48.0778 ], [ -0.2374, 48.0829 ], [ -0.2368, 48.0979 ], [ -0.2193, 48.1045 ], [ -0.2164, 48.1137 ], [ -0.2236, 48.1174 ], [ -0.223, 48.1227 ], [ -0.2468, 48.1276 ], [ -0.2391, 48.1359 ], [ -0.2538, 48.1365 ], [ -0.2487, 48.1448 ], [ -0.2374, 48.1474 ], [ -0.2377, 48.153 ], [ -0.2457, 48.1516 ], [ -0.2526, 48.1575 ], [ -0.2299, 48.1694 ], [ -0.19, 48.1812 ], [ -0.1645, 48.1998 ], [ -0.1468, 48.205 ], [ -0.1531, 48.2147 ], [ -0.1448, 48.224 ], [ -0.161, 48.2388 ], [ -0.1673, 48.2635 ], [ -0.1608, 48.2622 ], [ -0.1557, 48.2653 ], [ -0.1498, 48.2853 ], [ -0.1379, 48.2932 ], [ -0.142, 48.3092 ], [ -0.1546, 48.314 ], [ -0.1579, 48.3215 ], [ -0.1571, 48.3409 ], [ -0.1478, 48.3441 ], [ -0.1222, 48.3383 ], [ -0.1319, 48.3431 ], [ -0.1367, 48.3643 ], [ -0.1192, 48.3672 ], [ -0.1122, 48.3742 ], [ -0.0905, 48.3752 ], [ -0.0778, 48.369 ], [ -0.0709, 48.379 ], [ -0.0625, 48.3757 ], [ -0.0545, 48.382 ] ] ] } }
]
}
