{
"type": "FeatureCollection",
"name": "dep82",
"crs": { "type": "name", "properties": { "name": "urn:ogc:def:crs:OGC:1.3:CRS84" } },
"xy_coordinate_resolution": 0.0001,
"features": [
{ "type": "Feature", "properties": { "code": "82", "nom": "Tarn-et-Garonne" }, "geometry": { "type": "Polygon", "coordinates": [ [ [ 1.0597, 44.3765 ], [ 1.0848, 44.3817 ], [ 1.1035, 44.3923 ], [ 1.137, 44.3924 ], [ 1.1318, 44.3887 ], [ 1.133, 44.3713 ], [ 1.1074, 44.3701 ], [ 1.1046, 44.3645 ], [ 1.0886, 44.3711 ], [ 1.0937, 44.3666 ], [ 1.0917, 44.3604 ], [ 1.0812, 44.3544 ], [ 1.0868, 44.3489 ], [ 1.0948, 44.3498 ], [ 1.1155, 44.3383 ], [ 1.1079, 44.3274 ], [ 1.1224, 44.3157 ], [ 1.136, 44.3172 ], [ 1.1514, 44.3074 ], [ 1.163, 44.3099 ], [ 1.1678, 44.3029 ], [ 1.1811, 44.3093 ], [ 1.1775, 44.2919 ], [ 1.1971, 44.2802 ], [ 1.2046, 44.2821 ], [ 1.2141, 44.2682 ], [ 1.2206, 44.2804 ], [ 1.2387, 44.276 ], [ 1.2446, 44.2685 ], [ 1.2421, 44.2667 ], [ 1.247, 44.2661 ], [ 1.2547, 44.2845 ], [ 1.271, 44.2811 ], [ 1.2831, 44.2907 ], [ 1.3031, 44.2943 ], [ 1.3018, 44.2803 ], [ 1.2934, 44.2727 ], [ 1.2942, 44.2699 ], [ 1.304, 44.2693 ], [ 1.305, 44.262 ], [ 1.2844, 44.2525 ], [ 1.2863, 44.2413 ], [ 1.2824, 44.2364 ], [ 1.3069, 44.227 ], [ 1.3138, 44.227 ], [ 1.3179, 44.233 ], [ 1.3259, 44.2254 ], [ 1.3297, 44.2256 ], [ 1.3295, 44.2306 ], [ 1.3358, 44.2286 ], [ 1.3438, 44.2243 ], [ 1.3423, 44.2182 ], [ 1.3576, 44.2033 ], [ 1.3813, 44.2255 ], [ 1.4173, 44.2408 ], [ 1.4287, 44.2423 ], [ 1.439, 44.2475 ], [ 1.4407, 44.2528 ], [ 1.4536, 44.2541 ], [ 1.4532, 44.2674 ], [ 1.4645, 44.269 ], [ 1.4719, 44.2868 ], [ 1.4868, 44.2777 ], [ 1.4845, 44.2725 ], [ 1.4971, 44.2708 ], [ 1.5093, 44.2738 ], [ 1.5148, 44.2658 ], [ 1.5263, 44.2602 ], [ 1.5169, 44.2541 ], [ 1.5182, 44.2495 ], [ 1.5269, 44.2372 ], [ 1.5414, 44.2274 ], [ 1.5553, 44.2338 ], [ 1.5701, 44.2363 ], [ 1.5747, 44.2339 ], [ 1.5752, 44.2419 ], [ 1.5873, 44.249 ], [ 1.5771, 44.2702 ], [ 1.5632, 44.2747 ], [ 1.5608, 44.2795 ], [ 1.5784, 44.2839 ], [ 1.5697, 44.2961 ], [ 1.5707, 44.3015 ], [ 1.5872, 44.2988 ], [ 1.595, 44.3034 ], [ 1.6007, 44.2957 ], [ 1.6166, 44.2977 ], [ 1.6143, 44.2805 ], [ 1.634, 44.2686 ], [ 1.6425, 44.2711 ], [ 1.6522, 44.2851 ], [ 1.632, 44.2939 ], [ 1.6339, 44.2988 ], [ 1.6524, 44.2962 ], [ 1.6595, 44.2833 ], [ 1.6634, 44.2935 ], [ 1.6692, 44.29 ], [ 1.6706, 44.2978 ], [ 1.6765, 44.298 ], [ 1.6995, 44.3138 ], [ 1.7105, 44.3115 ], [ 1.7366, 44.3181 ], [ 1.7374, 44.327 ], [ 1.7508, 44.3238 ], [ 1.7554, 44.3258 ], [ 1.7745, 44.3119 ], [ 1.7761, 44.3176 ], [ 1.7804, 44.3138 ], [ 1.7837, 44.3155 ], [ 1.7889, 44.3226 ], [ 1.7834, 44.3279 ], [ 1.7904, 44.3258 ], [ 1.7944, 44.3348 ], [ 1.806, 44.3366 ], [ 1.8107, 44.3285 ], [ 1.8265, 44.3236 ], [ 1.8333, 44.3356 ], [ 1.8472, 44.3378 ], [ 1.8527, 44.3317 ], [ 1.8821, 44.3401 ], [ 1.8856, 44.3353 ], [ 1.8776, 44.336 ], [ 1.8593, 44.3204 ], [ 1.8816, 44.3043 ], [ 1.8688, 44.292 ], [ 1.9004, 44.2792 ], [ 1.9411, 44.2824 ], [ 1.9431, 44.2794 ], [ 1.9576, 44.2804 ], [ 1.9704, 44.2764 ], [ 1.9709, 44.2727 ], [ 1.9641, 44.2659 ], [ 1.962, 44.2423 ], [ 1.9494, 44.2425 ], [ 1.9431, 44.2476 ], [ 1.9413, 44.2448 ], [ 1.9335, 44.2458 ], [ 1.9182, 44.2197 ], [ 1.9044, 44.2095 ], [ 1.8907, 44.2135 ], [ 1.8904, 44.2076 ], [ 1.9072, 44.2007 ], [ 1.9029, 44.1928 ], [ 1.9123, 44.1901 ], [ 1.9111, 44.1855 ], [ 1.9244, 44.1879 ], [ 1.9209, 44.1906 ], [ 1.9253, 44.1912 ], [ 1.9334, 44.1881 ], [ 1.9351, 44.1814 ], [ 1.9308, 44.1781 ], [ 1.9407, 44.1698 ], [ 1.9448, 44.1826 ], [ 1.9622, 44.1844 ], [ 1.9801, 44.1764 ], [ 1.9731, 44.1716 ], [ 1.9767, 44.162 ], [ 2.0006, 44.1591 ], [ 1.9882, 44.149 ], [ 1.9827, 44.1566 ], [ 1.9793, 44.1469 ], [ 1.9698, 44.1425 ], [ 1.9528, 44.1509 ], [ 1.947, 44.1467 ], [ 1.9396, 44.1477 ], [ 1.9368, 44.1535 ], [ 1.9197, 44.1629 ], [ 1.9089, 44.1635 ], [ 1.8944, 44.1556 ], [ 1.9193, 44.1414 ], [ 1.9051, 44.1298 ], [ 1.898, 44.1332 ], [ 1.8925, 44.1431 ], [ 1.8852, 44.1372 ], [ 1.8614, 44.1437 ], [ 1.848, 44.135 ], [ 1.8406, 44.1445 ], [ 1.8368, 44.1439 ], [ 1.8287, 44.1333 ], [ 1.8405, 44.1142 ], [ 1.837, 44.1054 ], [ 1.8255, 44.108 ], [ 1.8067, 44.1264 ], [ 1.8008, 44.1163 ], [ 1.787, 44.1092 ], [ 1.7935, 44.1003 ], [ 1.778, 44.0968 ], [ 1.77, 44.098 ], [ 1.7637, 44.1079 ], [ 1.7505, 44.109 ], [ 1.7465, 44.1167 ], [ 1.7327, 44.1126 ], [ 1.7223, 44.1184 ], [ 1.723, 44.1148 ], [ 1.7064, 44.1174 ], [ 1.6873, 44.1115 ], [ 1.6822, 44.115 ], [ 1.6614, 44.1136 ], [ 1.6587, 44.1166 ], [ 1.6526, 44.1079 ], [ 1.6531, 44.0964 ], [ 1.6703, 44.0881 ], [ 1.6612, 44.0714 ], [ 1.6637, 44.0673 ], [ 1.673, 44.0593 ], [ 1.6754, 44.0668 ], [ 1.692, 44.0629 ], [ 1.7042, 44.0443 ], [ 1.6958, 44.0359 ], [ 1.6915, 44.0224 ], [ 1.6771, 44.0214 ], [ 1.674, 44.0158 ], [ 1.6701, 44.0179 ], [ 1.6714, 44.0106 ], [ 1.6496, 44.0119 ], [ 1.6581, 43.9956 ], [ 1.6469, 43.9917 ], [ 1.6372, 43.9947 ], [ 1.6305, 43.9904 ], [ 1.6186, 43.974 ], [ 1.6227, 43.9607 ], [ 1.5906, 43.9602 ], [ 1.5668, 43.9653 ], [ 1.5495, 43.9625 ], [ 1.5496, 43.9552 ], [ 1.5354, 43.9597 ], [ 1.5414, 43.9528 ], [ 1.5378, 43.9497 ], [ 1.5406, 43.9453 ], [ 1.5661, 43.9442 ], [ 1.5775, 43.9388 ], [ 1.5715, 43.9293 ], [ 1.5742, 43.9188 ], [ 1.5484, 43.917 ], [ 1.5328, 43.9213 ], [ 1.5326, 43.9127 ], [ 1.5233, 43.9036 ], [ 1.5152, 43.906 ], [ 1.5166, 43.9008 ], [ 1.4922, 43.8874 ], [ 1.4879, 43.902 ], [ 1.4756, 43.9074 ], [ 1.4747, 43.9021 ], [ 1.457, 43.8865 ], [ 1.4489, 43.8703 ], [ 1.4472, 43.8741 ], [ 1.4315, 43.8688 ], [ 1.4181, 43.8714 ], [ 1.4147, 43.8784 ], [ 1.4019, 43.8855 ], [ 1.3932, 43.8805 ], [ 1.3652, 43.8896 ], [ 1.3561, 43.8838 ], [ 1.3568, 43.8758 ], [ 1.3481, 43.8692 ], [ 1.3646, 43.8555 ], [ 1.3595, 43.8512 ], [ 1.3546, 43.8536 ], [ 1.3303, 43.8511 ], [ 1.33, 43.855 ], [ 1.3194, 43.8581 ], [ 1.2938, 43.8456 ], [ 1.3098, 43.8399 ], [ 1.3138, 43.8321 ], [ 1.328, 43.8382 ], [ 1.3544, 43.8365 ], [ 1.36, 43.8172 ], [ 1.3498, 43.8171 ], [ 1.3434, 43.8105 ], [ 1.327, 43.8091 ], [ 1.3115, 43.8007 ], [ 1.2826, 43.7962 ], [ 1.2782, 43.803 ], [ 1.2671, 43.7986 ], [ 1.2694, 43.792 ], [ 1.2806, 43.7901 ], [ 1.2726, 43.7847 ], [ 1.2128, 43.7677 ], [ 1.2054, 43.7747 ], [ 1.2085, 43.7797 ], [ 1.2183, 43.7821 ], [ 1.2167, 43.7919 ], [ 1.1814, 43.7948 ], [ 1.1753, 43.8044 ], [ 1.1609, 43.8082 ], [ 1.1565, 43.8196 ], [ 1.1446, 43.8223 ], [ 1.1419, 43.8152 ], [ 1.1272, 43.8106 ], [ 1.1103, 43.7963 ], [ 1.1051, 43.8014 ], [ 1.1105, 43.8056 ], [ 1.0969, 43.8073 ], [ 1.0833, 43.8163 ], [ 1.0573, 43.7979 ], [ 1.0466, 43.7986 ], [ 1.0362, 43.8042 ], [ 1.0258, 43.7978 ], [ 1.0173, 43.8019 ], [ 0.9915, 43.7973 ], [ 0.9793, 43.7864 ], [ 0.9714, 43.7853 ], [ 0.9619, 43.7904 ], [ 0.954, 43.7874 ], [ 0.9421, 43.7925 ], [ 0.9305, 43.7885 ], [ 0.9243, 43.7929 ], [ 0.9168, 43.7847 ], [ 0.9091, 43.7875 ], [ 0.9043, 43.7831 ], [ 0.8961, 43.7913 ], [ 0.9031, 43.7975 ], [ 0.901, 43.8038 ], [ 0.9253, 43.8299 ], [ 0.8952, 43.8399 ], [ 0.8947, 43.8503 ], [ 0.9124, 43.8497 ], [ 0.9057, 43.8597 ], [ 0.8835, 43.8753 ], [ 0.884, 43.8908 ], [ 0.9037, 43.8992 ], [ 0.8911, 43.9026 ], [ 0.8882, 43.9096 ], [ 0.874, 43.9134 ], [ 0.8636, 43.9236 ], [ 0.8577, 43.9204 ], [ 0.8521, 43.9227 ], [ 0.8426, 43.9145 ], [ 0.8093, 43.9323 ], [ 0.7984, 43.9311 ], [ 0.7865, 43.924 ], [ 0.7694, 43.923 ], [ 0.7595, 43.943 ], [ 0.7725, 43.9534 ], [ 0.7837, 43.9545 ], [ 0.7963, 43.9757 ], [ 0.805, 43.9766 ], [ 0.8161, 43.9838 ], [ 0.8166, 43.9909 ], [ 0.8276, 43.9966 ], [ 0.8241, 44.0072 ], [ 0.8189, 44.0097 ], [ 0.8249, 44.015 ], [ 0.8126, 44.0243 ], [ 0.8253, 44.0299 ], [ 0.8396, 44.024 ], [ 0.8515, 44.0364 ], [ 0.8579, 44.0349 ], [ 0.8647, 44.0387 ], [ 0.8549, 44.0432 ], [ 0.8523, 44.0413 ], [ 0.8515, 44.0459 ], [ 0.8358, 44.0469 ], [ 0.8291, 44.0546 ], [ 0.8198, 44.0562 ], [ 0.8106, 44.0487 ], [ 0.764, 44.0296 ], [ 0.7568, 44.04 ], [ 0.7597, 44.0507 ], [ 0.7532, 44.0556 ], [ 0.7517, 44.0664 ], [ 0.7397, 44.0666 ], [ 0.7384, 44.0754 ], [ 0.7483, 44.0868 ], [ 0.7474, 44.0962 ], [ 0.7568, 44.1074 ], [ 0.7757, 44.1158 ], [ 0.7989, 44.1106 ], [ 0.793, 44.1187 ], [ 0.7976, 44.1304 ], [ 0.7886, 44.1444 ], [ 0.8189, 44.1439 ], [ 0.867, 44.1264 ], [ 0.8809, 44.13 ], [ 0.883, 44.1333 ], [ 0.878, 44.1366 ], [ 0.8827, 44.1421 ], [ 0.894, 44.1379 ], [ 0.8848, 44.1608 ], [ 0.8892, 44.172 ], [ 0.883, 44.1755 ], [ 0.871, 44.1679 ], [ 0.865, 44.1735 ], [ 0.8536, 44.1748 ], [ 0.853, 44.1839 ], [ 0.8617, 44.1934 ], [ 0.906, 44.1901 ], [ 0.9052, 44.1973 ], [ 0.9292, 44.2302 ], [ 0.9289, 44.235 ], [ 0.9191, 44.2383 ], [ 0.9248, 44.247 ], [ 0.9326, 44.2483 ], [ 0.9278, 44.2674 ], [ 0.9403, 44.2633 ], [ 0.9508, 44.2751 ], [ 0.9425, 44.2747 ], [ 0.9451, 44.2776 ], [ 0.9404, 44.2821 ], [ 0.9258, 44.2865 ], [ 0.9164, 44.3022 ], [ 0.8941, 44.2969 ], [ 0.8847, 44.3076 ], [ 0.8692, 44.3099 ], [ 0.8733, 44.3236 ], [ 0.8833, 44.3284 ], [ 0.8825, 44.3318 ], [ 0.8892, 44.3322 ], [ 0.8885, 44.3387 ], [ 0.8961, 44.3462 ], [ 0.8872, 44.3646 ], [ 0.8964, 44.3818 ], [ 0.9198, 44.3844 ], [ 0.9371, 44.3694 ], [ 0.9424, 44.3446 ], [ 0.9458, 44.3478 ], [ 0.9418, 44.3532 ], [ 0.9514, 44.3578 ], [ 0.9515, 44.3616 ], [ 0.9592, 44.3588 ], [ 0.9752, 44.3615 ], [ 0.9773, 44.3562 ], [ 0.9967, 44.3691 ], [ 1.0193, 44.3633 ], [ 1.0493, 44.3624 ], [ 1.0607, 44.3656 ], [ 1.0597, 44.3765 ] ] ] } }
]
}
