{
"type": "FeatureCollection",
"name": "dep89",
"crs": { "type": "name", "properties": { "name": "urn:ogc:def:crs:OGC:1.3:CRS84" } },
"xy_coordinate_resolution": 0.0001,
"features": [
{ "type": "Feature", "properties": { "code": "89", "nom": "Yonne" }, "geometry": { "type": "Polygon", "coordinates": [ [ [ 2.9363, 48.1634 ], [ 2.9369, 48.183 ], [ 2.9554, 48.1925 ], [ 2.9713, 48.1948 ], [ 2.9731, 48.2055 ], [ 2.989, 48.209 ], [ 2.993, 48.2044 ], [ 3.0046, 48.2068 ], [ 3.0113, 48.2208 ], [ 3.0228, 48.2303 ], [ 3.0186, 48.2352 ], [ 3.0315, 48.2489 ], [ 3.0476, 48.2497 ], [ 3.0428, 48.262 ], [ 3.0455, 48.2707 ], [ 3.025, 48.276 ], [ 3.0298, 48.2858 ], [ 3.0187, 48.2948 ], [ 3.0274, 48.3029 ], [ 3.0148, 48.3062 ], [ 3.0282, 48.3216 ], [ 3.0436, 48.3304 ], [ 3.0367, 48.335 ], [ 3.0371, 48.3426 ], [ 3.0495, 48.3601 ], [ 3.0606, 48.3574 ], [ 3.0784, 48.3612 ], [ 3.0989, 48.3578 ], [ 3.1034, 48.3495 ], [ 3.1172, 48.3666 ], [ 3.1288, 48.3672 ], [ 3.1399, 48.3726 ], [ 3.1466, 48.3657 ], [ 3.1524, 48.3714 ], [ 3.1668, 48.3706 ], [ 3.1718, 48.3777 ], [ 3.1797, 48.3757 ], [ 3.1849, 48.3681 ], [ 3.1903, 48.3709 ], [ 3.2003, 48.3637 ], [ 3.2237, 48.3704 ], [ 3.2544, 48.365 ], [ 3.268, 48.378 ], [ 3.2824, 48.3775 ], [ 3.2828, 48.3816 ], [ 3.2913, 48.3801 ], [ 3.2896, 48.3758 ], [ 3.2981, 48.3787 ], [ 3.3018, 48.3739 ], [ 3.3109, 48.373 ], [ 3.3121, 48.3772 ], [ 3.3355, 48.3702 ], [ 3.3566, 48.3784 ], [ 3.3577, 48.371 ], [ 3.3652, 48.3723 ], [ 3.3672, 48.3943 ], [ 3.3735, 48.3935 ], [ 3.3754, 48.3987 ], [ 3.3834, 48.3994 ], [ 3.402, 48.3897 ], [ 3.4148, 48.3903 ], [ 3.4133, 48.3763 ], [ 3.4217, 48.3717 ], [ 3.4274, 48.3581 ], [ 3.4483, 48.3684 ], [ 3.4508, 48.3739 ], [ 3.4675, 48.3757 ], [ 3.4749, 48.3693 ], [ 3.4976, 48.3696 ], [ 3.5135, 48.36 ], [ 3.5342, 48.3388 ], [ 3.5451, 48.3345 ], [ 3.5439, 48.3198 ], [ 3.5634, 48.3214 ], [ 3.565, 48.3133 ], [ 3.5611, 48.3119 ], [ 3.588, 48.3008 ], [ 3.5857, 48.2901 ], [ 3.5778, 48.2846 ], [ 3.6004, 48.2795 ], [ 3.6019, 48.2759 ], [ 3.6168, 48.2713 ], [ 3.6243, 48.2545 ], [ 3.5999, 48.2359 ], [ 3.6047, 48.2299 ], [ 3.6148, 48.2318 ], [ 3.6216, 48.2257 ], [ 3.5999, 48.2023 ], [ 3.5752, 48.1887 ], [ 3.5798, 48.1843 ], [ 3.5942, 48.1789 ], [ 3.6217, 48.192 ], [ 3.6349, 48.1879 ], [ 3.6606, 48.1589 ], [ 3.6679, 48.1392 ], [ 3.6909, 48.145 ], [ 3.693, 48.1546 ], [ 3.705, 48.1443 ], [ 3.7216, 48.1553 ], [ 3.7135, 48.1739 ], [ 3.7185, 48.1754 ], [ 3.7475, 48.1662 ], [ 3.7548, 48.1502 ], [ 3.7429, 48.1429 ], [ 3.7397, 48.1328 ], [ 3.7569, 48.1253 ], [ 3.768, 48.1338 ], [ 3.7773, 48.1285 ], [ 3.7799, 48.1206 ], [ 3.7917, 48.1176 ], [ 3.8056, 48.1005 ], [ 3.7998, 48.0969 ], [ 3.7981, 48.0865 ], [ 3.8069, 48.0842 ], [ 3.8295, 48.0577 ], [ 3.8241, 48.0531 ], [ 3.8302, 48.0471 ], [ 3.822, 48.0439 ], [ 3.8321, 48.0362 ], [ 3.8426, 48.0362 ], [ 3.8472, 48.0293 ], [ 3.8706, 48.0168 ], [ 3.8707, 48.0029 ], [ 3.8637, 48.007 ], [ 3.8549, 48.0035 ], [ 3.8398, 48.0039 ], [ 3.85, 47.9837 ], [ 3.8659, 47.9844 ], [ 3.8618, 47.9764 ], [ 3.88, 47.9792 ], [ 3.8833, 47.9852 ], [ 3.8777, 47.987 ], [ 3.8854, 47.9915 ], [ 3.8817, 48.0003 ], [ 3.8934, 48.0017 ], [ 3.9109, 47.9818 ], [ 3.9133, 47.9694 ], [ 3.9047, 47.9581 ], [ 3.8995, 47.9407 ], [ 3.9036, 47.9383 ], [ 3.8954, 47.9286 ], [ 3.9054, 47.9251 ], [ 3.9117, 47.9301 ], [ 3.9185, 47.928 ], [ 3.9265, 47.9346 ], [ 3.9353, 47.932 ], [ 3.9454, 47.9347 ], [ 3.9481, 47.9309 ], [ 3.9626, 47.936 ], [ 3.9856, 47.9305 ], [ 4.0039, 47.942 ], [ 4.0136, 47.9368 ], [ 4.0126, 47.9321 ], [ 4.0181, 47.9285 ], [ 4.0256, 47.9283 ], [ 4.0313, 47.9332 ], [ 4.0448, 47.9251 ], [ 4.0589, 47.9317 ], [ 4.0564, 47.9407 ], [ 4.0609, 47.9457 ], [ 4.0779, 47.9428 ], [ 4.0897, 47.945 ], [ 4.0921, 47.9282 ], [ 4.1071, 47.9298 ], [ 4.1096, 47.926 ], [ 4.1304, 47.9368 ], [ 4.1418, 47.9371 ], [ 4.1402, 47.9427 ], [ 4.1663, 47.9598 ], [ 4.1842, 47.9554 ], [ 4.1854, 47.9402 ], [ 4.2019, 47.9412 ], [ 4.2078, 47.9466 ], [ 4.2031, 47.9592 ], [ 4.2131, 47.9619 ], [ 4.2027, 47.9598 ], [ 4.1928, 47.9646 ], [ 4.2024, 47.973 ], [ 4.226, 47.9719 ], [ 4.2281, 47.961 ], [ 4.2221, 47.9497 ], [ 4.2371, 47.9407 ], [ 4.2455, 47.9297 ], [ 4.2697, 47.9237 ], [ 4.2885, 47.9269 ], [ 4.3048, 47.9214 ], [ 4.3111, 47.9039 ], [ 4.296, 47.8996 ], [ 4.2785, 47.8999 ], [ 4.2686, 47.888 ], [ 4.2463, 47.8773 ], [ 4.2464, 47.8739 ], [ 4.2646, 47.8737 ], [ 4.261, 47.8438 ], [ 4.2713, 47.8388 ], [ 4.3008, 47.8488 ], [ 4.3298, 47.8462 ], [ 4.3303, 47.8377 ], [ 4.3193, 47.8374 ], [ 4.3254, 47.8209 ], [ 4.32, 47.8114 ], [ 4.3403, 47.7996 ], [ 4.3272, 47.7857 ], [ 4.3349, 47.778 ], [ 4.329, 47.77 ], [ 4.3325, 47.7565 ], [ 4.3143, 47.749 ], [ 4.3092, 47.7513 ], [ 4.293, 47.7328 ], [ 4.2605, 47.7422 ], [ 4.258, 47.7258 ], [ 4.2395, 47.7244 ], [ 4.2412, 47.7167 ], [ 4.2528, 47.716 ], [ 4.2567, 47.7067 ], [ 4.2675, 47.7055 ], [ 4.2618, 47.6942 ], [ 4.2664, 47.6899 ], [ 4.2841, 47.6827 ], [ 4.2725, 47.6805 ], [ 4.2518, 47.6839 ], [ 4.2504, 47.6767 ], [ 4.2266, 47.6782 ], [ 4.2256, 47.6712 ], [ 4.2493, 47.6607 ], [ 4.2369, 47.6466 ], [ 4.2284, 47.6432 ], [ 4.2226, 47.6311 ], [ 4.2121, 47.6282 ], [ 4.2142, 47.6015 ], [ 4.2036, 47.6006 ], [ 4.1969, 47.6046 ], [ 4.1989, 47.5957 ], [ 4.1872, 47.5818 ], [ 4.1882, 47.5729 ], [ 4.1744, 47.5521 ], [ 4.1565, 47.5516 ], [ 4.1534, 47.5429 ], [ 4.1459, 47.5404 ], [ 4.1507, 47.5325 ], [ 4.1387, 47.5192 ], [ 4.1146, 47.5148 ], [ 4.1176, 47.5064 ], [ 4.1124, 47.5035 ], [ 4.1234, 47.4906 ], [ 4.1154, 47.4814 ], [ 4.1298, 47.4748 ], [ 4.1263, 47.468 ], [ 4.1298, 47.4626 ], [ 4.1194, 47.4436 ], [ 4.113, 47.4411 ], [ 4.1077, 47.4467 ], [ 4.1011, 47.4439 ], [ 4.1083, 47.4374 ], [ 4.0986, 47.4305 ], [ 4.0869, 47.44 ], [ 4.0801, 47.4408 ], [ 4.0859, 47.43 ], [ 4.0845, 47.4206 ], [ 4.0736, 47.4151 ], [ 4.0716, 47.4074 ], [ 4.0652, 47.4073 ], [ 4.0668, 47.3985 ], [ 4.075, 47.4 ], [ 4.0811, 47.3943 ], [ 4.09, 47.3946 ], [ 4.0772, 47.3843 ], [ 4.0789, 47.3769 ], [ 4.0879, 47.3723 ], [ 4.0928, 47.373 ], [ 4.0934, 47.3775 ], [ 4.0992, 47.3712 ], [ 4.1068, 47.3763 ], [ 4.106, 47.3627 ], [ 4.0979, 47.3616 ], [ 4.0979, 47.3554 ], [ 4.1066, 47.352 ], [ 4.1085, 47.3407 ], [ 4.0946, 47.3369 ], [ 4.0818, 47.3417 ], [ 4.0693, 47.3375 ], [ 4.0602, 47.3412 ], [ 4.0441, 47.3399 ], [ 4.0423, 47.3295 ], [ 4.0283, 47.3249 ], [ 4.028, 47.3142 ], [ 4.0214, 47.3112 ], [ 4.0081, 47.3149 ], [ 4.0021, 47.3106 ], [ 3.9733, 47.3314 ], [ 3.9663, 47.3479 ], [ 3.9677, 47.363 ], [ 3.9617, 47.3665 ], [ 3.9727, 47.3758 ], [ 3.9494, 47.3943 ], [ 3.9442, 47.3802 ], [ 3.9088, 47.3821 ], [ 3.8868, 47.3646 ], [ 3.8721, 47.3658 ], [ 3.8699, 47.3801 ], [ 3.8594, 47.3927 ], [ 3.8663, 47.3981 ], [ 3.8768, 47.3973 ], [ 3.894, 47.4143 ], [ 3.8923, 47.4192 ], [ 3.8813, 47.4232 ], [ 3.8799, 47.4298 ], [ 3.8765, 47.4284 ], [ 3.867, 47.4346 ], [ 3.8524, 47.4353 ], [ 3.8479, 47.4124 ], [ 3.8375, 47.4031 ], [ 3.8344, 47.4013 ], [ 3.8357, 47.4065 ], [ 3.8305, 47.4082 ], [ 3.8199, 47.4022 ], [ 3.8314, 47.3927 ], [ 3.8283, 47.3823 ], [ 3.8166, 47.3786 ], [ 3.8022, 47.3894 ], [ 3.7856, 47.3903 ], [ 3.781, 47.3962 ], [ 3.7842, 47.4053 ], [ 3.7746, 47.4062 ], [ 3.7688, 47.4008 ], [ 3.7601, 47.4021 ], [ 3.7406, 47.3965 ], [ 3.7263, 47.3983 ], [ 3.7167, 47.4032 ], [ 3.7188, 47.4058 ], [ 3.7022, 47.4267 ], [ 3.6839, 47.4339 ], [ 3.674, 47.4335 ], [ 3.6794, 47.4472 ], [ 3.674, 47.4502 ], [ 3.667, 47.4459 ], [ 3.6387, 47.4521 ], [ 3.6342, 47.4561 ], [ 3.6213, 47.4556 ], [ 3.6157, 47.4575 ], [ 3.6156, 47.4667 ], [ 3.6003, 47.4654 ], [ 3.5953, 47.457 ], [ 3.5873, 47.4562 ], [ 3.5882, 47.4623 ], [ 3.5833, 47.4615 ], [ 3.5793, 47.4657 ], [ 3.5801, 47.4786 ], [ 3.5752, 47.4863 ], [ 3.5806, 47.4979 ], [ 3.5524, 47.5024 ], [ 3.54, 47.5157 ], [ 3.5135, 47.5277 ], [ 3.511, 47.5507 ], [ 3.499, 47.5608 ], [ 3.492, 47.56 ], [ 3.4901, 47.5553 ], [ 3.4948, 47.5502 ], [ 3.4915, 47.5363 ], [ 3.495, 47.521 ], [ 3.4883, 47.4938 ], [ 3.4791, 47.4938 ], [ 3.4556, 47.5026 ], [ 3.4501, 47.5 ], [ 3.4462, 47.5117 ], [ 3.4426, 47.5079 ], [ 3.4276, 47.5064 ], [ 3.3904, 47.5091 ], [ 3.3908, 47.4975 ], [ 3.3801, 47.4865 ], [ 3.3702, 47.4884 ], [ 3.3554, 47.4787 ], [ 3.3453, 47.4786 ], [ 3.3465, 47.4697 ], [ 3.3377, 47.4704 ], [ 3.3403, 47.4811 ], [ 3.3269, 47.4831 ], [ 3.307, 47.4947 ], [ 3.2965, 47.4917 ], [ 3.2852, 47.5039 ], [ 3.2755, 47.4908 ], [ 3.257, 47.4919 ], [ 3.2491, 47.4875 ], [ 3.2363, 47.4882 ], [ 3.225, 47.5048 ], [ 3.2115, 47.5121 ], [ 3.2035, 47.5235 ], [ 3.1912, 47.5204 ], [ 3.1856, 47.5254 ], [ 3.1819, 47.5183 ], [ 3.1652, 47.5175 ], [ 3.1617, 47.5247 ], [ 3.1503, 47.5281 ], [ 3.1347, 47.5426 ], [ 3.123, 47.5394 ], [ 3.1162, 47.5692 ], [ 3.124, 47.5762 ], [ 3.1016, 47.5881 ], [ 3.0806, 47.5855 ], [ 3.0607, 47.5695 ], [ 3.0346, 47.564 ], [ 3.0219, 47.5563 ], [ 2.9902, 47.5689 ], [ 2.9655, 47.5736 ], [ 2.9623, 47.5859 ], [ 2.955, 47.5904 ], [ 2.9506, 47.5888 ], [ 2.942, 47.5988 ], [ 2.9363, 47.5993 ], [ 2.9452, 47.6084 ], [ 2.9323, 47.627 ], [ 2.9363, 47.6367 ], [ 2.9542, 47.6457 ], [ 2.9416, 47.6575 ], [ 2.9266, 47.659 ], [ 2.9181, 47.6698 ], [ 2.9267, 47.6818 ], [ 2.9139, 47.691 ], [ 2.9077, 47.6909 ], [ 2.9037, 47.6969 ], [ 2.8792, 47.7038 ], [ 2.8846, 47.7139 ], [ 2.8789, 47.7203 ], [ 2.8606, 47.7099 ], [ 2.849, 47.7168 ], [ 2.8526, 47.7213 ], [ 2.8487, 47.7258 ], [ 2.8533, 47.729 ], [ 2.8502, 47.7326 ], [ 2.859, 47.7495 ], [ 2.852, 47.7579 ], [ 2.8702, 47.7649 ], [ 2.899, 47.7638 ], [ 2.9094, 47.7693 ], [ 2.9308, 47.7623 ], [ 2.9375, 47.7664 ], [ 2.9497, 47.7659 ], [ 2.9547, 47.7756 ], [ 2.9788, 47.7803 ], [ 2.9882, 47.786 ], [ 3.0253, 47.7877 ], [ 3.0281, 47.802 ], [ 3.0243, 47.8131 ], [ 3.0155, 47.8135 ], [ 3.0221, 47.8178 ], [ 3.0139, 47.8225 ], [ 3.0125, 47.8344 ], [ 3.0297, 47.8351 ], [ 3.0318, 47.8504 ], [ 3.0233, 47.861 ], [ 2.9983, 47.8673 ], [ 3.0124, 47.8741 ], [ 3.0072, 47.8953 ], [ 3.017, 47.8989 ], [ 3.0096, 47.9054 ], [ 3.018, 47.9076 ], [ 3.0239, 47.9052 ], [ 3.0359, 47.9116 ], [ 3.0378, 47.9067 ], [ 3.0505, 47.9106 ], [ 3.0508, 47.9242 ], [ 3.0617, 47.9261 ], [ 3.0646, 47.9305 ], [ 3.0785, 47.9314 ], [ 3.0839, 47.9426 ], [ 3.0984, 47.9488 ], [ 3.1053, 47.9469 ], [ 3.1093, 47.9621 ], [ 3.1267, 47.9683 ], [ 3.1286, 47.9834 ], [ 3.1217, 47.9868 ], [ 3.1267, 47.9913 ], [ 3.1211, 47.9959 ], [ 3.1242, 48.0069 ], [ 3.1154, 48.013 ], [ 3.1041, 48.0136 ], [ 3.0995, 48.0207 ], [ 3.1164, 48.0281 ], [ 3.1195, 48.0259 ], [ 3.1243, 48.0311 ], [ 3.0946, 48.0404 ], [ 3.0896, 48.0491 ], [ 3.0954, 48.054 ], [ 3.0609, 48.0642 ], [ 3.0505, 48.0723 ], [ 3.0504, 48.0914 ], [ 3.0383, 48.0988 ], [ 3.0353, 48.116 ], [ 3.0159, 48.1157 ], [ 3.0294, 48.1333 ], [ 3.0096, 48.1458 ], [ 2.9984, 48.1398 ], [ 2.9909, 48.1525 ], [ 2.9799, 48.1539 ], [ 2.9816, 48.1498 ], [ 2.9636, 48.153 ], [ 2.9533, 48.165 ], [ 2.9363, 48.1634 ] ] ] } }
]
}
