{
"type": "FeatureCollection",
"name": "dep83",
"crs": { "type": "name", "properties": { "name": "urn:ogc:def:crs:OGC:1.3:CRS84" } },
"xy_coordinate_resolution": 0.0001,
"features": [
{ "type": "Feature", "properties": { "code": "83", "nom": "Var" }, "geometry": { "type": "MultiPolygon", "coordinates": [ [ [ [ 6.396, 42.9873 ], [ 6.3939, 42.9884 ], [ 6.3968, 42.9891 ], [ 6.396, 42.9873 ] ] ], [ [ [ 6.4337, 43.0069 ], [ 6.4336, 43.0192 ], [ 6.4406, 43.0251 ], [ 6.4579, 43.0276 ], [ 6.4733, 43.0469 ], [ 6.5084, 43.0522 ], [ 6.5113, 43.0468 ], [ 6.5032, 43.042 ], [ 6.4875, 43.0427 ], [ 6.4728, 43.0251 ], [ 6.471, 43.0166 ], [ 6.459, 43.0138 ], [ 6.4504, 43.0174 ], [ 6.4383, 43.0036 ], [ 6.4337, 43.0069 ] ] ], [ [ [ 6.1452, 43.02 ], [ 6.1448, 43.0163 ], [ 6.1395, 43.0197 ], [ 6.1398, 43.0206 ], [ 6.1452, 43.02 ] ] ], [ [ [ 5.7524, 43.1273 ], [ 5.748, 43.1273 ], [ 5.7498, 43.1286 ], [ 5.7524, 43.1273 ] ] ], [ [ [ 6.3971, 42.9928 ], [ 6.3879, 42.9981 ], [ 6.3735, 42.9957 ], [ 6.3703, 43.0008 ], [ 6.377, 43.0074 ], [ 6.3828, 43.0064 ], [ 6.3833, 43.0138 ], [ 6.391, 43.0115 ], [ 6.4089, 43.0192 ], [ 6.4142, 43.0156 ], [ 6.4116, 43.0096 ], [ 6.4201, 43.0118 ], [ 6.4066, 42.9956 ], [ 6.3971, 42.9928 ] ] ], [ [ [ 6.3638, 43.004 ], [ 6.36, 43.015 ], [ 6.3684, 43.0181 ], [ 6.3648, 43.0134 ], [ 6.3638, 43.004 ] ] ], [ [ [ 5.7696, 43.0806 ], [ 5.7657, 43.0801 ], [ 5.768, 43.0819 ], [ 5.7696, 43.0806 ] ] ], [ [ [ 6.2423, 43.0255 ], [ 6.2487, 43.0165 ], [ 6.2508, 42.9997 ], [ 6.2167, 42.9912 ], [ 6.2056, 42.9818 ], [ 6.1959, 42.9834 ], [ 6.1972, 42.9876 ], [ 6.1922, 42.9908 ], [ 6.1698, 42.9966 ], [ 6.1693, 42.9994 ], [ 6.1613, 42.9989 ], [ 6.1796, 43.0086 ], [ 6.1977, 43.001 ], [ 6.2117, 43.0026 ], [ 6.2176, 43.0135 ], [ 6.2306, 43.01 ], [ 6.2423, 43.0255 ] ] ], [ [ [ 5.7806, 43.0698 ], [ 5.7776, 43.0748 ], [ 5.781, 43.0823 ], [ 5.7813, 43.0788 ], [ 5.7922, 43.0774 ], [ 5.7806, 43.0698 ] ] ], [ [ [ 5.9133, 43.1161 ], [ 5.9139, 43.1187 ], [ 5.9206, 43.1195 ], [ 5.9199, 43.1181 ], [ 5.9133, 43.1161 ] ] ], [ [ [ 5.7908, 43.0687 ], [ 5.7872, 43.0722 ], [ 5.7903, 43.0726 ], [ 5.7908, 43.0687 ] ] ], [ [ [ 5.7537, 43.7246 ], [ 5.7813, 43.7557 ], [ 5.8312, 43.7469 ], [ 5.8426, 43.7368 ], [ 5.849, 43.7182 ], [ 5.8562, 43.7236 ], [ 5.8845, 43.7239 ], [ 5.905, 43.7374 ], [ 5.903, 43.7534 ], [ 5.9227, 43.7575 ], [ 5.9275, 43.7502 ], [ 5.9388, 43.7488 ], [ 5.9434, 43.7364 ], [ 5.9388, 43.7333 ], [ 5.9405, 43.7273 ], [ 5.9572, 43.7189 ], [ 5.9646, 43.7254 ], [ 5.9736, 43.7147 ], [ 5.9854, 43.714 ], [ 5.9879, 43.6951 ], [ 6.0057, 43.6876 ], [ 6.0116, 43.6741 ], [ 6.0217, 43.6683 ], [ 6.0395, 43.6786 ], [ 6.0351, 43.6941 ], [ 6.077, 43.7072 ], [ 6.0881, 43.7182 ], [ 6.0903, 43.729 ], [ 6.1029, 43.7363 ], [ 6.1067, 43.7445 ], [ 6.1147, 43.7461 ], [ 6.1167, 43.7416 ], [ 6.1297, 43.7362 ], [ 6.1543, 43.7436 ], [ 6.1829, 43.7622 ], [ 6.1906, 43.7802 ], [ 6.2167, 43.7995 ], [ 6.2542, 43.8004 ], [ 6.2686, 43.7772 ], [ 6.2823, 43.7736 ], [ 6.295, 43.7642 ], [ 6.3173, 43.7579 ], [ 6.3169, 43.7536 ], [ 6.3229, 43.7533 ], [ 6.3263, 43.7469 ], [ 6.3451, 43.742 ], [ 6.3512, 43.7362 ], [ 6.3589, 43.7358 ], [ 6.3747, 43.743 ], [ 6.3835, 43.7344 ], [ 6.4133, 43.7602 ], [ 6.4101, 43.7719 ], [ 6.4144, 43.7916 ], [ 6.4365, 43.7918 ], [ 6.4388, 43.7978 ], [ 6.4568, 43.7931 ], [ 6.4699, 43.7987 ], [ 6.4821, 43.7911 ], [ 6.4869, 43.7917 ], [ 6.5094, 43.8007 ], [ 6.5173, 43.8088 ], [ 6.5424, 43.7919 ], [ 6.5467, 43.7831 ], [ 6.5422, 43.7755 ], [ 6.5457, 43.7753 ], [ 6.5853, 43.8005 ], [ 6.5869, 43.8053 ], [ 6.6237, 43.8048 ], [ 6.6279, 43.7916 ], [ 6.6364, 43.789 ], [ 6.6365, 43.7822 ], [ 6.6452, 43.7778 ], [ 6.6401, 43.7686 ], [ 6.6521, 43.7655 ], [ 6.6574, 43.7487 ], [ 6.6827, 43.7579 ], [ 6.7014, 43.7541 ], [ 6.7139, 43.746 ], [ 6.715, 43.7387 ], [ 6.7462, 43.7368 ], [ 6.7525, 43.741 ], [ 6.7561, 43.7273 ], [ 6.7667, 43.7221 ], [ 6.7668, 43.7106 ], [ 6.7742, 43.7036 ], [ 6.7744, 43.6934 ], [ 6.7645, 43.6882 ], [ 6.761, 43.6805 ], [ 6.7608, 43.6665 ], [ 6.7658, 43.6603 ], [ 6.7763, 43.6599 ], [ 6.7832, 43.6536 ], [ 6.7987, 43.6282 ], [ 6.8168, 43.6298 ], [ 6.8388, 43.6174 ], [ 6.8517, 43.6044 ], [ 6.8575, 43.6108 ], [ 6.8665, 43.603 ], [ 6.8723, 43.6075 ], [ 6.8853, 43.6067 ], [ 6.8943, 43.6115 ], [ 6.912, 43.5983 ], [ 6.8984, 43.5816 ], [ 6.9079, 43.5727 ], [ 6.9082, 43.5639 ], [ 6.901, 43.5638 ], [ 6.8976, 43.5574 ], [ 6.8878, 43.5527 ], [ 6.8788, 43.5292 ], [ 6.8964, 43.5272 ], [ 6.8842, 43.5025 ], [ 6.9127, 43.4937 ], [ 6.9138, 43.4828 ], [ 6.9337, 43.4801 ], [ 6.9246, 43.4725 ], [ 6.9207, 43.4533 ], [ 6.924, 43.4505 ], [ 6.9011, 43.4431 ], [ 6.8929, 43.4374 ], [ 6.8966, 43.434 ], [ 6.8917, 43.4285 ], [ 6.8703, 43.4253 ], [ 6.8678, 43.4327 ], [ 6.8597, 43.4332 ], [ 6.8567, 43.4255 ], [ 6.8606, 43.417 ], [ 6.8524, 43.4107 ], [ 6.8454, 43.4156 ], [ 6.8291, 43.4185 ], [ 6.8096, 43.4132 ], [ 6.7977, 43.4139 ], [ 6.789, 43.4081 ], [ 6.7663, 43.4237 ], [ 6.7484, 43.4198 ], [ 6.7334, 43.4053 ], [ 6.7284, 43.393 ], [ 6.7326, 43.3901 ], [ 6.7141, 43.3718 ], [ 6.7189, 43.3568 ], [ 6.713, 43.3527 ], [ 6.7165, 43.3475 ], [ 6.68, 43.3403 ], [ 6.6654, 43.3252 ], [ 6.6713, 43.3126 ], [ 6.6592, 43.3139 ], [ 6.6449, 43.306 ], [ 6.635, 43.3075 ], [ 6.6269, 43.3031 ], [ 6.6243, 43.296 ], [ 6.5852, 43.2795 ], [ 6.5865, 43.2678 ], [ 6.582, 43.2675 ], [ 6.5935, 43.2623 ], [ 6.6207, 43.2642 ], [ 6.6402, 43.2744 ], [ 6.6652, 43.2649 ], [ 6.6692, 43.2761 ], [ 6.6758, 43.2785 ], [ 6.6976, 43.2665 ], [ 6.6911, 43.2523 ], [ 6.6644, 43.2414 ], [ 6.6643, 43.2118 ], [ 6.6811, 43.1998 ], [ 6.6753, 43.1953 ], [ 6.66, 43.1962 ], [ 6.643, 43.1871 ], [ 6.6397, 43.1737 ], [ 6.6466, 43.1677 ], [ 6.6341, 43.1723 ], [ 6.6183, 43.1594 ], [ 6.6027, 43.1742 ], [ 6.6017, 43.1821 ], [ 6.562, 43.1891 ], [ 6.5369, 43.1788 ], [ 6.5341, 43.1728 ], [ 6.5398, 43.1687 ], [ 6.5346, 43.1633 ], [ 6.5207, 43.1649 ], [ 6.4966, 43.1512 ], [ 6.4642, 43.1575 ], [ 6.4492, 43.1534 ], [ 6.4387, 43.1422 ], [ 6.4394, 43.1473 ], [ 6.4291, 43.1514 ], [ 6.4206, 43.1466 ], [ 6.4036, 43.1491 ], [ 6.3979, 43.1442 ], [ 6.3844, 43.144 ], [ 6.3791, 43.1379 ], [ 6.3687, 43.137 ], [ 6.3638, 43.1271 ], [ 6.3665, 43.1212 ], [ 6.3598, 43.1199 ], [ 6.364, 43.111 ], [ 6.3588, 43.1066 ], [ 6.3672, 43.1027 ], [ 6.3639, 43.0933 ], [ 6.3708, 43.0913 ], [ 6.3651, 43.0904 ], [ 6.3643, 43.0863 ], [ 6.3451, 43.0908 ], [ 6.3325, 43.0895 ], [ 6.3294, 43.093 ], [ 6.3215, 43.0914 ], [ 6.3246, 43.0991 ], [ 6.3167, 43.1062 ], [ 6.2994, 43.106 ], [ 6.297, 43.1102 ], [ 6.2893, 43.1067 ], [ 6.2882, 43.1142 ], [ 6.2749, 43.1207 ], [ 6.2622, 43.1211 ], [ 6.2395, 43.1133 ], [ 6.201, 43.1161 ], [ 6.1704, 43.0998 ], [ 6.1548, 43.0798 ], [ 6.1494, 43.0566 ], [ 6.152, 43.0372 ], [ 6.1727, 43.0328 ], [ 6.1488, 43.0259 ], [ 6.1369, 43.0304 ], [ 6.1347, 43.0362 ], [ 6.1266, 43.0356 ], [ 6.1238, 43.0317 ], [ 6.1126, 43.0351 ], [ 6.1032, 43.0275 ], [ 6.097, 43.0273 ], [ 6.0976, 43.0326 ], [ 6.0913, 43.0354 ], [ 6.0938, 43.0404 ], [ 6.1048, 43.0421 ], [ 6.1246, 43.0405 ], [ 6.1316, 43.048 ], [ 6.1254, 43.0783 ], [ 6.114, 43.0837 ], [ 6.0788, 43.0877 ], [ 6.0513, 43.0789 ], [ 6.0215, 43.0783 ], [ 6.0168, 43.0836 ], [ 6.0241, 43.0901 ], [ 6.0235, 43.0948 ], [ 6.0055, 43.104 ], [ 5.9922, 43.1032 ], [ 5.9748, 43.1077 ], [ 5.9681, 43.1036 ], [ 5.9558, 43.1082 ], [ 5.9409, 43.1078 ], [ 5.9257, 43.1023 ], [ 5.9343, 43.1186 ], [ 5.9285, 43.1208 ], [ 5.9261, 43.1156 ], [ 5.9226, 43.1152 ], [ 5.9271, 43.1215 ], [ 5.9206, 43.1239 ], [ 5.9198, 43.12 ], [ 5.9139, 43.1194 ], [ 5.9127, 43.1229 ], [ 5.9075, 43.1189 ], [ 5.9109, 43.1151 ], [ 5.8992, 43.113 ], [ 5.896, 43.1167 ], [ 5.8858, 43.1163 ], [ 5.8854, 43.1109 ], [ 5.8917, 43.108 ], [ 5.8812, 43.1094 ], [ 5.8867, 43.1072 ], [ 5.8805, 43.105 ], [ 5.8832, 43.1026 ], [ 5.901, 43.104 ], [ 5.91, 43.0999 ], [ 5.9104, 43.0932 ], [ 5.9013, 43.0916 ], [ 5.8968, 43.0805 ], [ 5.9096, 43.0794 ], [ 5.9171, 43.0858 ], [ 5.9274, 43.0775 ], [ 5.929, 43.0829 ], [ 5.9382, 43.0846 ], [ 5.951, 43.0768 ], [ 5.947, 43.0677 ], [ 5.9306, 43.0719 ], [ 5.9125, 43.066 ], [ 5.8985, 43.0776 ], [ 5.8902, 43.078 ], [ 5.8723, 43.0692 ], [ 5.859, 43.048 ], [ 5.8288, 43.0494 ], [ 5.8158, 43.0637 ], [ 5.7924, 43.0687 ], [ 5.8037, 43.0767 ], [ 5.8125, 43.0959 ], [ 5.8053, 43.0997 ], [ 5.8139, 43.1068 ], [ 5.8082, 43.1152 ], [ 5.8007, 43.1175 ], [ 5.791, 43.1124 ], [ 5.7887, 43.1164 ], [ 5.7673, 43.1155 ], [ 5.781, 43.1301 ], [ 5.7712, 43.1389 ], [ 5.7546, 43.1353 ], [ 5.7523, 43.1301 ], [ 5.7493, 43.1355 ], [ 5.7241, 43.1362 ], [ 5.716, 43.148 ], [ 5.7122, 43.1447 ], [ 5.6949, 43.1436 ], [ 5.6917, 43.1521 ], [ 5.6822, 43.1554 ], [ 5.6828, 43.1608 ], [ 5.6941, 43.1662 ], [ 5.6946, 43.1718 ], [ 5.6867, 43.1797 ], [ 5.6719, 43.1793 ], [ 5.6839, 43.2361 ], [ 5.7024, 43.2392 ], [ 5.7025, 43.2483 ], [ 5.7115, 43.2533 ], [ 5.7609, 43.2673 ], [ 5.7628, 43.2824 ], [ 5.7498, 43.2893 ], [ 5.7266, 43.3174 ], [ 5.691, 43.313 ], [ 5.6755, 43.3196 ], [ 5.6898, 43.3275 ], [ 5.6865, 43.3402 ], [ 5.705, 43.3559 ], [ 5.6946, 43.364 ], [ 5.6903, 43.3883 ], [ 5.6828, 43.3992 ], [ 5.7013, 43.4081 ], [ 5.7244, 43.4089 ], [ 5.7553, 43.4023 ], [ 5.7864, 43.4139 ], [ 5.7884, 43.4203 ], [ 5.7759, 43.4205 ], [ 5.7507, 43.4345 ], [ 5.749, 43.442 ], [ 5.7278, 43.4669 ], [ 5.7128, 43.4783 ], [ 5.6986, 43.4834 ], [ 5.7025, 43.4961 ], [ 5.712, 43.4971 ], [ 5.7158, 43.5032 ], [ 5.7114, 43.5053 ], [ 5.7124, 43.5129 ], [ 5.7251, 43.5513 ], [ 5.715, 43.5515 ], [ 5.6909, 43.5636 ], [ 5.6693, 43.5646 ], [ 5.656, 43.574 ], [ 5.656, 43.5774 ], [ 5.6916, 43.5844 ], [ 5.6781, 43.6114 ], [ 5.6794, 43.6145 ], [ 5.6875, 43.6149 ], [ 5.6841, 43.6181 ], [ 5.702, 43.6375 ], [ 5.6987, 43.6425 ], [ 5.7097, 43.6409 ], [ 5.719, 43.6498 ], [ 5.7448, 43.6568 ], [ 5.7987, 43.6612 ], [ 5.8038, 43.6803 ], [ 5.8132, 43.689 ], [ 5.8057, 43.6933 ], [ 5.7936, 43.6923 ], [ 5.7876, 43.6969 ], [ 5.7822, 43.7069 ], [ 5.7853, 43.7175 ], [ 5.7755, 43.7188 ], [ 5.7767, 43.7225 ], [ 5.7537, 43.7246 ] ] ] ] } }
]
}
