{
"type": "FeatureCollection",
"name": "dep84",
"crs": { "type": "name", "properties": { "name": "urn:ogc:def:crs:OGC:1.3:CRS84" } },
"xy_coordinate_resolution": 0.0001,
"features": [
{ "type": "Feature", "properties": { "code": "84", "nom": "Vaucluse" }, "geometry": { "type": "MultiPolygon", "coordinates": [ [ [ [ 4.8695, 44.3451 ], [ 4.909, 44.3773 ], [ 4.9097, 44.3967 ], [ 4.9185, 44.4078 ], [ 4.9462, 44.4149 ], [ 4.952, 44.4201 ], [ 4.9605, 44.4201 ], [ 4.9704, 44.4314 ], [ 4.9787, 44.4235 ], [ 4.9886, 44.4232 ], [ 5.0011, 44.4126 ], [ 5.01, 44.4108 ], [ 5.0122, 44.4158 ], [ 5.0188, 44.416 ], [ 5.0202, 44.4103 ], [ 5.0133, 44.4054 ], [ 5.0156, 44.393 ], [ 5.0345, 44.3908 ], [ 5.0476, 44.3814 ], [ 5.0625, 44.3841 ], [ 5.0721, 44.3804 ], [ 5.055, 44.365 ], [ 5.0239, 44.3606 ], [ 5.0233, 44.346 ], [ 5.009, 44.3338 ], [ 5.0138, 44.3258 ], [ 4.9966, 44.3197 ], [ 4.987, 44.2927 ], [ 4.9797, 44.2975 ], [ 4.9595, 44.2987 ], [ 4.957, 44.3024 ], [ 4.9509, 44.3009 ], [ 4.944, 44.3059 ], [ 4.9222, 44.3088 ], [ 4.8917, 44.3043 ], [ 4.8914, 44.3134 ], [ 4.8816, 44.3249 ], [ 4.8895, 44.3331 ], [ 4.8942, 44.3329 ], [ 4.8953, 44.3381 ], [ 4.8797, 44.3453 ], [ 4.8695, 44.3451 ] ] ], [ [ [ 4.6492, 44.2704 ], [ 4.6537, 44.2973 ], [ 4.6506, 44.3298 ], [ 4.679, 44.3205 ], [ 4.713, 44.3207 ], [ 4.718, 44.3269 ], [ 4.7622, 44.3254 ], [ 4.7718, 44.3175 ], [ 4.7797, 44.3194 ], [ 4.7905, 44.3075 ], [ 4.8046, 44.3039 ], [ 4.804, 44.2692 ], [ 4.8127, 44.2577 ], [ 4.8141, 44.2323 ], [ 4.8266, 44.2283 ], [ 4.8408, 44.2357 ], [ 4.8435, 44.2418 ], [ 4.8659, 44.2496 ], [ 4.8674, 44.2558 ], [ 4.8791, 44.2615 ], [ 4.9013, 44.2643 ], [ 4.8957, 44.2577 ], [ 4.8993, 44.2569 ], [ 4.9019, 44.2602 ], [ 4.9329, 44.2622 ], [ 4.9814, 44.2848 ], [ 5.0055, 44.2868 ], [ 5.0221, 44.2958 ], [ 5.0606, 44.3081 ], [ 5.0765, 44.2841 ], [ 5.0943, 44.2828 ], [ 5.108, 44.2772 ], [ 5.1079, 44.2809 ], [ 5.1191, 44.2869 ], [ 5.1548, 44.3019 ], [ 5.1506, 44.3096 ], [ 5.1677, 44.3148 ], [ 5.1737, 44.3084 ], [ 5.1681, 44.2899 ], [ 5.1497, 44.2821 ], [ 5.1471, 44.2756 ], [ 5.1487, 44.2694 ], [ 5.1607, 44.2665 ], [ 5.1616, 44.2456 ], [ 5.1495, 44.2353 ], [ 5.1581, 44.2288 ], [ 5.1818, 44.219 ], [ 5.1887, 44.2203 ], [ 5.2067, 44.2138 ], [ 5.2254, 44.2152 ], [ 5.2308, 44.2119 ], [ 5.2382, 44.2132 ], [ 5.2405, 44.2308 ], [ 5.2523, 44.2312 ], [ 5.2922, 44.2145 ], [ 5.3033, 44.2054 ], [ 5.3033, 44.2099 ], [ 5.3183, 44.2099 ], [ 5.3368, 44.2035 ], [ 5.3553, 44.2146 ], [ 5.3845, 44.2012 ], [ 5.3811, 44.1959 ], [ 5.3867, 44.1817 ], [ 5.3832, 44.1553 ], [ 5.3966, 44.152 ], [ 5.4168, 44.1551 ], [ 5.4239, 44.1493 ], [ 5.4358, 44.1523 ], [ 5.4366, 44.14 ], [ 5.4476, 44.1367 ], [ 5.4506, 44.1215 ], [ 5.4988, 44.1157 ], [ 5.498, 44.0752 ], [ 5.5026, 44.0634 ], [ 5.5164, 44.0632 ], [ 5.5446, 44.0699 ], [ 5.5436, 44.026 ], [ 5.5177, 43.9917 ], [ 5.5092, 43.9517 ], [ 5.5127, 43.9454 ], [ 5.5269, 43.9475 ], [ 5.545, 43.9391 ], [ 5.5689, 43.9422 ], [ 5.5679, 43.937 ], [ 5.5806, 43.9255 ], [ 5.5816, 43.9151 ], [ 5.6082, 43.9148 ], [ 5.5735, 43.8634 ], [ 5.5486, 43.8515 ], [ 5.5443, 43.8184 ], [ 5.5643, 43.8197 ], [ 5.5673, 43.8271 ], [ 5.5746, 43.8303 ], [ 5.6006, 43.826 ], [ 5.6277, 43.8309 ], [ 5.6544, 43.8251 ], [ 5.6584, 43.8169 ], [ 5.6745, 43.8074 ], [ 5.6857, 43.7872 ], [ 5.705, 43.7795 ], [ 5.7136, 43.7811 ], [ 5.7169, 43.7555 ], [ 5.7492, 43.7405 ], [ 5.7573, 43.7294 ], [ 5.7537, 43.7246 ], [ 5.7369, 43.716 ], [ 5.7141, 43.6913 ], [ 5.6736, 43.6937 ], [ 5.6575, 43.6858 ], [ 5.6423, 43.6722 ], [ 5.6069, 43.6587 ], [ 5.5748, 43.6621 ], [ 5.5314, 43.659 ], [ 5.4881, 43.6677 ], [ 5.4376, 43.6817 ], [ 5.341, 43.7197 ], [ 5.3157, 43.7365 ], [ 5.23, 43.7477 ], [ 5.188, 43.7351 ], [ 5.1733, 43.7388 ], [ 5.0497, 43.7887 ], [ 5.0295, 43.8278 ], [ 4.9961, 43.8461 ], [ 4.9663, 43.8717 ], [ 4.9259, 43.8865 ], [ 4.9023, 43.8879 ], [ 4.8852, 43.9002 ], [ 4.8531, 43.9114 ], [ 4.7391, 43.9241 ], [ 4.75, 43.9322 ], [ 4.779, 43.9379 ], [ 4.7928, 43.9538 ], [ 4.8116, 43.9618 ], [ 4.8151, 43.9676 ], [ 4.8102, 43.977 ], [ 4.8125, 43.9877 ], [ 4.8421, 43.9865 ], [ 4.8433, 44.0099 ], [ 4.8377, 44.0149 ], [ 4.8211, 44.0165 ], [ 4.8162, 44.0321 ], [ 4.7876, 44.054 ], [ 4.788, 44.0651 ], [ 4.7596, 44.0751 ], [ 4.7583, 44.0879 ], [ 4.7301, 44.079 ], [ 4.7206, 44.0818 ], [ 4.7188, 44.0925 ], [ 4.7061, 44.1078 ], [ 4.7117, 44.1347 ], [ 4.7189, 44.1445 ], [ 4.7164, 44.1767 ], [ 4.7221, 44.1874 ], [ 4.7058, 44.1928 ], [ 4.7044, 44.2006 ], [ 4.7099, 44.208 ], [ 4.7066, 44.2144 ], [ 4.6742, 44.214 ], [ 4.6779, 44.2341 ], [ 4.6541, 44.2543 ], [ 4.6492, 44.2704 ] ] ] ] } }
]
}
