{
"type": "FeatureCollection",
"name": "dep87",
"crs": { "type": "name", "properties": { "name": "urn:ogc:def:crs:OGC:1.3:CRS84" } },
"xy_coordinate_resolution": 0.0001,
"features": [
{ "type": "Feature", "properties": { "code": "87", "nom": "Haute-Vienne" }, "geometry": { "type": "Polygon", "coordinates": [ [ [ 0.8141, 46.1272 ], [ 0.8345, 46.1279 ], [ 0.8474, 46.1377 ], [ 0.8334, 46.1457 ], [ 0.8312, 46.1536 ], [ 0.8313, 46.1627 ], [ 0.8399, 46.1644 ], [ 0.831, 46.1665 ], [ 0.8283, 46.1746 ], [ 0.8365, 46.1788 ], [ 0.8299, 46.1847 ], [ 0.8196, 46.1846 ], [ 0.82, 46.1918 ], [ 0.8115, 46.1994 ], [ 0.8018, 46.2001 ], [ 0.8022, 46.2091 ], [ 0.7941, 46.214 ], [ 0.8104, 46.2295 ], [ 0.848, 46.2287 ], [ 0.8519, 46.2359 ], [ 0.8413, 46.2399 ], [ 0.8496, 46.2456 ], [ 0.8475, 46.2483 ], [ 0.8575, 46.2485 ], [ 0.8616, 46.2618 ], [ 0.8907, 46.2685 ], [ 0.9016, 46.2841 ], [ 0.8993, 46.2894 ], [ 0.9092, 46.284 ], [ 0.9301, 46.2807 ], [ 0.9342, 46.2813 ], [ 0.9365, 46.2928 ], [ 0.951, 46.2851 ], [ 0.9735, 46.2857 ], [ 0.9885, 46.2804 ], [ 0.9908, 46.2848 ], [ 1.0059, 46.281 ], [ 1.0076, 46.2859 ], [ 1.0019, 46.2921 ], [ 1.0125, 46.2992 ], [ 1.0066, 46.3029 ], [ 1.012, 46.3103 ], [ 1.0217, 46.3102 ], [ 1.0208, 46.3161 ], [ 1.0279, 46.3227 ], [ 1.025, 46.328 ], [ 1.0304, 46.336 ], [ 1.0258, 46.3405 ], [ 1.0499, 46.3569 ], [ 1.0502, 46.3628 ], [ 1.0783, 46.3585 ], [ 1.1007, 46.3641 ], [ 1.1075, 46.3542 ], [ 1.1294, 46.347 ], [ 1.1285, 46.3636 ], [ 1.1408, 46.3646 ], [ 1.1512, 46.37 ], [ 1.147, 46.3759 ], [ 1.1589, 46.3904 ], [ 1.1762, 46.3848 ], [ 1.1822, 46.3761 ], [ 1.1915, 46.3768 ], [ 1.2097, 46.3898 ], [ 1.2161, 46.3826 ], [ 1.2116, 46.3789 ], [ 1.2164, 46.3674 ], [ 1.2382, 46.3662 ], [ 1.251, 46.377 ], [ 1.2604, 46.3788 ], [ 1.2796, 46.3765 ], [ 1.2837, 46.3723 ], [ 1.2918, 46.3748 ], [ 1.3031, 46.371 ], [ 1.3123, 46.3729 ], [ 1.308, 46.3799 ], [ 1.3111, 46.3835 ], [ 1.3205, 46.3816 ], [ 1.3228, 46.3855 ], [ 1.3139, 46.3954 ], [ 1.3443, 46.4015 ], [ 1.356, 46.4001 ], [ 1.3835, 46.3748 ], [ 1.3966, 46.3719 ], [ 1.3947, 46.3676 ], [ 1.409, 46.3613 ], [ 1.4152, 46.3472 ], [ 1.4097, 46.3419 ], [ 1.4214, 46.3399 ], [ 1.4301, 46.3336 ], [ 1.4427, 46.3355 ], [ 1.4467, 46.332 ], [ 1.4368, 46.3213 ], [ 1.44, 46.3189 ], [ 1.4366, 46.3122 ], [ 1.4448, 46.3053 ], [ 1.4397, 46.3002 ], [ 1.4266, 46.2989 ], [ 1.4212, 46.2842 ], [ 1.4142, 46.2805 ], [ 1.4197, 46.2773 ], [ 1.4314, 46.2781 ], [ 1.4349, 46.2719 ], [ 1.4257, 46.2664 ], [ 1.4147, 46.2714 ], [ 1.4037, 46.2599 ], [ 1.4065, 46.2528 ], [ 1.4156, 46.2549 ], [ 1.4141, 46.2495 ], [ 1.4205, 46.2488 ], [ 1.4181, 46.2411 ], [ 1.3966, 46.2404 ], [ 1.3944, 46.2329 ], [ 1.3818, 46.2268 ], [ 1.3797, 46.2194 ], [ 1.3726, 46.216 ], [ 1.3838, 46.2118 ], [ 1.3846, 46.1992 ], [ 1.3952, 46.1993 ], [ 1.3972, 46.1855 ], [ 1.4138, 46.182 ], [ 1.4166, 46.1762 ], [ 1.4328, 46.1803 ], [ 1.4372, 46.1741 ], [ 1.4526, 46.1812 ], [ 1.4618, 46.1778 ], [ 1.4565, 46.1734 ], [ 1.4658, 46.167 ], [ 1.4652, 46.1603 ], [ 1.4514, 46.1527 ], [ 1.4572, 46.1528 ], [ 1.4599, 46.149 ], [ 1.4681, 46.1517 ], [ 1.4727, 46.1496 ], [ 1.4848, 46.1348 ], [ 1.4975, 46.1428 ], [ 1.4931, 46.1343 ], [ 1.4958, 46.1305 ], [ 1.5033, 46.1315 ], [ 1.5072, 46.1222 ], [ 1.4989, 46.1163 ], [ 1.4914, 46.1196 ], [ 1.4843, 46.1046 ], [ 1.4985, 46.1065 ], [ 1.5049, 46.0881 ], [ 1.5137, 46.0898 ], [ 1.5125, 46.0936 ], [ 1.5261, 46.0889 ], [ 1.5297, 46.0906 ], [ 1.5244, 46.0866 ], [ 1.5266, 46.0784 ], [ 1.5387, 46.0798 ], [ 1.5434, 46.0769 ], [ 1.5319, 46.0574 ], [ 1.5366, 46.0451 ], [ 1.5485, 46.0348 ], [ 1.5364, 46.0263 ], [ 1.534, 46.0035 ], [ 1.5437, 45.9965 ], [ 1.5584, 46.0 ], [ 1.5677, 45.9971 ], [ 1.5765, 45.981 ], [ 1.5662, 45.9633 ], [ 1.555, 45.9646 ], [ 1.5278, 45.9503 ], [ 1.5208, 45.9524 ], [ 1.5154, 45.947 ], [ 1.522, 45.9428 ], [ 1.509, 45.9403 ], [ 1.5094, 45.9328 ], [ 1.5305, 45.9318 ], [ 1.5473, 45.9168 ], [ 1.5583, 45.9221 ], [ 1.5671, 45.9138 ], [ 1.5808, 45.9177 ], [ 1.5757, 45.9213 ], [ 1.5793, 45.9313 ], [ 1.5863, 45.9295 ], [ 1.6071, 45.9335 ], [ 1.6184, 45.9287 ], [ 1.6206, 45.9341 ], [ 1.6276, 45.9325 ], [ 1.6257, 45.9261 ], [ 1.6371, 45.926 ], [ 1.6246, 45.9194 ], [ 1.6252, 45.9132 ], [ 1.6341, 45.9079 ], [ 1.6279, 45.9033 ], [ 1.6389, 45.9041 ], [ 1.6412, 45.8919 ], [ 1.6318, 45.8894 ], [ 1.6264, 45.8922 ], [ 1.6257, 45.8998 ], [ 1.6197, 45.8994 ], [ 1.6207, 45.8829 ], [ 1.6188, 45.881 ], [ 1.6137, 45.8827 ], [ 1.6193, 45.8883 ], [ 1.6159, 45.8921 ], [ 1.5978, 45.8898 ], [ 1.591, 45.8831 ], [ 1.5978, 45.8792 ], [ 1.6003, 45.8823 ], [ 1.605, 45.8804 ], [ 1.6083, 45.8674 ], [ 1.6024, 45.8575 ], [ 1.6367, 45.8456 ], [ 1.6548, 45.8455 ], [ 1.6599, 45.8338 ], [ 1.6691, 45.8403 ], [ 1.6753, 45.8354 ], [ 1.68, 45.8363 ], [ 1.6922, 45.8447 ], [ 1.7149, 45.8401 ], [ 1.7309, 45.8419 ], [ 1.7408, 45.8521 ], [ 1.7558, 45.8557 ], [ 1.7576, 45.8677 ], [ 1.7708, 45.8684 ], [ 1.7815, 45.853 ], [ 1.773, 45.8455 ], [ 1.7765, 45.8328 ], [ 1.7877, 45.828 ], [ 1.7975, 45.8315 ], [ 1.7973, 45.8259 ], [ 1.8284, 45.8098 ], [ 1.8296, 45.8211 ], [ 1.8365, 45.8254 ], [ 1.8465, 45.8099 ], [ 1.8541, 45.8128 ], [ 1.8565, 45.8051 ], [ 1.8638, 45.8064 ], [ 1.8869, 45.7916 ], [ 1.8919, 45.7686 ], [ 1.9024, 45.7674 ], [ 1.896, 45.7594 ], [ 1.8794, 45.7596 ], [ 1.8743, 45.7558 ], [ 1.8864, 45.7452 ], [ 1.8733, 45.7253 ], [ 1.8879, 45.7263 ], [ 1.8925, 45.7183 ], [ 1.8797, 45.7124 ], [ 1.8978, 45.7008 ], [ 1.9018, 45.6918 ], [ 1.9092, 45.6922 ], [ 1.9112, 45.6806 ], [ 1.9037, 45.6778 ], [ 1.8818, 45.6819 ], [ 1.8817, 45.6736 ], [ 1.8771, 45.671 ], [ 1.882, 45.6675 ], [ 1.8692, 45.6642 ], [ 1.8546, 45.6723 ], [ 1.8478, 45.6618 ], [ 1.8262, 45.6652 ], [ 1.8154, 45.6811 ], [ 1.7981, 45.6732 ], [ 1.7965, 45.6806 ], [ 1.7858, 45.6827 ], [ 1.7764, 45.6585 ], [ 1.754, 45.6554 ], [ 1.7509, 45.6447 ], [ 1.7439, 45.6467 ], [ 1.7274, 45.6381 ], [ 1.7089, 45.6418 ], [ 1.6602, 45.608 ], [ 1.6579, 45.5936 ], [ 1.6463, 45.5902 ], [ 1.6434, 45.5839 ], [ 1.6372, 45.5844 ], [ 1.6377, 45.5803 ], [ 1.6285, 45.5829 ], [ 1.6262, 45.577 ], [ 1.6181, 45.5766 ], [ 1.6116, 45.58 ], [ 1.6032, 45.5776 ], [ 1.6, 45.5815 ], [ 1.5826, 45.555 ], [ 1.57, 45.5556 ], [ 1.555, 45.5495 ], [ 1.551, 45.5568 ], [ 1.5468, 45.5545 ], [ 1.533, 45.5569 ], [ 1.5321, 45.562 ], [ 1.5186, 45.5643 ], [ 1.5179, 45.5555 ], [ 1.5081, 45.5507 ], [ 1.4933, 45.5497 ], [ 1.4922, 45.5609 ], [ 1.4804, 45.5659 ], [ 1.4755, 45.5533 ], [ 1.4519, 45.5532 ], [ 1.4542, 45.5381 ], [ 1.4395, 45.5204 ], [ 1.4332, 45.5213 ], [ 1.4257, 45.5309 ], [ 1.4083, 45.5273 ], [ 1.3904, 45.5056 ], [ 1.3896, 45.4962 ], [ 1.3718, 45.4924 ], [ 1.3501, 45.4669 ], [ 1.2853, 45.4903 ], [ 1.2861, 45.4803 ], [ 1.2704, 45.4776 ], [ 1.2627, 45.468 ], [ 1.2642, 45.4518 ], [ 1.2568, 45.4523 ], [ 1.2433, 45.4364 ], [ 1.234, 45.4399 ], [ 1.2359, 45.455 ], [ 1.2288, 45.4582 ], [ 1.2098, 45.4632 ], [ 1.1866, 45.4553 ], [ 1.1776, 45.4571 ], [ 1.1761, 45.4715 ], [ 1.171, 45.471 ], [ 1.1619, 45.4786 ], [ 1.1349, 45.4696 ], [ 1.1241, 45.4789 ], [ 1.1203, 45.4748 ], [ 1.1184, 45.4879 ], [ 1.1282, 45.4937 ], [ 1.1342, 45.5053 ], [ 1.1673, 45.5248 ], [ 1.1372, 45.5406 ], [ 1.1292, 45.5409 ], [ 1.1296, 45.5439 ], [ 1.1201, 45.544 ], [ 1.1196, 45.5475 ], [ 1.1062, 45.5444 ], [ 1.104, 45.5368 ], [ 1.0867, 45.5373 ], [ 1.0826, 45.5321 ], [ 1.0755, 45.5452 ], [ 1.0629, 45.5539 ], [ 1.0454, 45.5573 ], [ 1.047, 45.5626 ], [ 1.0378, 45.5687 ], [ 1.0324, 45.5796 ], [ 1.0421, 45.586 ], [ 1.0338, 45.592 ], [ 1.0359, 45.6002 ], [ 1.0272, 45.6016 ], [ 1.0205, 45.6109 ], [ 1.0048, 45.6106 ], [ 0.9972, 45.6153 ], [ 0.9816, 45.6033 ], [ 0.9694, 45.6108 ], [ 0.9603, 45.6076 ], [ 0.9499, 45.6104 ], [ 0.9468, 45.615 ], [ 0.9413, 45.6093 ], [ 0.9337, 45.612 ], [ 0.9156, 45.6041 ], [ 0.9067, 45.6089 ], [ 0.8979, 45.5998 ], [ 0.8826, 45.608 ], [ 0.8767, 45.621 ], [ 0.8694, 45.6235 ], [ 0.8426, 45.5823 ], [ 0.8115, 45.5759 ], [ 0.806, 45.5954 ], [ 0.778, 45.5913 ], [ 0.7523, 45.6167 ], [ 0.7635, 45.6285 ], [ 0.7641, 45.6421 ], [ 0.7728, 45.6501 ], [ 0.7764, 45.6672 ], [ 0.7639, 45.6681 ], [ 0.7422, 45.6906 ], [ 0.7337, 45.6897 ], [ 0.7252, 45.6956 ], [ 0.711, 45.6939 ], [ 0.7031, 45.6872 ], [ 0.6943, 45.6922 ], [ 0.6858, 45.6874 ], [ 0.6788, 45.6891 ], [ 0.6696, 45.6858 ], [ 0.6554, 45.6886 ], [ 0.6524, 45.6989 ], [ 0.6402, 45.6979 ], [ 0.6297, 45.7146 ], [ 0.633, 45.7212 ], [ 0.645, 45.7162 ], [ 0.6525, 45.7405 ], [ 0.6649, 45.7392 ], [ 0.6662, 45.7482 ], [ 0.6729, 45.7523 ], [ 0.6832, 45.7537 ], [ 0.6906, 45.7612 ], [ 0.7149, 45.7631 ], [ 0.7152, 45.7719 ], [ 0.7058, 45.7777 ], [ 0.7112, 45.7831 ], [ 0.7078, 45.795 ], [ 0.7122, 45.8042 ], [ 0.7352, 45.802 ], [ 0.7413, 45.8057 ], [ 0.7495, 45.7961 ], [ 0.7627, 45.7988 ], [ 0.7684, 45.7891 ], [ 0.7769, 45.788 ], [ 0.7839, 45.7917 ], [ 0.7769, 45.801 ], [ 0.7768, 45.8053 ], [ 0.7858, 45.8075 ], [ 0.7802, 45.816 ], [ 0.7822, 45.8211 ], [ 0.7961, 45.8291 ], [ 0.8168, 45.858 ], [ 0.8208, 45.8672 ], [ 0.8075, 45.87 ], [ 0.8274, 45.8828 ], [ 0.8126, 45.897 ], [ 0.8173, 45.9019 ], [ 0.8158, 45.918 ], [ 0.8091, 45.9215 ], [ 0.8121, 45.9313 ], [ 0.8222, 45.9321 ], [ 0.8365, 45.9227 ], [ 0.8521, 45.9244 ], [ 0.8596, 45.9179 ], [ 0.8688, 45.9229 ], [ 0.8769, 45.9213 ], [ 0.9023, 45.9329 ], [ 0.9051, 45.9387 ], [ 0.921, 45.9379 ], [ 0.9208, 45.9452 ], [ 0.9276, 45.9479 ], [ 0.9218, 45.9494 ], [ 0.9224, 45.9539 ], [ 0.9299, 45.9526 ], [ 0.9426, 45.9574 ], [ 0.9405, 45.9655 ], [ 0.9464, 45.9741 ], [ 0.9399, 45.973 ], [ 0.9319, 45.9781 ], [ 0.9373, 45.9815 ], [ 0.931, 45.9843 ], [ 0.9338, 45.9932 ], [ 0.9176, 45.9975 ], [ 0.9253, 46.0113 ], [ 0.9175, 46.0094 ], [ 0.9193, 46.0131 ], [ 0.8988, 46.0197 ], [ 0.894, 46.0227 ], [ 0.8957, 46.027 ], [ 0.8855, 46.0319 ], [ 0.8637, 46.016 ], [ 0.8581, 46.0184 ], [ 0.8592, 46.0263 ], [ 0.8525, 46.0338 ], [ 0.8156, 46.0493 ], [ 0.8157, 46.0586 ], [ 0.8272, 46.0648 ], [ 0.8186, 46.0772 ], [ 0.8345, 46.0963 ], [ 0.8339, 46.1057 ], [ 0.8244, 46.1159 ], [ 0.818, 46.1128 ], [ 0.8185, 46.1172 ], [ 0.8145, 46.1151 ], [ 0.8085, 46.1206 ], [ 0.8141, 46.1272 ] ] ] } }
]
}
