{
"type": "FeatureCollection",
"name": "dep88",
"crs": { "type": "name", "properties": { "name": "urn:ogc:def:crs:OGC:1.3:CRS84" } },
"xy_coordinate_resolution": 0.0001,
"features": [
{ "type": "Feature", "properties": { "code": "88", "nom": "Vosges" }, "geometry": { "type": "Polygon", "coordinates": [ [ [ 5.4701, 48.4209 ], [ 5.4862, 48.4146 ], [ 5.4967, 48.4153 ], [ 5.5019, 48.4095 ], [ 5.512, 48.4101 ], [ 5.5095, 48.4165 ], [ 5.5162, 48.4309 ], [ 5.5428, 48.4342 ], [ 5.5608, 48.4415 ], [ 5.5682, 48.4396 ], [ 5.5678, 48.4329 ], [ 5.5767, 48.432 ], [ 5.5803, 48.4388 ], [ 5.5939, 48.4428 ], [ 5.6151, 48.4405 ], [ 5.6221, 48.4264 ], [ 5.6183, 48.4424 ], [ 5.6305, 48.4513 ], [ 5.6483, 48.4545 ], [ 5.6532, 48.4588 ], [ 5.6377, 48.4694 ], [ 5.6422, 48.4724 ], [ 5.6549, 48.4685 ], [ 5.6557, 48.4722 ], [ 5.6806, 48.4711 ], [ 5.6951, 48.4635 ], [ 5.7192, 48.4601 ], [ 5.7386, 48.4661 ], [ 5.7553, 48.4917 ], [ 5.7651, 48.4965 ], [ 5.787, 48.4829 ], [ 5.8108, 48.4983 ], [ 5.823, 48.4961 ], [ 5.8416, 48.5061 ], [ 5.8624, 48.5066 ], [ 5.8703, 48.4996 ], [ 5.8882, 48.494 ], [ 5.9058, 48.4946 ], [ 5.8988, 48.4854 ], [ 5.9036, 48.4802 ], [ 5.8856, 48.4692 ], [ 5.8924, 48.4644 ], [ 5.8869, 48.4539 ], [ 5.899, 48.4467 ], [ 5.885, 48.4393 ], [ 5.8554, 48.4094 ], [ 5.8707, 48.406 ], [ 5.8736, 48.4012 ], [ 5.8786, 48.405 ], [ 5.8952, 48.4053 ], [ 5.9091, 48.4292 ], [ 5.898, 48.4359 ], [ 5.9236, 48.4363 ], [ 5.9313, 48.434 ], [ 5.9249, 48.4218 ], [ 5.9153, 48.4278 ], [ 5.9075, 48.4192 ], [ 5.9119, 48.4057 ], [ 5.9049, 48.4004 ], [ 5.9187, 48.4052 ], [ 5.9277, 48.3937 ], [ 5.9349, 48.3958 ], [ 5.9338, 48.4034 ], [ 5.9507, 48.3954 ], [ 5.9549, 48.3873 ], [ 5.9446, 48.3758 ], [ 5.9538, 48.3738 ], [ 5.9492, 48.369 ], [ 5.9565, 48.3673 ], [ 5.9535, 48.3579 ], [ 5.9592, 48.3504 ], [ 5.9718, 48.3528 ], [ 5.9804, 48.349 ], [ 6.0015, 48.3605 ], [ 6.0055, 48.3582 ], [ 6.0036, 48.3629 ], [ 6.0205, 48.3614 ], [ 6.0246, 48.3569 ], [ 6.0392, 48.3631 ], [ 6.043, 48.3604 ], [ 6.051, 48.3661 ], [ 6.0599, 48.3605 ], [ 6.0715, 48.3598 ], [ 6.08, 48.3672 ], [ 6.0776, 48.3748 ], [ 6.0691, 48.3753 ], [ 6.0861, 48.3828 ], [ 6.0904, 48.3826 ], [ 6.0989, 48.369 ], [ 6.0929, 48.3612 ], [ 6.0978, 48.3617 ], [ 6.103, 48.3547 ], [ 6.117, 48.3538 ], [ 6.1251, 48.3673 ], [ 6.1316, 48.3629 ], [ 6.1361, 48.3651 ], [ 6.1523, 48.381 ], [ 6.1535, 48.3873 ], [ 6.1473, 48.3946 ], [ 6.1513, 48.3965 ], [ 6.1471, 48.4042 ], [ 6.1501, 48.4095 ], [ 6.1736, 48.4055 ], [ 6.182, 48.412 ], [ 6.1847, 48.4083 ], [ 6.1784, 48.3976 ], [ 6.191, 48.3954 ], [ 6.2175, 48.4016 ], [ 6.2321, 48.4002 ], [ 6.2333, 48.3971 ], [ 6.2444, 48.4053 ], [ 6.2604, 48.4064 ], [ 6.2703, 48.4261 ], [ 6.2807, 48.4234 ], [ 6.2828, 48.43 ], [ 6.2916, 48.4281 ], [ 6.298, 48.4345 ], [ 6.3077, 48.4117 ], [ 6.3313, 48.4048 ], [ 6.354, 48.4039 ], [ 6.3812, 48.415 ], [ 6.3834, 48.4066 ], [ 6.3929, 48.4088 ], [ 6.3843, 48.3947 ], [ 6.3888, 48.3909 ], [ 6.4, 48.3962 ], [ 6.4041, 48.3906 ], [ 6.4117, 48.3924 ], [ 6.4224, 48.4073 ], [ 6.4355, 48.4128 ], [ 6.4573, 48.4175 ], [ 6.471, 48.4092 ], [ 6.4914, 48.4173 ], [ 6.5008, 48.4142 ], [ 6.5337, 48.4314 ], [ 6.5671, 48.4208 ], [ 6.5754, 48.4143 ], [ 6.5839, 48.4172 ], [ 6.5739, 48.4332 ], [ 6.5675, 48.4332 ], [ 6.5672, 48.4409 ], [ 6.5742, 48.4427 ], [ 6.585, 48.4605 ], [ 6.6237, 48.4731 ], [ 6.6354, 48.4705 ], [ 6.6388, 48.4639 ], [ 6.636, 48.4489 ], [ 6.6483, 48.4339 ], [ 6.6451, 48.4274 ], [ 6.6694, 48.4261 ], [ 6.6995, 48.4131 ], [ 6.7141, 48.4229 ], [ 6.7221, 48.4162 ], [ 6.7363, 48.4169 ], [ 6.7393, 48.4118 ], [ 6.7648, 48.4119 ], [ 6.761, 48.4062 ], [ 6.767, 48.3991 ], [ 6.789, 48.4025 ], [ 6.7824, 48.3918 ], [ 6.794, 48.4034 ], [ 6.8067, 48.4002 ], [ 6.8103, 48.3957 ], [ 6.8228, 48.4049 ], [ 6.8283, 48.4166 ], [ 6.8494, 48.424 ], [ 6.855, 48.4329 ], [ 6.8646, 48.4367 ], [ 6.871, 48.4201 ], [ 6.8784, 48.4199 ], [ 6.8779, 48.4169 ], [ 6.8915, 48.4178 ], [ 6.9798, 48.4785 ], [ 7.0064, 48.481 ], [ 7.0236, 48.4909 ], [ 7.0652, 48.4991 ], [ 7.094, 48.5129 ], [ 7.1232, 48.5136 ], [ 7.1277, 48.5095 ], [ 7.1208, 48.5051 ], [ 7.1325, 48.5022 ], [ 7.1302, 48.4996 ], [ 7.1358, 48.4976 ], [ 7.1032, 48.4998 ], [ 7.0952, 48.5056 ], [ 7.0906, 48.5037 ], [ 7.0937, 48.4893 ], [ 7.1169, 48.4849 ], [ 7.1187, 48.4745 ], [ 7.1019, 48.4514 ], [ 7.1099, 48.4397 ], [ 7.0996, 48.4342 ], [ 7.0957, 48.4265 ], [ 7.0974, 48.418 ], [ 7.0923, 48.4102 ], [ 7.0974, 48.4056 ], [ 7.085, 48.3979 ], [ 7.1041, 48.3883 ], [ 7.1093, 48.3787 ], [ 7.076, 48.3526 ], [ 7.1077, 48.3443 ], [ 7.1128, 48.3359 ], [ 7.1205, 48.3334 ], [ 7.1535, 48.3334 ], [ 7.1695, 48.3423 ], [ 7.1837, 48.3394 ], [ 7.1772, 48.3253 ], [ 7.1918, 48.3248 ], [ 7.1898, 48.3188 ], [ 7.1983, 48.3105 ], [ 7.1936, 48.302 ], [ 7.1724, 48.2975 ], [ 7.1767, 48.289 ], [ 7.1635, 48.2806 ], [ 7.1595, 48.2687 ], [ 7.1477, 48.2644 ], [ 7.133, 48.2475 ], [ 7.134, 48.2377 ], [ 7.1232, 48.2165 ], [ 7.1154, 48.2121 ], [ 7.1177, 48.2082 ], [ 7.1056, 48.2005 ], [ 7.1084, 48.1976 ], [ 7.0998, 48.1891 ], [ 7.0858, 48.1841 ], [ 7.0832, 48.1725 ], [ 7.0776, 48.1709 ], [ 7.079, 48.1639 ], [ 7.0605, 48.1446 ], [ 7.058, 48.1377 ], [ 7.0698, 48.1295 ], [ 7.0842, 48.1292 ], [ 7.0767, 48.1085 ], [ 7.0713, 48.1076 ], [ 7.0516, 48.0826 ], [ 7.0298, 48.0719 ], [ 7.0299, 48.0661 ], [ 7.0229, 48.0636 ], [ 7.0234, 48.0563 ], [ 7.0098, 48.0429 ], [ 7.0156, 48.038 ], [ 7.0091, 48.0328 ], [ 7.0122, 48.0317 ], [ 7.0013, 48.0218 ], [ 6.9902, 48.0194 ], [ 6.9826, 48.0098 ], [ 6.9608, 48.0002 ], [ 6.9529, 48.0029 ], [ 6.9438, 47.9995 ], [ 6.9437, 47.9809 ], [ 6.9307, 47.9719 ], [ 6.9194, 47.9443 ], [ 6.9257, 47.9298 ], [ 6.9132, 47.9194 ], [ 6.9259, 47.9173 ], [ 6.9288, 47.9099 ], [ 6.917, 47.9021 ], [ 6.9185, 47.8984 ], [ 6.8969, 47.8908 ], [ 6.8978, 47.8843 ], [ 6.9097, 47.8816 ], [ 6.9047, 47.8796 ], [ 6.9065, 47.8651 ], [ 6.9181, 47.8573 ], [ 6.92, 47.8503 ], [ 6.9029, 47.843 ], [ 6.8961, 47.833 ], [ 6.8676, 47.8295 ], [ 6.8574, 47.8232 ], [ 6.8393, 47.8248 ], [ 6.8235, 47.8131 ], [ 6.7927, 47.8295 ], [ 6.7884, 47.8345 ], [ 6.7922, 47.8422 ], [ 6.7826, 47.8513 ], [ 6.7378, 47.8617 ], [ 6.7028, 47.8817 ], [ 6.6464, 47.9032 ], [ 6.6393, 47.9103 ], [ 6.6419, 47.9178 ], [ 6.6041, 47.9448 ], [ 6.5634, 47.9314 ], [ 6.5522, 47.9116 ], [ 6.544, 47.9084 ], [ 6.544, 47.9031 ], [ 6.5032, 47.8962 ], [ 6.4783, 47.8854 ], [ 6.4741, 47.891 ], [ 6.478, 47.893 ], [ 6.4655, 47.8971 ], [ 6.456, 47.9068 ], [ 6.4627, 47.9173 ], [ 6.4492, 47.9217 ], [ 6.4347, 47.9428 ], [ 6.4084, 47.9432 ], [ 6.4054, 47.9531 ], [ 6.3945, 47.955 ], [ 6.3889, 47.9608 ], [ 6.3806, 47.9585 ], [ 6.3616, 47.9613 ], [ 6.3453, 47.9545 ], [ 6.3353, 47.9558 ], [ 6.3233, 47.9488 ], [ 6.2891, 47.9558 ], [ 6.2773, 47.9538 ], [ 6.2508, 47.9391 ], [ 6.2432, 47.9396 ], [ 6.238, 47.9328 ], [ 6.2192, 47.9358 ], [ 6.2144, 47.9304 ], [ 6.2052, 47.9321 ], [ 6.2081, 47.9468 ], [ 6.1971, 47.9474 ], [ 6.1974, 47.9518 ], [ 6.182, 47.9563 ], [ 6.168, 47.9524 ], [ 6.1571, 47.9679 ], [ 6.1556, 47.9651 ], [ 6.1498, 47.9659 ], [ 6.1509, 47.9706 ], [ 6.1646, 47.9731 ], [ 6.1576, 47.9845 ], [ 6.1596, 47.9923 ], [ 6.1526, 47.9941 ], [ 6.1561, 48.0069 ], [ 6.1314, 48.0241 ], [ 6.1174, 48.0199 ], [ 6.1092, 48.0125 ], [ 6.0977, 48.015 ], [ 6.0808, 48.0128 ], [ 6.0728, 48.0158 ], [ 6.0412, 48.0044 ], [ 6.0325, 47.9986 ], [ 6.0322, 47.9906 ], [ 6.0249, 47.9916 ], [ 6.0247, 47.9871 ], [ 6.019, 47.9875 ], [ 6.0182, 47.9842 ], [ 6.0261, 47.9815 ], [ 6.019, 47.9697 ], [ 6.0121, 47.9718 ], [ 6.0053, 47.9578 ], [ 5.9708, 47.9572 ], [ 5.9689, 47.9474 ], [ 5.9494, 47.9354 ], [ 5.9284, 47.9378 ], [ 5.9379, 47.9516 ], [ 5.9595, 47.9658 ], [ 5.9588, 47.9705 ], [ 5.9496, 47.9729 ], [ 5.9442, 47.98 ], [ 5.9225, 47.972 ], [ 5.9174, 47.9662 ], [ 5.918, 47.9474 ], [ 5.9001, 47.9447 ], [ 5.8929, 47.9371 ], [ 5.8972, 47.931 ], [ 5.8847, 47.9261 ], [ 5.8686, 47.945 ], [ 5.8575, 47.9451 ], [ 5.8496, 47.9606 ], [ 5.8536, 47.9699 ], [ 5.8466, 47.9695 ], [ 5.8458, 47.9757 ], [ 5.8316, 47.9578 ], [ 5.8177, 47.958 ], [ 5.8053, 47.947 ], [ 5.7873, 47.9526 ], [ 5.7785, 47.978 ], [ 5.7932, 47.9871 ], [ 5.7947, 47.998 ], [ 5.7868, 48.0023 ], [ 5.7856, 48.0129 ], [ 5.7764, 48.0224 ], [ 5.777, 48.0335 ], [ 5.7645, 48.0299 ], [ 5.7644, 48.0348 ], [ 5.74, 48.0501 ], [ 5.7205, 48.0442 ], [ 5.7213, 48.0527 ], [ 5.7089, 48.0654 ], [ 5.6988, 48.0668 ], [ 5.6968, 48.0772 ], [ 5.6884, 48.0754 ], [ 5.6751, 48.0819 ], [ 5.6733, 48.0788 ], [ 5.6575, 48.0862 ], [ 5.6528, 48.0804 ], [ 5.6613, 48.072 ], [ 5.6559, 48.0691 ], [ 5.6466, 48.0727 ], [ 5.6442, 48.0795 ], [ 5.629, 48.0844 ], [ 5.6339, 48.0902 ], [ 5.6388, 48.0888 ], [ 5.6374, 48.0976 ], [ 5.6494, 48.105 ], [ 5.6721, 48.1094 ], [ 5.6574, 48.1217 ], [ 5.6771, 48.1367 ], [ 5.6769, 48.1451 ], [ 5.6851, 48.1467 ], [ 5.6854, 48.1506 ], [ 5.6813, 48.1508 ], [ 5.6868, 48.1665 ], [ 5.6796, 48.1793 ], [ 5.6872, 48.1803 ], [ 5.7018, 48.1904 ], [ 5.731, 48.1897 ], [ 5.7301, 48.1983 ], [ 5.7182, 48.2145 ], [ 5.6878, 48.2342 ], [ 5.6774, 48.229 ], [ 5.6415, 48.2418 ], [ 5.6538, 48.2685 ], [ 5.6433, 48.275 ], [ 5.6116, 48.2918 ], [ 5.5889, 48.2756 ], [ 5.5373, 48.3183 ], [ 5.5246, 48.3335 ], [ 5.5265, 48.3469 ], [ 5.5063, 48.3504 ], [ 5.4978, 48.3555 ], [ 5.481, 48.3564 ], [ 5.4691, 48.349 ], [ 5.4618, 48.3521 ], [ 5.4454, 48.3375 ], [ 5.4268, 48.3312 ], [ 5.417, 48.3427 ], [ 5.4227, 48.3516 ], [ 5.4185, 48.3607 ], [ 5.4429, 48.3794 ], [ 5.4074, 48.3827 ], [ 5.3939, 48.3916 ], [ 5.4196, 48.395 ], [ 5.4466, 48.4153 ], [ 5.4701, 48.4209 ] ] ] } }
]
}
