{
"type": "FeatureCollection",
"name": "dep81",
"crs": { "type": "name", "properties": { "name": "urn:ogc:def:crs:OGC:1.3:CRS84" } },
"xy_coordinate_resolution": 0.0001,
"features": [
{ "type": "Feature", "properties": { "code": "81", "nom": "Tarn" }, "geometry": { "type": "Polygon", "coordinates": [ [ [ 1.9847, 44.1491 ], [ 2.0297, 44.157 ], [ 2.0298, 44.1688 ], [ 2.0594, 44.1723 ], [ 2.0521, 44.1887 ], [ 2.0689, 44.1897 ], [ 2.0694, 44.1843 ], [ 2.0809, 44.18 ], [ 2.0943, 44.1889 ], [ 2.097, 44.1748 ], [ 2.107, 44.1812 ], [ 2.103, 44.1924 ], [ 2.1061, 44.1944 ], [ 2.1281, 44.1957 ], [ 2.1337, 44.201 ], [ 2.1421, 44.2013 ], [ 2.1492, 44.2005 ], [ 2.1531, 44.1973 ], [ 2.1507, 44.1913 ], [ 2.1622, 44.1872 ], [ 2.1547, 44.1836 ], [ 2.1553, 44.1803 ], [ 2.1806, 44.1789 ], [ 2.1803, 44.1713 ], [ 2.1918, 44.162 ], [ 2.2059, 44.1711 ], [ 2.225, 44.1682 ], [ 2.2299, 44.1619 ], [ 2.2355, 44.1638 ], [ 2.2376, 44.1586 ], [ 2.2324, 44.1546 ], [ 2.2136, 44.1519 ], [ 2.2129, 44.1459 ], [ 2.1982, 44.1435 ], [ 2.1931, 44.1493 ], [ 2.1815, 44.1386 ], [ 2.2242, 44.1389 ], [ 2.2376, 44.134 ], [ 2.2711, 44.148 ], [ 2.2849, 44.1453 ], [ 2.2978, 44.138 ], [ 2.2883, 44.1222 ], [ 2.3035, 44.122 ], [ 2.3084, 44.1177 ], [ 2.3179, 44.1235 ], [ 2.3324, 44.123 ], [ 2.3405, 44.1102 ], [ 2.366, 44.098 ], [ 2.3892, 44.0946 ], [ 2.3894, 44.0907 ], [ 2.4023, 44.0825 ], [ 2.4019, 44.0757 ], [ 2.4121, 44.0697 ], [ 2.4102, 44.0558 ], [ 2.4601, 44.0513 ], [ 2.464, 44.0333 ], [ 2.4783, 44.0293 ], [ 2.4916, 44.0188 ], [ 2.4964, 44.0079 ], [ 2.4918, 44.0035 ], [ 2.5021, 43.9855 ], [ 2.5211, 43.9824 ], [ 2.525, 43.977 ], [ 2.5186, 43.9584 ], [ 2.5027, 43.9541 ], [ 2.4991, 43.9451 ], [ 2.508, 43.9478 ], [ 2.5093, 43.9421 ], [ 2.5138, 43.9435 ], [ 2.5331, 43.9366 ], [ 2.5383, 43.9328 ], [ 2.5378, 43.9249 ], [ 2.5461, 43.9294 ], [ 2.5445, 43.9246 ], [ 2.5538, 43.9251 ], [ 2.5502, 43.9232 ], [ 2.5564, 43.9183 ], [ 2.5504, 43.8925 ], [ 2.5802, 43.8788 ], [ 2.5784, 43.873 ], [ 2.5638, 43.8658 ], [ 2.5617, 43.8445 ], [ 2.5768, 43.8358 ], [ 2.5883, 43.8193 ], [ 2.5997, 43.8171 ], [ 2.6008, 43.8111 ], [ 2.6084, 43.809 ], [ 2.6119, 43.8029 ], [ 2.6103, 43.7986 ], [ 2.6649, 43.7528 ], [ 2.6817, 43.7435 ], [ 2.7179, 43.7411 ], [ 2.7428, 43.729 ], [ 2.7473, 43.7323 ], [ 2.7812, 43.737 ], [ 2.7876, 43.752 ], [ 2.8223, 43.7623 ], [ 2.8316, 43.7522 ], [ 2.8619, 43.7483 ], [ 2.87, 43.7389 ], [ 2.9026, 43.7423 ], [ 2.9216, 43.7354 ], [ 2.918, 43.7313 ], [ 2.9238, 43.7254 ], [ 2.925, 43.7062 ], [ 2.9375, 43.6968 ], [ 2.9191, 43.6876 ], [ 2.9197, 43.6623 ], [ 2.9073, 43.6542 ], [ 2.8791, 43.6573 ], [ 2.8737, 43.6451 ], [ 2.8467, 43.6458 ], [ 2.8284, 43.6374 ], [ 2.8138, 43.6411 ], [ 2.8133, 43.6358 ], [ 2.8076, 43.636 ], [ 2.7949, 43.6244 ], [ 2.7833, 43.6264 ], [ 2.7545, 43.6141 ], [ 2.744, 43.6198 ], [ 2.7383, 43.6316 ], [ 2.7254, 43.6373 ], [ 2.7202, 43.6454 ], [ 2.7113, 43.6441 ], [ 2.6847, 43.6538 ], [ 2.6705, 43.6493 ], [ 2.6523, 43.649 ], [ 2.6519, 43.6581 ], [ 2.6462, 43.6603 ], [ 2.635, 43.6252 ], [ 2.6255, 43.6183 ], [ 2.6286, 43.6101 ], [ 2.6146, 43.5999 ], [ 2.6215, 43.5924 ], [ 2.6272, 43.5933 ], [ 2.6318, 43.5841 ], [ 2.6156, 43.5665 ], [ 2.6546, 43.5272 ], [ 2.6668, 43.5233 ], [ 2.676, 43.5135 ], [ 2.6588, 43.5169 ], [ 2.6605, 43.5034 ], [ 2.6553, 43.4917 ], [ 2.6581, 43.479 ], [ 2.668, 43.47 ], [ 2.6655, 43.462 ], [ 2.6479, 43.4695 ], [ 2.6381, 43.4668 ], [ 2.6462, 43.4591 ], [ 2.6178, 43.4377 ], [ 2.6041, 43.44 ], [ 2.6061, 43.4311 ], [ 2.5968, 43.4328 ], [ 2.5957, 43.4292 ], [ 2.5874, 43.4285 ], [ 2.5807, 43.4232 ], [ 2.5676, 43.4236 ], [ 2.5608, 43.4202 ], [ 2.5519, 43.4249 ], [ 2.5192, 43.4236 ], [ 2.5118, 43.4298 ], [ 2.5021, 43.429 ], [ 2.4968, 43.4369 ], [ 2.4896, 43.4379 ], [ 2.4522, 43.4319 ], [ 2.4287, 43.4357 ], [ 2.4177, 43.4276 ], [ 2.4033, 43.4247 ], [ 2.4069, 43.4193 ], [ 2.3968, 43.4166 ], [ 2.3631, 43.4245 ], [ 2.3349, 43.4372 ], [ 2.3114, 43.4415 ], [ 2.3055, 43.4477 ], [ 2.282, 43.4412 ], [ 2.2583, 43.4601 ], [ 2.2564, 43.4525 ], [ 2.2447, 43.4479 ], [ 2.2305, 43.4327 ], [ 2.2235, 43.4319 ], [ 2.2232, 43.4162 ], [ 2.2299, 43.4055 ], [ 2.214, 43.3831 ], [ 2.1859, 43.3953 ], [ 2.1701, 43.4168 ], [ 2.1574, 43.4164 ], [ 2.1408, 43.4042 ], [ 2.1276, 43.3992 ], [ 2.1141, 43.3988 ], [ 2.1093, 43.3946 ], [ 2.0953, 43.3963 ], [ 2.0919, 43.3939 ], [ 2.0867, 43.3988 ], [ 2.0746, 43.3947 ], [ 2.0663, 43.4052 ], [ 2.0718, 43.4064 ], [ 2.0611, 43.4151 ], [ 2.0531, 43.4303 ], [ 2.0291, 43.4369 ], [ 2.0224, 43.4471 ], [ 2.0146, 43.4464 ], [ 2.0135, 43.4504 ], [ 2.0202, 43.4573 ], [ 2.0181, 43.4704 ], [ 2.022, 43.4745 ], [ 2.0389, 43.4767 ], [ 2.0483, 43.4857 ], [ 2.0426, 43.4919 ], [ 2.0481, 43.4983 ], [ 2.0436, 43.5112 ], [ 2.0407, 43.513 ], [ 2.038, 43.4994 ], [ 2.0316, 43.4995 ], [ 2.0296, 43.5059 ], [ 2.0155, 43.5095 ], [ 2.0161, 43.4876 ], [ 2.0087, 43.48 ], [ 1.9955, 43.4828 ], [ 1.99, 43.4775 ], [ 1.9683, 43.4906 ], [ 1.9561, 43.4941 ], [ 1.9525, 43.4904 ], [ 1.9206, 43.5051 ], [ 1.9172, 43.5015 ], [ 1.8831, 43.5183 ], [ 1.8796, 43.5303 ], [ 1.8714, 43.5343 ], [ 1.8804, 43.5403 ], [ 1.8507, 43.5493 ], [ 1.8495, 43.5675 ], [ 1.8401, 43.5777 ], [ 1.8129, 43.5826 ], [ 1.8096, 43.578 ], [ 1.7982, 43.5845 ], [ 1.7906, 43.5832 ], [ 1.779, 43.5869 ], [ 1.7721, 43.5928 ], [ 1.7731, 43.5992 ], [ 1.7665, 43.6028 ], [ 1.7453, 43.6027 ], [ 1.7273, 43.61 ], [ 1.7209, 43.6178 ], [ 1.7077, 43.6228 ], [ 1.7045, 43.618 ], [ 1.6911, 43.6246 ], [ 1.6922, 43.6418 ], [ 1.6999, 43.6494 ], [ 1.7306, 43.6575 ], [ 1.7289, 43.6685 ], [ 1.7203, 43.6745 ], [ 1.7207, 43.6883 ], [ 1.6636, 43.6941 ], [ 1.6658, 43.7021 ], [ 1.661, 43.7056 ], [ 1.6818, 43.7008 ], [ 1.6846, 43.7077 ], [ 1.6943, 43.7096 ], [ 1.6935, 43.7124 ], [ 1.7017, 43.7092 ], [ 1.7065, 43.7162 ], [ 1.6989, 43.7264 ], [ 1.6897, 43.7283 ], [ 1.681, 43.7366 ], [ 1.673, 43.7357 ], [ 1.6607, 43.7418 ], [ 1.6499, 43.7519 ], [ 1.6558, 43.7683 ], [ 1.6517, 43.7755 ], [ 1.6408, 43.7789 ], [ 1.6421, 43.7874 ], [ 1.6501, 43.7945 ], [ 1.6448, 43.8003 ], [ 1.6336, 43.8021 ], [ 1.6303, 43.7994 ], [ 1.5902, 43.8145 ], [ 1.5877, 43.821 ], [ 1.593, 43.8264 ], [ 1.5871, 43.8329 ], [ 1.5923, 43.8357 ], [ 1.5926, 43.8426 ], [ 1.5726, 43.8488 ], [ 1.5551, 43.8685 ], [ 1.564, 43.8719 ], [ 1.556, 43.8752 ], [ 1.556, 43.8782 ], [ 1.5622, 43.8791 ], [ 1.5501, 43.8901 ], [ 1.5465, 43.9035 ], [ 1.5556, 43.9183 ], [ 1.5742, 43.9188 ], [ 1.5715, 43.9293 ], [ 1.5775, 43.9388 ], [ 1.5661, 43.9442 ], [ 1.5406, 43.9453 ], [ 1.5378, 43.9497 ], [ 1.5414, 43.9528 ], [ 1.5354, 43.9597 ], [ 1.5496, 43.9552 ], [ 1.5495, 43.9625 ], [ 1.5668, 43.9653 ], [ 1.5906, 43.9602 ], [ 1.6192, 43.9591 ], [ 1.6231, 43.9629 ], [ 1.6195, 43.9771 ], [ 1.6305, 43.9904 ], [ 1.6372, 43.9947 ], [ 1.6469, 43.9917 ], [ 1.6581, 43.9956 ], [ 1.6496, 44.0119 ], [ 1.6714, 44.0106 ], [ 1.6701, 44.0179 ], [ 1.674, 44.0158 ], [ 1.6771, 44.0214 ], [ 1.6915, 44.0224 ], [ 1.6958, 44.0359 ], [ 1.7042, 44.0443 ], [ 1.692, 44.0629 ], [ 1.6754, 44.0668 ], [ 1.673, 44.0593 ], [ 1.6637, 44.0673 ], [ 1.6612, 44.0714 ], [ 1.6703, 44.0881 ], [ 1.6531, 44.0964 ], [ 1.6526, 44.1079 ], [ 1.6587, 44.1166 ], [ 1.6614, 44.1136 ], [ 1.6822, 44.115 ], [ 1.6873, 44.1115 ], [ 1.7064, 44.1174 ], [ 1.723, 44.1148 ], [ 1.7223, 44.1184 ], [ 1.7327, 44.1126 ], [ 1.7465, 44.1167 ], [ 1.7505, 44.109 ], [ 1.7637, 44.1079 ], [ 1.77, 44.098 ], [ 1.778, 44.0968 ], [ 1.7935, 44.1003 ], [ 1.787, 44.1092 ], [ 1.8008, 44.1163 ], [ 1.8067, 44.1264 ], [ 1.8255, 44.108 ], [ 1.837, 44.1054 ], [ 1.8405, 44.1142 ], [ 1.8287, 44.1333 ], [ 1.8368, 44.1439 ], [ 1.8406, 44.1445 ], [ 1.848, 44.135 ], [ 1.8614, 44.1437 ], [ 1.8852, 44.1372 ], [ 1.8925, 44.1431 ], [ 1.8991, 44.1322 ], [ 1.9073, 44.1304 ], [ 1.9193, 44.1414 ], [ 1.8944, 44.1556 ], [ 1.9089, 44.1635 ], [ 1.9197, 44.1629 ], [ 1.9436, 44.1465 ], [ 1.9528, 44.1509 ], [ 1.9712, 44.1427 ], [ 1.9804, 44.1481 ], [ 1.9827, 44.1566 ], [ 1.9847, 44.1491 ] ] ] } }
]
}
