{
"type": "FeatureCollection",
"name": "dep86",
"crs": { "type": "name", "properties": { "name": "urn:ogc:def:crs:OGC:1.3:CRS84" } },
"xy_coordinate_resolution": 0.0001,
"features": [
{ "type": "Feature", "properties": { "code": "86", "nom": "Vienne" }, "geometry": { "type": "Polygon", "coordinates": [ [ [ -0.1021, 47.0648 ], [ -0.1014, 47.0855 ], [ -0.0859, 47.101 ], [ -0.0674, 47.0994 ], [ -0.0672, 47.0934 ], [ -0.0415, 47.0936 ], [ -0.0409, 47.0873 ], [ -0.0356, 47.0863 ], [ -0.0266, 47.1059 ], [ -0.0394, 47.1079 ], [ -0.036, 47.1251 ], [ -0.0122, 47.1559 ], [ 0.019, 47.1758 ], [ 0.0366, 47.1604 ], [ 0.0492, 47.1689 ], [ 0.0525, 47.1668 ], [ 0.0656, 47.1431 ], [ 0.0784, 47.1463 ], [ 0.082, 47.1365 ], [ 0.0764, 47.1239 ], [ 0.0814, 47.1185 ], [ 0.0901, 47.1222 ], [ 0.1047, 47.1208 ], [ 0.1112, 47.1303 ], [ 0.1229, 47.1287 ], [ 0.1272, 47.12 ], [ 0.1404, 47.1239 ], [ 0.1334, 47.115 ], [ 0.1347, 47.1079 ], [ 0.1626, 47.1007 ], [ 0.166, 47.1072 ], [ 0.1832, 47.1144 ], [ 0.1871, 47.1013 ], [ 0.2009, 47.0914 ], [ 0.1742, 47.0713 ], [ 0.1758, 47.0606 ], [ 0.1893, 47.0608 ], [ 0.1922, 47.0654 ], [ 0.208, 47.0532 ], [ 0.2277, 47.0604 ], [ 0.2352, 47.0692 ], [ 0.2455, 47.0713 ], [ 0.2676, 47.0675 ], [ 0.26, 47.0556 ], [ 0.2652, 47.0547 ], [ 0.2682, 47.0428 ], [ 0.2931, 47.0529 ], [ 0.3054, 47.0527 ], [ 0.3103, 47.0257 ], [ 0.2987, 47.0196 ], [ 0.307, 47.011 ], [ 0.305, 47.0026 ], [ 0.313, 46.998 ], [ 0.3041, 46.9906 ], [ 0.2919, 46.9892 ], [ 0.2981, 46.9836 ], [ 0.3055, 46.9862 ], [ 0.3029, 46.9819 ], [ 0.308, 46.9774 ], [ 0.2982, 46.9713 ], [ 0.3079, 46.9628 ], [ 0.3013, 46.9557 ], [ 0.3112, 46.9378 ], [ 0.3238, 46.9314 ], [ 0.3493, 46.9372 ], [ 0.3665, 46.9496 ], [ 0.4054, 46.9361 ], [ 0.419, 46.9375 ], [ 0.4387, 46.9296 ], [ 0.4448, 46.9411 ], [ 0.5052, 46.9599 ], [ 0.5134, 46.9556 ], [ 0.5434, 46.9604 ], [ 0.5644, 46.9555 ], [ 0.5983, 46.9568 ], [ 0.6012, 46.9731 ], [ 0.574, 46.9829 ], [ 0.5677, 47.0063 ], [ 0.6189, 47.0075 ], [ 0.6239, 47.0039 ], [ 0.622, 46.9956 ], [ 0.6334, 46.9867 ], [ 0.6477, 46.9883 ], [ 0.6565, 46.9854 ], [ 0.6616, 46.9781 ], [ 0.6937, 46.9732 ], [ 0.7062, 46.9362 ], [ 0.703, 46.9263 ], [ 0.7089, 46.9181 ], [ 0.7043, 46.9033 ], [ 0.7267, 46.8867 ], [ 0.7337, 46.876 ], [ 0.7473, 46.8694 ], [ 0.754, 46.8596 ], [ 0.77, 46.8651 ], [ 0.7675, 46.8515 ], [ 0.7938, 46.8512 ], [ 0.7965, 46.8468 ], [ 0.7871, 46.8443 ], [ 0.7868, 46.8405 ], [ 0.7951, 46.8325 ], [ 0.8093, 46.8279 ], [ 0.8101, 46.8086 ], [ 0.8171, 46.8035 ], [ 0.8117, 46.7964 ], [ 0.815, 46.7885 ], [ 0.828, 46.7868 ], [ 0.828, 46.7768 ], [ 0.8479, 46.7607 ], [ 0.859, 46.7604 ], [ 0.8787, 46.7386 ], [ 0.9018, 46.7362 ], [ 0.9031, 46.7306 ], [ 0.9132, 46.7257 ], [ 0.9081, 46.7188 ], [ 0.9141, 46.7158 ], [ 0.9136, 46.7105 ], [ 0.9279, 46.6927 ], [ 0.9189, 46.6912 ], [ 0.9027, 46.68 ], [ 0.9107, 46.6772 ], [ 0.9067, 46.6656 ], [ 0.9177, 46.6506 ], [ 0.9064, 46.6486 ], [ 0.9081, 46.6442 ], [ 0.8939, 46.6286 ], [ 0.9064, 46.6191 ], [ 0.9106, 46.6018 ], [ 0.9224, 46.5946 ], [ 0.9378, 46.5944 ], [ 0.9353, 46.5863 ], [ 0.9414, 46.5809 ], [ 0.9575, 46.5781 ], [ 0.9637, 46.5711 ], [ 0.9736, 46.5746 ], [ 0.982, 46.5733 ], [ 0.9872, 46.5656 ], [ 1.0148, 46.5678 ], [ 1.0249, 46.5495 ], [ 1.02, 46.5411 ], [ 1.0229, 46.5359 ], [ 1.0507, 46.5358 ], [ 1.0657, 46.5399 ], [ 1.0783, 46.5351 ], [ 1.0913, 46.5377 ], [ 1.1083, 46.5315 ], [ 1.1491, 46.5022 ], [ 1.1334, 46.4976 ], [ 1.1575, 46.47 ], [ 1.1355, 46.4709 ], [ 1.1518, 46.4487 ], [ 1.186, 46.4411 ], [ 1.1865, 46.4281 ], [ 1.2039, 46.4346 ], [ 1.2127, 46.4322 ], [ 1.1932, 46.4098 ], [ 1.1968, 46.4013 ], [ 1.1773, 46.384 ], [ 1.1589, 46.3904 ], [ 1.147, 46.3759 ], [ 1.1512, 46.37 ], [ 1.1408, 46.3646 ], [ 1.1285, 46.3636 ], [ 1.1294, 46.347 ], [ 1.1075, 46.3542 ], [ 1.1007, 46.3641 ], [ 1.0783, 46.3585 ], [ 1.0502, 46.3628 ], [ 1.0499, 46.3569 ], [ 1.0258, 46.3405 ], [ 1.0304, 46.336 ], [ 1.025, 46.328 ], [ 1.0279, 46.3227 ], [ 1.0208, 46.3161 ], [ 1.0217, 46.3102 ], [ 1.012, 46.3103 ], [ 1.0066, 46.3029 ], [ 1.0125, 46.2992 ], [ 1.0019, 46.2921 ], [ 1.0076, 46.2859 ], [ 1.0059, 46.281 ], [ 0.9908, 46.2848 ], [ 0.9885, 46.2804 ], [ 0.9735, 46.2857 ], [ 0.951, 46.2851 ], [ 0.9365, 46.2928 ], [ 0.9342, 46.2813 ], [ 0.9301, 46.2807 ], [ 0.9092, 46.284 ], [ 0.8993, 46.2894 ], [ 0.9016, 46.2841 ], [ 0.8907, 46.2685 ], [ 0.8616, 46.2618 ], [ 0.8575, 46.2485 ], [ 0.8475, 46.2483 ], [ 0.8496, 46.2456 ], [ 0.8413, 46.2399 ], [ 0.8519, 46.2359 ], [ 0.848, 46.2287 ], [ 0.8065, 46.2274 ], [ 0.7935, 46.2121 ], [ 0.8005, 46.2118 ], [ 0.8018, 46.2001 ], [ 0.8115, 46.1994 ], [ 0.82, 46.1918 ], [ 0.8196, 46.1846 ], [ 0.8299, 46.1847 ], [ 0.8365, 46.1788 ], [ 0.8283, 46.1746 ], [ 0.831, 46.1665 ], [ 0.8399, 46.1644 ], [ 0.8313, 46.1627 ], [ 0.8312, 46.1536 ], [ 0.8334, 46.1457 ], [ 0.8474, 46.1377 ], [ 0.8345, 46.1279 ], [ 0.8234, 46.1286 ], [ 0.8116, 46.1384 ], [ 0.8036, 46.1367 ], [ 0.801, 46.1311 ], [ 0.7886, 46.1332 ], [ 0.787, 46.1295 ], [ 0.7805, 46.1335 ], [ 0.7613, 46.1318 ], [ 0.7582, 46.1382 ], [ 0.7508, 46.1366 ], [ 0.7438, 46.1401 ], [ 0.7283, 46.135 ], [ 0.7126, 46.1396 ], [ 0.7105, 46.1295 ], [ 0.6884, 46.123 ], [ 0.6754, 46.1116 ], [ 0.6875, 46.0973 ], [ 0.6517, 46.0956 ], [ 0.6348, 46.0911 ], [ 0.6175, 46.0926 ], [ 0.6052, 46.0846 ], [ 0.6099, 46.0775 ], [ 0.5957, 46.0727 ], [ 0.5937, 46.0811 ], [ 0.575, 46.0799 ], [ 0.5636, 46.0903 ], [ 0.5543, 46.0911 ], [ 0.54, 46.0856 ], [ 0.5382, 46.0953 ], [ 0.5227, 46.1067 ], [ 0.5209, 46.1137 ], [ 0.4994, 46.1218 ], [ 0.5043, 46.1228 ], [ 0.5087, 46.1319 ], [ 0.4926, 46.1359 ], [ 0.4877, 46.1275 ], [ 0.4707, 46.1291 ], [ 0.4619, 46.1101 ], [ 0.4433, 46.1016 ], [ 0.4495, 46.0965 ], [ 0.4445, 46.0912 ], [ 0.4475, 46.0853 ], [ 0.4643, 46.0893 ], [ 0.4784, 46.0848 ], [ 0.4724, 46.0729 ], [ 0.4806, 46.0654 ], [ 0.4693, 46.0682 ], [ 0.4691, 46.0616 ], [ 0.4563, 46.0544 ], [ 0.4248, 46.0483 ], [ 0.4133, 46.0491 ], [ 0.4028, 46.0631 ], [ 0.3894, 46.0677 ], [ 0.3791, 46.0621 ], [ 0.3602, 46.0666 ], [ 0.3342, 46.0635 ], [ 0.3294, 46.0666 ], [ 0.3262, 46.0614 ], [ 0.3144, 46.0651 ], [ 0.2987, 46.059 ], [ 0.2775, 46.0606 ], [ 0.2728, 46.0629 ], [ 0.2755, 46.0669 ], [ 0.2608, 46.0724 ], [ 0.2566, 46.0801 ], [ 0.2396, 46.0814 ], [ 0.2197, 46.0943 ], [ 0.1944, 46.097 ], [ 0.1885, 46.1112 ], [ 0.2029, 46.1195 ], [ 0.205, 46.1245 ], [ 0.1973, 46.129 ], [ 0.2041, 46.1295 ], [ 0.2058, 46.1354 ], [ 0.2158, 46.1389 ], [ 0.2202, 46.1581 ], [ 0.1947, 46.1605 ], [ 0.1897, 46.1495 ], [ 0.1804, 46.1492 ], [ 0.1734, 46.1511 ], [ 0.1719, 46.1558 ], [ 0.1551, 46.1572 ], [ 0.154, 46.1645 ], [ 0.1475, 46.1665 ], [ 0.1495, 46.1722 ], [ 0.1422, 46.1731 ], [ 0.1386, 46.181 ], [ 0.1077, 46.1861 ], [ 0.1133, 46.195 ], [ 0.1134, 46.2122 ], [ 0.1176, 46.2116 ], [ 0.1298, 46.2272 ], [ 0.1372, 46.2249 ], [ 0.1437, 46.2294 ], [ 0.1288, 46.2672 ], [ 0.1596, 46.2666 ], [ 0.1723, 46.2786 ], [ 0.1522, 46.3032 ], [ 0.1582, 46.3077 ], [ 0.1633, 46.3049 ], [ 0.1692, 46.3073 ], [ 0.1648, 46.3181 ], [ 0.177, 46.3304 ], [ 0.1544, 46.3446 ], [ 0.1376, 46.3494 ], [ 0.1243, 46.3484 ], [ 0.1209, 46.3426 ], [ 0.0978, 46.3308 ], [ 0.0937, 46.3244 ], [ 0.0976, 46.3212 ], [ 0.0782, 46.3049 ], [ 0.0311, 46.3295 ], [ 0.0151, 46.3263 ], [ 0.0208, 46.3416 ], [ 0.0254, 46.3454 ], [ 0.0366, 46.3457 ], [ 0.014, 46.3533 ], [ 0.0139, 46.3571 ], [ 0.0342, 46.3735 ], [ 0.0227, 46.3775 ], [ 0.0154, 46.3916 ], [ -0.008, 46.3891 ], [ -0.0055, 46.3957 ], [ -0.0116, 46.3952 ], [ -0.0123, 46.3985 ], [ -0.0085, 46.4042 ], [ -0.0233, 46.4008 ], [ -0.0165, 46.4128 ], [ -0.0195, 46.4195 ], [ -0.011, 46.4232 ], [ -0.0152, 46.4363 ], [ -0.0097, 46.4501 ], [ -0.0192, 46.4533 ], [ -0.0098, 46.4678 ], [ -0.016, 46.4755 ], [ -0.0423, 46.47 ], [ -0.0431, 46.4805 ], [ -0.0382, 46.4814 ], [ -0.047, 46.483 ], [ -0.0356, 46.4873 ], [ -0.0299, 46.4856 ], [ -0.0308, 46.4895 ], [ -0.0409, 46.4933 ], [ -0.03, 46.5099 ], [ -0.0338, 46.5155 ], [ -0.0295, 46.5178 ], [ -0.0313, 46.525 ], [ -0.0245, 46.522 ], [ -0.0177, 46.5266 ], [ -0.0072, 46.5233 ], [ 0.0063, 46.5415 ], [ 0.0079, 46.548 ], [ -0.0105, 46.5528 ], [ -0.0073, 46.5685 ], [ 0.0201, 46.5851 ], [ 0.0335, 46.5859 ], [ 0.0427, 46.5912 ], [ 0.0229, 46.5953 ], [ 0.0229, 46.6145 ], [ 0.0037, 46.6108 ], [ -0.0131, 46.6149 ], [ -0.0001, 46.6328 ], [ 0.0008, 46.6431 ], [ -0.0052, 46.6447 ], [ -0.0188, 46.6388 ], [ -0.0248, 46.6291 ], [ -0.0467, 46.6238 ], [ -0.0658, 46.6228 ], [ -0.0677, 46.6295 ], [ -0.0545, 46.6426 ], [ -0.0319, 46.6517 ], [ -0.0361, 46.6586 ], [ -0.0318, 46.6614 ], [ -0.0404, 46.6637 ], [ -0.0069, 46.6829 ], [ -0.0212, 46.6933 ], [ 0.0028, 46.7003 ], [ 0.0032, 46.7109 ], [ -0.002, 46.7159 ], [ 0.0383, 46.7316 ], [ -0.0013, 46.7616 ], [ -0.0127, 46.7544 ], [ -0.0231, 46.7691 ], [ -0.0176, 46.7718 ], [ -0.0219, 46.7764 ], [ -0.0174, 46.7807 ], [ -0.0263, 46.7886 ], [ 0.0063, 46.8089 ], [ 0.008, 46.8143 ], [ -0.007, 46.8221 ], [ -0.0203, 46.8126 ], [ -0.0313, 46.8202 ], [ -0.0496, 46.8206 ], [ -0.0442, 46.8244 ], [ -0.0457, 46.8321 ], [ -0.0345, 46.8321 ], [ -0.0297, 46.839 ], [ -0.0228, 46.8428 ], [ -0.0167, 46.8417 ], [ -0.0116, 46.848 ], [ 0.0059, 46.8444 ], [ 0.0166, 46.835 ], [ 0.0338, 46.8541 ], [ 0.0256, 46.8529 ], [ 0.0102, 46.8582 ], [ -0.0027, 46.8647 ], [ -0.0047, 46.8705 ], [ -0.0265, 46.8754 ], [ -0.0304, 46.8713 ], [ -0.0356, 46.8751 ], [ -0.0263, 46.8806 ], [ -0.023, 46.8963 ], [ -0.009, 46.9075 ], [ -0.0222, 46.9385 ], [ -0.0302, 46.9414 ], [ -0.0329, 46.9514 ], [ -0.0455, 46.9595 ], [ -0.0462, 46.9665 ], [ -0.0342, 46.9768 ], [ -0.0337, 46.9832 ], [ -0.0388, 46.9904 ], [ -0.0584, 46.9946 ], [ -0.0863, 46.9853 ], [ -0.0941, 47.0133 ], [ -0.0793, 47.0069 ], [ -0.077, 47.0091 ], [ -0.0877, 47.0231 ], [ -0.1021, 47.0648 ] ] ] } }
]
}
