{
"type": "FeatureCollection",
"name": "dep85",
"crs": { "type": "name", "properties": { "name": "urn:ogc:def:crs:OGC:1.3:CRS84" } },
"xy_coordinate_resolution": 0.0001,
"features": [
{ "type": "Feature", "properties": { "code": "85", "nom": "Vendée" }, "geometry": { "type": "MultiPolygon", "coordinates": [ [ [ [ -2.3184, 46.7199 ], [ -2.2869, 46.6965 ], [ -2.2835, 46.6879 ], [ -2.2891, 46.6925 ], [ -2.3115, 46.696 ], [ -2.3155, 46.6914 ], [ -2.3309, 46.687 ], [ -2.3425, 46.6942 ], [ -2.3518, 46.6916 ], [ -2.3639, 46.6947 ], [ -2.369, 46.7016 ], [ -2.3831, 46.7004 ], [ -2.3792, 46.7051 ], [ -2.3929, 46.71 ], [ -2.4005, 46.7261 ], [ -2.3877, 46.727 ], [ -2.3823, 46.7333 ], [ -2.3742, 46.7337 ], [ -2.3445, 46.728 ], [ -2.3378, 46.7191 ], [ -2.3184, 46.7199 ] ] ], [ [ [ -1.1486, 47.0296 ], [ -1.143, 47.0248 ], [ -1.118, 47.0205 ], [ -1.1113, 47.016 ], [ -1.0922, 47.0158 ], [ -1.0741, 47.0083 ], [ -1.0667, 47.013 ], [ -1.0547, 47.0044 ], [ -1.0476, 47.0072 ], [ -1.0429, 47.0044 ], [ -1.0149, 47.0047 ], [ -1.0023, 47.0213 ], [ -0.9819, 47.0105 ], [ -0.9816, 47.0181 ], [ -0.9763, 47.0182 ], [ -0.9751, 47.0087 ], [ -0.9686, 47.0078 ], [ -0.9609, 46.9953 ], [ -0.9548, 46.996 ], [ -0.9535, 47.0019 ], [ -0.9476, 47.0034 ], [ -0.9455, 46.9991 ], [ -0.932, 47.008 ], [ -0.9278, 47.0068 ], [ -0.9326, 47.002 ], [ -0.9159, 47.0017 ], [ -0.9205, 46.9978 ], [ -0.9151, 46.9923 ], [ -0.9041, 46.9948 ], [ -0.8937, 46.9844 ], [ -0.8967, 46.9808 ], [ -0.892, 46.9758 ], [ -0.9024, 46.9708 ], [ -0.902, 46.9671 ], [ -0.8941, 46.9691 ], [ -0.8925, 46.966 ], [ -0.8899, 46.9707 ], [ -0.8771, 46.9685 ], [ -0.8833, 46.9595 ], [ -0.8761, 46.9556 ], [ -0.8638, 46.9622 ], [ -0.8691, 46.9572 ], [ -0.8634, 46.9566 ], [ -0.8661, 46.9522 ], [ -0.8606, 46.9491 ], [ -0.8666, 46.948 ], [ -0.8751, 46.9537 ], [ -0.8838, 46.9511 ], [ -0.881, 46.9465 ], [ -0.8737, 46.9437 ], [ -0.8495, 46.946 ], [ -0.8579, 46.9343 ], [ -0.848, 46.941 ], [ -0.8407, 46.9361 ], [ -0.8461, 46.9317 ], [ -0.8408, 46.9288 ], [ -0.8291, 46.9334 ], [ -0.8214, 46.9183 ], [ -0.8074, 46.9198 ], [ -0.8205, 46.911 ], [ -0.817, 46.904 ], [ -0.8294, 46.8835 ], [ -0.8163, 46.8806 ], [ -0.8085, 46.8686 ], [ -0.7871, 46.8533 ], [ -0.7834, 46.8442 ], [ -0.7667, 46.8345 ], [ -0.7379, 46.8289 ], [ -0.7329, 46.8215 ], [ -0.71, 46.8216 ], [ -0.6987, 46.8109 ], [ -0.7178, 46.8005 ], [ -0.7173, 46.7923 ], [ -0.7271, 46.7823 ], [ -0.7271, 46.7664 ], [ -0.7201, 46.7637 ], [ -0.7156, 46.7518 ], [ -0.7042, 46.7494 ], [ -0.6983, 46.7518 ], [ -0.694, 46.7438 ], [ -0.7026, 46.7349 ], [ -0.6961, 46.7368 ], [ -0.6963, 46.7295 ], [ -0.6921, 46.7328 ], [ -0.687, 46.7302 ], [ -0.688, 46.7257 ], [ -0.6855, 46.7298 ], [ -0.6781, 46.7257 ], [ -0.6562, 46.7008 ], [ -0.6807, 46.6869 ], [ -0.637, 46.6633 ], [ -0.6486, 46.6564 ], [ -0.6491, 46.6453 ], [ -0.6594, 46.6398 ], [ -0.6589, 46.6359 ], [ -0.6342, 46.6374 ], [ -0.6233, 46.6325 ], [ -0.614, 46.6216 ], [ -0.6257, 46.6051 ], [ -0.614, 46.599 ], [ -0.6209, 46.593 ], [ -0.6119, 46.5883 ], [ -0.6245, 46.575 ], [ -0.6184, 46.5724 ], [ -0.62, 46.5652 ], [ -0.6152, 46.5606 ], [ -0.6066, 46.5637 ], [ -0.6084, 46.551 ], [ -0.6022, 46.548 ], [ -0.6021, 46.5333 ], [ -0.6083, 46.5264 ], [ -0.6124, 46.53 ], [ -0.6159, 46.5261 ], [ -0.6271, 46.5295 ], [ -0.644, 46.5218 ], [ -0.6381, 46.522 ], [ -0.6375, 46.519 ], [ -0.6452, 46.5086 ], [ -0.625, 46.4975 ], [ -0.6246, 46.4854 ], [ -0.6312, 46.4786 ], [ -0.6191, 46.4758 ], [ -0.6163, 46.4622 ], [ -0.6077, 46.4549 ], [ -0.6139, 46.4491 ], [ -0.6192, 46.4552 ], [ -0.6188, 46.4389 ], [ -0.6368, 46.4323 ], [ -0.6394, 46.4105 ], [ -0.6291, 46.4041 ], [ -0.6406, 46.397 ], [ -0.6209, 46.3905 ], [ -0.6102, 46.4137 ], [ -0.5724, 46.4007 ], [ -0.5661, 46.3931 ], [ -0.5505, 46.3933 ], [ -0.5378, 46.3865 ], [ -0.5618, 46.3597 ], [ -0.5773, 46.3554 ], [ -0.6032, 46.3615 ], [ -0.6049, 46.3471 ], [ -0.6224, 46.3378 ], [ -0.6366, 46.3376 ], [ -0.6364, 46.3253 ], [ -0.6484, 46.3169 ], [ -0.6723, 46.3162 ], [ -0.6967, 46.3251 ], [ -0.7201, 46.3149 ], [ -0.7231, 46.3096 ], [ -0.7164, 46.3075 ], [ -0.7197, 46.3032 ], [ -0.7472, 46.3028 ], [ -0.7751, 46.3184 ], [ -0.8028, 46.3253 ], [ -0.8072, 46.3331 ], [ -0.7967, 46.3391 ], [ -0.7986, 46.3417 ], [ -0.8227, 46.3358 ], [ -0.8346, 46.3419 ], [ -0.8487, 46.3325 ], [ -0.8449, 46.3246 ], [ -0.8495, 46.3178 ], [ -0.863, 46.3191 ], [ -0.8604, 46.3253 ], [ -0.8646, 46.3275 ], [ -0.8703, 46.3222 ], [ -0.8872, 46.3267 ], [ -0.8945, 46.3169 ], [ -0.9111, 46.3128 ], [ -0.9153, 46.3159 ], [ -0.9212, 46.3125 ], [ -0.9263, 46.3155 ], [ -0.931, 46.31 ], [ -0.9435, 46.3183 ], [ -0.9631, 46.3226 ], [ -0.9435, 46.3366 ], [ -0.9296, 46.3715 ], [ -0.9368, 46.3664 ], [ -0.942, 46.3682 ], [ -0.9513, 46.3604 ], [ -0.9645, 46.3654 ], [ -0.9749, 46.3511 ], [ -0.9952, 46.3503 ], [ -0.9998, 46.3547 ], [ -1.013, 46.349 ], [ -1.0138, 46.3556 ], [ -1.0525, 46.3425 ], [ -1.0534, 46.349 ], [ -1.0733, 46.3269 ], [ -1.0813, 46.3233 ], [ -1.0755, 46.3175 ], [ -1.091, 46.3173 ], [ -1.0957, 46.3121 ], [ -1.1017, 46.3163 ], [ -1.1161, 46.3172 ], [ -1.1206, 46.3236 ], [ -1.1294, 46.3103 ], [ -1.1396, 46.3112 ], [ -1.1647, 46.3242 ], [ -1.1672, 46.3197 ], [ -1.2031, 46.3157 ], [ -1.1955, 46.3005 ], [ -1.2068, 46.2881 ], [ -1.2085, 46.2783 ], [ -1.2032, 46.2675 ], [ -1.2074, 46.2666 ], [ -1.2308, 46.2767 ], [ -1.2818, 46.31 ], [ -1.2959, 46.3239 ], [ -1.306, 46.3192 ], [ -1.2943, 46.3034 ], [ -1.2959, 46.2971 ], [ -1.2874, 46.2941 ], [ -1.2926, 46.2915 ], [ -1.2723, 46.2894 ], [ -1.278, 46.2871 ], [ -1.2968, 46.2898 ], [ -1.321, 46.3257 ], [ -1.3431, 46.3429 ], [ -1.3581, 46.3476 ], [ -1.3747, 46.3485 ], [ -1.3746, 46.3438 ], [ -1.3838, 46.3409 ], [ -1.401, 46.3405 ], [ -1.424, 46.3475 ], [ -1.4379, 46.3402 ], [ -1.4659, 46.3424 ], [ -1.4878, 46.3814 ], [ -1.5022, 46.3974 ], [ -1.5151, 46.4043 ], [ -1.534, 46.4089 ], [ -1.5505, 46.4054 ], [ -1.6235, 46.413 ], [ -1.6298, 46.4179 ], [ -1.6479, 46.4202 ], [ -1.654, 46.4239 ], [ -1.6488, 46.4294 ], [ -1.711, 46.4513 ], [ -1.7143, 46.459 ], [ -1.7251, 46.459 ], [ -1.7325, 46.466 ], [ -1.7553, 46.4745 ], [ -1.7771, 46.4928 ], [ -1.7913, 46.4945 ], [ -1.7995, 46.4888 ], [ -1.8123, 46.4934 ], [ -1.857, 46.6099 ], [ -1.8718, 46.6185 ], [ -1.876, 46.6283 ], [ -1.8978, 46.6404 ], [ -1.9429, 46.6927 ], [ -1.9512, 46.6957 ], [ -1.9658, 46.6919 ], [ -1.9795, 46.7051 ], [ -1.9797, 46.7174 ], [ -1.9979, 46.7324 ], [ -2.0621, 46.7773 ], [ -2.1421, 46.8191 ], [ -2.155, 46.8897 ], [ -2.1218, 46.8911 ], [ -2.1132, 46.896 ], [ -2.1098, 46.8995 ], [ -2.1193, 46.9008 ], [ -2.1178, 46.9083 ], [ -2.0915, 46.9299 ], [ -2.0795, 46.934 ], [ -2.0817, 46.9382 ], [ -2.0756, 46.9395 ], [ -2.0713, 46.9358 ], [ -2.075, 46.9402 ], [ -2.0582, 46.9509 ], [ -2.0447, 46.968 ], [ -2.0465, 46.9779 ], [ -2.0329, 46.9918 ], [ -2.038, 46.9978 ], [ -2.0318, 46.9989 ], [ -2.0293, 47.0098 ], [ -1.9985, 47.0183 ], [ -1.9804, 47.0289 ], [ -1.9666, 47.0257 ], [ -1.9432, 46.9947 ], [ -1.9167, 46.9922 ], [ -1.9186, 46.9802 ], [ -1.9123, 46.9791 ], [ -1.9174, 46.9751 ], [ -1.911, 46.9694 ], [ -1.9063, 46.9709 ], [ -1.8899, 46.9569 ], [ -1.8663, 46.952 ], [ -1.8652, 46.9547 ], [ -1.8284, 46.953 ], [ -1.8264, 46.938 ], [ -1.832, 46.9323 ], [ -1.8006, 46.9307 ], [ -1.7987, 46.9273 ], [ -1.7863, 46.9296 ], [ -1.7783, 46.925 ], [ -1.7504, 46.9304 ], [ -1.7455, 46.9281 ], [ -1.7473, 46.9237 ], [ -1.7419, 46.9213 ], [ -1.7457, 46.9166 ], [ -1.7351, 46.9099 ], [ -1.7388, 46.9054 ], [ -1.736, 46.8945 ], [ -1.7229, 46.884 ], [ -1.6884, 46.8907 ], [ -1.6675, 46.8759 ], [ -1.6319, 46.8784 ], [ -1.6093, 46.8714 ], [ -1.6045, 46.8755 ], [ -1.5762, 46.864 ], [ -1.5488, 46.8602 ], [ -1.5463, 46.8747 ], [ -1.527, 46.8728 ], [ -1.5008, 46.8839 ], [ -1.5032, 46.894 ], [ -1.5293, 46.9065 ], [ -1.5296, 46.9119 ], [ -1.5458, 46.9256 ], [ -1.5291, 46.9227 ], [ -1.5188, 46.9346 ], [ -1.5254, 46.946 ], [ -1.534, 46.9454 ], [ -1.5345, 46.9505 ], [ -1.5444, 46.9574 ], [ -1.5428, 46.9653 ], [ -1.5553, 46.9786 ], [ -1.5427, 47.0033 ], [ -1.5557, 47.0145 ], [ -1.5496, 47.0189 ], [ -1.5403, 47.0174 ], [ -1.5385, 47.0234 ], [ -1.5262, 47.0227 ], [ -1.5174, 47.0264 ], [ -1.505, 47.0389 ], [ -1.4928, 47.0421 ], [ -1.4726, 47.0311 ], [ -1.4759, 47.0257 ], [ -1.4692, 47.002 ], [ -1.4602, 46.993 ], [ -1.4636, 46.9889 ], [ -1.4739, 46.9879 ], [ -1.477, 46.981 ], [ -1.4719, 46.9678 ], [ -1.4612, 46.9623 ], [ -1.4574, 46.9554 ], [ -1.4717, 46.9332 ], [ -1.4583, 46.9258 ], [ -1.4131, 46.9454 ], [ -1.3921, 46.9469 ], [ -1.365, 46.9569 ], [ -1.3692, 46.9638 ], [ -1.3582, 46.9712 ], [ -1.3591, 46.9811 ], [ -1.378, 46.9917 ], [ -1.363, 47.0052 ], [ -1.3669, 47.0195 ], [ -1.3786, 47.0309 ], [ -1.3681, 47.0347 ], [ -1.3661, 47.0417 ], [ -1.347, 47.0378 ], [ -1.3415, 47.0404 ], [ -1.3457, 47.0457 ], [ -1.3359, 47.0445 ], [ -1.3203, 47.0345 ], [ -1.2989, 47.0347 ], [ -1.2965, 47.0432 ], [ -1.3049, 47.0406 ], [ -1.2975, 47.0451 ], [ -1.2978, 47.0514 ], [ -1.2876, 47.057 ], [ -1.2858, 47.0639 ], [ -1.2914, 47.0683 ], [ -1.2877, 47.0763 ], [ -1.2803, 47.0757 ], [ -1.2707, 47.0847 ], [ -1.2475, 47.0672 ], [ -1.2309, 47.065 ], [ -1.2194, 47.0538 ], [ -1.2019, 47.0459 ], [ -1.2007, 47.04 ], [ -1.1486, 47.0296 ] ] ], [ [ [ -2.1981, 46.9512 ], [ -2.2232, 46.9653 ], [ -2.2425, 46.9654 ], [ -2.2528, 46.9585 ], [ -2.2644, 46.9609 ], [ -2.2813, 46.9793 ], [ -2.3024, 46.9906 ], [ -2.2921, 47.0114 ], [ -2.3076, 47.0247 ], [ -2.2872, 47.0246 ], [ -2.2771, 47.029 ], [ -2.2539, 47.028 ], [ -2.2445, 47.0194 ], [ -2.2256, 47.0168 ], [ -2.2183, 47.0078 ], [ -2.2188, 46.9917 ], [ -2.2226, 46.9903 ], [ -2.2386, 46.9976 ], [ -2.2316, 46.989 ], [ -2.2365, 46.9799 ], [ -2.2307, 46.9732 ], [ -2.2263, 46.9762 ], [ -2.1572, 46.95 ], [ -2.1474, 46.9342 ], [ -2.1533, 46.9318 ], [ -2.147, 46.924 ], [ -2.1533, 46.9069 ], [ -2.148, 46.8946 ], [ -2.1548, 46.8951 ], [ -2.1668, 46.9054 ], [ -2.1774, 46.9321 ], [ -2.1981, 46.9512 ] ] ] ] } }
]
}
