{
"type": "FeatureCollection",
"name": "dep80",
"crs": { "type": "name", "properties": { "name": "urn:ogc:def:crs:OGC:1.3:CRS84" } },
"xy_coordinate_resolution": 0.0001,
"features": [
{ "type": "Feature", "properties": { "code": "80", "nom": "Somme" }, "geometry": { "type": "Polygon", "coordinates": [ [ [ 1.3816, 50.0658 ], [ 1.4525, 50.1083 ], [ 1.4828, 50.1724 ], [ 1.5037, 50.1953 ], [ 1.5271, 50.2079 ], [ 1.5647, 50.2172 ], [ 1.5597, 50.2108 ], [ 1.5742, 50.196 ], [ 1.5962, 50.1855 ], [ 1.6131, 50.1914 ], [ 1.6274, 50.19 ], [ 1.6443, 50.1852 ], [ 1.6462, 50.1776 ], [ 1.6468, 50.1826 ], [ 1.6733, 50.1747 ], [ 1.6838, 50.183 ], [ 1.6708, 50.1944 ], [ 1.6742, 50.1958 ], [ 1.6676, 50.2025 ], [ 1.6712, 50.204 ], [ 1.6627, 50.2136 ], [ 1.6381, 50.2183 ], [ 1.6233, 50.2141 ], [ 1.5936, 50.2443 ], [ 1.5922, 50.2565 ], [ 1.5623, 50.2558 ], [ 1.5507, 50.2593 ], [ 1.5397, 50.2745 ], [ 1.5509, 50.3503 ], [ 1.5611, 50.3638 ], [ 1.5708, 50.3625 ], [ 1.5713, 50.3584 ], [ 1.613, 50.3603 ], [ 1.6264, 50.3658 ], [ 1.6267, 50.36 ], [ 1.6462, 50.3484 ], [ 1.6452, 50.3392 ], [ 1.6512, 50.34 ], [ 1.6555, 50.3361 ], [ 1.6626, 50.338 ], [ 1.6654, 50.33 ], [ 1.6913, 50.3386 ], [ 1.6897, 50.3437 ], [ 1.6948, 50.3389 ], [ 1.7047, 50.3438 ], [ 1.7281, 50.3459 ], [ 1.7403, 50.3512 ], [ 1.7353, 50.3534 ], [ 1.7593, 50.358 ], [ 1.7617, 50.3616 ], [ 1.7788, 50.3619 ], [ 1.8051, 50.3596 ], [ 1.8323, 50.3447 ], [ 1.8409, 50.3465 ], [ 1.8517, 50.3429 ], [ 1.8584, 50.3361 ], [ 1.8726, 50.334 ], [ 1.872, 50.3255 ], [ 1.8814, 50.318 ], [ 1.8979, 50.3184 ], [ 1.8981, 50.3139 ], [ 1.908, 50.3116 ], [ 1.9193, 50.3116 ], [ 1.9235, 50.3204 ], [ 1.9465, 50.3314 ], [ 1.9643, 50.3217 ], [ 1.9617, 50.3123 ], [ 1.9315, 50.2991 ], [ 1.9457, 50.2877 ], [ 1.9518, 50.2854 ], [ 1.9607, 50.2903 ], [ 1.9688, 50.2818 ], [ 1.9771, 50.2821 ], [ 2.0112, 50.2675 ], [ 2.0264, 50.2696 ], [ 2.0312, 50.2655 ], [ 2.0375, 50.2668 ], [ 2.0476, 50.2567 ], [ 2.0756, 50.2519 ], [ 2.0741, 50.2438 ], [ 2.0652, 50.2413 ], [ 2.0638, 50.2345 ], [ 2.068, 50.2338 ], [ 2.068, 50.2273 ], [ 2.075, 50.227 ], [ 2.0748, 50.2203 ], [ 2.0845, 50.2165 ], [ 2.0857, 50.201 ], [ 2.0937, 50.2017 ], [ 2.0946, 50.2083 ], [ 2.1146, 50.2029 ], [ 2.1207, 50.211 ], [ 2.1287, 50.2099 ], [ 2.146, 50.1992 ], [ 2.1498, 50.1904 ], [ 2.1742, 50.2089 ], [ 2.1919, 50.2091 ], [ 2.2131, 50.2183 ], [ 2.2263, 50.2141 ], [ 2.2218, 50.2089 ], [ 2.2433, 50.2144 ], [ 2.2463, 50.211 ], [ 2.2698, 50.2288 ], [ 2.287, 50.2223 ], [ 2.2988, 50.212 ], [ 2.3204, 50.2202 ], [ 2.3275, 50.2133 ], [ 2.3316, 50.2221 ], [ 2.3147, 50.2348 ], [ 2.3327, 50.238 ], [ 2.3601, 50.2146 ], [ 2.3549, 50.2077 ], [ 2.3589, 50.2061 ], [ 2.3709, 50.2089 ], [ 2.3729, 50.2176 ], [ 2.3786, 50.2183 ], [ 2.3823, 50.2261 ], [ 2.3922, 50.2246 ], [ 2.4034, 50.2338 ], [ 2.4096, 50.2354 ], [ 2.417, 50.2281 ], [ 2.4369, 50.2273 ], [ 2.4507, 50.2309 ], [ 2.4611, 50.2167 ], [ 2.4741, 50.2084 ], [ 2.4852, 50.2078 ], [ 2.4957, 50.1946 ], [ 2.4508, 50.1785 ], [ 2.4372, 50.181 ], [ 2.4202, 50.1758 ], [ 2.4148, 50.1731 ], [ 2.4133, 50.1624 ], [ 2.4033, 50.1648 ], [ 2.3991, 50.1564 ], [ 2.389, 50.1547 ], [ 2.3935, 50.1469 ], [ 2.389, 50.14 ], [ 2.3824, 50.1394 ], [ 2.3869, 50.1347 ], [ 2.3755, 50.1092 ], [ 2.3901, 50.106 ], [ 2.392, 50.1118 ], [ 2.4033, 50.1057 ], [ 2.4002, 50.102 ], [ 2.4145, 50.1006 ], [ 2.4186, 50.0877 ], [ 2.4297, 50.0882 ], [ 2.4554, 50.1311 ], [ 2.4593, 50.1294 ], [ 2.4815, 50.1382 ], [ 2.5149, 50.1408 ], [ 2.5331, 50.114 ], [ 2.548, 50.1235 ], [ 2.5456, 50.1355 ], [ 2.5573, 50.143 ], [ 2.5684, 50.136 ], [ 2.5782, 50.1399 ], [ 2.5866, 50.1374 ], [ 2.5694, 50.1206 ], [ 2.5757, 50.1133 ], [ 2.5915, 50.1124 ], [ 2.5929, 50.1065 ], [ 2.6131, 50.111 ], [ 2.6281, 50.1093 ], [ 2.6387, 50.0971 ], [ 2.6476, 50.0944 ], [ 2.6549, 50.1 ], [ 2.6721, 50.0936 ], [ 2.6822, 50.0952 ], [ 2.6907, 50.093 ], [ 2.7046, 50.0812 ], [ 2.7187, 50.0881 ], [ 2.6957, 50.1022 ], [ 2.698, 50.106 ], [ 2.7139, 50.1098 ], [ 2.7088, 50.1285 ], [ 2.7296, 50.1259 ], [ 2.7504, 50.1121 ], [ 2.7626, 50.1096 ], [ 2.7769, 50.1159 ], [ 2.7818, 50.0911 ], [ 2.7589, 50.0682 ], [ 2.7637, 50.0606 ], [ 2.7425, 50.0482 ], [ 2.7529, 50.039 ], [ 2.7749, 50.0424 ], [ 2.7857, 50.0512 ], [ 2.789, 50.0453 ], [ 2.8075, 50.0624 ], [ 2.8116, 50.0581 ], [ 2.8151, 50.0626 ], [ 2.8213, 50.0624 ], [ 2.8223, 50.0675 ], [ 2.8335, 50.0639 ], [ 2.8336, 50.0715 ], [ 2.8481, 50.0783 ], [ 2.8578, 50.0774 ], [ 2.8553, 50.0624 ], [ 2.8639, 50.0607 ], [ 2.8776, 50.0424 ], [ 2.87, 50.0349 ], [ 2.8641, 50.0325 ], [ 2.8584, 50.035 ], [ 2.8495, 50.0293 ], [ 2.8638, 50.0201 ], [ 2.8685, 50.0228 ], [ 2.8776, 50.0208 ], [ 2.8753, 50.0274 ], [ 2.8963, 50.037 ], [ 2.9132, 50.0382 ], [ 2.9162, 50.0349 ], [ 2.9207, 50.0489 ], [ 2.9329, 50.0434 ], [ 2.9454, 50.0542 ], [ 2.9688, 50.0484 ], [ 2.9718, 50.0416 ], [ 3.0144, 50.0591 ], [ 3.0247, 50.0542 ], [ 3.0343, 50.0581 ], [ 3.033, 50.0551 ], [ 3.0459, 50.0548 ], [ 3.0745, 50.0453 ], [ 3.0859, 50.0482 ], [ 3.0903, 50.0537 ], [ 3.0904, 50.0473 ], [ 3.1164, 50.0378 ], [ 3.1191, 50.0262 ], [ 3.1331, 50.0242 ], [ 3.1499, 50.0273 ], [ 3.1471, 50.0181 ], [ 3.167, 50.021 ], [ 3.173, 50.0113 ], [ 3.1557, 49.9916 ], [ 3.165, 49.9907 ], [ 3.1679, 49.995 ], [ 3.1702, 49.991 ], [ 3.1649, 49.9892 ], [ 3.1729, 49.9899 ], [ 3.1737, 49.9858 ], [ 3.1925, 49.9889 ], [ 3.203, 49.9839 ], [ 3.1627, 49.965 ], [ 3.1681, 49.9615 ], [ 3.1594, 49.9522 ], [ 3.1646, 49.9474 ], [ 3.1361, 49.9356 ], [ 3.1376, 49.9321 ], [ 3.1227, 49.9244 ], [ 3.1255, 49.9194 ], [ 3.118, 49.9143 ], [ 3.1214, 49.9089 ], [ 3.1157, 49.9085 ], [ 3.1209, 49.9045 ], [ 3.1182, 49.9022 ], [ 3.1238, 49.9009 ], [ 3.1165, 49.8964 ], [ 3.12, 49.8843 ], [ 3.1127, 49.8779 ], [ 3.0875, 49.8661 ], [ 3.0828, 49.8663 ], [ 3.0848, 49.8786 ], [ 3.0755, 49.8785 ], [ 3.0702, 49.873 ], [ 3.0796, 49.8662 ], [ 3.0855, 49.8438 ], [ 3.0554, 49.8323 ], [ 3.0607, 49.8201 ], [ 3.0783, 49.8224 ], [ 3.085, 49.818 ], [ 3.0779, 49.8127 ], [ 3.0878, 49.8031 ], [ 3.083, 49.7971 ], [ 3.086, 49.792 ], [ 3.0613, 49.7813 ], [ 3.0706, 49.7669 ], [ 3.1004, 49.7661 ], [ 3.0941, 49.7494 ], [ 3.1005, 49.7326 ], [ 3.1136, 49.7273 ], [ 3.1144, 49.719 ], [ 3.1192, 49.7182 ], [ 3.1208, 49.7057 ], [ 3.0965, 49.7055 ], [ 3.0838, 49.6905 ], [ 3.0781, 49.6932 ], [ 3.0835, 49.7125 ], [ 3.0524, 49.7138 ], [ 3.0592, 49.7018 ], [ 3.0553, 49.694 ], [ 3.0405, 49.6966 ], [ 3.0335, 49.6831 ], [ 3.0262, 49.6803 ], [ 3.0163, 49.685 ], [ 3.0152, 49.6929 ], [ 3.006, 49.6932 ], [ 3.0051, 49.7027 ], [ 2.9906, 49.708 ], [ 2.991, 49.7042 ], [ 2.9774, 49.7055 ], [ 2.9731, 49.6972 ], [ 2.9622, 49.6932 ], [ 2.9484, 49.694 ], [ 2.9477, 49.6826 ], [ 2.9561, 49.6783 ], [ 2.9549, 49.6653 ], [ 2.9487, 49.6758 ], [ 2.9428, 49.6747 ], [ 2.9396, 49.6802 ], [ 2.9333, 49.6762 ], [ 2.9378, 49.6813 ], [ 2.9287, 49.6802 ], [ 2.9252, 49.6833 ], [ 2.9302, 49.6879 ], [ 2.9136, 49.704 ], [ 2.9134, 49.7095 ], [ 2.9054, 49.6995 ], [ 2.894, 49.6989 ], [ 2.8817, 49.7137 ], [ 2.8851, 49.7095 ], [ 2.8662, 49.7025 ], [ 2.8881, 49.6872 ], [ 2.8888, 49.6707 ], [ 2.88, 49.6752 ], [ 2.8745, 49.6858 ], [ 2.8612, 49.6852 ], [ 2.8568, 49.6827 ], [ 2.8624, 49.6794 ], [ 2.8456, 49.6707 ], [ 2.8502, 49.6631 ], [ 2.8459, 49.6594 ], [ 2.8376, 49.6621 ], [ 2.8328, 49.6593 ], [ 2.8286, 49.6621 ], [ 2.8215, 49.6593 ], [ 2.7972, 49.6607 ], [ 2.7894, 49.6402 ], [ 2.7995, 49.6206 ], [ 2.7867, 49.6121 ], [ 2.7655, 49.6156 ], [ 2.7391, 49.627 ], [ 2.7384, 49.6239 ], [ 2.7271, 49.6262 ], [ 2.7204, 49.6211 ], [ 2.708, 49.6259 ], [ 2.7023, 49.6233 ], [ 2.6983, 49.6263 ], [ 2.6876, 49.6247 ], [ 2.6879, 49.6143 ], [ 2.6746, 49.6055 ], [ 2.6741, 49.6 ], [ 2.6686, 49.6 ], [ 2.6731, 49.5949 ], [ 2.6702, 49.5811 ], [ 2.6496, 49.5718 ], [ 2.6287, 49.5819 ], [ 2.6264, 49.5909 ], [ 2.6328, 49.599 ], [ 2.6229, 49.6057 ], [ 2.626, 49.6109 ], [ 2.6161, 49.6124 ], [ 2.6051, 49.608 ], [ 2.597, 49.6117 ], [ 2.5839, 49.6079 ], [ 2.5872, 49.6038 ], [ 2.5779, 49.5963 ], [ 2.5757, 49.5994 ], [ 2.5714, 49.597 ], [ 2.5588, 49.6071 ], [ 2.5665, 49.6188 ], [ 2.5409, 49.6156 ], [ 2.5436, 49.6183 ], [ 2.5372, 49.6206 ], [ 2.5406, 49.6246 ], [ 2.5296, 49.6254 ], [ 2.5267, 49.6294 ], [ 2.5211, 49.6278 ], [ 2.5063, 49.635 ], [ 2.5047, 49.6395 ], [ 2.4781, 49.6208 ], [ 2.4636, 49.6283 ], [ 2.4708, 49.63 ], [ 2.4723, 49.6343 ], [ 2.4656, 49.638 ], [ 2.4585, 49.6342 ], [ 2.4537, 49.6356 ], [ 2.455, 49.6413 ], [ 2.4457, 49.653 ], [ 2.4364, 49.6563 ], [ 2.4214, 49.657 ], [ 2.4127, 49.6628 ], [ 2.3887, 49.6558 ], [ 2.3709, 49.6563 ], [ 2.3621, 49.6667 ], [ 2.3513, 49.6634 ], [ 2.3338, 49.6707 ], [ 2.3353, 49.6794 ], [ 2.3168, 49.6877 ], [ 2.3018, 49.6811 ], [ 2.2797, 49.6911 ], [ 2.2499, 49.6971 ], [ 2.2472, 49.7016 ], [ 2.2195, 49.7023 ], [ 2.2039, 49.6981 ], [ 2.1902, 49.7039 ], [ 2.1508, 49.7021 ], [ 2.1337, 49.6896 ], [ 2.122, 49.688 ], [ 2.1159, 49.6929 ], [ 2.1035, 49.6947 ], [ 2.0877, 49.6901 ], [ 2.0813, 49.6935 ], [ 2.0653, 49.6832 ], [ 2.0631, 49.6861 ], [ 2.0502, 49.6865 ], [ 2.064, 49.6877 ], [ 2.0583, 49.6915 ], [ 2.0594, 49.6976 ], [ 2.0469, 49.6969 ], [ 2.0461, 49.7026 ], [ 2.0343, 49.705 ], [ 2.0347, 49.7107 ], [ 2.0078, 49.7083 ], [ 2.0015, 49.7133 ], [ 1.9897, 49.7088 ], [ 1.9888, 49.7116 ], [ 1.9783, 49.7097 ], [ 1.9713, 49.7199 ], [ 1.9491, 49.7008 ], [ 1.9327, 49.7198 ], [ 1.9169, 49.715 ], [ 1.8939, 49.699 ], [ 1.8747, 49.6991 ], [ 1.8674, 49.7041 ], [ 1.849, 49.7016 ], [ 1.8375, 49.7099 ], [ 1.8415, 49.7127 ], [ 1.8376, 49.7184 ], [ 1.8227, 49.7177 ], [ 1.8206, 49.7225 ], [ 1.8395, 49.7309 ], [ 1.8395, 49.7393 ], [ 1.8205, 49.739 ], [ 1.809, 49.7543 ], [ 1.7941, 49.7499 ], [ 1.7733, 49.777 ], [ 1.7579, 49.7808 ], [ 1.7466, 49.8032 ], [ 1.7339, 49.8135 ], [ 1.7253, 49.8327 ], [ 1.7257, 49.8453 ], [ 1.7173, 49.8488 ], [ 1.7206, 49.8603 ], [ 1.7117, 49.8737 ], [ 1.7128, 49.8859 ], [ 1.692, 49.8969 ], [ 1.6782, 49.9183 ], [ 1.6034, 49.9431 ], [ 1.5859, 49.9607 ], [ 1.5776, 49.9638 ], [ 1.5728, 49.9749 ], [ 1.5275, 49.9951 ], [ 1.5164, 50.0121 ], [ 1.4999, 50.0193 ], [ 1.4914, 50.0183 ], [ 1.4708, 50.0351 ], [ 1.4548, 50.0378 ], [ 1.4492, 50.0469 ], [ 1.4556, 50.0443 ], [ 1.4591, 50.0625 ], [ 1.4491, 50.0689 ], [ 1.4236, 50.0708 ], [ 1.4093, 50.0571 ], [ 1.3973, 50.0583 ], [ 1.3963, 50.0643 ], [ 1.3866, 50.0614 ], [ 1.3816, 50.0658 ] ] ] } }
]
}
