{
"type": "FeatureCollection",
"name": "dep95",
"crs": { "type": "name", "properties": { "name": "urn:ogc:def:crs:OGC:1.3:CRS84" } },
"xy_coordinate_resolution": 0.0001,
"features": [
{ "type": "Feature", "properties": { "code": "95", "nom": "Val-d'Oise" }, "geometry": { "type": "Polygon", "coordinates": [ [ [ 2.5905, 49.0797 ], [ 2.571, 49.0606 ], [ 2.5742, 49.0542 ], [ 2.5858, 49.0578 ], [ 2.5847, 49.0526 ], [ 2.5945, 49.0471 ], [ 2.577, 49.0461 ], [ 2.568, 49.0389 ], [ 2.5661, 49.0286 ], [ 2.5452, 49.0224 ], [ 2.535, 49.0238 ], [ 2.5389, 49.0128 ], [ 2.549, 49.0147 ], [ 2.5533, 49.0118 ], [ 2.5493, 49.0031 ], [ 2.5322, 49.0052 ], [ 2.5189, 48.9877 ], [ 2.5126, 48.9859 ], [ 2.5148, 48.9823 ], [ 2.496, 48.9727 ], [ 2.4927, 48.9745 ], [ 2.4868, 48.9673 ], [ 2.4808, 48.9698 ], [ 2.4673, 48.9643 ], [ 2.4595, 48.9551 ], [ 2.4359, 48.9552 ], [ 2.4175, 48.9595 ], [ 2.4074, 48.9561 ], [ 2.3845, 48.971 ], [ 2.3662, 48.9741 ], [ 2.3587, 48.9727 ], [ 2.3539, 48.9657 ], [ 2.3441, 48.9682 ], [ 2.333, 48.9555 ], [ 2.299, 48.9663 ], [ 2.2882, 48.9584 ], [ 2.2923, 48.9514 ], [ 2.2608, 48.9434 ], [ 2.2006, 48.9087 ], [ 2.1982, 48.912 ], [ 2.2037, 48.9144 ], [ 2.1992, 48.919 ], [ 2.2055, 48.9221 ], [ 2.1989, 48.9352 ], [ 2.2056, 48.9402 ], [ 2.2059, 48.9497 ], [ 2.1731, 48.9533 ], [ 2.1793, 48.9658 ], [ 2.1656, 48.982 ], [ 2.127, 48.9891 ], [ 2.1207, 48.9933 ], [ 2.1271, 49.0097 ], [ 2.1213, 49.0183 ], [ 2.1102, 49.0087 ], [ 2.0849, 49.0147 ], [ 2.0755, 49.0023 ], [ 2.0644, 49.0082 ], [ 2.0236, 48.9979 ], [ 2.013, 49.0016 ], [ 1.9919, 49.021 ], [ 1.9741, 49.0194 ], [ 1.9642, 49.0256 ], [ 1.9571, 49.0218 ], [ 1.9484, 49.0265 ], [ 1.9378, 49.0218 ], [ 1.9085, 49.048 ], [ 1.8832, 49.0338 ], [ 1.8819, 49.0195 ], [ 1.8705, 49.0193 ], [ 1.8618, 49.0143 ], [ 1.8653, 49.0216 ], [ 1.8596, 49.0239 ], [ 1.859, 49.0324 ], [ 1.8513, 49.0334 ], [ 1.8655, 49.0575 ], [ 1.8451, 49.062 ], [ 1.8286, 49.0762 ], [ 1.7966, 49.0722 ], [ 1.7998, 49.0646 ], [ 1.7922, 49.0607 ], [ 1.7943, 49.0582 ], [ 1.7739, 49.057 ], [ 1.7601, 49.0634 ], [ 1.7532, 49.0598 ], [ 1.7573, 49.0584 ], [ 1.75, 49.0535 ], [ 1.7512, 49.0482 ], [ 1.7321, 49.0504 ], [ 1.7235, 49.045 ], [ 1.6946, 49.0561 ], [ 1.6966, 49.0665 ], [ 1.6727, 49.0786 ], [ 1.6429, 49.0812 ], [ 1.6142, 49.0715 ], [ 1.6088, 49.0779 ], [ 1.6233, 49.0861 ], [ 1.6189, 49.0887 ], [ 1.6231, 49.0934 ], [ 1.6175, 49.094 ], [ 1.6296, 49.11 ], [ 1.6577, 49.1319 ], [ 1.6531, 49.1446 ], [ 1.6644, 49.1534 ], [ 1.661, 49.1578 ], [ 1.6702, 49.1695 ], [ 1.6664, 49.1769 ], [ 1.6718, 49.1809 ], [ 1.6749, 49.2115 ], [ 1.6986, 49.2245 ], [ 1.7094, 49.2413 ], [ 1.7121, 49.233 ], [ 1.7404, 49.2234 ], [ 1.7341, 49.2213 ], [ 1.7337, 49.211 ], [ 1.7148, 49.2073 ], [ 1.7155, 49.2027 ], [ 1.725, 49.2008 ], [ 1.7268, 49.1949 ], [ 1.7374, 49.1946 ], [ 1.7446, 49.1832 ], [ 1.7408, 49.1807 ], [ 1.7555, 49.1746 ], [ 1.7848, 49.1858 ], [ 1.791, 49.1799 ], [ 1.7955, 49.1853 ], [ 1.8026, 49.1849 ], [ 1.8036, 49.18 ], [ 1.8138, 49.178 ], [ 1.8117, 49.1736 ], [ 1.8269, 49.1796 ], [ 1.8343, 49.1756 ], [ 1.8365, 49.1645 ], [ 1.8445, 49.1704 ], [ 1.8582, 49.1699 ], [ 1.8768, 49.1753 ], [ 1.8826, 49.1625 ], [ 1.9245, 49.1735 ], [ 1.9498, 49.1703 ], [ 1.9627, 49.1746 ], [ 1.9734, 49.1839 ], [ 1.9904, 49.1767 ], [ 2.0018, 49.1759 ], [ 2.0218, 49.1887 ], [ 2.0336, 49.1881 ], [ 2.0475, 49.1986 ], [ 2.072, 49.2041 ], [ 2.0809, 49.2105 ], [ 2.0828, 49.2057 ], [ 2.0912, 49.2085 ], [ 2.0895, 49.1937 ], [ 2.0977, 49.1892 ], [ 2.1097, 49.1907 ], [ 2.1133, 49.1865 ], [ 2.1281, 49.1934 ], [ 2.1352, 49.1912 ], [ 2.137, 49.179 ], [ 2.147, 49.1881 ], [ 2.1646, 49.1797 ], [ 2.1577, 49.1726 ], [ 2.1688, 49.164 ], [ 2.1822, 49.1704 ], [ 2.1761, 49.176 ], [ 2.1955, 49.1732 ], [ 2.2187, 49.1807 ], [ 2.2354, 49.167 ], [ 2.2166, 49.1547 ], [ 2.2296, 49.1513 ], [ 2.2538, 49.1526 ], [ 2.2622, 49.1583 ], [ 2.2681, 49.1557 ], [ 2.2864, 49.1599 ], [ 2.2888, 49.1707 ], [ 2.2994, 49.1758 ], [ 2.3012, 49.1839 ], [ 2.3109, 49.1864 ], [ 2.3218, 49.1844 ], [ 2.3197, 49.1823 ], [ 2.3593, 49.1474 ], [ 2.3707, 49.1586 ], [ 2.3764, 49.159 ], [ 2.3913, 49.1494 ], [ 2.4131, 49.1523 ], [ 2.4409, 49.1458 ], [ 2.4354, 49.1339 ], [ 2.4582, 49.1411 ], [ 2.4615, 49.1359 ], [ 2.4716, 49.1354 ], [ 2.4755, 49.1283 ], [ 2.4992, 49.1223 ], [ 2.5033, 49.1176 ], [ 2.4899, 49.1064 ], [ 2.5311, 49.0996 ], [ 2.533, 49.1194 ], [ 2.5408, 49.1222 ], [ 2.5398, 49.1164 ], [ 2.5472, 49.1162 ], [ 2.549, 49.122 ], [ 2.557, 49.1238 ], [ 2.5515, 49.1126 ], [ 2.5582, 49.0984 ], [ 2.5787, 49.0919 ], [ 2.5789, 49.0845 ], [ 2.5905, 49.0797 ] ] ] } }
]
}
