{
"type": "FeatureCollection",
"name": "dep94",
"crs": { "type": "name", "properties": { "name": "urn:ogc:def:crs:OGC:1.3:CRS84" } },
"xy_coordinate_resolution": 0.0001,
"features": [
{ "type": "Feature", "properties": { "code": "94", "nom": "Val-de-Marne" }, "geometry": { "type": "Polygon", "coordinates": [ [ [ 2.3319, 48.817 ], [ 2.3629, 48.8161 ], [ 2.4025, 48.8295 ], [ 2.4111, 48.8249 ], [ 2.4292, 48.8236 ], [ 2.4375, 48.8182 ], [ 2.459, 48.8172 ], [ 2.4697, 48.8366 ], [ 2.4623, 48.8425 ], [ 2.4407, 48.846 ], [ 2.4335, 48.8411 ], [ 2.4218, 48.8444 ], [ 2.4221, 48.8358 ], [ 2.4122, 48.8345 ], [ 2.4163, 48.8492 ], [ 2.4292, 48.8487 ], [ 2.4352, 48.8533 ], [ 2.4471, 48.8512 ], [ 2.4539, 48.8555 ], [ 2.4673, 48.8567 ], [ 2.4682, 48.8607 ], [ 2.4961, 48.8608 ], [ 2.4965, 48.8561 ], [ 2.5054, 48.8572 ], [ 2.5137, 48.8502 ], [ 2.5248, 48.8491 ], [ 2.5287, 48.8438 ], [ 2.5344, 48.8453 ], [ 2.5382, 48.8368 ], [ 2.5474, 48.8361 ], [ 2.5722, 48.8237 ], [ 2.5701, 48.815 ], [ 2.5965, 48.8061 ], [ 2.5921, 48.7996 ], [ 2.5998, 48.795 ], [ 2.5856, 48.7786 ], [ 2.5868, 48.7736 ], [ 2.5928, 48.7712 ], [ 2.607, 48.7744 ], [ 2.6156, 48.7624 ], [ 2.5975, 48.7606 ], [ 2.6023, 48.7537 ], [ 2.5854, 48.7417 ], [ 2.5953, 48.7365 ], [ 2.5947, 48.7318 ], [ 2.5792, 48.7227 ], [ 2.5753, 48.7128 ], [ 2.5681, 48.709 ], [ 2.57, 48.7035 ], [ 2.5819, 48.6974 ], [ 2.5706, 48.6949 ], [ 2.5717, 48.692 ], [ 2.5504, 48.6885 ], [ 2.5416, 48.7001 ], [ 2.5362, 48.6972 ], [ 2.5359, 48.7008 ], [ 2.5311, 48.6998 ], [ 2.5295, 48.7079 ], [ 2.5173, 48.7159 ], [ 2.5157, 48.7289 ], [ 2.5062, 48.7357 ], [ 2.4788, 48.7276 ], [ 2.4679, 48.7266 ], [ 2.466, 48.7295 ], [ 2.46, 48.7238 ], [ 2.4542, 48.7247 ], [ 2.4542, 48.7204 ], [ 2.4484, 48.7218 ], [ 2.4488, 48.7148 ], [ 2.4401, 48.7254 ], [ 2.4143, 48.7178 ], [ 2.4101, 48.7257 ], [ 2.4022, 48.7266 ], [ 2.3975, 48.7212 ], [ 2.3707, 48.7202 ], [ 2.3694, 48.7461 ], [ 2.3629, 48.7461 ], [ 2.3564, 48.7382 ], [ 2.3417, 48.7405 ], [ 2.3269, 48.7512 ], [ 2.3227, 48.7481 ], [ 2.3087, 48.7554 ], [ 2.3266, 48.7787 ], [ 2.3251, 48.7863 ], [ 2.3187, 48.788 ], [ 2.326, 48.8067 ], [ 2.3179, 48.8084 ], [ 2.3255, 48.8095 ], [ 2.3319, 48.817 ] ] ] } }
]
}
