{
"type": "FeatureCollection",
"name": "dep93",
"crs": { "type": "name", "properties": { "name": "urn:ogc:def:crs:OGC:1.3:CRS84" } },
"xy_coordinate_resolution": 0.0001,
"features": [
{ "type": "Feature", "properties": { "code": "93", "nom": "Seine-Saint-Denis" }, "geometry": { "type": "Polygon", "coordinates": [ [ [ 2.5531, 49.0098 ], [ 2.5688, 49.0111 ], [ 2.5705, 49.0077 ], [ 2.5647, 49.0056 ], [ 2.5758, 49.0003 ], [ 2.5814, 48.9859 ], [ 2.5768, 48.9841 ], [ 2.5787, 48.9791 ], [ 2.5625, 48.9789 ], [ 2.5898, 48.9534 ], [ 2.5959, 48.9386 ], [ 2.6032, 48.9375 ], [ 2.6026, 48.9294 ], [ 2.5888, 48.9209 ], [ 2.5924, 48.9077 ], [ 2.5842, 48.9033 ], [ 2.587, 48.894 ], [ 2.5722, 48.8925 ], [ 2.5594, 48.8865 ], [ 2.5714, 48.8797 ], [ 2.5676, 48.8659 ], [ 2.5724, 48.8679 ], [ 2.5879, 48.8636 ], [ 2.5831, 48.8554 ], [ 2.5738, 48.8534 ], [ 2.5873, 48.8257 ], [ 2.5916, 48.8277 ], [ 2.5946, 48.8213 ], [ 2.5965, 48.8109 ], [ 2.5923, 48.8074 ], [ 2.5701, 48.815 ], [ 2.5722, 48.8237 ], [ 2.5474, 48.8361 ], [ 2.5382, 48.8368 ], [ 2.5344, 48.8453 ], [ 2.5287, 48.8438 ], [ 2.5248, 48.8491 ], [ 2.5137, 48.8502 ], [ 2.5054, 48.8572 ], [ 2.4965, 48.8561 ], [ 2.4961, 48.8608 ], [ 2.4682, 48.8607 ], [ 2.4673, 48.8567 ], [ 2.4539, 48.8555 ], [ 2.4471, 48.8512 ], [ 2.4352, 48.8533 ], [ 2.4292, 48.8487 ], [ 2.4163, 48.8492 ], [ 2.4124, 48.876 ], [ 2.4002, 48.8838 ], [ 2.3903, 48.901 ], [ 2.3199, 48.9005 ], [ 2.3138, 48.914 ], [ 2.3324, 48.9263 ], [ 2.3356, 48.9407 ], [ 2.327, 48.9454 ], [ 2.291, 48.951 ], [ 2.2882, 48.9584 ], [ 2.299, 48.9663 ], [ 2.333, 48.9555 ], [ 2.3441, 48.9682 ], [ 2.3539, 48.9657 ], [ 2.3587, 48.9727 ], [ 2.3662, 48.9741 ], [ 2.3845, 48.971 ], [ 2.4074, 48.9561 ], [ 2.4175, 48.9595 ], [ 2.4359, 48.9552 ], [ 2.4595, 48.9551 ], [ 2.4673, 48.9643 ], [ 2.4808, 48.9698 ], [ 2.4868, 48.9673 ], [ 2.4927, 48.9745 ], [ 2.496, 48.9727 ], [ 2.5148, 48.9823 ], [ 2.5126, 48.9859 ], [ 2.5189, 48.9877 ], [ 2.5322, 49.0052 ], [ 2.5493, 49.0031 ], [ 2.5531, 49.0098 ] ] ] } }
]
}
