{
"type": "FeatureCollection",
"name": "dep92",
"crs": { "type": "name", "properties": { "name": "urn:ogc:def:crs:OGC:1.3:CRS84" } },
"xy_coordinate_resolution": 0.0001,
"features": [
{ "type": "Feature", "properties": { "code": "92", "nom": "Hauts-de-Seine" }, "geometry": { "type": "Polygon", "coordinates": [ [ [ 2.291, 48.951 ], [ 2.327, 48.9454 ], [ 2.3356, 48.9407 ], [ 2.3324, 48.9263 ], [ 2.3138, 48.914 ], [ 2.3199, 48.9005 ], [ 2.2857, 48.8866 ], [ 2.2799, 48.8786 ], [ 2.2585, 48.8804 ], [ 2.2554, 48.8743 ], [ 2.2457, 48.8764 ], [ 2.2317, 48.8691 ], [ 2.2242, 48.8535 ], [ 2.2525, 48.8455 ], [ 2.2551, 48.8348 ], [ 2.2701, 48.833 ], [ 2.2675, 48.8278 ], [ 2.2791, 48.8325 ], [ 2.3325, 48.8183 ], [ 2.3255, 48.8095 ], [ 2.3179, 48.8084 ], [ 2.326, 48.8067 ], [ 2.3187, 48.788 ], [ 2.3251, 48.7863 ], [ 2.3266, 48.7787 ], [ 2.3087, 48.7554 ], [ 2.3207, 48.7488 ], [ 2.3143, 48.7433 ], [ 2.313, 48.7382 ], [ 2.3187, 48.737 ], [ 2.3144, 48.7304 ], [ 2.3079, 48.7293 ], [ 2.3038, 48.7295 ], [ 2.3025, 48.7408 ], [ 2.2799, 48.7327 ], [ 2.2754, 48.7397 ], [ 2.2854, 48.7475 ], [ 2.2762, 48.7567 ], [ 2.2694, 48.7577 ], [ 2.269, 48.762 ], [ 2.247, 48.7608 ], [ 2.233, 48.7662 ], [ 2.2233, 48.786 ], [ 2.2089, 48.7876 ], [ 2.2116, 48.7913 ], [ 2.2026, 48.7984 ], [ 2.1829, 48.7972 ], [ 2.187, 48.8007 ], [ 2.182, 48.8006 ], [ 2.1748, 48.8151 ], [ 2.1627, 48.8124 ], [ 2.1516, 48.817 ], [ 2.1459, 48.836 ], [ 2.1509, 48.848 ], [ 2.1599, 48.8475 ], [ 2.1503, 48.858 ], [ 2.1571, 48.8696 ], [ 2.1485, 48.8685 ], [ 2.1635, 48.8832 ], [ 2.1684, 48.8951 ], [ 2.2061, 48.9109 ], [ 2.2608, 48.9434 ], [ 2.291, 48.951 ] ] ] } }
]
}
