{
"type": "FeatureCollection",
"name": "dep91",
"crs": { "type": "name", "properties": { "name": "urn:ogc:def:crs:OGC:1.3:CRS84" } },
"xy_coordinate_resolution": 0.0001,
"features": [
{ "type": "Feature", "properties": { "code": "91", "nom": "Essonne" }, "geometry": { "type": "Polygon", "coordinates": [ [ [ 2.2266, 48.7761 ], [ 2.233, 48.7662 ], [ 2.247, 48.7608 ], [ 2.269, 48.762 ], [ 2.2694, 48.7577 ], [ 2.2762, 48.7567 ], [ 2.2854, 48.7475 ], [ 2.2754, 48.7397 ], [ 2.2799, 48.7327 ], [ 2.3025, 48.7408 ], [ 2.3038, 48.7295 ], [ 2.3144, 48.7304 ], [ 2.3187, 48.737 ], [ 2.313, 48.7382 ], [ 2.3143, 48.7433 ], [ 2.3269, 48.7512 ], [ 2.3371, 48.7423 ], [ 2.3564, 48.7382 ], [ 2.3629, 48.7461 ], [ 2.3694, 48.7461 ], [ 2.3707, 48.7202 ], [ 2.3975, 48.7212 ], [ 2.4022, 48.7266 ], [ 2.4101, 48.7257 ], [ 2.4143, 48.7178 ], [ 2.4401, 48.7254 ], [ 2.4488, 48.7148 ], [ 2.4484, 48.7218 ], [ 2.4542, 48.7204 ], [ 2.4542, 48.7247 ], [ 2.46, 48.7238 ], [ 2.466, 48.7295 ], [ 2.4679, 48.7266 ], [ 2.4788, 48.7276 ], [ 2.5062, 48.7357 ], [ 2.5157, 48.7289 ], [ 2.5173, 48.7159 ], [ 2.5295, 48.7079 ], [ 2.5311, 48.6998 ], [ 2.5359, 48.7008 ], [ 2.5362, 48.6972 ], [ 2.5416, 48.7001 ], [ 2.5504, 48.6885 ], [ 2.5717, 48.692 ], [ 2.582, 48.6896 ], [ 2.5858, 48.679 ], [ 2.571, 48.6749 ], [ 2.5685, 48.6667 ], [ 2.5553, 48.676 ], [ 2.5349, 48.662 ], [ 2.5382, 48.6597 ], [ 2.5336, 48.6573 ], [ 2.548, 48.6497 ], [ 2.5419, 48.6462 ], [ 2.5414, 48.6324 ], [ 2.5253, 48.6331 ], [ 2.5157, 48.6289 ], [ 2.5268, 48.6214 ], [ 2.5258, 48.6131 ], [ 2.5407, 48.6114 ], [ 2.5438, 48.6039 ], [ 2.5409, 48.5942 ], [ 2.5182, 48.5843 ], [ 2.5218, 48.5732 ], [ 2.5316, 48.5737 ], [ 2.5306, 48.5709 ], [ 2.5192, 48.5701 ], [ 2.5198, 48.5625 ], [ 2.4993, 48.5454 ], [ 2.4993, 48.5429 ], [ 2.5108, 48.5431 ], [ 2.4982, 48.5276 ], [ 2.4976, 48.5172 ], [ 2.5087, 48.5168 ], [ 2.509, 48.5081 ], [ 2.5138, 48.5095 ], [ 2.5154, 48.5061 ], [ 2.5101, 48.4884 ], [ 2.5019, 48.4848 ], [ 2.5022, 48.4721 ], [ 2.5072, 48.4697 ], [ 2.5019, 48.4669 ], [ 2.5059, 48.4612 ], [ 2.4979, 48.4573 ], [ 2.5073, 48.451 ], [ 2.5002, 48.4405 ], [ 2.5074, 48.438 ], [ 2.505, 48.4299 ], [ 2.5174, 48.4275 ], [ 2.5469, 48.4017 ], [ 2.5216, 48.4049 ], [ 2.5029, 48.3929 ], [ 2.4986, 48.3968 ], [ 2.4835, 48.3973 ], [ 2.4738, 48.3904 ], [ 2.4848, 48.3834 ], [ 2.4692, 48.3764 ], [ 2.4515, 48.3749 ], [ 2.4476, 48.3727 ], [ 2.4506, 48.3672 ], [ 2.443, 48.3695 ], [ 2.4298, 48.362 ], [ 2.444, 48.3573 ], [ 2.4407, 48.3516 ], [ 2.4347, 48.3542 ], [ 2.4298, 48.348 ], [ 2.4338, 48.3345 ], [ 2.4266, 48.3376 ], [ 2.4023, 48.333 ], [ 2.3932, 48.3363 ], [ 2.3936, 48.3268 ], [ 2.4027, 48.3207 ], [ 2.4, 48.3157 ], [ 2.3863, 48.3118 ], [ 2.37, 48.3087 ], [ 2.3671, 48.3121 ], [ 2.3582, 48.3085 ], [ 2.3535, 48.3144 ], [ 2.342, 48.3168 ], [ 2.3348, 48.3274 ], [ 2.3282, 48.3264 ], [ 2.3276, 48.333 ], [ 2.3264, 48.3297 ], [ 2.3237, 48.3324 ], [ 2.3126, 48.3308 ], [ 2.2957, 48.3081 ], [ 2.2669, 48.3147 ], [ 2.2536, 48.3002 ], [ 2.2452, 48.2984 ], [ 2.2493, 48.3163 ], [ 2.2381, 48.3164 ], [ 2.2462, 48.3313 ], [ 2.2377, 48.3321 ], [ 2.2343, 48.3279 ], [ 2.2276, 48.3296 ], [ 2.2239, 48.3364 ], [ 2.2158, 48.3342 ], [ 2.2071, 48.3449 ], [ 2.2022, 48.3446 ], [ 2.2029, 48.3389 ], [ 2.1879, 48.3324 ], [ 2.1807, 48.3117 ], [ 2.1717, 48.3159 ], [ 2.169, 48.3127 ], [ 2.1523, 48.3159 ], [ 2.1557, 48.3045 ], [ 2.161, 48.3045 ], [ 2.1637, 48.2984 ], [ 2.1106, 48.297 ], [ 2.1137, 48.3073 ], [ 2.1062, 48.3076 ], [ 2.0853, 48.294 ], [ 2.0527, 48.2955 ], [ 2.0413, 48.2844 ], [ 2.0374, 48.2882 ], [ 2.025, 48.2892 ], [ 2.0116, 48.2848 ], [ 1.9753, 48.2872 ], [ 1.9745, 48.2929 ], [ 1.9804, 48.2923 ], [ 1.9824, 48.2955 ], [ 1.9652, 48.2952 ], [ 1.9588, 48.3066 ], [ 1.9735, 48.3159 ], [ 1.9791, 48.3127 ], [ 1.9807, 48.3188 ], [ 1.9745, 48.3232 ], [ 1.9823, 48.3283 ], [ 1.9687, 48.3413 ], [ 1.9754, 48.3448 ], [ 1.9733, 48.3558 ], [ 1.989, 48.3636 ], [ 1.978, 48.3689 ], [ 1.9803, 48.3783 ], [ 1.9667, 48.3804 ], [ 1.9782, 48.402 ], [ 1.9464, 48.4063 ], [ 1.9321, 48.4034 ], [ 1.9284, 48.4061 ], [ 1.9327, 48.4107 ], [ 1.9259, 48.4127 ], [ 1.9276, 48.4163 ], [ 1.9319, 48.4163 ], [ 1.9322, 48.4204 ], [ 1.9396, 48.4196 ], [ 1.9363, 48.4348 ], [ 1.9429, 48.4411 ], [ 1.933, 48.442 ], [ 1.9295, 48.457 ], [ 1.9181, 48.4607 ], [ 1.9146, 48.4694 ], [ 1.9251, 48.4812 ], [ 1.9326, 48.4803 ], [ 1.9343, 48.4958 ], [ 1.9466, 48.5104 ], [ 1.9458, 48.5178 ], [ 1.9631, 48.5284 ], [ 1.9785, 48.5258 ], [ 1.9778, 48.533 ], [ 1.9712, 48.538 ], [ 1.9692, 48.5322 ], [ 1.9344, 48.5473 ], [ 1.9363, 48.5608 ], [ 1.9672, 48.5603 ], [ 1.9788, 48.5536 ], [ 1.9846, 48.5584 ], [ 1.9986, 48.5553 ], [ 2.0176, 48.5576 ], [ 2.0159, 48.5689 ], [ 2.0227, 48.5799 ], [ 2.0357, 48.5889 ], [ 2.0316, 48.594 ], [ 2.0343, 48.6053 ], [ 2.0548, 48.608 ], [ 2.0609, 48.6157 ], [ 2.0461, 48.6215 ], [ 2.0406, 48.6309 ], [ 2.0345, 48.6318 ], [ 2.0381, 48.6408 ], [ 2.0163, 48.641 ], [ 2.0188, 48.6451 ], [ 2.01, 48.6483 ], [ 2.0113, 48.6599 ], [ 2.0282, 48.6573 ], [ 2.0339, 48.6794 ], [ 2.0424, 48.68 ], [ 2.0457, 48.6876 ], [ 2.065, 48.6864 ], [ 2.0685, 48.6902 ], [ 2.0821, 48.6854 ], [ 2.0888, 48.6981 ], [ 2.0978, 48.694 ], [ 2.0969, 48.7028 ], [ 2.1103, 48.7144 ], [ 2.1062, 48.7193 ], [ 2.1125, 48.7229 ], [ 2.099, 48.7339 ], [ 2.1025, 48.7376 ], [ 2.1195, 48.7423 ], [ 2.135, 48.7371 ], [ 2.1398, 48.7422 ], [ 2.1369, 48.7455 ], [ 2.1512, 48.7545 ], [ 2.161, 48.7499 ], [ 2.1735, 48.7579 ], [ 2.1906, 48.7551 ], [ 2.1931, 48.7647 ], [ 2.186, 48.7725 ], [ 2.1911, 48.7751 ], [ 2.2011, 48.7757 ], [ 2.2007, 48.7721 ], [ 2.2099, 48.7692 ], [ 2.2123, 48.7717 ], [ 2.229, 48.7703 ], [ 2.2266, 48.7761 ] ] ] } }
]
}
