{
"type": "FeatureCollection",
"name": "dep90",
"crs": { "type": "name", "properties": { "name": "urn:ogc:def:crs:OGC:1.3:CRS84" } },
"xy_coordinate_resolution": 0.0001,
"features": [
{ "type": "Feature", "properties": { "code": "90", "nom": "Territoire de Belfort" }, "geometry": { "type": "Polygon", "coordinates": [ [ [ 6.8235, 47.8131 ], [ 6.8431, 47.825 ], [ 6.8462, 47.8229 ], [ 6.841, 47.819 ], [ 6.8502, 47.8071 ], [ 6.8485, 47.8019 ], [ 6.8601, 47.7944 ], [ 6.867, 47.7833 ], [ 6.8926, 47.7775 ], [ 6.914, 47.7772 ], [ 6.9268, 47.7695 ], [ 6.9404, 47.7716 ], [ 6.9435, 47.7665 ], [ 6.9723, 47.7515 ], [ 7.013, 47.7413 ], [ 7.016, 47.7432 ], [ 7.0215, 47.7333 ], [ 7.0374, 47.7216 ], [ 7.0265, 47.701 ], [ 7.0337, 47.6996 ], [ 7.0401, 47.6857 ], [ 7.048, 47.6841 ], [ 7.0379, 47.6745 ], [ 7.0451, 47.6694 ], [ 7.0342, 47.6611 ], [ 7.0392, 47.6506 ], [ 7.0176, 47.6499 ], [ 7.0192, 47.6412 ], [ 7.0121, 47.6393 ], [ 7.0169, 47.6272 ], [ 7.0142, 47.6257 ], [ 7.0113, 47.6304 ], [ 7.0059, 47.6289 ], [ 7.0105, 47.605 ], [ 7.0059, 47.6024 ], [ 7.0193, 47.5961 ], [ 7.0216, 47.5938 ], [ 7.0157, 47.5918 ], [ 7.0196, 47.5885 ], [ 7.0339, 47.5941 ], [ 7.0398, 47.6011 ], [ 7.0544, 47.5985 ], [ 7.0659, 47.6013 ], [ 7.0704, 47.6007 ], [ 7.0702, 47.5963 ], [ 7.074, 47.5989 ], [ 7.0811, 47.5961 ], [ 7.0942, 47.5736 ], [ 7.1055, 47.5689 ], [ 7.1069, 47.5505 ], [ 7.1336, 47.539 ], [ 7.1435, 47.5246 ], [ 7.1343, 47.505 ], [ 7.1111, 47.4949 ], [ 7.0941, 47.4954 ], [ 7.0759, 47.4882 ], [ 7.072, 47.4921 ], [ 7.0366, 47.4975 ], [ 7.021, 47.5044 ], [ 6.9834, 47.4942 ], [ 6.9887, 47.4867 ], [ 6.9864, 47.4768 ], [ 6.9918, 47.4664 ], [ 7.0005, 47.4672 ], [ 6.9975, 47.4563 ], [ 7.0019, 47.4539 ], [ 6.9891, 47.4477 ], [ 6.97, 47.4469 ], [ 6.9661, 47.4374 ], [ 6.9574, 47.4336 ], [ 6.939, 47.4338 ], [ 6.9328, 47.4404 ], [ 6.931, 47.4575 ], [ 6.922, 47.4625 ], [ 6.9204, 47.4684 ], [ 6.9085, 47.4728 ], [ 6.9161, 47.4775 ], [ 6.9086, 47.4952 ], [ 6.9302, 47.5004 ], [ 6.9352, 47.4856 ], [ 6.9427, 47.4849 ], [ 6.9477, 47.4897 ], [ 6.9454, 47.5052 ], [ 6.9497, 47.5087 ], [ 6.9365, 47.5179 ], [ 6.9076, 47.5259 ], [ 6.9163, 47.5311 ], [ 6.9057, 47.548 ], [ 6.8898, 47.5501 ], [ 6.8852, 47.5549 ], [ 6.8608, 47.5475 ], [ 6.8167, 47.5479 ], [ 6.807, 47.5628 ], [ 6.8103, 47.5694 ], [ 6.8217, 47.5733 ], [ 6.802, 47.5838 ], [ 6.8023, 47.5905 ], [ 6.7916, 47.5962 ], [ 6.7871, 47.6101 ], [ 6.7776, 47.6156 ], [ 6.7804, 47.6253 ], [ 6.7894, 47.6256 ], [ 6.801, 47.636 ], [ 6.7973, 47.6449 ], [ 6.7798, 47.6568 ], [ 6.7817, 47.6626 ], [ 6.7761, 47.6681 ], [ 6.7819, 47.6877 ], [ 6.7778, 47.6982 ], [ 6.7705, 47.7016 ], [ 6.7726, 47.7116 ], [ 6.7566, 47.7245 ], [ 6.761, 47.7301 ], [ 6.7576, 47.7479 ], [ 6.7847, 47.7814 ], [ 6.8113, 47.7943 ], [ 6.8249, 47.8091 ], [ 6.8235, 47.8131 ] ] ] } }
]
}
